{
  "type": "FeatureCollection",
  "features": [
    {
      "type": "Feature",
      "id": "node/1941163792",
      "properties": {
        "name": "ایستگاه راه آهن مزار شریفمطار پایانه",
        "name:en": "Airport Terminal Mazar-i-Sharif",
        "public_transport": "station",
        "railway": "station",
        "train": "yes",
        "id": "node/1941163792"
      },
      "geometry": {
        "type": "Point",
        "coordinates": [
          67.2396106,
          36.7175933
        ]
      }
    },
    {
      "type": "Feature",
      "id": "node/8165014512",
      "properties": {
        "name": "غوریان",
        "name:en": "Ghurian",
        "name:fa": "غوریان",
        "name:ps": "غوریان",
        "public_transport": "stop_position",
        "railway": "stop",
        "train": "yes",
        "id": "node/8165014512"
      },
      "geometry": {
        "type": "Point",
        "coordinates": [
          61.4829013,
          34.4459479
        ]
      }
    },
    {
      "type": "Feature",
      "id": "node/8372006034",
      "properties": {
        "name": "ایستگاه راه آهن شمتیغ افغانستان",
        "public_transport": "station",
        "railway": "station",
        "train": "yes",
        "id": "node/8372006034"
      },
      "geometry": {
        "type": "Point",
        "coordinates": [
          61.0128906,
          34.2850273
        ]
      }
    },
    {
      "type": "Feature",
      "id": "node/8373187599",
      "properties": {
        "name": "ایستگاه راه آهن روزنک",
        "name:en": "Rosnak",
        "name:nl": "Rahzanak",
        "public_transport": "station",
        "railway": "station",
        "train": "yes",
        "id": "node/8373187599"
      },
      "geometry": {
        "type": "Point",
        "coordinates": [
          61.482774,
          34.4460808
        ]
      }
    },
    {
      "type": "Feature",
      "id": "node/8373224122",
      "properties": {
        "name": "ایستگاه راه آهن غوریان",
        "public_transport": "station",
        "railway": "station",
        "train": "yes",
        "id": "node/8373224122"
      },
      "geometry": {
        "type": "Point",
        "coordinates": [
          61.2045782,
          34.3516169
        ]
      }
    },
    {
      "type": "Feature",
      "id": "node/9014392563",
      "properties": {
        "name": "حیرتان",
        "name:en": "Hairitan",
        "railway": "station",
        "id": "node/9014392563"
      },
      "geometry": {
        "type": "Point",
        "coordinates": [
          67.4192387,
          37.2150829
        ]
      }
    },
    {
      "type": "Feature",
      "id": "node/9014392572",
      "properties": {
        "name": "Jairatan",
        "name:en": "Jairatan",
        "railway": "halt",
        "id": "node/9014392572"
      },
      "geometry": {
        "type": "Point",
        "coordinates": [
          67.3200667,
          37.1024343
        ]
      }
    },
    {
      "type": "Feature",
      "id": "node/9014392589",
      "properties": {
        "name": "Taza Omid",
        "name:en": "Taza Omid",
        "railway": "station",
        "id": "node/9014392589"
      },
      "geometry": {
        "type": "Point",
        "coordinates": [
          67.3293471,
          36.9262022
        ]
      }
    },
    {
      "type": "Feature",
      "id": "node/9014392603",
      "properties": {
        "name": "ایستگاه راه آهن مزار شریف",
        "name:en": "Mazar-i-Sharif",
        "public_transport": "station",
        "railway": "station",
        "train": "yes",
        "id": "node/9014392603"
      },
      "geometry": {
        "type": "Point",
        "coordinates": [
          67.2844496,
          36.7265324
        ]
      }
    }
  ]
}