{
  "type": "FeatureCollection",
  "features": [
    {
      "type": "Feature",
      "id": "node/618738557",
      "properties": {
        "name": "Սանահին",
        "name:en": "Sanahin",
        "name:hy": "Սանահին",
        "public_transport": "station",
        "railway": "station",
        "train": "yes",
        "id": "node/618738557"
      },
      "geometry": {
        "type": "Point",
        "coordinates": [
          44.6185203,
          41.0772878
        ]
      }
    },
    {
      "type": "Feature",
      "id": "node/618739635",
      "properties": {
        "esr:user": "564702",
        "name": "Այրում",
        "name:en": "Ayrum",
        "name:hy": "Այրում",
        "name:ru": "Айрум",
        "public_transport": "station",
        "railway": "station",
        "train": "yes",
        "uic_ref": "5800507",
        "wikidata": "Q4058980",
        "id": "node/618739635"
      },
      "geometry": {
        "type": "Point",
        "coordinates": [
          44.8937791,
          41.1897147
        ]
      }
    },
    {
      "type": "Feature",
      "id": "node/618760986",
      "properties": {
        "esr:user": "567306",
        "name": "Էջմիածին",
        "name:en": "Echmiatsin",
        "name:ko": "에체미하진",
        "name:ru": "Эчмиадзин",
        "public_transport": "station",
        "railway": "station",
        "train": "yes",
        "uic_ref": "5800711",
        "id": "node/618760986"
      },
      "geometry": {
        "type": "Point",
        "coordinates": [
          44.2660677,
          40.0690231
        ]
      }
    },
    {
      "type": "Feature",
      "id": "node/618761257",
      "properties": {
        "esr:user": "566708",
        "name": "Քարակերտ",
        "name:en": "Qarakert",
        "name:hy": "Քարակերտ",
        "name:ru": "Каракерт",
        "public_transport": "station",
        "railway": "station",
        "train": "yes",
        "uic_ref": "5800365",
        "id": "node/618761257"
      },
      "geometry": {
        "type": "Point",
        "coordinates": [
          43.8222832,
          40.2488047
        ]
      }
    },
    {
      "type": "Feature",
      "id": "node/618761511",
      "properties": {
        "esr:user": "566905",
        "name": "Արաքս",
        "name:en": "Araks",
        "name:ru": "Аракс",
        "public_transport": "station",
        "railway": "station",
        "train": "yes",
        "wikidata": "Q19689155",
        "id": "node/618761511"
      },
      "geometry": {
        "type": "Point",
        "coordinates": [
          43.9186797,
          40.1839981
        ]
      }
    },
    {
      "type": "Feature",
      "id": "node/618761612",
      "properties": {
        "esr:user": "566801",
        "name": "Դալարիկ",
        "name:en": "Dalarik",
        "name:ru": "Даларик",
        "public_transport": "station",
        "railway": "station",
        "train": "yes",
        "uic_ref": "5800492",
        "id": "node/618761612"
      },
      "geometry": {
        "type": "Point",
        "coordinates": [
          43.8769284,
          40.2304001
        ]
      }
    },
    {
      "type": "Feature",
      "id": "node/618763488",
      "properties": {
        "name": "Բագրավան",
        "name:en": "Bagravan",
        "name:ru": "Баграван",
        "public_transport": "station",
        "railway": "halt",
        "train": "yes",
        "id": "node/618763488"
      },
      "geometry": {
        "type": "Point",
        "coordinates": [
          43.6661546,
          40.4792939
        ]
      }
    },
    {
      "type": "Feature",
      "id": "node/618763898",
      "properties": {
        "esr:user": "567503",
        "name": "Բայանդուր",
        "name:en": "Bayandur",
        "name:hy": "Բայանդուր",
        "name:ru": "Баяндур",
        "public_transport": "station",
        "railway": "station",
        "train": "yes",
        "uic_ref": "5800708",
        "wikidata": "Q4080352",
        "id": "node/618763898"
      },
      "geometry": {
        "type": "Point",
        "coordinates": [
          43.7724599,
          40.6938127
        ]
      }
    },
    {
      "type": "Feature",
      "id": "node/618765608",
      "properties": {
        "name": "Սպիտակ",
        "name:en": "Spitak",
        "name:hy": "Սպիտակ",
        "name:ru": "Спитак",
        "public_transport": "station",
        "railway": "yard",
        "train": "yes",
        "id": "node/618765608"
      },
      "geometry": {
        "type": "Point",
        "coordinates": [
          44.2702147,
          40.8373541
        ]
      }
    },
    {
      "type": "Feature",
      "id": "node/1185035453",
      "properties": {
        "esr:user": "566500",
        "name": "Անի",
        "name:en": "Ani",
        "name:ru": "Ани",
        "public_transport": "station",
        "railway": "station",
        "train": "yes",
        "uic_ref": "5800703",
        "id": "node/1185035453"
      },
      "geometry": {
        "type": "Point",
        "coordinates": [
          43.6432768,
          40.4653279
        ]
      }
    },
    {
      "type": "Feature",
      "id": "node/1308725713",
      "properties": {
        "esr:user": "566619",
        "name": "Արտենի",
        "name:en": "Arteni",
        "name:ru": "Артени",
        "public_transport": "station",
        "railway": "station",
        "train": "yes",
        "uic_ref": "5800713",
        "id": "node/1308725713"
      },
      "geometry": {
        "type": "Point",
        "coordinates": [
          43.7683849,
          40.3004079
        ]
      }
    },
    {
      "type": "Feature",
      "id": "node/1411538807",
      "properties": {
        "esr:user": "565809",
        "int_name": "Gyumri",
        "name": "Գյումրի",
        "name:de": "Gjumri",
        "name:en": "Gyumri",
        "name:fr": "Gyumri",
        "name:hy": "Գյումրու երկաթուղային հանգույց",
        "name:ka": "გიუმრი",
        "name:ku": "Gumrî",
        "name:lt": "Giumris",
        "name:ru": "Гюмри",
        "public_transport": "station",
        "railway": "station",
        "train": "yes",
        "uic_ref": "5800390",
        "wikidata": "Q4153265",
        "id": "node/1411538807"
      },
      "geometry": {
        "type": "Point",
        "coordinates": [
          43.860237,
          40.7876084
        ]
      }
    },
    {
      "type": "Feature",
      "id": "node/1431687901",
      "properties": {
        "esr:user": "567400",
        "name": "Մասիս",
        "name:en": "Masis",
        "name:ru": "Масис",
        "public_transport": "station",
        "railway": "station",
        "train": "yes",
        "uic_ref": "5800485",
        "wikidata": "Q4283803",
        "id": "node/1431687901"
      },
      "geometry": {
        "type": "Point",
        "coordinates": [
          44.4105494,
          40.0619799
        ]
      }
    },
    {
      "type": "Feature",
      "id": "node/1946135127",
      "properties": {
        "esr:user": "566604",
        "name": "Արագած",
        "name:en": "Aragats",
        "name:ru": "Арагац",
        "public_transport": "station",
        "railway": "station",
        "train": "yes",
        "uic_ref": "5800704",
        "id": "node/1946135127"
      },
      "geometry": {
        "type": "Point",
        "coordinates": [
          43.6647941,
          40.3254161
        ]
      }
    },
    {
      "type": "Feature",
      "id": "node/3063665304",
      "properties": {
        "name": "Թումանյան",
        "name:en": "Tumanyan",
        "name:hy": "Թումանյան",
        "name:ru": "Туманян",
        "public_transport": "station",
        "railway": "yard",
        "train": "yes",
        "id": "node/3063665304"
      },
      "geometry": {
        "type": "Point",
        "coordinates": [
          44.6362678,
          41.0093634
        ]
      }
    },
    {
      "type": "Feature",
      "id": "node/3063665859",
      "properties": {
        "name": "Փամբակ",
        "name:en": "Pambak",
        "name:hy": "Փամբակ",
        "name:ru": "Памбак",
        "public_transport": "station",
        "railway": "station",
        "train": "yes",
        "id": "node/3063665859"
      },
      "geometry": {
        "type": "Point",
        "coordinates": [
          44.5588155,
          40.8292662
        ]
      }
    },
    {
      "type": "Feature",
      "id": "node/3063675927",
      "properties": {
        "name": "Արմավիր",
        "name:en": "Armavir",
        "public_transport": "station",
        "railway": "station",
        "train": "yes",
        "wikidata": "Q4069525",
        "id": "node/3063675927"
      },
      "geometry": {
        "type": "Point",
        "coordinates": [
          44.031846,
          40.1459096
        ]
      }
    },
    {
      "type": "Feature",
      "id": "node/3063682394",
      "properties": {
        "name": "Սովետական",
        "name:en": "Sovetakan",
        "public_transport": "station",
        "railway": "station",
        "train": "yes",
        "id": "node/3063682394"
      },
      "geometry": {
        "type": "Point",
        "coordinates": [
          44.1526425,
          40.1153195
        ]
      }
    },
    {
      "type": "Feature",
      "id": "node/3063684245",
      "properties": {
        "name": "Նորագավիթ",
        "name:en": "Noragavit",
        "public_transport": "station",
        "railway": "station",
        "train": "yes",
        "id": "node/3063684245"
      },
      "geometry": {
        "type": "Point",
        "coordinates": [
          44.4640192,
          40.1133732
        ]
      }
    },
    {
      "type": "Feature",
      "id": "node/3064603324",
      "properties": {
        "esr:user": "566407",
        "int_name": "Aghin",
        "name": "Աղին",
        "name:en": "Aghin",
        "name:hy": "Աղին",
        "name:ru": "Ахин",
        "public_transport": "station",
        "railway": "station",
        "train": "yes",
        "uic_ref": "5800702",
        "wikidata": "Q4056928",
        "id": "node/3064603324"
      },
      "geometry": {
        "type": "Point",
        "coordinates": [
          43.7141528,
          40.6075503
        ]
      }
    },
    {
      "type": "Feature",
      "id": "node/3843054474",
      "properties": {
        "esr:user": "565300",
        "name": "Վանաձոր",
        "name:en": "Vanadzor",
        "name:hy": "Վանաձոր",
        "name:ru": "Ванадзор",
        "public_transport": "station",
        "railway": "station",
        "train": "yes",
        "uic_ref": "5800620",
        "wikidata": "Q4103274",
        "id": "node/3843054474"
      },
      "geometry": {
        "type": "Point",
        "coordinates": [
          44.486482,
          40.8159468
        ]
      }
    },
    {
      "type": "Feature",
      "id": "node/3895093679",
      "properties": {
        "name": "Գետափ",
        "name:en": "Getap",
        "public_transport": "station",
        "railway": "yard",
        "train": "yes",
        "id": "node/3895093679"
      },
      "geometry": {
        "type": "Point",
        "coordinates": [
          43.6276898,
          40.3955434
        ]
      }
    },
    {
      "type": "Feature",
      "id": "node/3895093710",
      "properties": {
        "name": "Կաքավաձոր",
        "name:en": "Kakavadzor",
        "public_transport": "station",
        "railway": "yard",
        "train": "yes",
        "id": "node/3895093710"
      },
      "geometry": {
        "type": "Point",
        "coordinates": [
          44.7517729,
          40.5730197
        ]
      }
    },
    {
      "type": "Feature",
      "id": "node/3895120717",
      "properties": {
        "name": "Մարալիկ",
        "name:en": "Maralik",
        "name:hy": "Մարալիկ",
        "public_transport": "station",
        "railway": "yard",
        "train": "yes",
        "id": "node/3895120717"
      },
      "geometry": {
        "type": "Point",
        "coordinates": [
          43.8767983,
          40.5793702
        ]
      }
    },
    {
      "type": "Feature",
      "id": "node/5103246923",
      "properties": {
        "name": "Արջուտ",
        "name:en": "Archut",
        "name:hy": "Արջուտ",
        "name:ru": "Арчут",
        "public_transport": "station",
        "railway": "yard",
        "train": "yes",
        "wikidata": "Q4070980",
        "id": "node/5103246923"
      },
      "geometry": {
        "type": "Point",
        "coordinates": [
          44.3870777,
          40.8471693
        ]
      }
    },
    {
      "type": "Feature",
      "id": "node/5377634303",
      "properties": {
        "layer": "-2",
        "name": "Հանրապետության Հրապարակ",
        "name:de": "Platz der Republik",
        "name:en": "Republic Square",
        "name:ru": "Площадь Республики",
        "old_name:ru": "Площадь Ленина",
        "operator": "Ереванский метрополитен им. Карена Демирчяна",
        "public_transport": "station",
        "railway": "station",
        "station": "subway",
        "subway": "yes",
        "train": "yes",
        "wikidata": "Q3390443",
        "wikipedia": "ru:Площадь Республики (станция метро)",
        "id": "node/5377634303"
      },
      "geometry": {
        "type": "Point",
        "coordinates": [
          44.51586,
          40.1781892
        ]
      }
    },
    {
      "type": "Feature",
      "id": "node/5377634307",
      "properties": {
        "name": "Բարեկամություն",
        "name:de": "Barekamutjun",
        "name:en": "Barekamutyun",
        "name:ru": "Дружба",
        "operator": "Ереванский метрополитен им. Карена Демирчяна",
        "public_transport": "station",
        "railway": "station",
        "station": "subway",
        "train": "yes",
        "transport": "subway",
        "wikidata": "Q2061891",
        "id": "node/5377634307"
      },
      "geometry": {
        "type": "Point",
        "coordinates": [
          44.4934281,
          40.1977308
        ]
      }
    },
    {
      "type": "Feature",
      "id": "node/7452091654",
      "properties": {
        "int_name": "Isahakyan",
        "name": "Իսահակյան",
        "name:en": "Isahakyan",
        "name:hy": "Իսահակյան",
        "name:ru": "Исаакян",
        "public_transport": "station",
        "railway": "halt",
        "train": "yes",
        "id": "node/7452091654"
      },
      "geometry": {
        "type": "Point",
        "coordinates": [
          43.7258902,
          40.6193449
        ]
      }
    },
    {
      "type": "Feature",
      "id": "node/7553411738",
      "properties": {
        "int_name": "Վահագնաձոր",
        "int_name:en": "Vahagnadzor",
        "name": "Շահալի",
        "name:en": "Shahali",
        "public_transport": "station",
        "railway": "station",
        "train": "yes",
        "id": "node/7553411738"
      },
      "geometry": {
        "type": "Point",
        "coordinates": [
          44.5938925,
          40.8863173
        ]
      }
    },
    {
      "type": "Feature",
      "id": "node/7564242877",
      "properties": {
        "esr:user": "567804",
        "name": "Երևան",
        "name:de": "Jerewan",
        "name:en": "Yerevan",
        "name:hy": "Երևան",
        "name:ru": "Ереван",
        "public_transport": "station",
        "railway": "station",
        "train": "yes",
        "uic_ref": "5800001",
        "wikidata": "Q4176210",
        "id": "node/7564242877"
      },
      "geometry": {
        "type": "Point",
        "coordinates": [
          44.5082278,
          40.1553081
        ]
      }
    }
  ]
}