{
  "type": "FeatureCollection",
  "features": [
    {
      "type": "Feature",
      "id": "node/27184541",
      "properties": {
        "esr:user": "140210",
        "gauge": "1520",
        "int_name": "Minsk Pasažyrski",
        "name": "Минск-Пассажирский",
        "name:be": "Мінск Пасажырскі",
        "name:eo": "Minsk-Pasaĵirski",
        "name:ru": "Минск-Пассажирский",
        "name:ru-Latn": "Minsk-Passajirski",
        "network": "Белорусская ж/д",
        "public_transport": "station",
        "railway": "station",
        "railway:ref:DB": "ZWM",
        "train": "yes",
        "uic_name": "Minsk(BY)",
        "uic_ref": "2100001",
        "wheelchair": "yes",
        "id": "node/27184541"
      },
      "geometry": {
        "type": "Point",
        "coordinates": [
          27.5489449,
          53.8904864
        ]
      }
    },
    {
      "type": "Feature",
      "id": "node/119298101",
      "properties": {
        "alt_name": "Боровуха",
        "alt_name:ru": "Боровуха",
        "esr:user": "162116",
        "int_name": "Baravucha",
        "name": "Баравуха",
        "name:be": "Баравуха",
        "name:ru": "Баравуха",
        "public_transport": "station",
        "railway": "station",
        "train": "yes",
        "uic_ref": "2100032",
        "wikidata": "Q28380407",
        "wikipedia": "be:Баравуха (станцыя)",
        "id": "node/119298101"
      },
      "geometry": {
        "type": "Point",
        "coordinates": [
          28.5964359,
          55.584549
        ]
      }
    },
    {
      "type": "Feature",
      "id": "node/119324550",
      "properties": {
        "esr:user": "161255",
        "int_name": "Palata",
        "name": "Полота",
        "name:be": "Палата",
        "name:ru": "Полота",
        "public_transport": "station",
        "railway": "station",
        "train": "yes",
        "uic_ref": "2100033",
        "id": "node/119324550"
      },
      "geometry": {
        "type": "Point",
        "coordinates": [
          29.0413479,
          55.6037815
        ]
      }
    },
    {
      "type": "Feature",
      "id": "node/242555894",
      "properties": {
        "esr:user": "147008",
        "int_name": "Babrujsk",
        "name": "Бобруйск",
        "name:be": "Бабруйск",
        "name:de": "Babrujsk",
        "name:en": "Babruysk",
        "name:fr": "Babrouïsk",
        "name:lt": "Babruiskas",
        "name:pl": "Bobrujsk",
        "name:ru": "Бобруйск",
        "name:sr": "Бобрујск",
        "public_transport": "station",
        "railway": "station",
        "train": "yes",
        "uic_ref": "2100310",
        "id": "node/242555894"
      },
      "geometry": {
        "type": "Point",
        "coordinates": [
          29.1951358,
          53.1376319
        ]
      }
    },
    {
      "type": "Feature",
      "id": "node/271040381",
      "properties": {
        "esr:user": "144601",
        "int_name": "Fanipaĺ",
        "name": "Фаниполь",
        "name:be": "Фаніпаль",
        "name:en": "Fanipal",
        "name:lt": "Fanipalis",
        "name:pl": "Fanipol",
        "name:ru": "Фаниполь",
        "public_transport": "station",
        "railway": "station",
        "train": "yes",
        "uic_ref": "2100109",
        "id": "node/271040381"
      },
      "geometry": {
        "type": "Point",
        "coordinates": [
          27.3350946,
          53.7447071
        ]
      }
    },
    {
      "type": "Feature",
      "id": "node/271085887",
      "properties": {
        "esr:user": "154463",
        "int_name": "Hieolah",
        "name": "Геолог",
        "name:be": "Геолаг",
        "name:ru": "Геолог",
        "public_transport": "station",
        "railway": "halt",
        "train": "yes",
        "uic_ref": "2100812",
        "wikidata": "Q28380064",
        "wikipedia": "be:Геолаг (прыпыначны пункт)",
        "id": "node/271085887"
      },
      "geometry": {
        "type": "Point",
        "coordinates": [
          30.1142213,
          52.3319746
        ]
      }
    },
    {
      "type": "Feature",
      "id": "node/271092132",
      "properties": {
        "esr:user": "144635",
        "int_name": "Pamyslišča",
        "name": "Помыслище",
        "name:be": "Памыслішча",
        "name:ru": "Помыслище",
        "public_transport": "station",
        "railway": "station",
        "train": "yes",
        "uic_ref": "2100522",
        "wikidata": "Q4371795",
        "wikipedia": "be:Памыслішча",
        "id": "node/271092132"
      },
      "geometry": {
        "type": "Point",
        "coordinates": [
          27.4544172,
          53.8162446
        ]
      }
    },
    {
      "type": "Feature",
      "id": "node/272845467",
      "properties": {
        "esr:user": "136713",
        "int_name": "Vaŭkavysk-Horad",
        "name": "Волковыск-Город",
        "name:be": "Ваўкавыск-Горад",
        "name:ru": "Волковыск-Город",
        "public_transport": "station",
        "railway": "station",
        "train": "yes",
        "uic_ref": "2100276",
        "id": "node/272845467"
      },
      "geometry": {
        "type": "Point",
        "coordinates": [
          24.4490564,
          53.1542668
        ]
      }
    },
    {
      "type": "Feature",
      "id": "node/282159779",
      "properties": {
        "esr:user": "140314",
        "int_name": "Traktarny",
        "name": "Тракторный",
        "name:be": "Трактарны",
        "name:ru": "Тракторный",
        "public_transport": "station",
        "railway": "halt",
        "train": "yes",
        "uic_ref": "2100465",
        "wikidata": "Q4461840",
        "id": "node/282159779"
      },
      "geometry": {
        "type": "Point",
        "coordinates": [
          27.6249115,
          53.8998292
        ]
      }
    },
    {
      "type": "Feature",
      "id": "node/282162417",
      "properties": {
        "esr:user": "140403",
        "int_name": "Sciapianka",
        "name": "Степянка",
        "name:be": "Сцяпянка",
        "name:ru": "Степянка",
        "operator": "БЧ",
        "platforms": "3",
        "public_transport": "station",
        "railway": "station",
        "train": "yes",
        "uic_ref": "2100101",
        "wikidata": "Q28380791",
        "id": "node/282162417"
      },
      "geometry": {
        "type": "Point",
        "coordinates": [
          27.6633567,
          53.914718
        ]
      }
    },
    {
      "type": "Feature",
      "id": "node/282163128",
      "properties": {
        "esr:user": "140704",
        "int_name": "Aziaryšča",
        "name": "Озерище",
        "name:be": "Азярышча",
        "name:ru": "Озерище",
        "public_transport": "station",
        "railway": "station",
        "train": "yes",
        "uic_ref": "2100509",
        "wikidata": "Q4332004",
        "id": "node/282163128"
      },
      "geometry": {
        "type": "Point",
        "coordinates": [
          27.7169923,
          53.9326643
        ]
      }
    },
    {
      "type": "Feature",
      "id": "node/288126829",
      "properties": {
        "esr:user": "140901",
        "int_name": "Haradzišča",
        "name": "Городище",
        "name:be": "Гарадзішча",
        "name:ru": "Городище",
        "public_transport": "station",
        "railway": "station",
        "train": "yes",
        "uic_ref": "2100510",
        "wikidata": "Q28380486",
        "wikipedia": "be:Гарадзішча (станцыя)",
        "id": "node/288126829"
      },
      "geometry": {
        "type": "Point",
        "coordinates": [
          27.8474656,
          53.9868498
        ]
      }
    },
    {
      "type": "Feature",
      "id": "node/306062225",
      "properties": {
        "esr:user": "132500",
        "int_name": "Zakrucin",
        "name": "Закрутин",
        "name:be": "Закруцін",
        "name:ru": "Закрутин",
        "public_transport": "station",
        "railway": "station",
        "train": "yes",
        "uic_ref": "2100557",
        "wikidata": "Q28380532",
        "wikipedia": "be:Закруцін",
        "id": "node/306062225"
      },
      "geometry": {
        "type": "Point",
        "coordinates": [
          23.9170905,
          51.9448715
        ]
      }
    },
    {
      "type": "Feature",
      "id": "node/306063730",
      "properties": {
        "esr:user": "145430",
        "int_name": "Majski",
        "name": "Майский",
        "name:be": "Майскі",
        "name:ru": "Майский",
        "public_transport": "station",
        "railway": "halt",
        "train": "yes",
        "uic_ref": "2100327",
        "wikidata": "Q28380286",
        "wikipedia": "be:Майскі (прыпыначны пункт)",
        "id": "node/306063730"
      },
      "geometry": {
        "type": "Point",
        "coordinates": [
          28.2572969,
          53.4167937
        ]
      }
    },
    {
      "type": "Feature",
      "id": "node/306063738",
      "properties": {
        "esr:user": "149107",
        "int_name": "Staryja Darohi",
        "name": "Старые Дороги",
        "name:be": "Старыя Дарогі",
        "name:lt": "Staryja Darohos",
        "name:ru": "Старые Дороги",
        "public_transport": "station",
        "railway": "station",
        "train": "yes",
        "uic_ref": "2100210",
        "wikidata": "Q28380789",
        "wikipedia": "be:Старыя Дарогі (станцыя)",
        "id": "node/306063738"
      },
      "geometry": {
        "type": "Point",
        "coordinates": [
          28.2695073,
          53.0407932
        ]
      }
    },
    {
      "type": "Feature",
      "id": "node/306064168",
      "properties": {
        "esr:user": "154425",
        "int_name": "Babičy",
        "name": "Бабичи",
        "name:be": "Бабічы",
        "name:ru": "Бабичи",
        "public_transport": "station",
        "railway": "station",
        "train": "yes",
        "uic_ref": "2100202",
        "wikidata": "Q28380406",
        "wikipedia": "be:Бабічы (станцыя)",
        "id": "node/306064168"
      },
      "geometry": {
        "type": "Point",
        "coordinates": [
          30.000732,
          52.2912163
        ]
      }
    },
    {
      "type": "Feature",
      "id": "node/306064170",
      "properties": {
        "esr:user": "154406",
        "int_name": "Vasilievičy",
        "name": "Василевичи",
        "name:be": "Васілевічы",
        "name:pl": "Wasilewicze",
        "name:ru": "Василевичи",
        "public_transport": "station",
        "railway": "station",
        "train": "yes",
        "uic_ref": "2100245",
        "id": "node/306064170"
      },
      "geometry": {
        "type": "Point",
        "coordinates": [
          29.8275504,
          52.2552364
        ]
      }
    },
    {
      "type": "Feature",
      "id": "node/306064191",
      "properties": {
        "int_name": "Liski",
        "name": "Лиски",
        "name:be": "Ліскі",
        "name:ru": "Лиски",
        "public_transport": "station",
        "railway": "station",
        "train": "yes",
        "uic_ref": "2100287",
        "id": "node/306064191"
      },
      "geometry": {
        "type": "Point",
        "coordinates": [
          30.0922896,
          52.3256715
        ]
      }
    },
    {
      "type": "Feature",
      "id": "node/306064197",
      "properties": {
        "esr:user": "154711",
        "int_name": "Rabusa",
        "name": "Ребуса",
        "name:be": "Рабуса",
        "name:ru": "Ребуса",
        "public_transport": "station",
        "railway": "station",
        "train": "yes",
        "uic_ref": "2100653",
        "wikidata": "Q28380722",
        "wikipedia": "be:Рабуса (станцыя)",
        "id": "node/306064197"
      },
      "geometry": {
        "type": "Point",
        "coordinates": [
          30.3066494,
          52.3424112
        ]
      }
    },
    {
      "type": "Feature",
      "id": "node/306064348",
      "properties": {
        "esr:user": "154834",
        "int_name": "Jakimaŭka",
        "name": "Якимовка",
        "name:be": "Якімаўка",
        "name:ru": "Якимовка",
        "public_transport": "station",
        "railway": "station",
        "train": "yes",
        "uic_ref": "2100568",
        "wikidata": "Q28380878",
        "wikipedia": "be:Якімаўка (станцыя)",
        "id": "node/306064348"
      },
      "geometry": {
        "type": "Point",
        "coordinates": [
          30.5860298,
          52.3682554
        ]
      }
    },
    {
      "type": "Feature",
      "id": "node/306064604",
      "properties": {
        "esr:user": "153850",
        "int_name": "Haliavicy",
        "name": "Голевицы",
        "name:be": "Галявіцы",
        "name:ru": "Голевицы",
        "public_transport": "station",
        "railway": "station",
        "train": "yes",
        "uic_ref": "2100198",
        "wikidata": "Q14927687",
        "wikipedia": "be:Галявіцы (станцыя)",
        "id": "node/306064604"
      },
      "geometry": {
        "type": "Point",
        "coordinates": [
          29.4926858,
          52.1610831
        ]
      }
    },
    {
      "type": "Feature",
      "id": "node/306064643",
      "properties": {
        "esr:user": "153884",
        "int_name": "Nachaŭ",
        "name": "Нахов",
        "name:be": "Нахаў",
        "name:ru": "Нахов",
        "public_transport": "station",
        "railway": "station",
        "train": "yes",
        "uic_ref": "2100199",
        "wikidata": "Q14927686",
        "wikipedia": "be:Нахаў (станцыя)",
        "id": "node/306064643"
      },
      "geometry": {
        "type": "Point",
        "coordinates": [
          29.6736952,
          52.2230515
        ]
      }
    },
    {
      "type": "Feature",
      "id": "node/306064707",
      "properties": {
        "esr:user": "151338",
        "int_name": "Michalki",
        "name": "Михалки",
        "name:be": "Міхалкі",
        "name:ru": "Михалки",
        "public_transport": "station",
        "railway": "station",
        "train": "yes",
        "uic_ref": "2100256",
        "id": "node/306064707"
      },
      "geometry": {
        "type": "Point",
        "coordinates": [
          29.2053136,
          51.9528259
        ]
      }
    },
    {
      "type": "Feature",
      "id": "node/306064714",
      "properties": {
        "esr:user": "151408",
        "name": "Барбаров",
        "name:ru": "Барбаров",
        "public_transport": "station",
        "railway": "station",
        "train": "yes",
        "uic_ref": "9924503",
        "id": "node/306064714"
      },
      "geometry": {
        "type": "Point",
        "coordinates": [
          29.2730469,
          51.900985
        ]
      }
    },
    {
      "type": "Feature",
      "id": "node/306064913",
      "properties": {
        "esr:user": "161804",
        "int_name": "Vierchniadzvinsk",
        "name": "Верхнедвинск",
        "name:be": "Верхнядзвінск",
        "name:lt": "Verchniadzvinskas",
        "name:ru": "Верхнедвинск",
        "public_transport": "station",
        "railway": "station",
        "train": "yes",
        "uic_ref": "2100105",
        "wikidata": "Q28380448",
        "wikipedia": "be:Верхнядзвінск (станцыя)",
        "id": "node/306064913"
      },
      "geometry": {
        "type": "Point",
        "coordinates": [
          27.9400322,
          55.8168782
        ]
      }
    },
    {
      "type": "Feature",
      "id": "node/306064920",
      "properties": {
        "esr:user": "165103",
        "int_name": "Baravoje",
        "name": "Боровое",
        "name:be": "Баравое",
        "name:ru": "Боровое",
        "public_transport": "station",
        "railway": "station",
        "train": "yes",
        "uic_ref": "2100247",
        "wikidata": "Q28380427",
        "wikipedia": "be:Баравое (станцыя)",
        "id": "node/306064920"
      },
      "geometry": {
        "type": "Point",
        "coordinates": [
          28.0791403,
          55.2146147
        ]
      }
    },
    {
      "type": "Feature",
      "id": "node/306065015",
      "properties": {
        "alt_name": "Шарковщизна",
        "esr:user": "164802",
        "int_name": "Šarkaŭščyna",
        "name": "Шарковщизна",
        "name:be": "Шаркаўшчына",
        "name:ru": "Шарковщизна",
        "public_transport": "station",
        "railway": "station",
        "train": "yes",
        "uic_ref": "2100053",
        "wikidata": "Q28380854",
        "wikipedia": "be:Шаркаўшчына (станцыя)",
        "id": "node/306065015"
      },
      "geometry": {
        "type": "Point",
        "coordinates": [
          27.4695805,
          55.368004
        ]
      }
    },
    {
      "type": "Feature",
      "id": "node/306065017",
      "properties": {
        "esr:user": "164605",
        "int_name": "Druja",
        "name": "Друя",
        "name:be": "Друя",
        "name:ru": "Друя",
        "public_transport": "station",
        "railway": "station",
        "train": "yes",
        "uic_ref": "2100056",
        "wikidata": "Q28380510",
        "wikipedia": "be:Друя (станцыя)",
        "id": "node/306065017"
      },
      "geometry": {
        "type": "Point",
        "coordinates": [
          27.4803948,
          55.7783723
        ]
      }
    },
    {
      "type": "Feature",
      "id": "node/306065061",
      "properties": {
        "esr:user": "164408",
        "int_name": "Varapajeva",
        "name": "Воропаево",
        "name:be": "Варапаева",
        "name:ru": "Воропаево",
        "public_transport": "station",
        "railway": "station",
        "train": "yes",
        "uic_ref": "2100047",
        "wikidata": "Q28380473",
        "wikipedia": "be:Варапаева (станцыя)",
        "id": "node/306065061"
      },
      "geometry": {
        "type": "Point",
        "coordinates": [
          27.2036577,
          55.1415878
        ]
      }
    },
    {
      "type": "Feature",
      "id": "node/306065255",
      "properties": {
        "esr:user": "164249",
        "int_name": "Kamajka",
        "name": "Камайка",
        "name:be": "Камайка",
        "name:ru": "Камайка",
        "public_transport": "station",
        "railway": "halt",
        "train": "yes",
        "uic_ref": "2100470",
        "wikidata": "Q28380204",
        "wikipedia": "be:Камайка (прыпыначны пункт)",
        "id": "node/306065255"
      },
      "geometry": {
        "type": "Point",
        "coordinates": [
          26.5113572,
          55.126777
        ]
      }
    },
    {
      "type": "Feature",
      "id": "node/306065263",
      "properties": {
        "esr:user": "164516",
        "int_name": "Lyntupy",
        "name": "Лынтупы",
        "name:be": "Лынтупы",
        "name:ru": "Лынтупы",
        "public_transport": "station",
        "railway": "station",
        "train": "yes",
        "uic_ref": "2100468",
        "wikidata": "Q25394365",
        "wikipedia": "be:Лынтупы (станцыя)",
        "id": "node/306065263"
      },
      "geometry": {
        "type": "Point",
        "coordinates": [
          26.3108307,
          55.0412697
        ]
      }
    },
    {
      "type": "Feature",
      "id": "node/306065264",
      "properties": {
        "esr:user": "164253",
        "int_name": "Razlohi",
        "name": "Разлоги",
        "name:be": "Разлогі",
        "name:ru": "Разлоги",
        "public_transport": "station",
        "railway": "halt",
        "train": "yes",
        "uic_ref": "2100469",
        "wikidata": "Q28380625",
        "wikipedia": "be:Разлогі",
        "id": "node/306065264"
      },
      "geometry": {
        "type": "Point",
        "coordinates": [
          26.4195465,
          55.0861525
        ]
      }
    },
    {
      "type": "Feature",
      "id": "node/306065276",
      "properties": {
        "esr:user": "157207",
        "int_name": "Voničy",
        "name": "Воничи",
        "name:be": "Вонічы",
        "name:ru": "Воничи",
        "public_transport": "station",
        "railway": "station",
        "train": "yes",
        "uic_ref": "2100077",
        "wikidata": "Q28380469",
        "wikipedia": "be:Вонічы (станцыя)",
        "id": "node/306065276"
      },
      "geometry": {
        "type": "Point",
        "coordinates": [
          29.4991755,
          53.5992327
        ]
      }
    },
    {
      "type": "Feature",
      "id": "node/306065359",
      "properties": {
        "esr:user": "141209",
        "int_name": "Čyrvony Sciah",
        "name": "Красное Знамя",
        "name:be": "Чырвоны Сцяг",
        "name:ru": "Красное Знамя",
        "public_transport": "station",
        "railway": "station",
        "train": "yes",
        "uic_ref": "2100102",
        "website": "https://www.blr.cc/info/elektrichki/",
        "wikidata": "Q28380562",
        "wikipedia": "be:Чырвоны Сцяг (станцыя)",
        "id": "node/306065359"
      },
      "geometry": {
        "type": "Point",
        "coordinates": [
          28.2022094,
          54.0385551
        ]
      }
    },
    {
      "type": "Feature",
      "id": "node/306065398",
      "properties": {
        "esr:user": "141336",
        "int_name": "Barsuki",
        "name": "Барсуки",
        "name:be": "Барсукі",
        "name:ru": "Барсуки",
        "public_transport": "station",
        "railway": "halt",
        "train": "yes",
        "uic_ref": "2101014",
        "wikidata": "Q28379977",
        "wikipedia": "be:Барсукі (прыпыначны пункт)",
        "id": "node/306065398"
      },
      "geometry": {
        "type": "Point",
        "coordinates": [
          28.2809577,
          54.0664174
        ]
      }
    },
    {
      "type": "Feature",
      "id": "node/306065454",
      "properties": {
        "esr:user": "141302",
        "int_name": "Žodzina",
        "name": "Жодино",
        "name:be": "Жодзіна",
        "name:lt": "Žodzina",
        "name:ru": "Жодино",
        "public_transport": "station",
        "railway": "station",
        "train": "yes",
        "uic_ref": "2100145",
        "wikidata": "Q28380526",
        "wikipedia": "be:Жодзіна (станцыя)",
        "id": "node/306065454"
      },
      "geometry": {
        "type": "Point",
        "coordinates": [
          28.340996,
          54.1022401
        ]
      }
    },
    {
      "type": "Feature",
      "id": "node/306065485",
      "properties": {
        "esr:user": "141213",
        "int_name": "Žodzina Paŭdniovaje",
        "name": "Жодино-Южное",
        "name:be": "Жодзіна Паўднёвае",
        "name:ru": "Жодино-Южное",
        "public_transport": "station",
        "railway": "halt",
        "train": "yes",
        "uic_ref": "2100459",
        "wikidata": "Q28380137",
        "wikipedia": "be:Жодзіна-Паўднёвае",
        "id": "node/306065485"
      },
      "geometry": {
        "type": "Point",
        "coordinates": [
          28.31522,
          54.08698
        ]
      }
    },
    {
      "type": "Feature",
      "id": "node/306065691",
      "properties": {
        "esr:user": "141815",
        "int_name": "Krasnaŭka",
        "name": "Красновка",
        "name:be": "Краснаўка",
        "name:ru": "Красновка",
        "name:uk": "Краснівка",
        "public_transport": "station",
        "railway": "halt",
        "train": "yes",
        "uic_ref": "2100455",
        "wikidata": "Q28380242",
        "wikipedia": "be:Краснаўка (прыпыначны пункт)",
        "id": "node/306065691"
      },
      "geometry": {
        "type": "Point",
        "coordinates": [
          29.3608301,
          54.3060108
        ]
      }
    },
    {
      "type": "Feature",
      "id": "node/306065881",
      "properties": {
        "esr:user": "138600",
        "int_name": "Haradzieja",
        "name": "Городея",
        "name:be": "Гарадзея",
        "name:ru": "Городея",
        "public_transport": "station",
        "railway": "station",
        "train": "yes",
        "uic_ref": "2100122",
        "wikidata": "Q4145125",
        "wikipedia": "be:Гарадзея (станцыя)",
        "id": "node/306065881"
      },
      "geometry": {
        "type": "Point",
        "coordinates": [
          26.5380795,
          53.3149027
        ]
      }
    },
    {
      "type": "Feature",
      "id": "node/306065899",
      "properties": {
        "alt_name": "Пост-Хороброво",
        "esr:user": "142165",
        "int_name": "Chorabrava",
        "name": "Хороброво",
        "name:be": "Хорабрава",
        "name:ru": "Хороброво",
        "public_transport": "station",
        "railway": "halt",
        "train": "yes",
        "uic_ref": "2100686",
        "wikidata": "Q28380803",
        "wikipedia": "be:Хорабрава",
        "id": "node/306065899"
      },
      "geometry": {
        "type": "Point",
        "coordinates": [
          30.3243689,
          54.5145819
        ]
      }
    },
    {
      "type": "Feature",
      "id": "node/306065959",
      "properties": {
        "esr:user": "163706",
        "int_name": "Kniahinin",
        "name": "Княгинин",
        "name:be": "Княгінін",
        "name:ru": "Княгинин",
        "public_transport": "station",
        "railway": "station",
        "train": "yes",
        "uic_ref": "2100026",
        "wikidata": "Q28380552",
        "wikipedia": "be:Княгінін (станцыя)",
        "id": "node/306065959"
      },
      "geometry": {
        "type": "Point",
        "coordinates": [
          27.1832866,
          54.6749604
        ]
      }
    },
    {
      "type": "Feature",
      "id": "node/306066018",
      "properties": {
        "esr:user": "166808",
        "name": "Орша-Северная",
        "name:be": "Орша-Паўночная",
        "name:en": "Orsha-North",
        "name:ru": "Орша-Северная",
        "operator": "Белорусская железная дорога",
        "public_transport": "station",
        "railway": "station",
        "train": "yes",
        "id": "node/306066018"
      },
      "geometry": {
        "type": "Point",
        "coordinates": [
          30.4476129,
          54.5422401
        ]
      }
    },
    {
      "type": "Feature",
      "id": "node/306066069",
      "properties": {
        "esr:user": "162900",
        "express3:user": "2100280",
        "int_name": "Maladziečna",
        "name": "Молодечно",
        "name:be": "Маладзечна",
        "name:lt": "Maladečina",
        "name:ru": "Молодечно",
        "public_transport": "station",
        "railway": "station",
        "train": "yes",
        "uic_ref": "2100280",
        "id": "node/306066069"
      },
      "geometry": {
        "type": "Point",
        "coordinates": [
          26.8382767,
          54.3161989
        ]
      }
    },
    {
      "type": "Feature",
      "id": "node/306066215",
      "properties": {
        "esr:user": "162607",
        "int_name": "Valožyn",
        "name": "Воложин",
        "name:be": "Валожын",
        "name:lt": "Valažinas",
        "name:ru": "Воложин",
        "public_transport": "station",
        "railway": "station",
        "train": "yes",
        "uic_ref": "2100057",
        "wikidata": "Q28380464",
        "wikipedia": "be:Валожын (станцыя)",
        "id": "node/306066215"
      },
      "geometry": {
        "type": "Point",
        "coordinates": [
          26.448899,
          54.2202925
        ]
      }
    },
    {
      "type": "Feature",
      "id": "node/306066293",
      "properties": {
        "esr:user": "162506",
        "int_name": "Bahdanaŭ",
        "name": "Богданов",
        "name:be": "Багданаў",
        "name:ru": "Богданов",
        "public_transport": "station",
        "railway": "station",
        "train": "yes",
        "uic_ref": "2100058",
        "wikidata": "Q28380423",
        "wikipedia": "be:Багданаў (станцыя)",
        "id": "node/306066293"
      },
      "geometry": {
        "type": "Point",
        "coordinates": [
          26.1537819,
          54.1711975
        ]
      }
    },
    {
      "type": "Feature",
      "id": "node/306066326",
      "properties": {
        "esr:user": "141707",
        "int_name": "Krupki",
        "name": "Крупки",
        "name:be": "Крупкі",
        "name:lt": "Krupkos",
        "name:ru": "Крупки",
        "public_transport": "station",
        "railway": "station",
        "train": "yes",
        "uic_ref": "2100011",
        "wikidata": "Q28380569",
        "wikipedia": "be:Крупкі (станцыя)",
        "id": "node/306066326"
      },
      "geometry": {
        "type": "Point",
        "coordinates": [
          29.0697946,
          54.2992594
        ]
      }
    },
    {
      "type": "Feature",
      "id": "node/306066537",
      "properties": {
        "esr:user": "142023",
        "int_name": "Pieravalačny",
        "name": "Перевалочный",
        "name:be": "Перавалачны",
        "name:ru": "Перевалочный",
        "public_transport": "station",
        "railway": "halt",
        "train": "yes",
        "uic_ref": "2100451",
        "id": "node/306066537"
      },
      "geometry": {
        "type": "Point",
        "coordinates": [
          29.9295748,
          54.4655585
        ]
      }
    },
    {
      "type": "Feature",
      "id": "node/306066574",
      "properties": {
        "esr:user": "142127",
        "int_name": "Dziatlava",
        "name": "Дятлово",
        "name:be": "Дзятлава",
        "name:lt": "Zietela",
        "name:ru": "Дятлово",
        "public_transport": "station",
        "railway": "halt",
        "train": "yes",
        "uic_ref": "2100437",
        "wikidata": "Q28380123",
        "wikipedia": "be:Дзятлава (прыпыначны пункт)",
        "id": "node/306066574"
      },
      "geometry": {
        "type": "Point",
        "coordinates": [
          30.1290799,
          54.4781404
        ]
      }
    },
    {
      "type": "Feature",
      "id": "node/306066613",
      "properties": {
        "esr:user": "147602",
        "int_name": "Krasny Brod",
        "name": "Красный Брод",
        "name:be": "Красны Брод",
        "name:ru": "Красный Брод",
        "public_transport": "station",
        "railway": "station",
        "train": "yes",
        "uic_ref": "2100119",
        "wikidata": "Q28380565",
        "wikipedia": "be:Красны Брод (станцыя)",
        "id": "node/306066613"
      },
      "geometry": {
        "type": "Point",
        "coordinates": [
          29.1681807,
          53.0317596
        ]
      }
    },
    {
      "type": "Feature",
      "id": "node/306066643",
      "properties": {
        "esr:user": "146306",
        "int_name": "Hradzianka",
        "name": "Гродзянка",
        "name:be": "Градзянка",
        "name:ru": "Гродзянка",
        "public_transport": "station",
        "railway": "station",
        "train": "yes",
        "uic_ref": "2100531",
        "wikidata": "Q28380496",
        "wikipedia": "be:Градзянка (станцыя)",
        "id": "node/306066643"
      },
      "geometry": {
        "type": "Point",
        "coordinates": [
          28.7431732,
          53.5457397
        ]
      }
    },
    {
      "type": "Feature",
      "id": "node/306066822",
      "properties": {
        "esr:user": "161607",
        "int_name": "Aliošča",
        "name": "Алёща",
        "name:be": "Алёшча",
        "name:ru": "Алёща",
        "public_transport": "station",
        "railway": "station",
        "train": "yes",
        "uic_ref": "2100234",
        "wikidata": "Q28380402",
        "wikipedia": "be:Алёшча (станцыя)",
        "id": "node/306066822"
      },
      "geometry": {
        "type": "Point",
        "coordinates": [
          29.3300012,
          55.7344728
        ]
      }
    },
    {
      "type": "Feature",
      "id": "node/306066842",
      "properties": {
        "esr:user": "141938",
        "int_name": "Slaŭnaje",
        "name": "Славное",
        "name:be": "Слаўнае",
        "name:ru": "Славное",
        "public_transport": "station",
        "railway": "station",
        "train": "yes",
        "uic_ref": "2100013",
        "id": "node/306066842"
      },
      "geometry": {
        "type": "Point",
        "coordinates": [
          29.4462382,
          54.3084127
        ]
      }
    },
    {
      "type": "Feature",
      "id": "node/306066884",
      "properties": {
        "esr:user": "160055",
        "int_name": "Jazvina",
        "name": "Язвіна",
        "name:be": "Язвіна",
        "name:ru": "Язвино",
        "public_transport": "station",
        "railway": "station",
        "train": "yes",
        "uic_ref": "2100486",
        "wikidata": "Q28380876",
        "wikipedia": "be:Язвіна (станцыя)",
        "id": "node/306066884"
      },
      "geometry": {
        "type": "Point",
        "coordinates": [
          29.7611073,
          55.2637793
        ]
      }
    },
    {
      "type": "Feature",
      "id": "node/306066893",
      "properties": {
        "esr:user": "141923",
        "int_name": "Krasnaja Horka",
        "name": "Красная Горка",
        "name:be": "Красная Горка",
        "name:ru": "Красная Горка",
        "public_transport": "station",
        "railway": "halt",
        "train": "yes",
        "uic_ref": "2100453",
        "wikidata": "Q28380241",
        "wikipedia": "be:Красная Горка (прыпыначны пункт)",
        "id": "node/306066893"
      },
      "geometry": {
        "type": "Point",
        "coordinates": [
          29.6826144,
          54.3761198
        ]
      }
    },
    {
      "type": "Feature",
      "id": "node/306066901",
      "properties": {
        "esr:user": "142019",
        "int_name": "Viderščyna",
        "name": "Выдерщина",
        "name:be": "Відэршчына",
        "name:ru": "Выдерщина",
        "public_transport": "station",
        "railway": "halt",
        "train": "yes",
        "uic_ref": "2100452",
        "wikidata": "Q28380058",
        "wikipedia": "be:Відэршчына (прыпыначны пункт)",
        "id": "node/306066901"
      },
      "geometry": {
        "type": "Point",
        "coordinates": [
          29.8522486,
          54.4442783
        ]
      }
    },
    {
      "type": "Feature",
      "id": "node/306067042",
      "properties": {
        "esr:user": "161236",
        "int_name": "Hramy",
        "name": "Громы",
        "name:be": "Грамы",
        "name:ru": "Громы",
        "public_transport": "station",
        "railway": "station",
        "train": "yes",
        "uic_ref": "2101193",
        "id": "node/306067042"
      },
      "geometry": {
        "type": "Point",
        "coordinates": [
          28.8155761,
          55.4929077
        ]
      }
    },
    {
      "type": "Feature",
      "id": "node/306067256",
      "properties": {
        "esr:user": "165307",
        "int_name": "Ksty",
        "name": "Ксты",
        "name:be": "Ксты",
        "name:ru": "Ксты",
        "public_transport": "station",
        "railway": "station",
        "train": "yes",
        "uic_ref": "2100288",
        "wikidata": "Q28380571",
        "wikipedia": "be:Ксты (станцыя)",
        "id": "node/306067256"
      },
      "geometry": {
        "type": "Point",
        "coordinates": [
          28.7204397,
          55.4537435
        ]
      }
    },
    {
      "type": "Feature",
      "id": "node/306067375",
      "properties": {
        "esr:user": "138009",
        "int_name": "Hutna",
        "name": "Гутно",
        "name:be": "Гутна",
        "name:ru": "Гутно",
        "public_transport": "station",
        "railway": "station",
        "train": "yes",
        "uic_ref": "2100521",
        "wikidata": "Q28380500",
        "wikipedia": "be:Гутна",
        "id": "node/306067375"
      },
      "geometry": {
        "type": "Point",
        "coordinates": [
          25.3649248,
          53.9174365
        ]
      }
    },
    {
      "type": "Feature",
      "id": "node/306067951",
      "properties": {
        "esr:user": "141603",
        "int_name": "Pryjamina",
        "name": "Приямино",
        "name:be": "Прыяміна",
        "name:ru": "Приямино",
        "public_transport": "station",
        "railway": "station",
        "train": "yes",
        "uic_ref": "2100009",
        "wikidata": "Q28380710",
        "wikipedia": "be:Прыяміна (станцыя)",
        "id": "node/306067951"
      },
      "geometry": {
        "type": "Point",
        "coordinates": [
          28.8376714,
          54.276402
        ]
      }
    },
    {
      "type": "Feature",
      "id": "node/306067959",
      "properties": {
        "esr:user": "141514",
        "int_name": "Zamužannie",
        "name": "Замужанье",
        "name:be": "Замужанне",
        "name:ru": "Замужанье",
        "public_transport": "station",
        "railway": "halt",
        "train": "yes",
        "uic_ref": "2100457",
        "wikidata": "Q28380159",
        "wikipedia": "be:Замужанне (прыпыначны пункт)",
        "id": "node/306067959"
      },
      "geometry": {
        "type": "Point",
        "coordinates": [
          28.7884438,
          54.2527027
        ]
      }
    },
    {
      "type": "Feature",
      "id": "node/306067993",
      "properties": {
        "esr:user": "150513",
        "int_name": "Zakapyccie",
        "name": "Закопытье",
        "name:be": "Закапыцце",
        "name:ru": "Закопытье",
        "public_transport": "station",
        "railway": "station",
        "train": "yes",
        "uic_ref": "2100216",
        "wikidata": "Q4184965",
        "wikipedia": "be:Закапыцце (станцыя)",
        "id": "node/306067993"
      },
      "geometry": {
        "type": "Point",
        "coordinates": [
          31.4779079,
          52.4335183
        ]
      }
    },
    {
      "type": "Feature",
      "id": "node/306068039",
      "properties": {
        "esr:user": "155771",
        "int_name": "Ipuć",
        "name": "Ипуть",
        "name:be": "Іпуць",
        "name:ru": "Ипуть",
        "public_transport": "station",
        "railway": "station",
        "train": "yes",
        "uic_ref": "2100425",
        "wikidata": "Q4203031",
        "wikipedia": "be:Іпуць (станцыя)",
        "id": "node/306068039"
      },
      "geometry": {
        "type": "Point",
        "coordinates": [
          31.089863,
          52.4040801
        ]
      }
    },
    {
      "type": "Feature",
      "id": "node/306068045",
      "properties": {
        "esr:user": "150227",
        "int_name": "Laryščava",
        "name": "Ларищево",
        "name:be": "Ларышчава",
        "name:ru": "Ларищево",
        "public_transport": "station",
        "railway": "station",
        "train": "yes",
        "uic_ref": "2100214",
        "wikidata": "Q14927668",
        "wikipedia": "be:Ларышчава (станцыя)",
        "id": "node/306068045"
      },
      "geometry": {
        "type": "Point",
        "coordinates": [
          31.1681472,
          52.3892028
        ]
      }
    },
    {
      "type": "Feature",
      "id": "node/306068321",
      "properties": {
        "esr:user": "150138",
        "int_name": "Homieĺ Paŭnočny",
        "name": "Гомель-Северный",
        "name:be": "Гомель Паўночны",
        "name:ru": "Гомель-Северный",
        "public_transport": "station",
        "railway": "station",
        "train": "yes",
        "uic_ref": "2101021",
        "id": "node/306068321"
      },
      "geometry": {
        "type": "Point",
        "coordinates": [
          30.9451003,
          52.4563244
        ]
      }
    },
    {
      "type": "Feature",
      "id": "node/306068337",
      "properties": {
        "esr:user": "154904",
        "int_name": "Centralit",
        "name": "Центролит",
        "name:be": "Цэнтраліт",
        "name:ru": "Центролит",
        "public_transport": "station",
        "railway": "station",
        "train": "yes",
        "uic_ref": "2100570",
        "id": "node/306068337"
      },
      "geometry": {
        "type": "Point",
        "coordinates": [
          30.9036784,
          52.4302146
        ]
      }
    },
    {
      "type": "Feature",
      "id": "node/306068370",
      "properties": {
        "esr:user": "158209",
        "int_name": "Kryčaŭ-1",
        "name": "Кричев-1",
        "name:be": "Крычаў-1",
        "name:lt": "Kryčavas",
        "name:ru": "Кричев-1",
        "public_transport": "station",
        "railway": "station",
        "train": "yes",
        "uic_ref": "2100140",
        "wikidata": "Q14927658",
        "wikipedia": "be:Крычаў I",
        "id": "node/306068370"
      },
      "geometry": {
        "type": "Point",
        "coordinates": [
          31.71095,
          53.7390975
        ]
      }
    },
    {
      "type": "Feature",
      "id": "node/306068417",
      "properties": {
        "esr:user": "158820",
        "int_name": "Kryčaŭ 2",
        "name": "Кричев-2",
        "name:be": "Крычаў 2",
        "name:ru": "Кричев-2",
        "public_transport": "station",
        "railway": "station",
        "train": "yes",
        "uic_ref": "2100141",
        "id": "node/306068417"
      },
      "geometry": {
        "type": "Point",
        "coordinates": [
          31.8484395,
          53.7258486
        ]
      }
    },
    {
      "type": "Feature",
      "id": "node/306068430",
      "properties": {
        "esr:user": "158002",
        "int_name": "Čavusy",
        "name": "Чаусы",
        "name:be": "Чавусы",
        "name:lt": "Čavusai",
        "name:ru": "Чаусы",
        "public_transport": "station",
        "railway": "station",
        "train": "yes",
        "uic_ref": "2101215",
        "wikidata": "Q28380839",
        "wikipedia": "be:Чавусы (станцыя)",
        "id": "node/306068430"
      },
      "geometry": {
        "type": "Point",
        "coordinates": [
          30.9280372,
          53.7812923
        ]
      }
    },
    {
      "type": "Feature",
      "id": "node/306068455",
      "properties": {
        "esr:user": "158407",
        "int_name": "Ciomny Lies",
        "name": "Тёмный Лес",
        "name:be": "Цёмны Лес",
        "name:ru": "Тёмный Лес",
        "public_transport": "station",
        "railway": "station",
        "train": "yes",
        "uic_ref": "2100087",
        "wikidata": "Q28380797",
        "wikipedia": "be:Цёмны Лес (станцыя)",
        "id": "node/306068455"
      },
      "geometry": {
        "type": "Point",
        "coordinates": [
          31.2426895,
          54.097112
        ]
      }
    },
    {
      "type": "Feature",
      "id": "node/306068482",
      "properties": {
        "esr:user": "157508",
        "int_name": "Halyniec",
        "name": "Голынец",
        "name:be": "Галынец",
        "name:ru": "Голынец",
        "public_transport": "station",
        "railway": "station",
        "train": "yes",
        "uic_ref": "2100526",
        "id": "node/306068482"
      },
      "geometry": {
        "type": "Point",
        "coordinates": [
          30.1619806,
          53.8489587
        ]
      }
    },
    {
      "type": "Feature",
      "id": "node/306068550",
      "properties": {
        "esr:user": "163405",
        "int_name": "Zaliessie",
        "name": "Залесье",
        "name:be": "Залессе",
        "name:ru": "Залесье",
        "name:uk": "Залісся",
        "public_transport": "station",
        "railway": "station",
        "train": "yes",
        "uic_ref": "2100022",
        "wikidata": "Q4185297",
        "wikipedia": "be:Залессе (станцыя)",
        "id": "node/306068550"
      },
      "geometry": {
        "type": "Point",
        "coordinates": [
          26.5411156,
          54.4212587
        ]
      }
    },
    {
      "type": "Feature",
      "id": "node/306068683",
      "properties": {
        "esr:user": "156011",
        "int_name": "Ludčycy",
        "name": "Лудчицы",
        "name:be": "Лудчыцы",
        "name:ru": "Лудчицы",
        "public_transport": "station",
        "railway": "station",
        "train": "yes",
        "uic_ref": "2100672",
        "wikidata": "Q28380586",
        "wikipedia": "be:Лудчыцы (станцыя)",
        "id": "node/306068683"
      },
      "geometry": {
        "type": "Point",
        "coordinates": [
          30.1633887,
          53.4052235
        ]
      }
    },
    {
      "type": "Feature",
      "id": "node/306068713",
      "properties": {
        "esr:user": "163000",
        "int_name": "Hudahaj",
        "name": "Гудогай",
        "name:be": "Гудагай",
        "name:pl": "Gudogaje",
        "name:ru": "Гудогай",
        "operator": "БЧ",
        "public_transport": "station",
        "railway": "station",
        "ref": "2100024",
        "train": "yes",
        "uic_ref": "2100024",
        "wikidata": "Q4151630",
        "wikipedia": "be:Гудагай (станцыя)",
        "id": "node/306068713"
      },
      "geometry": {
        "type": "Point",
        "coordinates": [
          25.8927469,
          54.5966739
        ]
      }
    },
    {
      "type": "Feature",
      "id": "node/306068905",
      "properties": {
        "esr:user": "154143",
        "int_name": "Astankavičy",
        "name": "Останковичи",
        "name:be": "Астанкавічы",
        "name:ru": "Останковичи",
        "public_transport": "station",
        "railway": "station",
        "train": "yes",
        "uic_ref": "2100228",
        "wikidata": "Q28380679",
        "wikipedia": "be:Астанкавічы (станцыя)",
        "id": "node/306068905"
      },
      "geometry": {
        "type": "Point",
        "coordinates": [
          29.5409611,
          52.4685141
        ]
      }
    },
    {
      "type": "Feature",
      "id": "node/306069401",
      "properties": {
        "esr:user": "154872",
        "int_name": "Prybar",
        "name": "Прибор",
        "name:be": "Прыбар",
        "name:ru": "Прибор",
        "public_transport": "station",
        "railway": "station",
        "train": "yes",
        "uic_ref": "2100569",
        "wikidata": "Q14927670",
        "wikipedia": "be:Прыбар (станцыя)",
        "id": "node/306069401"
      },
      "geometry": {
        "type": "Point",
        "coordinates": [
          30.7578841,
          52.3999122
        ]
      }
    },
    {
      "type": "Feature",
      "id": "node/306069529",
      "properties": {
        "esr:user": "155201",
        "int_name": "Buda-Kašalioŭskaja",
        "name": "Буда-Кошелёвская",
        "name:be": "Буда-Кашалёўская",
        "name:ru": "Буда-Кошелёвская",
        "public_transport": "station",
        "railway": "station",
        "train": "yes",
        "uic_ref": "2100025",
        "wikidata": "Q16274652",
        "wikipedia": "be:Буда-Кашалёўская",
        "id": "node/306069529"
      },
      "geometry": {
        "type": "Point",
        "coordinates": [
          30.5672257,
          52.7126011
        ]
      }
    },
    {
      "type": "Feature",
      "id": "node/306069630",
      "properties": {
        "esr:user": "139502",
        "int_name": "Liušča",
        "name": "Люща",
        "name:be": "Люшча",
        "name:ru": "Люща",
        "public_transport": "station",
        "railway": "station",
        "train": "yes",
        "uic_ref": "2100260",
        "wikidata": "Q28380592",
        "wikipedia": "be:Люшча (станцыя)",
        "id": "node/306069630"
      },
      "geometry": {
        "type": "Point",
        "coordinates": [
          26.7103619,
          52.448872
        ]
      }
    },
    {
      "type": "Feature",
      "id": "node/306069663",
      "properties": {
        "alt_name": "Ганцавічы",
        "esr:user": "139603",
        "int_name": "Hancavičy",
        "name": "Ганцевичи",
        "name:be": "Ганцавічы",
        "name:pl": "Hancewicze",
        "name:ru": "Ганцевичи",
        "public_transport": "station",
        "railway": "station",
        "train": "yes",
        "uic_ref": "2100220",
        "id": "node/306069663"
      },
      "geometry": {
        "type": "Point",
        "coordinates": [
          26.4349011,
          52.7585667
        ]
      }
    },
    {
      "type": "Feature",
      "id": "node/306069777",
      "properties": {
        "alt_name:de": "Luninitz",
        "esr:user": "139406",
        "int_name": "Luniniec",
        "name": "Лунинец",
        "name:be": "Лунінец",
        "name:de": "Luninez",
        "name:lt": "Luninecas",
        "name:pl": "Łuniniec",
        "name:ru": "Лунинец",
        "public_transport": "station",
        "railway": "station",
        "train": "yes",
        "uic_ref": "2100291",
        "wheelchair": "limited",
        "wikidata": "Q4269472",
        "wikipedia": "be:Лунінец (станцыя)",
        "id": "node/306069777"
      },
      "geometry": {
        "type": "Point",
        "coordinates": [
          26.8069649,
          52.2437988
        ]
      }
    },
    {
      "type": "Feature",
      "id": "node/306069807",
      "properties": {
        "esr:user": "154228",
        "int_name": "Jaščycy",
        "name": "Ящицы",
        "name:be": "Яшчыцы",
        "name:ru": "Ящицы",
        "public_transport": "station",
        "railway": "station",
        "train": "yes",
        "uic_ref": "2100226",
        "wikidata": "Q28380882",
        "wikipedia": "be:Яшчыцы (станцыя)",
        "id": "node/306069807"
      },
      "geometry": {
        "type": "Point",
        "coordinates": [
          29.8183313,
          52.7233581
        ]
      }
    },
    {
      "type": "Feature",
      "id": "node/306069862",
      "properties": {
        "esr:user": "155911",
        "int_name": "Starasieĺski",
        "name": "Старосельский",
        "name:be": "Старасельскі",
        "name:ru": "Старосельский",
        "public_transport": "station",
        "railway": "station",
        "train": "yes",
        "uic_ref": "2100659",
        "wikidata": "Q28380785",
        "wikipedia": "be:Старасельскі",
        "id": "node/306069862"
      },
      "geometry": {
        "type": "Point",
        "coordinates": [
          30.0925626,
          53.1989354
        ]
      }
    },
    {
      "type": "Feature",
      "id": "node/320409997",
      "properties": {
        "esr:user": "135104",
        "int_name": "Bruzhi",
        "name": "Брузги",
        "name:be": "Брузгі",
        "name:pl": "Bruzgi",
        "name:ru": "Брузги",
        "public_transport": "station",
        "railway": "station",
        "train": "yes",
        "uic_ref": "2100897",
        "wikidata": "Q28380436",
        "wikipedia": "be:Брузгі (станцыя)",
        "id": "node/320409997"
      },
      "geometry": {
        "type": "Point",
        "coordinates": [
          23.666636,
          53.5555514
        ]
      }
    },
    {
      "type": "Feature",
      "id": "node/331099923",
      "properties": {
        "esr:user": "154209",
        "int_name": "Svietlahorsk-na-Biarezinie",
        "name": "Светлогорск-на-Березине",
        "name:be": "Светлагорск-на-Бярэзіне",
        "name:ru": "Светлогорск-на-Березине",
        "public_transport": "station",
        "railway": "station",
        "train": "yes",
        "uic_ref": "2100217",
        "id": "node/331099923"
      },
      "geometry": {
        "type": "Point",
        "coordinates": [
          29.7149385,
          52.6309405
        ]
      }
    },
    {
      "type": "Feature",
      "id": "node/443932648",
      "properties": {
        "esr:user": "137006",
        "int_name": "Slonim",
        "name": "Слоним",
        "name:be": "Слонім",
        "name:ru": "Слоним",
        "public_transport": "station",
        "railway": "station",
        "train": "yes",
        "uic_ref": "2100153",
        "id": "node/443932648"
      },
      "geometry": {
        "type": "Point",
        "coordinates": [
          25.3435986,
          53.095269
        ]
      }
    },
    {
      "type": "Feature",
      "id": "node/460411021",
      "properties": {
        "esr:user": "133202",
        "int_name": "Pinsk",
        "name": "Пинск",
        "name:be": "Пінск",
        "name:de": "Pinsk",
        "name:lt": "Pinskas",
        "name:pl": "Pińsk",
        "name:ru": "Пинск",
        "public_transport": "station",
        "railway": "station",
        "train": "yes",
        "uic_ref": "2100180",
        "wikidata": "Q54865359",
        "wikipedia": "be:Пінск (станцыя)",
        "id": "node/460411021"
      },
      "geometry": {
        "type": "Point",
        "coordinates": [
          26.0890187,
          52.1222554
        ]
      }
    },
    {
      "type": "Feature",
      "id": "node/469858489",
      "properties": {
        "esr:user": "143505",
        "int_name": "Radaškovičy",
        "name": "Радошковичи",
        "name:be": "Радашковічы",
        "name:ru": "Радошковичи",
        "public_transport": "station",
        "railway": "station",
        "train": "yes",
        "uic_ref": "2100680",
        "wikidata": "Q4387884",
        "wikipedia": "be:Радашковічы (станцыя)",
        "id": "node/469858489"
      },
      "geometry": {
        "type": "Point",
        "coordinates": [
          27.2128021,
          54.0694025
        ]
      }
    },
    {
      "type": "Feature",
      "id": "node/470320849",
      "properties": {
        "esr:user": "140916",
        "int_name": "Slabada",
        "name": "Слобода",
        "name:be": "Слабада",
        "name:ru": "Слобода",
        "public_transport": "station",
        "railway": "halt",
        "train": "yes",
        "uic_ref": "2100463",
        "wikidata": "Q28380705",
        "wikipedia": "be:Слабада (прыпыначны пункт)",
        "id": "node/470320849"
      },
      "geometry": {
        "type": "Point",
        "coordinates": [
          27.9059525,
          53.9944846
        ]
      }
    },
    {
      "type": "Feature",
      "id": "node/476416018",
      "properties": {
        "esr:user": "132708",
        "int_name": "Kobryn",
        "name": "Кобрин",
        "name:be": "Кобрын",
        "name:lt": "Kobrynas",
        "name:ru": "Кобрин",
        "public_transport": "station",
        "railway": "station",
        "train": "yes",
        "uic_ref": "2100183",
        "wikidata": "Q28380554",
        "wikipedia": "be:Кобрын (станцыя)",
        "id": "node/476416018"
      },
      "geometry": {
        "type": "Point",
        "coordinates": [
          24.3455268,
          52.223623
        ]
      }
    },
    {
      "type": "Feature",
      "id": "node/677383492",
      "properties": {
        "esr:user": "154815",
        "int_name": "Sienazavod",
        "name": "Сенозавод",
        "name:be": "Сеназавод",
        "name:ru": "Сенозавод",
        "public_transport": "station",
        "railway": "station",
        "train": "yes",
        "uic_ref": "2100204",
        "wikidata": "Q28380758",
        "wikipedia": "be:Сеназавод",
        "id": "node/677383492"
      },
      "geometry": {
        "type": "Point",
        "coordinates": [
          30.4791667,
          52.3730744
        ]
      }
    },
    {
      "type": "Feature",
      "id": "node/919483758",
      "properties": {
        "esr:user": "166704",
        "int_name": "Vorša-Uschodniaja",
        "name": "Орша-Восточная",
        "name:be": "Ворша-Усходняя",
        "name:de": "Orscha-Ost",
        "name:en": "Orsha-East",
        "name:ru": "Орша-Восточная",
        "public_transport": "station",
        "railway": "station",
        "train": "yes",
        "uic_ref": "2100171",
        "id": "node/919483758"
      },
      "geometry": {
        "type": "Point",
        "coordinates": [
          30.4018903,
          54.5063136
        ]
      }
    },
    {
      "type": "Feature",
      "id": "node/937597487",
      "properties": {
        "esr:user": "160905",
        "int_name": "Šumilina",
        "name": "Шуміліна",
        "name:be": "Шуміліна",
        "name:ru": "Шумилино",
        "public_transport": "station",
        "railway": "station",
        "train": "yes",
        "uic_ref": "2100037",
        "id": "node/937597487"
      },
      "geometry": {
        "type": "Point",
        "coordinates": [
          29.618541,
          55.3035656
        ]
      }
    },
    {
      "type": "Feature",
      "id": "node/1034170744",
      "properties": {
        "alt_name:be": "Чыгуначны вакзал",
        "alt_name:ru": "Ж/д вокзал",
        "esr:user": "130007",
        "name": "Брест-Центральный",
        "name:be": "Брэст-Цэнтральны",
        "name:en": "Brest Central",
        "name:hu": "Brest-Centralnyi",
        "name:pl": "Brześć Centralny",
        "name:ru": "Брест-Центральный",
        "public_transport": "station",
        "railway": "station",
        "ref_name": "Brest Central",
        "train": "yes",
        "uic_name": "Brest Central",
        "uic_ref": "2100035",
        "wikidata": "Q800568",
        "wikipedia": "be:Брэст-Цэнтральны",
        "id": "node/1034170744"
      },
      "geometry": {
        "type": "Point",
        "coordinates": [
          23.681038,
          52.1000103
        ]
      }
    },
    {
      "type": "Feature",
      "id": "node/1102936837",
      "properties": {
        "esr:user": "145445",
        "int_name": "Viesialoŭski",
        "name": "Веселовский",
        "name:be": "Весялоўскі",
        "name:ru": "Веселовский",
        "public_transport": "station",
        "railway": "halt",
        "train": "yes",
        "uic_ref": "2100328",
        "id": "node/1102936837"
      },
      "geometry": {
        "type": "Point",
        "coordinates": [
          28.3092486,
          53.3901416
        ]
      }
    },
    {
      "type": "Feature",
      "id": "node/1139323117",
      "properties": {
        "esr:user": "151709",
        "int_name": "Mazyr",
        "name": "Мозырь",
        "name:be": "Мазыр",
        "name:lt": "Mozyrius",
        "name:ru": "Мозырь",
        "public_transport": "station",
        "railway": "station",
        "train": "yes",
        "uic_ref": "2100253",
        "wikidata": "Q28380626",
        "wikipedia": "be:Мазыр (станцыя)",
        "id": "node/1139323117"
      },
      "geometry": {
        "type": "Point",
        "coordinates": [
          29.2033649,
          52.0749049
        ]
      }
    },
    {
      "type": "Feature",
      "id": "node/1236299652",
      "properties": {
        "esr:user": "164304",
        "int_name": "Pastavy",
        "name": "Поставы",
        "name:be": "Паставы",
        "name:lt": "Pastovys",
        "name:pl": "Postawy",
        "name:ru": "Поставы",
        "name:uk": "Постави",
        "public_transport": "station",
        "railway": "station",
        "train": "yes",
        "uic_ref": "2100048",
        "wikidata": "Q28380702",
        "wikipedia": "be:Паставы (станцыя)",
        "id": "node/1236299652"
      },
      "geometry": {
        "type": "Point",
        "coordinates": [
          26.857599,
          55.1233039
        ]
      }
    },
    {
      "type": "Feature",
      "id": "node/1270159513",
      "properties": {
        "esr:user": "141321",
        "int_name": "Piačynski",
        "name": "Печинский",
        "name:be": "Пячынскі",
        "name:ru": "Печинский",
        "public_transport": "station",
        "railway": "halt",
        "train": "yes",
        "uic_ref": "2100688",
        "wikidata": "Q28380364",
        "wikipedia": "be:Пячынскі",
        "id": "node/1270159513"
      },
      "geometry": {
        "type": "Point",
        "coordinates": [
          28.4700282,
          54.1869726
        ]
      }
    },
    {
      "type": "Feature",
      "id": "node/1270159514",
      "properties": {
        "esr:user": "140920",
        "int_name": "Zahorje",
        "name": "Загорье",
        "name:be": "Загор'е",
        "name:ru": "Загорье",
        "public_transport": "station",
        "railway": "halt",
        "train": "yes",
        "uic_ref": "2100461",
        "wikidata": "Q28380144",
        "wikipedia": "be:Загор’е (прыпыначны пункт)",
        "id": "node/1270159514"
      },
      "geometry": {
        "type": "Point",
        "coordinates": [
          28.0091709,
          54.0096215
        ]
      }
    },
    {
      "type": "Feature",
      "id": "node/1270159515",
      "properties": {
        "esr:user": "141317",
        "int_name": "Pralietarskaja Pabieda",
        "name": "Пролетарская Победа",
        "name:be": "Пралетарская Пабеда",
        "name:ru": "Пролетарская Победа",
        "public_transport": "station",
        "railway": "halt",
        "train": "yes",
        "uic_ref": "2100458",
        "wikidata": "Q28380608",
        "wikipedia": "be:Пралетарская Пабеда",
        "id": "node/1270159515"
      },
      "geometry": {
        "type": "Point",
        "coordinates": [
          28.3991049,
          54.1379937
        ]
      }
    },
    {
      "type": "Feature",
      "id": "node/1390823768",
      "properties": {
        "esr:user": "163301",
        "int_name": "Smarhon",
        "name": "Сморгонь",
        "name:be": "Смаргонь",
        "name:de": "Smarhon",
        "name:en": "Smarhon",
        "name:lt": "Smurgainys",
        "name:pl": "Smorgonie",
        "name:ru": "Сморгонь",
        "name:uk": "Сморгонь",
        "public_transport": "station",
        "railway": "station",
        "train": "yes",
        "uic_ref": "2100205",
        "wikidata": "Q4425171",
        "wikipedia": "be:Смаргонь (станцыя)",
        "id": "node/1390823768"
      },
      "geometry": {
        "type": "Point",
        "coordinates": [
          26.371188,
          54.4753318
        ]
      }
    },
    {
      "type": "Feature",
      "id": "node/1390888197",
      "properties": {
        "esr:user": "164906",
        "int_name": "Hlybokaje",
        "name": "Глубокое",
        "name:be": "Глыбокае",
        "name:lt": "Glubokas",
        "name:ru": "Глубокое",
        "public_transport": "station",
        "railway": "station",
        "train": "yes",
        "uic_ref": "2100044",
        "wikidata": "Q28380482",
        "wikipedia": "be:Глыбокае (станцыя)",
        "id": "node/1390888197"
      },
      "geometry": {
        "type": "Point",
        "coordinates": [
          27.6717746,
          55.1328782
        ]
      }
    },
    {
      "type": "Feature",
      "id": "node/1563490090",
      "properties": {
        "esr:user": "158708",
        "int_name": "Rumina",
        "name": "Румино",
        "name:be": "Руміна",
        "name:ru": "Румино",
        "public_transport": "station",
        "railway": "station",
        "train": "yes",
        "uic_ref": "2100083",
        "wikidata": "Q28380741",
        "wikipedia": "be:Руміна (станцыя)",
        "id": "node/1563490090"
      },
      "geometry": {
        "type": "Point",
        "coordinates": [
          30.4601097,
          54.4402331
        ]
      }
    },
    {
      "type": "Feature",
      "id": "node/1565450555",
      "properties": {
        "contact:website": "https://www.rw.by/",
        "esr:user": "161128",
        "int_name": "Harany",
        "name": "Горяны",
        "name:be": "Гараны",
        "name:ru": "Горяны",
        "public_transport": "station",
        "railway": "station",
        "train": "yes",
        "uic_ref": "2100277",
        "wikidata": "Q28380493",
        "wikipedia": "be:Гараны (станцыя)",
        "id": "node/1565450555"
      },
      "geometry": {
        "type": "Point",
        "coordinates": [
          29.0342102,
          55.424962
        ]
      }
    },
    {
      "type": "Feature",
      "id": "node/1565450566",
      "properties": {
        "esr:user": "161221",
        "int_name": "Sosnica",
        "name": "Сосница",
        "name:be": "Сосніца",
        "name:ru": "Сосница",
        "public_transport": "station",
        "railway": "station",
        "train": "yes",
        "uic_ref": "2100483",
        "id": "node/1565450566"
      },
      "geometry": {
        "type": "Point",
        "coordinates": [
          28.831727,
          55.4803572
        ]
      }
    },
    {
      "type": "Feature",
      "id": "node/1613159132",
      "properties": {
        "alt_name": "Голошеевка",
        "esr:user": "142112",
        "int_name": "Halošaŭka",
        "name": "Голошевка",
        "name:be": "Галошаўка",
        "name:ru": "Голошевка",
        "public_transport": "station",
        "railway": "halt",
        "train": "yes",
        "uic_ref": "2100438",
        "wikidata": "Q28380069",
        "wikipedia": "be:Галошаўка (прыпыначны пункт)",
        "id": "node/1613159132"
      },
      "geometry": {
        "type": "Point",
        "coordinates": [
          30.0712729,
          54.4750104
        ]
      }
    },
    {
      "type": "Feature",
      "id": "node/1613918486",
      "properties": {
        "esr:user": "161838",
        "int_name": "Sarjanka",
        "name": "Сарьянка",
        "name:be": "Сар'янка",
        "name:ru": "Сарьянка",
        "public_transport": "station",
        "railway": "halt",
        "train": "yes",
        "uic_ref": "2100853",
        "wikidata": "Q28380672",
        "wikipedia": "be:Сар’янка (прыпыначны пункт)",
        "id": "node/1613918486"
      },
      "geometry": {
        "type": "Point",
        "coordinates": [
          27.8726423,
          55.8336223
        ]
      }
    },
    {
      "type": "Feature",
      "id": "node/1613920598",
      "properties": {
        "esr:user": "160040",
        "int_name": "Staroje Sialo",
        "name": "Старое Сяло",
        "name:be": "Старое Сяло",
        "name:ru": "Старое Село",
        "public_transport": "station",
        "railway": "station",
        "train": "yes",
        "uic_ref": "2100237",
        "id": "node/1613920598"
      },
      "geometry": {
        "type": "Point",
        "coordinates": [
          29.8848565,
          55.2278707
        ]
      }
    },
    {
      "type": "Feature",
      "id": "node/1613922636",
      "properties": {
        "esr:user": "160910",
        "int_name": "Loŭža",
        "name": "Лоўша",
        "name:be": "Лоўша",
        "name:ru": "Ловша",
        "public_transport": "station",
        "railway": "station",
        "train": "yes",
        "uic_ref": "2100236",
        "wikidata": "Q28380582",
        "wikipedia": "be:Лоўша (станцыя)",
        "id": "node/1613922636"
      },
      "geometry": {
        "type": "Point",
        "coordinates": [
          29.4498584,
          55.3170887
        ]
      }
    },
    {
      "type": "Feature",
      "id": "node/1632682369",
      "properties": {
        "esr:user": "162012",
        "int_name": "Adamova",
        "name": "Адамово",
        "name:be": "Адамова",
        "name:ru": "Адамово",
        "public_transport": "station",
        "railway": "station",
        "train": "yes",
        "uic_ref": "2100480",
        "wikidata": "Q28380400",
        "wikipedia": "be:Адамова (станцыя)",
        "id": "node/1632682369"
      },
      "geometry": {
        "type": "Point",
        "coordinates": [
          28.4692389,
          55.6212796
        ]
      }
    },
    {
      "type": "Feature",
      "id": "node/1632682372",
      "properties": {
        "esr:user": "161908",
        "int_name": "Borkavičy",
        "name": "Борковичи",
        "name:be": "Боркавічы",
        "name:ru": "Борковичи",
        "public_transport": "station",
        "railway": "station",
        "train": "yes",
        "uic_ref": "2100233",
        "wikidata": "Q28380426",
        "wikipedia": "be:Боркавічы (станцыя)",
        "id": "node/1632682372"
      },
      "geometry": {
        "type": "Point",
        "coordinates": [
          28.3262051,
          55.6702425
        ]
      }
    },
    {
      "type": "Feature",
      "id": "node/1656426614",
      "properties": {
        "esr:user": "164342",
        "int_name": "Haduciški",
        "name": "Годутишки",
        "name:be": "Гадуцішкі",
        "name:lt": "Adutiškis",
        "name:pl": "Hoduciszki",
        "name:ru": "Годутишки",
        "public_transport": "station",
        "railway": "halt",
        "train": "yes",
        "uic_ref": "2100471",
        "wikidata": "Q28380068",
        "wikipedia": "be:Гадуцішкі (прыпыначны пункт)",
        "id": "node/1656426614"
      },
      "geometry": {
        "type": "Point",
        "coordinates": [
          26.5820727,
          55.1512208
        ]
      }
    },
    {
      "type": "Feature",
      "id": "node/1778401687",
      "properties": {
        "esr:user": "154507",
        "int_name": "Chojniki",
        "name": "Хойники",
        "name:be": "Хойнікі",
        "name:lt": "Choinikai",
        "name:ru": "Хойники",
        "public_transport": "station",
        "railway": "station",
        "train": "yes",
        "uic_ref": "2100201",
        "wikidata": "Q28380831",
        "wikipedia": "be:Хойнікі (станцыя)",
        "id": "node/1778401687"
      },
      "geometry": {
        "type": "Point",
        "coordinates": [
          30.0064308,
          51.9184782
        ]
      }
    },
    {
      "type": "Feature",
      "id": "node/1818291750",
      "properties": {
        "esr:user": "150509",
        "int_name": "Dobruš",
        "name": "Добруш",
        "name:be": "Добруш",
        "name:lt": "Dobrušas",
        "name:ru": "Добруш",
        "public_transport": "station",
        "railway": "station",
        "train": "yes",
        "uic_ref": "2100192",
        "wikidata": "Q4163823",
        "wikipedia": "be:Добруш (станцыя)",
        "id": "node/1818291750"
      },
      "geometry": {
        "type": "Point",
        "coordinates": [
          31.3202507,
          52.3986188
        ]
      }
    },
    {
      "type": "Feature",
      "id": "node/1840983830",
      "properties": {
        "name": "Прудок",
        "public_transport": "station",
        "railway": "station",
        "train": "yes",
        "id": "node/1840983830"
      },
      "geometry": {
        "type": "Point",
        "coordinates": [
          30.9965566,
          52.4643739
        ]
      }
    },
    {
      "type": "Feature",
      "id": "node/1942498709",
      "properties": {
        "addr:city": "Орша",
        "addr:housenumber": "8",
        "addr:street": "улица Феликса Дзержинского",
        "int_name": "Orša-Centralnaja",
        "internet_access": "wlan",
        "name": "Орша-Центральная",
        "name:be": "Орша-Цэнтральная",
        "name:en": "Orsha-Central",
        "name:ru": "Орша-Центральная",
        "operator": "ГО \"Белорусская железная дорога\"",
        "public_transport": "station",
        "railway": "station",
        "train": "yes",
        "uic_name": "Orscha Central",
        "uic_ref": "2100170",
        "wheelchair": "yes",
        "wikidata": "Q2059835",
        "wikipedia": "be:Орша-Цэнтральная",
        "id": "node/1942498709"
      },
      "geometry": {
        "type": "Point",
        "coordinates": [
          30.3762318,
          54.5207406
        ]
      }
    },
    {
      "type": "Feature",
      "id": "node/1967211275",
      "properties": {
        "esr:user": "161518",
        "int_name": "Dretuń",
        "name": "Дретунь",
        "name:be": "Дрэтунь",
        "name:ru": "Дретунь",
        "public_transport": "station",
        "railway": "station",
        "train": "yes",
        "uic_ref": "2100034",
        "wikidata": "Q28380508",
        "wikipedia": "be:Дрэтунь (станцыя)",
        "id": "node/1967211275"
      },
      "geometry": {
        "type": "Point",
        "coordinates": [
          29.2142955,
          55.6986803
        ]
      }
    },
    {
      "type": "Feature",
      "id": "node/2131940016",
      "properties": {
        "esr:user": "141001",
        "int_name": "Smaliavičy",
        "name": "Смолевичи",
        "name:be": "Смалявічы",
        "name:ru": "Смолевичи",
        "public_transport": "station",
        "railway": "station",
        "train": "yes",
        "uic_ref": "2100007",
        "id": "node/2131940016"
      },
      "geometry": {
        "type": "Point",
        "coordinates": [
          28.0568505,
          54.0195953
        ]
      }
    },
    {
      "type": "Feature",
      "id": "node/2131997619",
      "properties": {
        "esr:user": "141228",
        "int_name": "Zarečnaje",
        "name": "Заречное",
        "name:be": "Зарэчнае",
        "name:ru": "Заречное",
        "public_transport": "station",
        "railway": "halt",
        "train": "yes",
        "uic_ref": "2101015",
        "id": "node/2131997619"
      },
      "geometry": {
        "type": "Point",
        "coordinates": [
          28.1004361,
          54.0247197
        ]
      }
    },
    {
      "type": "Feature",
      "id": "node/2201229833",
      "properties": {
        "esr:user": "147703",
        "int_name": "Biarezina",
        "name": "Березина",
        "name:be": "Бярэзіна",
        "name:ru": "Березина",
        "public_transport": "station",
        "railway": "station",
        "train": "yes",
        "uic_ref": "2100040",
        "id": "node/2201229833"
      },
      "geometry": {
        "type": "Point",
        "coordinates": [
          29.2491794,
          53.1309219
        ]
      }
    },
    {
      "type": "Feature",
      "id": "node/2316495221",
      "properties": {
        "esr:user": "143702",
        "name": "Дегтярёвка",
        "name:be": "Дзегцяроўка",
        "name:ru": "Дегтярёвка",
        "public_transport": "station",
        "railway": "station",
        "train": "yes",
        "uic_ref": "2100530",
        "id": "node/2316495221"
      },
      "geometry": {
        "type": "Point",
        "coordinates": [
          27.3501354,
          53.89293
        ]
      }
    },
    {
      "type": "Feature",
      "id": "node/2316495222",
      "properties": {
        "esr:user": "141529",
        "int_name": "Niemanica",
        "name": "Неманица",
        "name:be": "Неманіца",
        "name:ru": "Неманица",
        "public_transport": "station",
        "railway": "halt",
        "train": "yes",
        "uic_ref": "2101013",
        "id": "node/2316495222"
      },
      "geometry": {
        "type": "Point",
        "coordinates": [
          28.6447022,
          54.251619
        ]
      }
    },
    {
      "type": "Feature",
      "id": "node/2337486312",
      "properties": {
        "esr:user": "141618",
        "int_name": "Bieražok",
        "name": "Бережок",
        "name:be": "Беражок",
        "name:ru": "Бережок",
        "name:uk": "Бережок",
        "public_transport": "station",
        "railway": "halt",
        "train": "yes",
        "uic_ref": "2100456",
        "wikidata": "Q28379985",
        "wikipedia": "be:Беражок (прыпыначны пункт)",
        "id": "node/2337486312"
      },
      "geometry": {
        "type": "Point",
        "coordinates": [
          28.9329557,
          54.2970456
        ]
      }
    },
    {
      "type": "Feature",
      "id": "node/2377498212",
      "properties": {
        "esr:user": "164215",
        "int_name": "Jareva",
        "name": "Ярево",
        "name:be": "Ярэва",
        "name:ru": "Ярево",
        "public_transport": "station",
        "railway": "halt",
        "train": "yes",
        "uic_ref": "2100317",
        "id": "node/2377498212"
      },
      "geometry": {
        "type": "Point",
        "coordinates": [
          26.6838992,
          55.1380052
        ]
      }
    },
    {
      "type": "Feature",
      "id": "node/2513189100",
      "properties": {
        "esr:user": "131713",
        "int_name": "Vysokaje-Horad",
        "name": "Высокое-Город",
        "name:be": "Высокае-Горад",
        "name:ru": "Высокое-Город",
        "public_transport": "station",
        "railway": "halt",
        "train": "yes",
        "uic_ref": "2100863",
        "wikidata": "Q28380061",
        "wikipedia": "be:Высокае-Горад",
        "id": "node/2513189100"
      },
      "geometry": {
        "type": "Point",
        "coordinates": [
          23.4154998,
          52.3570626
        ]
      }
    },
    {
      "type": "Feature",
      "id": "node/2686680075",
      "properties": {
        "esr:user": "154459",
        "int_name": "Dziemiachi",
        "name": "Демехи",
        "name:be": "Дземяхі",
        "name:pl": "Demiechi",
        "name:ru": "Демехи",
        "public_transport": "station",
        "railway": "station",
        "train": "yes",
        "uic_ref": "2100203",
        "wikidata": "Q14927684",
        "wikipedia": "be:Дземяхі (станцыя)",
        "id": "node/2686680075"
      },
      "geometry": {
        "type": "Point",
        "coordinates": [
          30.2022815,
          52.3344234
        ]
      }
    },
    {
      "type": "Feature",
      "id": "node/2706005379",
      "properties": {
        "esr:user": "144508",
        "int_name": "Kojdanava",
        "name": "Койданово",
        "name:be": "Койданава",
        "name:ru": "Койданово",
        "network": "Брест - Москва",
        "public_transport": "station",
        "railway": "station",
        "train": "yes",
        "uic_ref": "2100028",
        "wikidata": "Q4227175",
        "wikipedia": "be:Койданава (станцыя)",
        "id": "node/2706005379"
      },
      "geometry": {
        "type": "Point",
        "coordinates": [
          27.1589871,
          53.682585
        ]
      }
    },
    {
      "type": "Feature",
      "id": "node/2706133520",
      "properties": {
        "esr:user": "144404",
        "int_name": "Nieharelaje",
        "name": "Негорелое",
        "name:be": "Негарэлае",
        "name:ru": "Негорелое",
        "public_transport": "station",
        "railway": "station",
        "train": "yes",
        "uic_ref": "2100029",
        "wikidata": "Q4315976",
        "wikipedia": "be:Негарэлае (станцыя)",
        "id": "node/2706133520"
      },
      "geometry": {
        "type": "Point",
        "coordinates": [
          27.072291,
          53.6070516
        ]
      }
    },
    {
      "type": "Feature",
      "id": "node/2728286047",
      "properties": {
        "esr:user": "142305",
        "int_name": "Uša",
        "name": "Уша",
        "name:be": "Уша",
        "name:pl": "Usza",
        "name:ru": "Уша",
        "public_transport": "station",
        "railway": "station",
        "train": "yes",
        "uic_ref": "2100021",
        "wikidata": "Q14927538",
        "wikipedia": "be:Уша (станцыя)",
        "id": "node/2728286047"
      },
      "geometry": {
        "type": "Point",
        "coordinates": [
          27.0664862,
          54.2529589
        ]
      }
    },
    {
      "type": "Feature",
      "id": "node/2737375271",
      "properties": {
        "description": "class 2",
        "esr:user": "138901",
        "int_name": "Baranavičy Palieskija",
        "name": "Барановичи-Полесские",
        "name:be": "Баранавічы Палескія",
        "name:ru": "Барановичи-Полесские",
        "public_transport": "station",
        "railway": "station",
        "train": "yes",
        "uic_name": "Baranovichi-Polesskie",
        "uic_ref": "2100010",
        "wikidata": "Q2030933",
        "wikipedia": "be:Баранавічы-Палескія",
        "id": "node/2737375271"
      },
      "geometry": {
        "type": "Point",
        "coordinates": [
          26.0422843,
          53.1291924
        ]
      }
    },
    {
      "type": "Feature",
      "id": "node/2761374171",
      "properties": {
        "esr:user": "139514",
        "int_name": "Maĺkavičy",
        "name": "Мальковичи",
        "name:be": "Малькавічы",
        "name:ru": "Мальковичи",
        "public_transport": "station",
        "railway": "station",
        "train": "yes",
        "uic_ref": "2100161",
        "wikidata": "Q28380594",
        "wikipedia": "be:Малькавічы (станцыя)",
        "id": "node/2761374171"
      },
      "geometry": {
        "type": "Point",
        "coordinates": [
          26.579211,
          52.5397001
        ]
      }
    },
    {
      "type": "Feature",
      "id": "node/2779764244",
      "properties": {
        "esr:user": "136200",
        "int_name": "Bierastavica",
        "name": "Берестовица",
        "name:be": "Бераставіца",
        "name:ru": "Берестовица",
        "public_transport": "station",
        "railway": "station",
        "train": "yes",
        "uic_ref": "2100155",
        "wikidata": "Q28380419",
        "wikipedia": "be:Бераставіца (станцыя)",
        "id": "node/2779764244"
      },
      "geometry": {
        "type": "Point",
        "coordinates": [
          23.9678025,
          53.1161085
        ]
      }
    },
    {
      "type": "Feature",
      "id": "node/2805708708",
      "properties": {
        "esr:user": "151802",
        "int_name": "Pchoŭ",
        "name": "Пхов",
        "name:be": "Пхоў",
        "name:ru": "Пхов",
        "public_transport": "station",
        "railway": "station",
        "train": "yes",
        "uic_ref": "2100249",
        "wikidata": "Q28380716",
        "wikipedia": "be:Пхоў",
        "id": "node/2805708708"
      },
      "geometry": {
        "type": "Point",
        "coordinates": [
          29.236289,
          52.0861351
        ]
      }
    },
    {
      "type": "Feature",
      "id": "node/2836243438",
      "properties": {
        "esr:user": "155714",
        "int_name": "Sož",
        "name": "Сож",
        "name:be": "Сож",
        "name:ru": "Сож",
        "public_transport": "station",
        "railway": "station",
        "train": "yes",
        "uic_ref": "2100447",
        "wikidata": "Q4426779",
        "wikipedia": "be:Сож (станцыя)",
        "id": "node/2836243438"
      },
      "geometry": {
        "type": "Point",
        "coordinates": [
          30.9869807,
          52.4977696
        ]
      }
    },
    {
      "type": "Feature",
      "id": "node/3040982844",
      "properties": {
        "esr:user": "140935",
        "int_name": "Damašany",
        "name": "Домашаны",
        "name:be": "Дамашаны",
        "name:ru": "Домашаны",
        "platforms": "2",
        "public_transport": "station",
        "railway": "halt",
        "train": "yes",
        "uic_ref": "2101151",
        "wikidata": "Q28380107",
        "wikipedia": "be:Дамашаны (прыпыначны пункт)",
        "id": "node/3040982844"
      },
      "geometry": {
        "type": "Point",
        "coordinates": [
          27.9513062,
          53.9931987
        ]
      }
    },
    {
      "type": "Feature",
      "id": "node/3049611945",
      "properties": {
        "esr:user": "153846",
        "int_name": "Kalinkavičy Uschodnija",
        "name": "Калинковичи-Восточные",
        "name:be": "Калінкавічы Усходнія",
        "name:ru": "Калинковичи-Восточные",
        "public_transport": "station",
        "railway": "station",
        "train": "yes",
        "uic_ref": "2100813",
        "id": "node/3049611945"
      },
      "geometry": {
        "type": "Point",
        "coordinates": [
          29.3504354,
          52.1406329
        ]
      }
    },
    {
      "type": "Feature",
      "id": "node/3049681593",
      "properties": {
        "esr:user": "154800",
        "int_name": "Rečyca",
        "name": "Речица",
        "name:be": "Рэчыца",
        "name:ru": "Речица",
        "public_transport": "station",
        "railway": "station",
        "train": "yes",
        "uic_ref": "2100195",
        "id": "node/3049681593"
      },
      "geometry": {
        "type": "Point",
        "coordinates": [
          30.3934602,
          52.3492366
        ]
      }
    },
    {
      "type": "Feature",
      "id": "node/3245901789",
      "properties": {
        "esr:user": "141500",
        "int_name": "Navasady",
        "name": "Новосады",
        "name:be": "Навасады",
        "name:ru": "Новосады",
        "public_transport": "station",
        "railway": "station",
        "train": "yes",
        "uic_ref": "2100008",
        "wikidata": "Q28380659",
        "wikipedia": "be:Навасады (станцыя)",
        "id": "node/3245901789"
      },
      "geometry": {
        "type": "Point",
        "coordinates": [
          28.6978668,
          54.2507066
        ]
      }
    },
    {
      "type": "Feature",
      "id": "node/3309974961",
      "properties": {
        "esr:user": "157423",
        "int_name": "Viendryž",
        "name": "Вендриж",
        "name:be": "Вендрыж",
        "name:ru": "Вендриж",
        "public_transport": "station",
        "railway": "station",
        "train": "yes",
        "uic_ref": "2100081",
        "wikidata": "Q28380445",
        "wikipedia": "be:Вендрыж (станцыя)",
        "id": "node/3309974961"
      },
      "geometry": {
        "type": "Point",
        "coordinates": [
          30.0365835,
          53.8034068
        ]
      }
    },
    {
      "type": "Feature",
      "id": "node/3309974963",
      "properties": {
        "esr:user": "157300",
        "int_name": "Druć",
        "name": "Друть",
        "name:be": "Друць",
        "name:ru": "Друть",
        "public_transport": "station",
        "railway": "station",
        "train": "yes",
        "uic_ref": "2100079",
        "wikidata": "Q28380511",
        "wikipedia": "be:Друць (станцыя)",
        "id": "node/3309974963"
      },
      "geometry": {
        "type": "Point",
        "coordinates": [
          29.7752393,
          53.7041506
        ]
      }
    },
    {
      "type": "Feature",
      "id": "node/3396725382",
      "properties": {
        "esr:user": "161700",
        "int_name": "Bihosava",
        "name": "Бигосово",
        "name:be": "Бігосава",
        "name:ru": "Бигосово",
        "public_transport": "station",
        "railway": "station",
        "train": "yes",
        "uic_ref": "2100031",
        "wikidata": "Q28380420",
        "wikipedia": "be:Бігосава (станцыя)",
        "id": "node/3396725382"
      },
      "geometry": {
        "type": "Point",
        "coordinates": [
          27.7375197,
          55.8343073
        ]
      }
    },
    {
      "type": "Feature",
      "id": "node/3412602231",
      "properties": {
        "esr:user": "141800",
        "int_name": "Bobr",
        "name": "Бобр",
        "name:be": "Бобр",
        "name:en": "Bobr",
        "name:ru": "Бобр",
        "public_transport": "station",
        "railway": "station",
        "train": "yes",
        "uic_ref": "2100012",
        "id": "node/3412602231"
      },
      "geometry": {
        "type": "Point",
        "coordinates": [
          29.2619001,
          54.3196424
        ]
      }
    },
    {
      "type": "Feature",
      "id": "node/3412602232",
      "properties": {
        "esr:user": "141942",
        "int_name": "Narcyzava",
        "name": "Нарцизово",
        "name:be": "Нарцызава",
        "name:ru": "Нарцизово",
        "public_transport": "station",
        "railway": "halt",
        "train": "yes",
        "uic_ref": "2100999",
        "id": "node/3412602232"
      },
      "geometry": {
        "type": "Point",
        "coordinates": [
          29.5511982,
          54.3409118
        ]
      }
    },
    {
      "type": "Feature",
      "id": "node/3412602233",
      "properties": {
        "esr:user": "141711",
        "int_name": "Novaje Žyccio",
        "name": "Новая Жизнь",
        "name:be": "Новае Жыццё",
        "name:ru": "Новая Жизнь",
        "public_transport": "station",
        "railway": "halt",
        "train": "yes",
        "uic_ref": "2101043",
        "wikidata": "Q28380332",
        "wikipedia": "be:Новае Жыццё (прыпыначны пункт)",
        "id": "node/3412602233"
      },
      "geometry": {
        "type": "Point",
        "coordinates": [
          29.1308531,
          54.3063599
        ]
      }
    },
    {
      "type": "Feature",
      "id": "node/3721358306",
      "properties": {
        "esr:user": "162402",
        "int_name": "Juraciški",
        "name": "Юратишки",
        "name:be": "Юрацішкі",
        "name:ru": "Юратишки",
        "public_transport": "station",
        "railway": "station",
        "train": "yes",
        "uic_ref": "2100059",
        "wikidata": "Q28380868",
        "wikipedia": "be:Юрацішкі (станцыя)",
        "id": "node/3721358306"
      },
      "geometry": {
        "type": "Point",
        "coordinates": [
          25.9171083,
          54.0642938
        ]
      }
    },
    {
      "type": "Feature",
      "id": "node/3888267465",
      "properties": {
        "esr:user": "148602",
        "int_name": "Sluck",
        "name": "Слуцк",
        "name:be": "Слуцк",
        "name:ru": "Слуцк",
        "public_transport": "station",
        "railway": "station",
        "train": "yes",
        "uic_ref": "2100055",
        "wikidata": "Q28380772",
        "wikipedia": "be:Слуцк (станцыя)",
        "id": "node/3888267465"
      },
      "geometry": {
        "type": "Point",
        "coordinates": [
          27.5226527,
          53.013968
        ]
      }
    },
    {
      "type": "Feature",
      "id": "node/4448459142",
      "properties": {
        "esr:user": "140808",
        "int_name": "Kalodziščy",
        "name": "Колодищи",
        "name:be": "Калодзішчы",
        "name:ru": "Колодищи",
        "public_transport": "station",
        "railway": "station",
        "train": "yes",
        "uic_ref": "2100006",
        "wikidata": "Q4228184",
        "wikipedia": "be:Калодзішчы (станцыя)",
        "id": "node/4448459142"
      },
      "geometry": {
        "type": "Point",
        "coordinates": [
          27.7749292,
          53.9454227
        ]
      }
    },
    {
      "type": "Feature",
      "id": "node/4453758152",
      "properties": {
        "alt_name": "Голошеевка",
        "esr:user": "142112",
        "int_name": "Halošaŭka",
        "name": "Голошевка",
        "name:be": "Галошаўка",
        "name:ru": "Голошевка",
        "public_transport": "station",
        "railway": "stop",
        "train": "yes",
        "id": "node/4453758152"
      },
      "geometry": {
        "type": "Point",
        "coordinates": [
          30.071306,
          54.4749832
        ]
      }
    },
    {
      "type": "Feature",
      "id": "node/4498286865",
      "properties": {
        "esr:user": "152006",
        "int_name": "Sitnica",
        "name": "Ситница",
        "name:be": "Сітніца",
        "name:ru": "Ситница",
        "public_transport": "station",
        "railway": "station",
        "train": "yes",
        "uic_ref": "2100142",
        "id": "node/4498286865"
      },
      "geometry": {
        "type": "Point",
        "coordinates": [
          27.4070002,
          52.2084416
        ]
      }
    },
    {
      "type": "Feature",
      "id": "node/4568623545",
      "properties": {
        "esr:user": "163802",
        "int_name": "Budslaŭ",
        "name": "Будслав",
        "name:be": "Будслаў",
        "name:ru": "Будслав",
        "public_transport": "station",
        "railway": "station",
        "train": "yes",
        "uic_ref": "2100027",
        "wikidata": "Q28380438",
        "wikipedia": "be:Будслаў (станцыя)",
        "id": "node/4568623545"
      },
      "geometry": {
        "type": "Point",
        "coordinates": [
          27.4071309,
          54.7911653
        ]
      }
    },
    {
      "type": "Feature",
      "id": "node/5059023449",
      "properties": {
        "int_name": "Kandibor",
        "internet_access": "no",
        "name": "Кандибор",
        "name:be": "Кандзібор",
        "name:en": "Kandibor",
        "name:ru": "Кандибор",
        "operator": "БЧ",
        "public_transport": "station",
        "railway": "station",
        "train": "yes",
        "wikipedia:be": "Кандзібор",
        "id": "node/5059023449"
      },
      "geometry": {
        "type": "Point",
        "coordinates": [
          23.6710266,
          52.1396443
        ]
      }
    },
    {
      "type": "Feature",
      "id": "node/5352282354",
      "properties": {
        "esr:user": "141410",
        "int_name": "Biarezina",
        "name": "Березина",
        "name:be": "Бярэзіна",
        "name:ru": "Березина",
        "public_transport": "station",
        "railway": "halt",
        "train": "yes",
        "uic_ref": "2100687",
        "wikidata": "Q28379987",
        "wikipedia": "be:Беразіна (прыпыначны пункт)",
        "id": "node/5352282354"
      },
      "geometry": {
        "type": "Point",
        "coordinates": [
          28.5525455,
          54.2413319
        ]
      }
    },
    {
      "type": "Feature",
      "id": "node/5577621604",
      "properties": {
        "esr:user": "153808",
        "int_name": "Kalinkavičy",
        "name": "Калинковичи",
        "name:be": "Калінкавічы",
        "name:lt": "Kalinkavičai",
        "name:ru": "Калинковичи",
        "public_transport": "station",
        "railway": "station",
        "train": "yes",
        "uic_ref": "2100090",
        "id": "node/5577621604"
      },
      "geometry": {
        "type": "Point",
        "coordinates": [
          29.3134619,
          52.1389091
        ]
      }
    },
    {
      "type": "Feature",
      "id": "node/5580688560",
      "properties": {
        "esr:user": "161109",
        "name": "Оболь",
        "name:be": "Обаль",
        "name:ru": "Оболь",
        "public_transport": "station",
        "railway": "station",
        "train": "yes",
        "uic_ref": "2100036",
        "id": "node/5580688560"
      },
      "geometry": {
        "type": "Point",
        "coordinates": [
          29.2749756,
          55.3635756
        ]
      }
    },
    {
      "type": "Feature",
      "id": "node/5821196161",
      "properties": {
        "esr:user": "135301",
        "name": "Аульс",
        "name:be": "Аульс",
        "name:ru": "Аульс",
        "operator": "Барановичское отделение БЖД",
        "public_transport": "station",
        "railway": "station",
        "train": "yes",
        "uic_ref": "2100545",
        "wikidata": "Q28380405",
        "id": "node/5821196161"
      },
      "geometry": {
        "type": "Point",
        "coordinates": [
          23.9596152,
          53.6742759
        ]
      }
    },
    {
      "type": "Feature",
      "id": "node/5843905344",
      "properties": {
        "esr:user": "131207",
        "int_name": "Žabinka",
        "name": "Жабинка",
        "name:be": "Жабінка",
        "name:lt": "Žabinka",
        "name:pl": "Żabinka",
        "name:ru": "Жабинка",
        "public_transport": "station",
        "railway": "station",
        "train": "yes",
        "uic_name": "Shabinka",
        "uic_ref": "2100095",
        "id": "node/5843905344"
      },
      "geometry": {
        "type": "Point",
        "coordinates": [
          24.0171607,
          52.2009107
        ]
      }
    },
    {
      "type": "Feature",
      "id": "node/5844140825",
      "properties": {
        "esr:user": "133700",
        "int_name": "Biaroza Kartuzskaja",
        "name": "Берёза-Картузская",
        "name:be": "Бяроза Картузская",
        "name:pl": "Bereza Kartuska",
        "name:ru": "Берёза-Картузская",
        "public_transport": "station",
        "railway": "station",
        "train": "yes",
        "uic_name": "Beresa-Kartuskaja",
        "uic_ref": "2100030",
        "wikidata": "Q18400607",
        "wikipedia": "be:Бяроза-Картузская (станцыя)",
        "id": "node/5844140825"
      },
      "geometry": {
        "type": "Point",
        "coordinates": [
          24.8994016,
          52.5329565
        ]
      }
    },
    {
      "type": "Feature",
      "id": "node/5844409159",
      "properties": {
        "esr:user": "138507",
        "int_name": "Baranavičy Centraĺnyja",
        "name": "Барановичи-Центральные",
        "name:be": "Баранавічы Цэнтральныя",
        "name:ru": "Барановичи-Центральные",
        "public_transport": "station",
        "railway": "station",
        "train": "yes",
        "uic_name": "Baranovichi Centralyne",
        "uic_ref": "2100020",
        "wikidata": "Q2034932",
        "wikipedia": "be:Баранавічы-Цэнтральныя",
        "id": "node/5844409159"
      },
      "geometry": {
        "type": "Point",
        "coordinates": [
          25.9935383,
          53.1321512
        ]
      }
    },
    {
      "type": "Feature",
      "id": "node/5847112586",
      "properties": {
        "esr:user": "140304",
        "int_name": "Minsk Uschodni",
        "name": "Минск-Восточный",
        "name:be": "Мінск-Усходні",
        "name:ru": "Минск-Восточный",
        "public_transport": "station",
        "railway": "station",
        "train": "yes",
        "uic_ref": "2101010",
        "wikidata": "Q3919685",
        "wikipedia": "ru:Минск-Восточный",
        "id": "node/5847112586"
      },
      "geometry": {
        "type": "Point",
        "coordinates": [
          27.5857338,
          53.8906887
        ]
      }
    },
    {
      "type": "Feature",
      "id": "node/6333070571",
      "properties": {
        "public_transport": "station",
        "railway": "station",
        "train": "yes",
        "id": "node/6333070571"
      },
      "geometry": {
        "type": "Point",
        "coordinates": [
          30.2632089,
          53.8638865
        ]
      }
    },
    {
      "type": "Feature",
      "id": "node/6387991486",
      "properties": {
        "esr:user": "141105",
        "int_name": "Šemietava",
        "name": "Шеметово",
        "name:be": "Шэметава",
        "name:ru": "Шеметово",
        "public_transport": "station",
        "railway": "station",
        "train": "yes",
        "id": "node/6387991486"
      },
      "geometry": {
        "type": "Point",
        "coordinates": [
          28.0562638,
          53.8836984
        ]
      }
    },
    {
      "type": "Feature",
      "id": "node/6528112558",
      "properties": {
        "esr:user": "150015",
        "name": "Ерёмино",
        "name:be": "Яроміна",
        "name:ru": "Ерёмино",
        "public_transport": "station",
        "railway": "halt",
        "train": "yes",
        "uic_ref": "2100248",
        "wikidata": "Q28380124",
        "wikipedia": "be:Яроміна (прыпыначны пункт)",
        "id": "node/6528112558"
      },
      "geometry": {
        "type": "Point",
        "coordinates": [
          30.9532788,
          52.5111801
        ]
      }
    },
    {
      "type": "Feature",
      "id": "node/6768823616",
      "properties": {
        "int_name": "Soly",
        "name": "Солы",
        "name:be": "Солы",
        "public_transport": "station",
        "railway": "station",
        "train": "yes",
        "uic_ref": "2100023",
        "id": "node/6768823616"
      },
      "geometry": {
        "type": "Point",
        "coordinates": [
          26.1924793,
          54.5097767
        ]
      }
    },
    {
      "type": "Feature",
      "id": "node/6879265632",
      "properties": {
        "internet_access": "no",
        "name": "Пункт переправы \"Домашицы\"",
        "public_transport": "station",
        "railway": "halt",
        "train": "yes",
        "id": "node/6879265632"
      },
      "geometry": {
        "type": "Point",
        "coordinates": [
          25.961195,
          52.0862207
        ]
      }
    },
    {
      "type": "Feature",
      "id": "node/6879265633",
      "properties": {
        "internet_access": "no",
        "name": "Пункт переправы \"Житновичи\"",
        "public_transport": "station",
        "railway": "halt",
        "train": "yes",
        "id": "node/6879265633"
      },
      "geometry": {
        "type": "Point",
        "coordinates": [
          25.9614699,
          52.0848334
        ]
      }
    },
    {
      "type": "Feature",
      "id": "node/7095852974",
      "properties": {
        "name": "Пересадочная",
        "network": "Укрзалізниця",
        "operator": "Південно-Західна залізниця",
        "public_transport": "station",
        "railway:historic": "station",
        "train": "yes",
        "id": "node/7095852974"
      },
      "geometry": {
        "type": "Point",
        "coordinates": [
          30.4555537,
          51.4915676
        ]
      }
    },
    {
      "type": "Feature",
      "id": "node/7097848075",
      "properties": {
        "historic:railway": "halt",
        "name": "Колыбань",
        "network": "Укрзалізниця",
        "operator": "Південно-Західна залізниця",
        "public_transport": "station",
        "train": "yes",
        "id": "node/7097848075"
      },
      "geometry": {
        "type": "Point",
        "coordinates": [
          30.3791459,
          51.4815476
        ]
      }
    },
    {
      "type": "Feature",
      "id": "node/7097863298",
      "properties": {
        "name": "Капоранка",
        "network": "Укрзалізниця",
        "operator": "Південно-Західна залізниця",
        "public_transport": "station",
        "railway:historic": "halt",
        "train": "yes",
        "id": "node/7097863298"
      },
      "geometry": {
        "type": "Point",
        "coordinates": [
          30.4417027,
          51.4885063
        ]
      }
    },
    {
      "type": "Feature",
      "id": "node/7117340536",
      "properties": {
        "name": "Кобыльник",
        "network": "БЧ",
        "operator": "Витебское отделение",
        "public_transport": "station",
        "railway:historic": "station",
        "train": "yes",
        "id": "node/7117340536"
      },
      "geometry": {
        "type": "Point",
        "coordinates": [
          26.6709204,
          54.9321133
        ]
      }
    },
    {
      "type": "Feature",
      "id": "node/7117854791",
      "properties": {
        "name": "Бульба(рзд)",
        "network": "БЧ",
        "operator": "Гомельское отделение",
        "public_transport": "station",
        "railway:historic": "halt:",
        "train": "yes",
        "id": "node/7117854791"
      },
      "geometry": {
        "type": "Point",
        "coordinates": [
          29.6580845,
          52.1504062
        ]
      }
    },
    {
      "type": "Feature",
      "id": "node/7117859143",
      "properties": {
        "name": "Ольша",
        "network": "БЧ",
        "operator": "Витебское отделение",
        "public_transport": "station",
        "railway:historic": "halt",
        "train": "yes",
        "id": "node/7117859143"
      },
      "geometry": {
        "type": "Point",
        "coordinates": [
          26.7268967,
          55.1326922
        ]
      }
    },
    {
      "type": "Feature",
      "id": "node/7117873978",
      "properties": {
        "name": "Рандовский",
        "network": "БЧ",
        "operator": "Гомельское отделение",
        "public_transport": "station",
        "railway": "station",
        "railway:historic": "halt",
        "train": "yes",
        "id": "node/7117873978"
      },
      "geometry": {
        "type": "Point",
        "coordinates": [
          30.8403162,
          52.4195401
        ]
      }
    },
    {
      "type": "Feature",
      "id": "node/7119740134",
      "properties": {
        "historic:railway": "station",
        "name": "Экимань",
        "network": "БЧ",
        "operator": "Витебское отделение",
        "public_transport": "station",
        "railway": "station",
        "train": "yes",
        "id": "node/7119740134"
      },
      "geometry": {
        "type": "Point",
        "coordinates": [
          28.770691,
          55.4674249
        ]
      }
    },
    {
      "type": "Feature",
      "id": "node/8921148867",
      "properties": {
        "esr:user": "155502",
        "name": "Костюковка",
        "name:be": "Касцюкоўка",
        "name:ru": "Костюковка",
        "public_transport": "station",
        "railway": "station",
        "train": "yes",
        "uic_ref": "2100678",
        "wikidata": "Q4235677",
        "wikipedia": "be:Касцюкоўка (станцыя)",
        "id": "node/8921148867"
      },
      "geometry": {
        "type": "Point",
        "coordinates": [
          30.9407777,
          52.5241699
        ]
      }
    }
  ]
}