{
  "type": "FeatureCollection",
  "features": [
    {
      "type": "Feature",
      "id": "node/52220985",
      "properties": {
        "ele": "787",
        "name": "Le Day",
        "operator": "SBB",
        "public_transport": "station",
        "railway": "station",
        "railway:ref": "DAY",
        "train": "yes",
        "uic_name": "Day, Le",
        "uic_ref": "8501104",
        "wikidata": "Q31444435",
        "id": "node/52220985"
      },
      "geometry": {
        "type": "Point",
        "coordinates": [
          6.4007001,
          46.7172543
        ]
      }
    },
    {
      "type": "Feature",
      "id": "node/240052938",
      "properties": {
        "ele": "1605",
        "name": "Zermatt",
        "operator": "MGB",
        "public_transport": "station",
        "railway": "station",
        "toilets:wheelchair": "yes",
        "train": "yes",
        "uic_name": "Zermatt",
        "uic_ref": "8501689",
        "wheelchair": "yes",
        "wikidata": "Q8069422",
        "id": "node/240052938"
      },
      "geometry": {
        "type": "Point",
        "coordinates": [
          7.7481294,
          46.0245732
        ]
      }
    },
    {
      "type": "Feature",
      "id": "node/255076727",
      "properties": {
        "ele": "577",
        "name": "Chur Wiesental",
        "network": "ch-direct",
        "operator": "RhB",
        "operator:wikidata": "Q177598",
        "public_transport": "station",
        "railway": "halt",
        "train": "yes",
        "uic_name": "Chur Wiesental",
        "uic_ref": "8509006",
        "wikidata": "Q5116512",
        "wikipedia": "en:Chur Wiesental (Rhaetian Railway station)",
        "id": "node/255076727"
      },
      "geometry": {
        "type": "Point",
        "coordinates": [
          9.5315073,
          46.8616591
        ]
      }
    },
    {
      "type": "Feature",
      "id": "node/256494674",
      "properties": {
        "ele": "1383",
        "name": "Cadera",
        "operator": "RhB",
        "operator:wikidata": "Q177598",
        "public_transport": "station",
        "railway": "station",
        "train": "yes",
        "uic_name": "Cadera",
        "uic_ref": "8509359",
        "wikidata": "Q5016390",
        "wikipedia": "en:Cadera (Rhaetian Railway station)",
        "id": "node/256494674"
      },
      "geometry": {
        "type": "Point",
        "coordinates": [
          10.0513496,
          46.345284
        ]
      }
    },
    {
      "type": "Feature",
      "id": "node/256496188",
      "properties": {
        "ele": "1014",
        "name": "Poschiavo",
        "name:de": "Puschlav",
        "operator": "RhB",
        "operator:wikidata": "Q177598",
        "public_transport": "station",
        "railway": "station",
        "train": "yes",
        "uic_name": "Poschiavo",
        "uic_ref": "8509361",
        "wikidata": "Q10640085",
        "wikipedia": "en:Poschiavo (Rhaetian Railway station)",
        "id": "node/256496188"
      },
      "geometry": {
        "type": "Point",
        "coordinates": [
          10.0544575,
          46.3247016
        ]
      }
    },
    {
      "type": "Feature",
      "id": "node/257555031",
      "properties": {
        "ele": "669",
        "name": "Valendas-Sagogn",
        "operator": "RhB",
        "operator:wikidata": "Q177598",
        "public_transport": "station",
        "railway": "station",
        "train": "yes",
        "uic_name": "Valendas-Sagogn",
        "uic_ref": "8509169",
        "wikidata": "Q7910694",
        "wikipedia": "en:Valendas-Sagogn (Rhaetian Railway station)",
        "id": "node/257555031"
      },
      "geometry": {
        "type": "Point",
        "coordinates": [
          9.2754966,
          46.7917745
        ]
      }
    },
    {
      "type": "Feature",
      "id": "node/258400840",
      "properties": {
        "ele": "655",
        "name": "Castrisch",
        "operator": "RhB",
        "operator:wikidata": "Q177598",
        "public_transport": "station",
        "railway": "station",
        "train": "yes",
        "uic_name": "Castrisch",
        "uic_ref": "8509170",
        "wikidata": "Q5050776",
        "wikipedia": "en:Castrisch (Rhaetian Railway station)",
        "id": "node/258400840"
      },
      "geometry": {
        "type": "Point",
        "coordinates": [
          9.2326425,
          46.7785328
        ]
      }
    },
    {
      "type": "Feature",
      "id": "node/258400869",
      "properties": {
        "ele": "698",
        "name": "Ilanz / Glion",
        "name:de": "Ilanz",
        "name:rm": "Glion",
        "note": "In february 2011, the inscriptions where in both german/romanch",
        "operator": "RhB",
        "operator:wikidata": "Q177598",
        "public_transport": "station",
        "railway": "station",
        "train": "yes",
        "uic_name": "Ilanz",
        "uic_ref": "8509171",
        "wheelchair": "yes",
        "wikidata": "Q800945",
        "wikipedia": "en:Ilanz (Rhaetian Railway station)",
        "id": "node/258400869"
      },
      "geometry": {
        "type": "Point",
        "coordinates": [
          9.2075426,
          46.7755372
        ]
      }
    },
    {
      "type": "Feature",
      "id": "node/273415547",
      "properties": {
        "ele": "476",
        "name": "Bischofszell Nord",
        "operator": "SBB",
        "public_transport": "station",
        "railway": "station",
        "railway:ref": "BZN",
        "train": "yes",
        "uic_name": "Bischofszell Nord",
        "uic_ref": "8506215",
        "wikidata": "Q5845836",
        "id": "node/273415547"
      },
      "geometry": {
        "type": "Point",
        "coordinates": [
          9.2344663,
          47.5009355
        ]
      }
    },
    {
      "type": "Feature",
      "id": "node/287831089",
      "properties": {
        "ele": "543",
        "name": "Goldau A 4",
        "operator": "RB",
        "public_transport": "station",
        "railway": "halt",
        "train": "yes",
        "uic_name": "Goldau A4",
        "uic_ref": "8505062",
        "wheelchair": "no",
        "wikidata": "Q668122",
        "wikipedia": "de:Arth-Rigi-Bahn",
        "id": "node/287831089"
      },
      "geometry": {
        "type": "Point",
        "coordinates": [
          8.5471965,
          47.0434789
        ]
      }
    },
    {
      "type": "Feature",
      "id": "node/301508650",
      "properties": {
        "ele": "518",
        "name": "Münchwilen",
        "operator": "FW",
        "public_transport": "station",
        "railway": "halt",
        "train": "yes",
        "uic_name": "Münchwilen TG",
        "uic_ref": "8506178",
        "wikidata": "Q33505470",
        "id": "node/301508650"
      },
      "geometry": {
        "type": "Point",
        "coordinates": [
          8.9993299,
          47.4768234
        ]
      }
    },
    {
      "type": "Feature",
      "id": "node/309543392",
      "properties": {
        "name": "Corviglia (Bergstation)",
        "operator": "SMBB",
        "public_transport": "station",
        "railway": "station",
        "train": "yes",
        "uic_name": "Corviglia (Bergstation)",
        "uic_ref": "8509272",
        "id": "node/309543392"
      },
      "geometry": {
        "type": "Point",
        "coordinates": [
          9.819268,
          46.5076619
        ]
      }
    },
    {
      "type": "Feature",
      "id": "node/309543453",
      "properties": {
        "ele": "1775",
        "name": "St. Moritz (Standseilbahn)",
        "operator": "SMBB",
        "public_transport": "station",
        "railway": "station",
        "train": "yes",
        "uic_name": "St. Moritz (Standseilbahn)",
        "uic_ref": "8509270",
        "id": "node/309543453"
      },
      "geometry": {
        "type": "Point",
        "coordinates": [
          9.8377557,
          46.4987623
        ]
      }
    },
    {
      "type": "Feature",
      "id": "node/309543456",
      "properties": {
        "name": "Chantarella",
        "operator": "SMBB",
        "public_transport": "station",
        "railway": "station",
        "train": "yes",
        "uic_name": "Chantarella",
        "uic_ref": "8509271",
        "id": "node/309543456"
      },
      "geometry": {
        "type": "Point",
        "coordinates": [
          9.8353343,
          46.5017618
        ]
      }
    },
    {
      "type": "Feature",
      "id": "node/315935032",
      "properties": {
        "ele": "525",
        "name": "Buchmatt",
        "operator": "BLS",
        "public_transport": "station",
        "railway": "station",
        "train": "yes",
        "uic_name": "Burgdorf Buchmatt",
        "uic_ref": "8508083",
        "wikidata": "Q33509192",
        "id": "node/315935032"
      },
      "geometry": {
        "type": "Point",
        "coordinates": [
          7.6080503,
          47.0655594
        ]
      }
    },
    {
      "type": "Feature",
      "id": "node/484308388",
      "properties": {
        "ele": "451",
        "name": "Matzingen",
        "operator": "FW",
        "public_transport": "station",
        "railway": "station",
        "train": "yes",
        "uic_name": "Matzingen",
        "uic_ref": "8506174",
        "wikidata": "Q33505389",
        "id": "node/484308388"
      },
      "geometry": {
        "type": "Point",
        "coordinates": [
          8.9329648,
          47.5204592
        ]
      }
    },
    {
      "type": "Feature",
      "id": "node/549315239",
      "properties": {
        "ele": "518",
        "name": "Münchwilen Pflegeheim",
        "operator": "FW",
        "public_transport": "station",
        "railway": "station",
        "train": "yes",
        "uic_name": "Münchwilen Pflegeheim",
        "uic_ref": "8506170",
        "wheelchair": "limited",
        "wikidata": "Q33505330",
        "id": "node/549315239"
      },
      "geometry": {
        "type": "Point",
        "coordinates": [
          8.9918444,
          47.4814615
        ]
      }
    },
    {
      "type": "Feature",
      "id": "node/549328645",
      "properties": {
        "ele": "487",
        "name": "Rosental",
        "operator": "FW",
        "public_transport": "station",
        "railway": "station",
        "train": "yes",
        "uic_name": "Rosental",
        "uic_ref": "8506177",
        "wikidata": "Q33505444",
        "id": "node/549328645"
      },
      "geometry": {
        "type": "Point",
        "coordinates": [
          8.9753004,
          47.4923132
        ]
      }
    },
    {
      "type": "Feature",
      "id": "node/752483204",
      "properties": {
        "name": "Oberschwanden",
        "public_transport": "station",
        "railway": "station",
        "train": "yes",
        "id": "node/752483204"
      },
      "geometry": {
        "type": "Point",
        "coordinates": [
          8.482492,
          47.0214033
        ]
      }
    },
    {
      "type": "Feature",
      "id": "node/752487082",
      "properties": {
        "ele": "510",
        "name": "Arth-Goldau Rigibahn",
        "operator": "RB",
        "public_transport": "station",
        "railway": "station",
        "train": "yes",
        "uic_name": "Arth-Goldau RB",
        "uic_ref": "8505063",
        "wheelchair": "yes",
        "wikidata": "Q668122",
        "wikipedia": "de:Arth-Rigi-Bahn",
        "id": "node/752487082"
      },
      "geometry": {
        "type": "Point",
        "coordinates": [
          8.5478184,
          47.0491515
        ]
      }
    },
    {
      "type": "Feature",
      "id": "node/983969299",
      "properties": {
        "ele": "735",
        "name": "Affoltern-Weier",
        "operator": "ETB",
        "public_transport": "station",
        "railway": "station",
        "railway:ref": "AFWE",
        "train": "yes",
        "wikidata": "Q800359",
        "id": "node/983969299"
      },
      "geometry": {
        "type": "Point",
        "coordinates": [
          7.7497742,
          47.0619064
        ]
      }
    },
    {
      "type": "Feature",
      "id": "node/984013992",
      "properties": {
        "ele": "573",
        "name": "Grafenort",
        "operator": "ZB",
        "public_transport": "station",
        "railway": "station",
        "railway:ref": "GRAF",
        "source": "Bundesamt für Verkehr (BAV), DIDOK 2009",
        "train": "yes",
        "uic_name": "Grafenort",
        "uic_ref": "8508396",
        "wikidata": "Q5592445",
        "id": "node/984013992"
      },
      "geometry": {
        "type": "Point",
        "coordinates": [
          8.3720851,
          46.8699606
        ]
      }
    },
    {
      "type": "Feature",
      "id": "node/1240254898",
      "properties": {
        "ele": "427",
        "name": "Opfikon",
        "operator": "SBB",
        "public_transport": "station",
        "railway": "station",
        "railway:ref": "OP",
        "train": "yes",
        "uic_name": "Opfikon",
        "uic_ref": "8503340",
        "wheelchair": "yes",
        "wikidata": "Q1771424",
        "id": "node/1240254898"
      },
      "geometry": {
        "type": "Point",
        "coordinates": [
          8.5618129,
          47.4299507
        ]
      }
    },
    {
      "type": "Feature",
      "id": "node/1241075021",
      "properties": {
        "ele": "469",
        "name": "Kemptthal",
        "network": "ZVV",
        "operator": "SBB",
        "public_transport": "station",
        "railway": "station",
        "railway:ref": "KE",
        "train": "yes",
        "uic_name": "Kemptthal",
        "uic_ref": "8503304",
        "wikidata": "Q15083538",
        "id": "node/1241075021"
      },
      "geometry": {
        "type": "Point",
        "coordinates": [
          8.7056583,
          47.4532115
        ]
      }
    },
    {
      "type": "Feature",
      "id": "node/1246927285",
      "properties": {
        "ele": "531",
        "name": "Fehraltorf",
        "network": "ZVV",
        "operator": "SBB",
        "public_transport": "station",
        "railway": "station",
        "railway:ref": "FET",
        "train": "yes",
        "uic_name": "Fehraltorf",
        "uic_ref": "8503302",
        "wheelchair": "yes",
        "wikidata": "Q15082526",
        "id": "node/1246927285"
      },
      "geometry": {
        "type": "Point",
        "coordinates": [
          8.7500307,
          47.385153
        ]
      }
    },
    {
      "type": "Feature",
      "id": "node/1248313818",
      "properties": {
        "ele": "464",
        "internet_access": "wlan",
        "internet_access:fee": "no",
        "internet_access:operator": "SBB",
        "name": "Uster",
        "network": "ZVV",
        "operator": "SBB",
        "public_transport": "station",
        "railway": "station",
        "railway:ref": "UST",
        "train": "yes",
        "uic_name": "Uster",
        "uic_ref": "8503125",
        "wheelchair": "yes",
        "wikidata": "Q555254",
        "id": "node/1248313818"
      },
      "geometry": {
        "type": "Point",
        "coordinates": [
          8.7179334,
          47.3508125
        ]
      }
    },
    {
      "type": "Feature",
      "id": "node/1248354066",
      "properties": {
        "ele": "449",
        "name": "Nänikon-Greifensee",
        "network": "ZVV",
        "operator": "SBB",
        "public_transport": "station",
        "railway": "halt",
        "railway:ref": "NAEN",
        "train": "yes",
        "uic_name": "Nänikon-Greifensee",
        "uic_ref": "8503126",
        "wheelchair": "limited",
        "wikidata": "Q2033229",
        "id": "node/1248354066"
      },
      "geometry": {
        "type": "Point",
        "coordinates": [
          8.6859458,
          47.3695444
        ]
      }
    },
    {
      "type": "Feature",
      "id": "node/1248429948",
      "properties": {
        "ele": "443",
        "internet_access": "wlan",
        "internet_access:fee": "no",
        "internet_access:operator": "SBB",
        "name": "Schwerzenbach",
        "network": "ZVV",
        "operator": "SBB",
        "public_transport": "station",
        "railway": "station",
        "railway:ref": "SCWE",
        "train": "yes",
        "uic_name": "Schwerzenbach ZH",
        "uic_ref": "8503127",
        "wikidata": "Q5847212",
        "id": "node/1248429948"
      },
      "geometry": {
        "type": "Point",
        "coordinates": [
          8.6586774,
          47.3844611
        ]
      }
    },
    {
      "type": "Feature",
      "id": "node/1248689899",
      "properties": {
        "ele": "401",
        "name": "Mellingen-Heitersberg",
        "network": "A-Welle",
        "operator": "SBB",
        "public_transport": "station",
        "railway": "halt",
        "train": "yes",
        "uic_name": "Mellingen Heitersberg",
        "uic_ref": "8516219",
        "wikidata": "Q15252947",
        "wikipedia": "de:Bahnhof Mellingen Heitersberg",
        "id": "node/1248689899"
      },
      "geometry": {
        "type": "Point",
        "coordinates": [
          8.2759054,
          47.4280541
        ]
      }
    },
    {
      "type": "Feature",
      "id": "node/1249885897",
      "properties": {
        "ele": "383",
        "name": "Aarau AVA",
        "network": "A-Welle",
        "operator": "Aargau Verkehr AG (AVA)",
        "public_transport": "station",
        "railway": "station",
        "railway:ref": "AAWS",
        "train": "yes",
        "uic_name": "Aarau WSB",
        "uic_ref": "8502170",
        "wikidata": "Q87116788",
        "id": "node/1249885897"
      },
      "geometry": {
        "type": "Point",
        "coordinates": [
          8.0523705,
          47.3905904
        ]
      }
    },
    {
      "type": "Feature",
      "id": "node/1261444104",
      "properties": {
        "addr:housenumber": "1",
        "addr:street": "Sihlbrücke",
        "covered": "yes",
        "ele": "398",
        "fixme": "stairs and elevators",
        "name": "Zürich Selnau",
        "network": "ZVV",
        "operator": "SZU",
        "public_transport": "station",
        "railway": "station",
        "railway:ref": "ZSEL",
        "train": "yes",
        "uic_name": "Zürich Selnau",
        "uic_ref": "8503090",
        "wheelchair": "yes",
        "wikidata": "Q637602",
        "id": "node/1261444104"
      },
      "geometry": {
        "type": "Point",
        "coordinates": [
          8.5318556,
          47.3724695
        ]
      }
    },
    {
      "type": "Feature",
      "id": "node/1261958523",
      "properties": {
        "ele": "446",
        "name": "Zürich Friesenberg",
        "network": "ZVV",
        "operator": "SZU",
        "public_transport": "station",
        "railway": "halt",
        "railway:ref": "FRIB",
        "train": "yes",
        "uic_name": "Zürich Friesenberg",
        "uic_ref": "8503052",
        "wheelchair": "no",
        "wikidata": "Q10640221",
        "id": "node/1261958523"
      },
      "geometry": {
        "type": "Point",
        "coordinates": [
          8.5075769,
          47.3648164
        ]
      }
    },
    {
      "type": "Feature",
      "id": "node/1261981415",
      "properties": {
        "ele": "485",
        "name": "Zürich Triemli",
        "network": "ZVV",
        "operator": "SZU",
        "public_transport": "station",
        "railway": "station",
        "railway:ref": "TRLI",
        "train": "yes",
        "uic_name": "Zürich Triemli",
        "uic_ref": "8503054",
        "wheelchair": "yes",
        "wikidata": "Q8076081",
        "id": "node/1261981415"
      },
      "geometry": {
        "type": "Point",
        "coordinates": [
          8.4953498,
          47.3649741
        ]
      }
    },
    {
      "type": "Feature",
      "id": "node/1262073820",
      "properties": {
        "ele": "682",
        "name": "Ringlikon",
        "network": "ZVV",
        "operator": "SZU",
        "public_transport": "station",
        "railway": "station",
        "railway:ref": "RILI",
        "train": "yes",
        "uic_name": "Ringlikon",
        "uic_ref": "8503056",
        "wikidata": "Q7334922",
        "id": "node/1262073820"
      },
      "geometry": {
        "type": "Point",
        "coordinates": [
          8.4773761,
          47.360255
        ]
      }
    },
    {
      "type": "Feature",
      "id": "node/1262086033",
      "properties": {
        "ele": "813",
        "name": "Uetliberg",
        "network": "ZVV",
        "operator": "SZU",
        "public_transport": "station",
        "railway": "station",
        "railway:ref": "UEBE",
        "train": "yes",
        "uic_name": "Uetliberg",
        "uic_ref": "8503057",
        "wheelchair": "yes",
        "wikidata": "Q7877484",
        "id": "node/1262086033"
      },
      "geometry": {
        "type": "Point",
        "coordinates": [
          8.4874815,
          47.3519751
        ]
      }
    },
    {
      "type": "Feature",
      "id": "node/1264882620",
      "properties": {
        "check_date:wheelchair": "2021-06-23",
        "ele": "422",
        "name": "Zürich Brunau",
        "network": "ZVV",
        "operator": "SZU",
        "public_transport": "station",
        "railway": "station",
        "railway:ref": "ZBRU",
        "train": "yes",
        "uic_name": "Zürich Brunau",
        "uic_ref": "8503086",
        "wheelchair": "no",
        "wikidata": "Q8075390",
        "id": "node/1264882620"
      },
      "geometry": {
        "type": "Point",
        "coordinates": [
          8.5262233,
          47.3515976
        ]
      }
    },
    {
      "type": "Feature",
      "id": "node/1265011513",
      "properties": {
        "ele": "435",
        "name": "Zürich Leimbach",
        "network": "ZVV",
        "operator": "SZU",
        "public_transport": "station",
        "railway": "station",
        "railway:ref": "ZLE",
        "train": "yes",
        "uic_name": "Zürich Leimbach",
        "uic_ref": "8503094",
        "wheelchair": "yes",
        "wikidata": "Q8075395",
        "id": "node/1265011513"
      },
      "geometry": {
        "type": "Point",
        "coordinates": [
          8.5187267,
          47.3330734
        ]
      }
    },
    {
      "type": "Feature",
      "id": "node/1265111168",
      "properties": {
        "ele": "452",
        "name": "Adliswil",
        "network": "ZVV",
        "operator": "SZU",
        "public_transport": "station",
        "railway": "station",
        "railway:ref": "ADW",
        "train": "yes",
        "uic_name": "Adliswil",
        "uic_ref": "8503096",
        "wikidata": "Q4683323",
        "id": "node/1265111168"
      },
      "geometry": {
        "type": "Point",
        "coordinates": [
          8.524082,
          47.3123072
        ]
      }
    },
    {
      "type": "Feature",
      "id": "node/1265471983",
      "properties": {
        "ele": "488",
        "name": "Sihlwald",
        "network": "ZVV",
        "operator": "SZU",
        "public_transport": "station",
        "railway": "station",
        "railway:ref": "SIW",
        "train": "yes",
        "uic_name": "Sihlwald",
        "uic_ref": "8503098",
        "wheelchair": "yes",
        "wikidata": "Q7513438",
        "id": "node/1265471983"
      },
      "geometry": {
        "type": "Point",
        "coordinates": [
          8.5576283,
          47.2683235
        ]
      }
    },
    {
      "type": "Feature",
      "id": "node/1265472081",
      "properties": {
        "ele": "468",
        "name": "Langnau-Gattikon",
        "network": "ZVV",
        "operator": "SZU",
        "public_transport": "station",
        "railway": "station",
        "railway:ref": "LNG",
        "train": "yes",
        "uic_name": "Langnau-Gattikon",
        "uic_ref": "8503097",
        "wikidata": "Q10640352",
        "id": "node/1265472081"
      },
      "geometry": {
        "type": "Point",
        "coordinates": [
          8.5439885,
          47.2874358
        ]
      }
    },
    {
      "type": "Feature",
      "id": "node/1270323047",
      "properties": {
        "addr:city": "Zürich",
        "addr:postcode": "8004",
        "ele": "405",
        "name": "Zürich Wiedikon",
        "network": "ZVV",
        "operator": "SBB",
        "public_transport": "station",
        "railway": "station",
        "railway:ref": "ZWIE",
        "train": "yes",
        "uic_name": "Zürich Wiedikon",
        "uic_ref": "8503011",
        "wheelchair": "yes",
        "wikidata": "Q679393",
        "id": "node/1270323047"
      },
      "geometry": {
        "type": "Point",
        "coordinates": [
          8.5230648,
          47.3717117
        ]
      }
    },
    {
      "type": "Feature",
      "id": "node/1273164743",
      "properties": {
        "ele": "460",
        "name": "Oberrieden Dorf",
        "network": "ZVV",
        "operator": "SBB",
        "public_transport": "station",
        "railway": "station",
        "train": "yes",
        "uic_name": "Oberrieden Dorf",
        "uic_ref": "8502209",
        "wikidata": "Q7074806",
        "id": "node/1273164743"
      },
      "geometry": {
        "type": "Point",
        "coordinates": [
          8.5776545,
          47.2769443
        ]
      }
    },
    {
      "type": "Feature",
      "id": "node/1280652702",
      "properties": {
        "ele": "425",
        "internet_access": "wlan",
        "internet_access:fee": "no",
        "internet_access:operator": "SBB",
        "name": "Zug",
        "network": "TVZG",
        "operator": "SBB",
        "public_transport": "station",
        "railway": "station",
        "railway:ref": "ZG",
        "train": "yes",
        "uic_name": "Zug",
        "uic_ref": "8502204",
        "wheelchair": "limited",
        "wikidata": "Q178444",
        "id": "node/1280652702"
      },
      "geometry": {
        "type": "Point",
        "coordinates": [
          8.5155086,
          47.1737853
        ]
      }
    },
    {
      "type": "Feature",
      "id": "node/1296263124",
      "properties": {
        "IBNR": "8503529",
        "ele": "420",
        "name": "Würenlos",
        "network": "A-Welle",
        "operator": "SBB",
        "public_transport": "station",
        "railway": "station",
        "railway:ref": "WUER",
        "train": "yes",
        "uic_name": "Würenlos",
        "uic_ref": "8503529",
        "wikidata": "Q5847538",
        "id": "node/1296263124"
      },
      "geometry": {
        "type": "Point",
        "coordinates": [
          8.3577544,
          47.4457221
        ]
      }
    },
    {
      "type": "Feature",
      "id": "node/1297096971",
      "properties": {
        "addr:city": "Neuenhof",
        "addr:housenumber": "56",
        "addr:postcode": "5432",
        "addr:street": "Hardstrasse",
        "ele": "393",
        "internet_access": "no",
        "name": "Neuenhof",
        "network": "A-Welle",
        "operator": "SBB",
        "public_transport": "station",
        "railway": "station",
        "train": "yes",
        "uic_name": "Neuenhof",
        "uic_ref": "8503511",
        "wheelchair": "yes",
        "wikidata": "Q15261842",
        "id": "node/1297096971"
      },
      "geometry": {
        "type": "Point",
        "coordinates": [
          8.3311766,
          47.450753
        ]
      }
    },
    {
      "type": "Feature",
      "id": "node/1300717238",
      "properties": {
        "ele": "415",
        "name": "Küsnacht",
        "network": "ZVV",
        "operator": "SBB",
        "public_transport": "station",
        "railway": "station",
        "railway:ref": "KUES",
        "train": "yes",
        "uic_name": "Küsnacht ZH",
        "uic_ref": "8503101",
        "wheelchair": "yes",
        "wikidata": "Q6454194",
        "id": "node/1300717238"
      },
      "geometry": {
        "type": "Point",
        "coordinates": [
          8.5805891,
          47.3190716
        ]
      }
    },
    {
      "type": "Feature",
      "id": "node/1317155980",
      "properties": {
        "name": "Thayngen",
        "network": "Ostwind",
        "operator": "DB",
        "public_transport": "station",
        "railway": "station",
        "railway:position": "373.0",
        "railway:ref:DBAG": "RTG",
        "railway:ref:SBB": "THA",
        "train": "yes",
        "uic_name": "Thayngen",
        "uic_ref": "8503461",
        "wikidata": "Q15108713",
        "id": "node/1317155980"
      },
      "geometry": {
        "type": "Point",
        "coordinates": [
          8.7044713,
          47.7456338
        ]
      }
    },
    {
      "type": "Feature",
      "id": "node/1317210221",
      "properties": {
        "name": "Herblingen",
        "network": "FlexTax",
        "operator": "DB/SH",
        "public_transport": "station",
        "railway": "halt",
        "railway:position": "367.9",
        "railway:ref": "RHRB",
        "train": "yes",
        "uic_name": "Herblingen",
        "uic_ref": "8503462",
        "wikidata": "Q15108711",
        "id": "node/1317210221"
      },
      "geometry": {
        "type": "Point",
        "coordinates": [
          8.6639887,
          47.7169715
        ]
      }
    },
    {
      "type": "Feature",
      "id": "node/1317425466",
      "properties": {
        "ele": "434",
        "name": "Henggart",
        "network": "ZVV",
        "operator": "SBB",
        "public_transport": "station",
        "railway": "station",
        "railway:ref": "HGT",
        "train": "yes",
        "uic_name": "Henggart",
        "uic_ref": "8506046",
        "wheelchair": "yes",
        "wikidata": "Q5714280",
        "id": "node/1317425466"
      },
      "geometry": {
        "type": "Point",
        "coordinates": [
          8.6850343,
          47.5645005
        ]
      }
    },
    {
      "type": "Feature",
      "id": "node/1317463581",
      "properties": {
        "ele": "425",
        "name": "Hettlingen",
        "network": "ZVV",
        "operator": "SBB",
        "public_transport": "station",
        "railway": "station",
        "railway:ref": "HET",
        "train": "yes",
        "uic_name": "Hettlingen",
        "uic_ref": "8506045",
        "wikidata": "Q5748058",
        "id": "node/1317463581"
      },
      "geometry": {
        "type": "Point",
        "coordinates": [
          8.6947652,
          47.5453546
        ]
      }
    },
    {
      "type": "Feature",
      "id": "node/1320360333",
      "properties": {
        "ele": "421",
        "name": "Zug Schutzengel",
        "network": "TVZG",
        "operator": "SBB",
        "public_transport": "station",
        "railway": "halt",
        "train": "yes",
        "uic_name": "Zug Schutzengel",
        "uic_ref": "8516187",
        "id": "node/1320360333"
      },
      "geometry": {
        "type": "Point",
        "coordinates": [
          8.5068487,
          47.1739117
        ]
      }
    },
    {
      "type": "Feature",
      "id": "node/1321840643",
      "properties": {
        "ele": "430",
        "name": "Rümlang",
        "network": "ZVV",
        "operator": "SBB",
        "public_transport": "station",
        "railway": "station",
        "railway:ref": "RUEM",
        "train": "yes",
        "uic_name": "Rümlang",
        "uic_ref": "8503311",
        "wheelchair": "yes",
        "wikidata": "Q15108737",
        "id": "node/1321840643"
      },
      "geometry": {
        "type": "Point",
        "coordinates": [
          8.5327101,
          47.4540519
        ]
      }
    },
    {
      "type": "Feature",
      "id": "node/1348149623",
      "properties": {
        "ele": "426",
        "name": "Uerikon",
        "network": "ZVV",
        "operator": "SBB",
        "public_transport": "station",
        "railway": "station",
        "railway:ref": "UER",
        "train": "yes",
        "uic_name": "Uerikon",
        "uic_ref": "8503108",
        "wikidata": "Q10640359",
        "id": "node/1348149623"
      },
      "geometry": {
        "type": "Point",
        "coordinates": [
          8.7526393,
          47.2359046
        ]
      }
    },
    {
      "type": "Feature",
      "id": "node/1350137496",
      "properties": {
        "ele": "638",
        "name": "Gossau",
        "network": "Ostwind",
        "operator": "SBB",
        "public_transport": "station",
        "railway": "station",
        "railway:ref": "GSS",
        "train": "yes",
        "uic_name": "Gossau SG",
        "uic_ref": "8506210",
        "wheelchair": "yes",
        "wikidata": "Q5846308",
        "id": "node/1350137496"
      },
      "geometry": {
        "type": "Point",
        "coordinates": [
          9.2530825,
          47.4118546
        ]
      }
    },
    {
      "type": "Feature",
      "id": "node/1351167005",
      "properties": {
        "ele": "745",
        "name": "Herisau AB",
        "network": "Ostwind",
        "operator": "AB",
        "public_transport": "station",
        "railway": "station",
        "train": "yes",
        "uic_name": "Herisau AB",
        "uic_ref": "8506249",
        "id": "node/1351167005"
      },
      "geometry": {
        "type": "Point",
        "coordinates": [
          9.2769144,
          47.3898225
        ]
      }
    },
    {
      "type": "Feature",
      "id": "node/1351406368",
      "properties": {
        "ele": "761",
        "name": "Wilen",
        "network": "Ostwind",
        "operator": "AB",
        "public_transport": "station",
        "railway": "station",
        "train": "yes",
        "uic_name": "Herisau Wilen",
        "uic_ref": "8506280",
        "wikidata": "Q16903415",
        "id": "node/1351406368"
      },
      "geometry": {
        "type": "Point",
        "coordinates": [
          9.2791984,
          47.375635
        ]
      }
    },
    {
      "type": "Feature",
      "id": "node/1351838924",
      "properties": {
        "ele": "476",
        "name": "Räterschen",
        "network": "ZVV",
        "operator": "SBB",
        "public_transport": "station",
        "railway": "station",
        "railway:ref": "RAET",
        "train": "yes",
        "uic_name": "Räterschen",
        "uic_ref": "8506015",
        "wikidata": "Q4348861",
        "id": "node/1351838924"
      },
      "geometry": {
        "type": "Point",
        "coordinates": [
          8.7951493,
          47.498776
        ]
      }
    },
    {
      "type": "Feature",
      "id": "node/1351838940",
      "properties": {
        "ele": "461",
        "name": "Winterthur Hegi",
        "network": "ZVV",
        "operator": "SBB",
        "public_transport": "station",
        "railway": "halt",
        "train": "yes",
        "uic_name": "Winterthur Hegi",
        "uic_ref": "8516218",
        "wheelchair": "yes",
        "id": "node/1351838940"
      },
      "geometry": {
        "type": "Point",
        "coordinates": [
          8.768916,
          47.501503
        ]
      }
    },
    {
      "type": "Feature",
      "id": "node/1351877724",
      "properties": {
        "ele": "486",
        "name": "Schottikon",
        "network": "ZVV",
        "operator": "SBB",
        "public_transport": "station",
        "railway": "station",
        "railway:ref": "SCHK",
        "train": "yes",
        "uic_name": "Schottikon",
        "uic_ref": "8506035",
        "wikidata": "Q5847205",
        "id": "node/1351877724"
      },
      "geometry": {
        "type": "Point",
        "coordinates": [
          8.8117369,
          47.5001031
        ]
      }
    },
    {
      "type": "Feature",
      "id": "node/1352668875",
      "properties": {
        "ele": "512",
        "name": "Rikon",
        "network": "ZVV",
        "operator": "SBB",
        "public_transport": "station",
        "railway": "station",
        "railway:ref": "RN",
        "train": "yes",
        "uic_name": "Rikon",
        "uic_ref": "8506005",
        "wikidata": "Q7334094",
        "id": "node/1352668875"
      },
      "geometry": {
        "type": "Point",
        "coordinates": [
          8.7964393,
          47.4450079
        ]
      }
    },
    {
      "type": "Feature",
      "id": "node/1353867068",
      "properties": {
        "ele": "410",
        "name": "Glattfelden",
        "network": "ZVV",
        "operator": "SBB",
        "public_transport": "station",
        "railway": "station",
        "railway:ref": "GF",
        "train": "yes",
        "uic_name": "Glattfelden",
        "uic_ref": "8503401",
        "wikidata": "Q5567247",
        "id": "node/1353867068"
      },
      "geometry": {
        "type": "Point",
        "coordinates": [
          8.5239614,
          47.5491168
        ]
      }
    },
    {
      "type": "Feature",
      "id": "node/1353944373",
      "properties": {
        "ele": "390",
        "name": "Eglisau",
        "network": "ZVV",
        "operator": "SBB",
        "public_transport": "station",
        "railway": "station",
        "railway:ref": "EGL",
        "train": "yes",
        "uic_name": "Eglisau",
        "uic_ref": "8503402",
        "wheelchair": "limited",
        "wikidata": "Q5348085",
        "id": "node/1353944373"
      },
      "geometry": {
        "type": "Point",
        "coordinates": [
          8.5165257,
          47.572436
        ]
      }
    },
    {
      "type": "Feature",
      "id": "node/1354868348",
      "properties": {
        "ele": "560",
        "name": "Roggwil-Berg",
        "network": "Ostwind",
        "operator": "SOB",
        "public_transport": "station",
        "railway": "station",
        "railway:ref": "ROBG",
        "train": "yes",
        "uic_name": "Roggwil-Berg",
        "uic_ref": "8506394",
        "wheelchair": "yes",
        "wikidata": "Q33507037",
        "id": "node/1354868348"
      },
      "geometry": {
        "type": "Point",
        "coordinates": [
          9.3920883,
          47.4856228
        ]
      }
    },
    {
      "type": "Feature",
      "id": "node/1356798952",
      "properties": {
        "ele": "510",
        "internet_access": "wlan",
        "internet_access:fee": "no",
        "internet_access:operator": "SBB",
        "name": "Arth-Goldau",
        "network": "TVSZ",
        "operator": "SBB",
        "public_transport": "station",
        "railway": "station",
        "railway:ref": "GD",
        "train": "yes",
        "uic_name": "Arth-Goldau",
        "uic_ref": "8505004",
        "wheelchair": "limited",
        "wikidata": "Q365122",
        "wikipedia": "de:Bahnhof Arth-Goldau",
        "id": "node/1356798952"
      },
      "geometry": {
        "type": "Point",
        "coordinates": [
          8.5496516,
          47.0491116
        ]
      }
    },
    {
      "type": "Feature",
      "id": "node/1356862483",
      "properties": {
        "ele": "761",
        "name": "Kräbel",
        "operator": "RB",
        "public_transport": "station",
        "railway": "station",
        "train": "yes",
        "uic_name": "Kräbel",
        "uic_ref": "8505064",
        "wheelchair": "no",
        "wikidata": "Q668122",
        "wikipedia": "de:Arth-Rigi-Bahn",
        "id": "node/1356862483"
      },
      "geometry": {
        "type": "Point",
        "coordinates": [
          8.5306429,
          47.040108
        ]
      }
    },
    {
      "type": "Feature",
      "id": "node/1360184011",
      "properties": {
        "ele": "1156",
        "name": "Fruttli",
        "operator": "RB",
        "public_transport": "station",
        "railway": "station",
        "train": "yes",
        "uic_name": "Fruttli",
        "uic_ref": "8505065",
        "wheelchair": "no",
        "wikidata": "Q668122",
        "wikipedia": "de:Arth-Rigi-Bahn",
        "id": "node/1360184011"
      },
      "geometry": {
        "type": "Point",
        "coordinates": [
          8.5050653,
          47.0384725
        ]
      }
    },
    {
      "type": "Feature",
      "id": "node/1360184034",
      "properties": {
        "ele": "1479",
        "name": "Rigi Wölfertschen-First",
        "operator": "RB",
        "public_transport": "station",
        "railway": "halt",
        "train": "yes",
        "uic_name": "Rigi Wölfertschen-First",
        "uic_ref": "8505067",
        "wheelchair": "no",
        "wikidata": "Q668122",
        "wikipedia": "de:Arth-Rigi-Bahn",
        "id": "node/1360184034"
      },
      "geometry": {
        "type": "Point",
        "coordinates": [
          8.4763844,
          47.0471653
        ]
      }
    },
    {
      "type": "Feature",
      "id": "node/1360184036",
      "properties": {
        "ele": "1316",
        "name": "Rigi-Klösterli",
        "operator": "RB",
        "public_transport": "station",
        "railway": "station",
        "train": "yes",
        "uic_name": "Rigi Klösterli",
        "uic_ref": "8505066",
        "wheelchair": "no",
        "wikidata": "Q668122",
        "wikipedia": "de:Arth-Rigi-Bahn",
        "id": "node/1360184036"
      },
      "geometry": {
        "type": "Point",
        "coordinates": [
          8.4872653,
          47.0426107
        ]
      }
    },
    {
      "type": "Feature",
      "id": "node/1360205879",
      "properties": {
        "ele": "1604",
        "name": "Rigi-Staffel",
        "operator": "RB",
        "public_transport": "station",
        "railway": "station",
        "train": "yes",
        "uic_name": "Rigi Staffel",
        "uic_ref": "8505068",
        "wheelchair": "no",
        "wikidata": "Q668122",
        "wikipedia": "de:Arth-Rigi-Bahn",
        "id": "node/1360205879"
      },
      "geometry": {
        "type": "Point",
        "coordinates": [
          8.4741669,
          47.0534428
        ]
      }
    },
    {
      "type": "Feature",
      "id": "node/1360217789",
      "properties": {
        "ele": "1748",
        "name": "Rigi Kulm",
        "operator": "RB",
        "public_transport": "station",
        "railway": "halt",
        "train": "yes",
        "uic_name": "Rigi Kulm",
        "uic_ref": "8505069",
        "wheelchair": "limited",
        "wikidata": "Q668122",
        "wikipedia": "de:Arth-Rigi-Bahn",
        "id": "node/1360217789"
      },
      "geometry": {
        "type": "Point",
        "coordinates": [
          8.4838965,
          47.0552575
        ]
      }
    },
    {
      "type": "Feature",
      "id": "node/1360301778",
      "properties": {
        "ele": "1026",
        "name": "Freibergen",
        "operator": "RB",
        "public_transport": "station",
        "railway": "halt",
        "train": "yes",
        "uic_name": "Freibergen",
        "uic_ref": "8505072",
        "wheelchair": "no",
        "wikidata": "Q675526",
        "wikipedia": "de:Vitznau-Rigi-Bahn",
        "id": "node/1360301778"
      },
      "geometry": {
        "type": "Point",
        "coordinates": [
          8.4797069,
          47.0299852
        ]
      }
    },
    {
      "type": "Feature",
      "id": "node/1360301780",
      "properties": {
        "ele": "1440",
        "name": "Rigi Kaltbad-First",
        "operator": "RB",
        "public_transport": "station",
        "railway": "station",
        "train": "yes",
        "uic_name": "Rigi Kaltbad-First",
        "uic_ref": "8505074",
        "wheelchair": "limited",
        "wikidata": "Q675526",
        "wikipedia": "de:Vitznau-Rigi-Bahn",
        "id": "node/1360301780"
      },
      "geometry": {
        "type": "Point",
        "coordinates": [
          8.466642,
          47.0439458
        ]
      }
    },
    {
      "type": "Feature",
      "id": "node/1360301783",
      "properties": {
        "ele": "1195",
        "name": "Romiti-Felsentor",
        "operator": "RB",
        "public_transport": "station",
        "railway": "halt",
        "train": "yes",
        "uic_name": "Romiti Felsentor",
        "uic_ref": "8505073",
        "wheelchair": "no",
        "wikidata": "Q675526",
        "wikipedia": "de:Vitznau-Rigi-Bahn",
        "id": "node/1360301783"
      },
      "geometry": {
        "type": "Point",
        "coordinates": [
          8.4757988,
          47.0364319
        ]
      }
    },
    {
      "type": "Feature",
      "id": "node/1362070306",
      "properties": {
        "ele": "446",
        "name": "Sisikon",
        "operator": "SBB",
        "public_transport": "station",
        "railway": "halt",
        "railway:ref": "SK",
        "train": "yes",
        "uic_name": "Sisikon",
        "uic_ref": "8505111",
        "wikidata": "Q10640296",
        "id": "node/1362070306"
      },
      "geometry": {
        "type": "Point",
        "coordinates": [
          8.6207648,
          46.9492488
        ]
      }
    },
    {
      "type": "Feature",
      "id": "node/1363390558",
      "properties": {
        "ele": "415",
        "name": "Freienbach SOB",
        "network": "ZVV",
        "operator": "SOB",
        "public_transport": "station",
        "railway": "station",
        "railway:ref": "FRBS",
        "train": "yes",
        "uic_name": "Freienbach SOB",
        "uic_ref": "8503289",
        "wheelchair": "limited",
        "wikidata": "Q15089963",
        "id": "node/1363390558"
      },
      "geometry": {
        "type": "Point",
        "coordinates": [
          8.7592323,
          47.2041039
        ]
      }
    },
    {
      "type": "Feature",
      "id": "node/1363420493",
      "properties": {
        "ele": "504",
        "name": "Wollerau",
        "network": "ZVV",
        "operator": "SOB",
        "platforms": "1",
        "public_transport": "station",
        "railway": "station",
        "railway:ref": "WOL",
        "train": "yes",
        "uic_name": "Wollerau",
        "uic_ref": "8503288",
        "wikidata": "Q15964299",
        "id": "node/1363420493"
      },
      "geometry": {
        "type": "Point",
        "coordinates": [
          8.7248856,
          47.1955304
        ]
      }
    },
    {
      "type": "Feature",
      "id": "node/1367639353",
      "properties": {
        "ele": "421",
        "name": "Oberriet SG",
        "network": "Ostwind",
        "operator": "SBB",
        "public_transport": "station",
        "railway": "station",
        "railway:ref": "ORT",
        "train": "yes",
        "uic_name": "Oberriet SG",
        "uic_ref": "8509400",
        "wikidata": "Q15964221",
        "id": "node/1367639353"
      },
      "geometry": {
        "type": "Point",
        "coordinates": [
          9.5712982,
          47.3234908
        ]
      }
    },
    {
      "type": "Feature",
      "id": "node/1388516085",
      "properties": {
        "ele": "421",
        "name": "Ebikon",
        "network": "TVLU",
        "operator": "SBB",
        "public_transport": "station",
        "railway": "station",
        "railway:ref": "EBI",
        "train": "yes",
        "uic_name": "Ebikon",
        "uic_ref": "8502200",
        "wheelchair": "yes",
        "wikidata": "Q15964121",
        "id": "node/1388516085"
      },
      "geometry": {
        "type": "Point",
        "coordinates": [
          8.3423938,
          47.0842196
        ]
      }
    },
    {
      "type": "Feature",
      "id": "node/1425079641",
      "properties": {
        "ele": "778",
        "name": "Lessoc",
        "operator": "TPF",
        "public_transport": "station",
        "railway": "halt",
        "railway:ref": "LES",
        "train": "yes",
        "uic_name": "Lessoc",
        "uic_ref": "8504071",
        "wikidata": "Q33462688",
        "id": "node/1425079641"
      },
      "geometry": {
        "type": "Point",
        "coordinates": [
          7.0525282,
          46.5073879
        ]
      }
    },
    {
      "type": "Feature",
      "id": "node/1458694906",
      "properties": {
        "ele": "1210",
        "name": "Barboleusaz",
        "operator": "TPC",
        "operator:wikidata": "Q429547",
        "public_transport": "station",
        "railway": "station",
        "train": "yes",
        "uic_name": "Barboleuse, La",
        "uic_ref": "8501493",
        "website": "https://tpc.ch",
        "wheelchair": "yes",
        "wikidata": "Q33447927",
        "id": "node/1458694906"
      },
      "geometry": {
        "type": "Point",
        "coordinates": [
          7.0705365,
          46.2829011
        ]
      }
    },
    {
      "type": "Feature",
      "id": "node/1690408763",
      "properties": {
        "disused:railway": "halt",
        "ele": "2865.7",
        "name": "Eigerwand",
        "name:ru": "Айгерванд",
        "network": "Jungfraubahnen",
        "operator": "JB",
        "public_transport": "station",
        "railway": "station",
        "train": "yes",
        "uic_name": "Eigerwand",
        "uic_ref": "8507362",
        "wikidata": "Q5348921",
        "id": "node/1690408763"
      },
      "geometry": {
        "type": "Point",
        "coordinates": [
          8.0035685,
          46.5811539
        ]
      }
    },
    {
      "type": "Feature",
      "id": "node/1846603347",
      "properties": {
        "ele": "329",
        "name": "Mendrisio",
        "operator": "SBB",
        "public_transport": "station",
        "railway": "station",
        "railway:ref": "MEN",
        "train": "yes",
        "uic_name": "Mendrisio",
        "uic_ref": "8505305",
        "wikidata": "Q3970088",
        "wikipedia": "it:Stazione di Mendrisio",
        "id": "node/1846603347"
      },
      "geometry": {
        "type": "Point",
        "coordinates": [
          8.9786364,
          45.8690601
        ]
      }
    },
    {
      "type": "Feature",
      "id": "node/1888488782",
      "properties": {
        "ele": "799",
        "name": "Degersheim",
        "network": "Ostwind",
        "operator": "SOB",
        "public_transport": "station",
        "railway": "station",
        "railway:ref": "DG",
        "train": "yes",
        "uic_name": "Degersheim",
        "uic_ref": "8506292",
        "wheelchair": "yes",
        "wikidata": "Q33506347",
        "id": "node/1888488782"
      },
      "geometry": {
        "type": "Point",
        "coordinates": [
          9.2001188,
          47.3726546
        ]
      }
    },
    {
      "type": "Feature",
      "id": "node/1951370014",
      "properties": {
        "ele": "544",
        "name": "Bôle",
        "operator": "SBB",
        "public_transport": "station",
        "railway": "station",
        "railway:ref": "BOLE",
        "train": "yes",
        "uic_name": "Bôle",
        "uic_ref": "8504218",
        "wikidata": "Q31451969",
        "id": "node/1951370014"
      },
      "geometry": {
        "type": "Point",
        "coordinates": [
          6.8379501,
          46.9691055
        ]
      }
    },
    {
      "type": "Feature",
      "id": "node/1982975911",
      "properties": {
        "ele": "489",
        "name": "Kriens Mattenhof",
        "operator": "ZB",
        "public_transport": "station",
        "railway": "halt",
        "railway:ref": "KRM",
        "train": "yes",
        "uic_name": "Kriens Mattenhof",
        "uic_ref": "8516351",
        "wheelchair": "yes",
        "wikidata": "Q6437006",
        "id": "node/1982975911"
      },
      "geometry": {
        "type": "Point",
        "coordinates": [
          8.3023297,
          47.0266981
        ]
      }
    },
    {
      "type": "Feature",
      "id": "node/2031584146",
      "properties": {
        "ele": "410",
        "name": "Rebstein-Marbach",
        "network": "Ostwind",
        "operator": "SBB",
        "public_transport": "station",
        "railway": "station",
        "railway:ref": "REB",
        "train": "yes",
        "uic_name": "Rebstein-Marbach",
        "uic_ref": "8506318",
        "wikidata": "Q15964222",
        "id": "node/2031584146"
      },
      "geometry": {
        "type": "Point",
        "coordinates": [
          9.5867061,
          47.39268
        ]
      }
    },
    {
      "type": "Feature",
      "id": "node/2040544557",
      "properties": {
        "ele": "820",
        "name": "Weissbad",
        "network": "Ostwind",
        "operator": "AB",
        "public_transport": "station",
        "railway": "station",
        "train": "yes",
        "uic_name": "Weissbad",
        "uic_ref": "8506288",
        "wikidata": "Q33506291",
        "id": "node/2040544557"
      },
      "geometry": {
        "type": "Point",
        "coordinates": [
          9.4358334,
          47.3105515
        ]
      }
    },
    {
      "type": "Feature",
      "id": "node/2040794201",
      "properties": {
        "ele": "868",
        "name": "Wasserauen",
        "network": "Ostwind",
        "operator": "AB",
        "public_transport": "station",
        "railway": "station",
        "train": "yes",
        "uic_name": "Wasserauen",
        "uic_ref": "8506289",
        "wikidata": "Q33506307",
        "id": "node/2040794201"
      },
      "geometry": {
        "type": "Point",
        "coordinates": [
          9.4285702,
          47.2855824
        ]
      }
    },
    {
      "type": "Feature",
      "id": "node/2051540372",
      "properties": {
        "ele": "426",
        "name": "Unterterzen",
        "network": "Ostwind;ch-direct",
        "operator": "SBB",
        "public_transport": "station",
        "railway": "station",
        "railway:ref": "UNT",
        "train": "yes",
        "uic_name": "Unterterzen",
        "uic_ref": "8509416",
        "wikidata": "Q15964275",
        "id": "node/2051540372"
      },
      "geometry": {
        "type": "Point",
        "coordinates": [
          9.2549987,
          47.1138237
        ]
      }
    },
    {
      "type": "Feature",
      "id": "node/2055934582",
      "properties": {
        "covered": "yes",
        "ele": "443",
        "name": "Luzern Allmend/Messe",
        "operator": "ZB",
        "public_transport": "station",
        "railway": "halt",
        "railway:ref": "ALD",
        "train": "yes",
        "uic_name": "Luzern Allmend/Messe",
        "uic_ref": "8508321",
        "wheelchair": "yes",
        "wikidata": "Q10640348",
        "id": "node/2055934582"
      },
      "geometry": {
        "type": "Point",
        "coordinates": [
          8.3032766,
          47.0351092
        ]
      }
    },
    {
      "type": "Feature",
      "id": "node/2107742641",
      "properties": {
        "ele": "412",
        "name": "Oberentfelden Uerkenbrücke",
        "operator": "Aargau Verkehr AG (AVA)",
        "public_transport": "station",
        "railway": "station",
        "railway:ref": "OEFU",
        "train": "yes",
        "uic_name": "Oberentfelden Uerkenbrücke",
        "uic_ref": "8502181",
        "wikidata": "Q33452551",
        "id": "node/2107742641"
      },
      "geometry": {
        "type": "Point",
        "coordinates": [
          8.0457956,
          47.361003
        ]
      }
    },
    {
      "type": "Feature",
      "id": "node/2161635579",
      "properties": {
        "ele": "414",
        "name": "Unterentfelden Post",
        "operator": "Aargau Verkehr AG (AVA)",
        "public_transport": "station",
        "railway": "station",
        "railway:ref": "UNPO",
        "train": "yes",
        "uic_name": "Unterentfelden Post",
        "uic_ref": "8502196",
        "wikidata": "Q33453077",
        "id": "node/2161635579"
      },
      "geometry": {
        "type": "Point",
        "coordinates": [
          8.0445382,
          47.3686865
        ]
      }
    },
    {
      "type": "Feature",
      "id": "node/2192724752",
      "properties": {
        "name": "Chantarella",
        "operator": "SMBB",
        "public_transport": "station",
        "railway": "station",
        "train": "yes",
        "uic_name": "Chantarella",
        "uic_ref": "8509271",
        "id": "node/2192724752"
      },
      "geometry": {
        "type": "Point",
        "coordinates": [
          9.8353339,
          46.5015492
        ]
      }
    },
    {
      "type": "Feature",
      "id": "node/2390023783",
      "properties": {
        "ele": "712",
        "internet_access": "no",
        "name": "Cottens",
        "operator": "SBB",
        "public_transport": "station",
        "railway": "station",
        "train": "yes",
        "uic_name": "Cottens",
        "uic_ref": "8504026",
        "id": "node/2390023783"
      },
      "geometry": {
        "type": "Point",
        "coordinates": [
          7.0348761,
          46.7511729
        ]
      }
    },
    {
      "type": "Feature",
      "id": "node/2422703738",
      "properties": {
        "ele": "444",
        "name": "Niederweningen Dorf",
        "network": "ZVV",
        "operator": "SBB",
        "public_transport": "station",
        "railway": "halt",
        "railway:ref": "NWD",
        "train": "yes",
        "uic_name": "Niederweningen Dorf",
        "uic_ref": "8503318",
        "wikidata": "Q7031187",
        "id": "node/2422703738"
      },
      "geometry": {
        "type": "Point",
        "coordinates": [
          8.3800711,
          47.5061653
        ]
      }
    },
    {
      "type": "Feature",
      "id": "node/2460281903",
      "properties": {
        "ele": "280",
        "name": "Maroggia-Melano",
        "operator": "SBB",
        "public_transport": "station",
        "railway": "station",
        "railway:ref": "MAR",
        "train": "yes",
        "uic_name": "Maroggia-Melano",
        "uic_ref": "8505303",
        "wikidata": "Q3970054",
        "id": "node/2460281903"
      },
      "geometry": {
        "type": "Point",
        "coordinates": [
          8.9738734,
          45.932419
        ]
      }
    },
    {
      "type": "Feature",
      "id": "node/2462102645",
      "properties": {
        "ele": "203",
        "name": "Gordola",
        "operator": "SBB",
        "public_transport": "station",
        "railway": "station",
        "train": "yes",
        "uic_name": "Gordola",
        "uic_ref": "8505402",
        "wheelchair": "yes",
        "wikidata": "Q12174801",
        "wikipedia": "en:Gordola railway station",
        "id": "node/2462102645"
      },
      "geometry": {
        "type": "Point",
        "coordinates": [
          8.8668813,
          46.1788898
        ]
      }
    },
    {
      "type": "Feature",
      "id": "node/2462102649",
      "properties": {
        "bus": "yes",
        "ele": "203",
        "name": "Tenero",
        "operator": "SBB",
        "public_transport": "station",
        "railway": "station",
        "railway:ref": "TEN",
        "train": "yes",
        "uic_name": "Tenero",
        "uic_ref": "8505401",
        "wheelchair": "yes",
        "wikidata": "Q12174832",
        "id": "node/2462102649"
      },
      "geometry": {
        "type": "Point",
        "coordinates": [
          8.8517242,
          46.1773953
        ]
      }
    },
    {
      "type": "Feature",
      "id": "node/2486323397",
      "properties": {
        "addr:city": "Steckborn",
        "addr:country": "CH",
        "addr:housenumber": "7",
        "addr:postcode": "8266",
        "addr:street": "Bahnhofstrasse",
        "ele": "404",
        "internet_access": "no",
        "name": "Steckborn",
        "operator": "SBB",
        "public_transport": "station",
        "railway": "station",
        "railway:ref": "STK",
        "train": "yes",
        "uic_name": "Steckborn",
        "uic_ref": "8506136",
        "wheelchair": "no",
        "wikidata": "Q15964268",
        "id": "node/2486323397"
      },
      "geometry": {
        "type": "Point",
        "coordinates": [
          8.9809666,
          47.6645455
        ]
      }
    },
    {
      "type": "Feature",
      "id": "node/2494757819",
      "properties": {
        "ele": "645",
        "name": "St. Gallen St. Fiden",
        "network": "Ostwind",
        "operator": "SBB",
        "public_transport": "station",
        "railway": "station",
        "railway:ref": "SGF",
        "train": "yes",
        "uic_name": "St. Gallen St. Fiden",
        "uic_ref": "8506303",
        "wikidata": "Q801453",
        "id": "node/2494757819"
      },
      "geometry": {
        "type": "Point",
        "coordinates": [
          9.3934152,
          47.4344847
        ]
      }
    },
    {
      "type": "Feature",
      "id": "node/2507443665",
      "properties": {
        "ele": "508",
        "name": "Kehlhof",
        "operator": "THURBO",
        "public_transport": "station",
        "railway": "halt",
        "railway:ref": "KHF",
        "train": "yes",
        "uic_name": "Kehlhof",
        "uic_ref": "8506193",
        "wikidata": "Q33505620",
        "id": "node/2507443665"
      },
      "geometry": {
        "type": "Point",
        "coordinates": [
          9.1697319,
          47.5723296
        ]
      }
    },
    {
      "type": "Feature",
      "id": "node/2508647786",
      "properties": {
        "ele": "420",
        "name": "Frauenfeld Marktplatz",
        "operator": "FW",
        "public_transport": "station",
        "railway": "station",
        "train": "yes",
        "uic_name": "Frauenfeld Marktplatz",
        "uic_ref": "8506171",
        "wikidata": "Q33505342",
        "id": "node/2508647786"
      },
      "geometry": {
        "type": "Point",
        "coordinates": [
          8.8986695,
          47.5542654
        ]
      }
    },
    {
      "type": "Feature",
      "id": "node/2627167878",
      "properties": {
        "ele": "640",
        "name": "Rodels-Realta",
        "operator": "RhB",
        "operator:wikidata": "Q177598",
        "public_transport": "station",
        "railway": "station",
        "train": "yes",
        "uic_name": "Rodels-Realta",
        "uic_ref": "8509187",
        "wikidata": "Q7356525",
        "wikipedia": "en:Rodels-Realta (Rhaetian Railway station)",
        "id": "node/2627167878"
      },
      "geometry": {
        "type": "Point",
        "coordinates": [
          9.4332636,
          46.7355751
        ]
      }
    },
    {
      "type": "Feature",
      "id": "node/2627301864",
      "properties": {
        "ele": "1789",
        "name": "Preda",
        "operator": "RhB",
        "operator:wikidata": "Q177598",
        "public_transport": "station",
        "railway": "station",
        "train": "yes",
        "uic_name": "Preda",
        "uic_ref": "8509198",
        "wikidata": "Q7239594",
        "wikipedia": "en:Preda (Rhaetian Railway station)",
        "id": "node/2627301864"
      },
      "geometry": {
        "type": "Point",
        "coordinates": [
          9.7773533,
          46.5882632
        ]
      }
    },
    {
      "type": "Feature",
      "id": "node/2809386072",
      "properties": {
        "ele": "380",
        "name": "Veytaux-Chillon",
        "operator": "SBB",
        "public_transport": "station",
        "railway": "halt",
        "train": "yes",
        "uic_name": "Veytaux-Chillon",
        "uic_ref": "8501302",
        "wikidata": "Q10952911",
        "id": "node/2809386072"
      },
      "geometry": {
        "type": "Point",
        "coordinates": [
          6.9277389,
          46.4176111
        ]
      }
    },
    {
      "type": "Feature",
      "id": "node/2809386073",
      "properties": {
        "addr:city": "Villeneuve VD",
        "addr:housenumber": "3",
        "addr:postcode": "1844",
        "addr:street": "Place de la Gare",
        "ele": "375",
        "name": "Villeneuve VD",
        "operator": "CFF",
        "public_transport": "station",
        "railway": "station",
        "railway:ref": "VIL",
        "railway:ref:DB": "XSVL",
        "train": "yes",
        "uic_name": "Villeneuve VD",
        "uic_ref": "8501303",
        "wikidata": "Q3098005",
        "id": "node/2809386073"
      },
      "geometry": {
        "type": "Point",
        "coordinates": [
          6.9269106,
          46.3983796
        ]
      }
    },
    {
      "type": "Feature",
      "id": "node/2862668748",
      "properties": {
        "ele": "491",
        "internet_access": "wlan",
        "internet_access:fee": "no",
        "internet_access:operator": "SBB",
        "internet_access:ssid": "SBB-FREE",
        "name": "Sion",
        "name:de": "Sitten",
        "operator": "SBB",
        "public_transport": "station",
        "railway": "station",
        "railway:ref": "SIO",
        "train": "yes",
        "uic_name": "Sion",
        "uic_ref": "8501506",
        "wheelchair": "yes",
        "wikidata": "Q288651",
        "id": "node/2862668748"
      },
      "geometry": {
        "type": "Point",
        "coordinates": [
          7.3593303,
          46.2274616
        ]
      }
    },
    {
      "type": "Feature",
      "id": "node/2887957046",
      "properties": {
        "alt_name": "Bahnhof Burgdorf",
        "ele": "533",
        "image": "https://upload.wikimedia.org/wikipedia/commons/thumb/f/f2/7_Burgdorf_120818.jpg/800px-7_Burgdorf_120818.jpg",
        "internet_access": "wlan",
        "internet_access:fee": "no",
        "internet_access:operator": "SBB",
        "name": "Burgdorf",
        "operator": "SBB",
        "public_transport": "station",
        "railway": "station",
        "railway:ref": "BDF",
        "train": "yes",
        "uic_name": "Burgdorf",
        "uic_ref": "8508005",
        "wheelchair": "yes",
        "wikidata": "Q5845864",
        "wikimedia_commons": "Category:Burgdorf train station",
        "id": "node/2887957046"
      },
      "geometry": {
        "type": "Point",
        "coordinates": [
          7.6216568,
          47.0606451
        ]
      }
    },
    {
      "type": "Feature",
      "id": "node/2893378527",
      "properties": {
        "addr:city": "Roche VD",
        "addr:housenumber": "1",
        "addr:postcode": "1852",
        "addr:street": "Rue de la Gare",
        "ele": "380",
        "name": "Roche VD",
        "network": "SBB CFF FFS",
        "operator": "SBB CFF FFS",
        "public_transport": "station",
        "railway": "station",
        "train": "yes",
        "uic_name": "Roche VD",
        "uic_ref": "8501304",
        "wikidata": "Q31444516",
        "wikipedia": "fr:Gare de Roche VD",
        "id": "node/2893378527"
      },
      "geometry": {
        "type": "Point",
        "coordinates": [
          6.9271441,
          46.3587418
        ]
      }
    },
    {
      "type": "Feature",
      "id": "node/2924982500",
      "properties": {
        "ele": "485",
        "name": "Giswil",
        "operator": "ZB",
        "public_transport": "station",
        "railway": "station",
        "railway:ref": "GI",
        "toilets:wheelchair": "yes",
        "train": "yes",
        "uic_name": "Giswil",
        "uic_ref": "8508312",
        "wheelchair": "yes",
        "wikidata": "Q5565002",
        "id": "node/2924982500"
      },
      "geometry": {
        "type": "Point",
        "coordinates": [
          8.1862781,
          46.8365497
        ]
      }
    },
    {
      "type": "Feature",
      "id": "node/2993022444",
      "properties": {
        "name": "Sachseln",
        "public_transport": "station",
        "railway": "station",
        "railway:ref": "SACH",
        "train": "yes",
        "uic_name": "Sachseln",
        "uic_ref": "8508313",
        "wheelchair": "yes",
        "wikidata": "Q7396779",
        "id": "node/2993022444"
      },
      "geometry": {
        "type": "Point",
        "coordinates": [
          8.2383454,
          46.870942
        ]
      }
    },
    {
      "type": "Feature",
      "id": "node/2993051586",
      "properties": {
        "ele": "473",
        "name": "Sarnen",
        "operator": "ZB",
        "public_transport": "station",
        "railway": "station",
        "railway:ref": "SAR",
        "train": "yes",
        "uic_name": "Sarnen",
        "uic_ref": "8508314",
        "wikidata": "Q7424333",
        "id": "node/2993051586"
      },
      "geometry": {
        "type": "Point",
        "coordinates": [
          8.2474163,
          46.8946173
        ]
      }
    },
    {
      "type": "Feature",
      "id": "node/3022131191",
      "properties": {
        "ele": "422",
        "name": "Allaman",
        "operator": "SBB",
        "public_transport": "station",
        "railway": "station",
        "railway:ref": "ALL",
        "train": "yes",
        "uic_name": "Allaman",
        "uic_ref": "8501035",
        "wheelchair": "yes",
        "wikidata": "Q10947344",
        "id": "node/3022131191"
      },
      "geometry": {
        "type": "Point",
        "coordinates": [
          6.3996823,
          46.4757782
        ]
      }
    },
    {
      "type": "Feature",
      "id": "node/3060828206",
      "properties": {
        "ele": "384",
        "name": "Lancy-Pont-Rouge",
        "operator": "SBB",
        "public_transport": "station",
        "railway": "station",
        "railway:ref": "LAPR",
        "train": "yes",
        "uic_name": "Lancy-Pont-Rouge",
        "uic_ref": "8516155",
        "wikidata": "Q1583893",
        "id": "node/3060828206"
      },
      "geometry": {
        "type": "Point",
        "coordinates": [
          6.1251674,
          46.1869666
        ]
      }
    },
    {
      "type": "Feature",
      "id": "node/3074774935",
      "properties": {
        "ele": "447",
        "internet_access": "wlan",
        "internet_access:fee": "no",
        "internet_access:operator": "SBB",
        "name": "Altdorf",
        "operator": "SBB",
        "public_transport": "station",
        "railway": "station",
        "railway:ref": "AL",
        "train": "yes",
        "uic_name": "Altdorf UR",
        "uic_ref": "8505113",
        "wheelchair": "yes",
        "wikidata": "Q4736224",
        "id": "node/3074774935"
      },
      "geometry": {
        "type": "Point",
        "coordinates": [
          8.6316355,
          46.8757253
        ]
      }
    },
    {
      "type": "Feature",
      "id": "node/3074774945",
      "properties": {
        "ele": "409",
        "internet_access": "wlan",
        "internet_access:fee": "no",
        "internet_access:operator": "SBB",
        "internet_access:ssid": "SBB-FREE",
        "name": "Rapperswil SG",
        "network": "ZVV;Ostwind",
        "operator": "SBB",
        "public_transport": "station",
        "railway": "station",
        "railway:ref": "RW",
        "train": "yes",
        "uic_name": "Rapperswil SG",
        "uic_ref": "8503110",
        "wheelchair": "yes",
        "wikidata": "Q597204",
        "id": "node/3074774945"
      },
      "geometry": {
        "type": "Point",
        "coordinates": [
          8.8168416,
          47.2249553
        ]
      }
    },
    {
      "type": "Feature",
      "id": "node/3074886742",
      "properties": {
        "ele": "424",
        "name": "Oberrieden",
        "network": "ZVV",
        "operator": "SBB",
        "public_transport": "station",
        "railway": "station",
        "railway:ref": "ORD",
        "train": "yes",
        "uic_name": "Oberrieden",
        "uic_ref": "8503203",
        "wikidata": "Q2110622",
        "id": "node/3074886742"
      },
      "geometry": {
        "type": "Point",
        "coordinates": [
          8.5784107,
          47.2796641
        ]
      }
    },
    {
      "type": "Feature",
      "id": "node/3080372077",
      "properties": {
        "ele": "444",
        "name": "Baar",
        "network": "TVZG",
        "operator": "SBB",
        "public_transport": "station",
        "railway": "station",
        "railway:ref": "BAA",
        "train": "yes",
        "uic_name": "Baar",
        "uic_ref": "8502206",
        "wheelchair": "yes",
        "wikidata": "Q576514",
        "id": "node/3080372077"
      },
      "geometry": {
        "type": "Point",
        "coordinates": [
          8.5228748,
          47.1951657
        ]
      }
    },
    {
      "type": "Feature",
      "id": "node/3080372089",
      "properties": {
        "ele": "497",
        "name": "Hedingen",
        "network": "ZVV",
        "operator": "SBB",
        "public_transport": "station",
        "railway": "station",
        "railway:ref": "HED",
        "train": "yes",
        "uic_name": "Hedingen",
        "uic_ref": "8502223",
        "wikidata": "Q5846360",
        "id": "node/3080372089"
      },
      "geometry": {
        "type": "Point",
        "coordinates": [
          8.4459976,
          47.2988097
        ]
      }
    },
    {
      "type": "Feature",
      "id": "node/3080372097",
      "properties": {
        "ele": "433",
        "name": "Rüschlikon",
        "network": "ZVV",
        "operator": "SBB",
        "public_transport": "station",
        "railway": "station",
        "railway:ref": "RUES",
        "train": "yes",
        "uic_name": "Rüschlikon",
        "uic_ref": "8503201",
        "wikidata": "Q2110655",
        "id": "node/3080372097"
      },
      "geometry": {
        "type": "Point",
        "coordinates": [
          8.5552815,
          47.307024
        ]
      }
    },
    {
      "type": "Feature",
      "id": "node/3080372104",
      "properties": {
        "ele": "408",
        "internet_access": "wlan",
        "internet_access:fee": "no",
        "internet_access:operator": "SBB",
        "name": "Wädenswil",
        "network": "ZVV",
        "operator": "SBB",
        "public_transport": "station",
        "railway": "station",
        "railway:ref": "WAE",
        "train": "yes",
        "uic_name": "Wädenswil",
        "uic_ref": "8503206",
        "wheelchair": "yes",
        "wikidata": "Q2157839",
        "wikipedia": "en:Wädenswil railway station",
        "id": "node/3080372104"
      },
      "geometry": {
        "type": "Point",
        "coordinates": [
          8.6751853,
          47.2292959
        ]
      }
    },
    {
      "type": "Feature",
      "id": "node/3080695733",
      "properties": {
        "ele": "385",
        "internet_access": "wlan",
        "internet_access:fee": "no",
        "internet_access:operator": "SBB",
        "name": "Baden",
        "network": "A-Welle",
        "operator": "SBB",
        "public_transport": "station",
        "railway": "station",
        "railway:ref": "BD",
        "start_date": "1847-08-09",
        "train": "yes",
        "uic_name": "Baden",
        "uic_ref": "8503504",
        "wheelchair": "yes",
        "wikidata": "Q800441",
        "wikipedia": "de:Bahnhof Baden",
        "id": "node/3080695733"
      },
      "geometry": {
        "type": "Point",
        "coordinates": [
          8.3077761,
          47.4764076
        ]
      }
    },
    {
      "type": "Feature",
      "id": "node/3080695745",
      "properties": {
        "ele": "393",
        "name": "Killwangen-Spreitenbach",
        "network": "A-Welle",
        "operator": "SBB",
        "public_transport": "station",
        "railway": "station",
        "railway:ref": "KLW",
        "train": "yes",
        "uic_name": "Killwangen-Spreitenbach",
        "uic_ref": "8503506",
        "wikidata": "Q801003",
        "id": "node/3080695745"
      },
      "geometry": {
        "type": "Point",
        "coordinates": [
          8.3541297,
          47.4333166
        ]
      }
    },
    {
      "type": "Feature",
      "id": "node/3080695752",
      "properties": {
        "ele": "459",
        "name": "Muri",
        "operator": "SBB",
        "public_transport": "station",
        "railway": "station",
        "railway:ref": "MI",
        "train": "yes",
        "uic_name": "Muri AG",
        "uic_ref": "8502215",
        "wheelchair": "yes",
        "wikidata": "Q15964190",
        "id": "node/3080695752"
      },
      "geometry": {
        "type": "Point",
        "coordinates": [
          8.3398574,
          47.2765077
        ]
      }
    },
    {
      "type": "Feature",
      "id": "node/3080695753",
      "properties": {
        "ele": "416",
        "name": "Mägenwil",
        "network": "A-Welle",
        "operator": "SBB",
        "public_transport": "station",
        "railway": "station",
        "railway:ref": "MAEG",
        "source": "Bundesamt für Verkehr (BAV), DIDOK 2009",
        "train": "yes",
        "uic_name": "Mägenwil",
        "uic_ref": "8502106",
        "wheelchair": "yes",
        "wikidata": "Q15260560",
        "id": "node/3080695753"
      },
      "geometry": {
        "type": "Point",
        "coordinates": [
          8.2351585,
          47.4144587
        ]
      }
    },
    {
      "type": "Feature",
      "id": "node/3080728387",
      "properties": {
        "bus": "yes",
        "ele": "670",
        "name": "Oey-Diemtigen",
        "operator": "BLS",
        "public_transport": "station",
        "railway": "station",
        "railway:ref": "OE",
        "train": "yes",
        "uic_name": "Oey-Diemtigen",
        "uic_ref": "8507297",
        "wikidata": "Q33507823",
        "id": "node/3080728387"
      },
      "geometry": {
        "type": "Point",
        "coordinates": [
          7.5791865,
          46.6599426
        ]
      }
    },
    {
      "type": "Feature",
      "id": "node/3080728390",
      "properties": {
        "ele": "651",
        "internet_access": "wlan",
        "internet_access:fee": "no",
        "internet_access:operator": "SBB",
        "name": "Visp",
        "name:fr": "Viège",
        "operator": "SBB",
        "public_transport": "station",
        "railway": "station",
        "railway:ref": "VI",
        "train": "yes",
        "uic_name": "Visp",
        "uic_ref": "8501605",
        "wheelchair": "yes",
        "wikidata": "Q801563",
        "id": "node/3080728390"
      },
      "geometry": {
        "type": "Point",
        "coordinates": [
          7.8817778,
          46.2937666
        ]
      }
    },
    {
      "type": "Feature",
      "id": "node/3080746017",
      "properties": {
        "ele": "327",
        "internet_access": "wlan",
        "internet_access:fee": "no",
        "internet_access:operator": "SBB",
        "name": "Liestal",
        "operator": "SBB",
        "public_transport": "station",
        "railway": "station",
        "railway:ref": "LST",
        "train": "yes",
        "uic_name": "Liestal",
        "uic_ref": "8500023",
        "wheelchair": "yes",
        "wikidata": "Q3096881",
        "id": "node/3080746017"
      },
      "geometry": {
        "type": "Point",
        "coordinates": [
          7.7312901,
          47.4843397
        ]
      }
    },
    {
      "type": "Feature",
      "id": "node/3080770162",
      "properties": {
        "ele": "437",
        "name": "Courtételle",
        "operator": "SBB",
        "public_transport": "station",
        "railway": "station",
        "railway:ref": "CTT",
        "train": "yes",
        "uic_name": "Courtételle",
        "uic_ref": "8500120",
        "wikidata": "Q3096313",
        "id": "node/3080770162"
      },
      "geometry": {
        "type": "Point",
        "coordinates": [
          7.3179223,
          47.342861
        ]
      }
    },
    {
      "type": "Feature",
      "id": "node/3081128610",
      "properties": {
        "ele": "456",
        "name": "Littau",
        "operator": "SBB",
        "public_transport": "station",
        "railway": "station",
        "railway:ref": "LIT",
        "train": "yes",
        "uic_name": "Littau",
        "uic_ref": "8508219",
        "wikidata": "Q31454712",
        "id": "node/3081128610"
      },
      "geometry": {
        "type": "Point",
        "coordinates": [
          8.257135,
          47.0530095
        ]
      }
    },
    {
      "type": "Feature",
      "id": "node/3081154351",
      "properties": {
        "ele": "807",
        "name": "Bollement",
        "operator": "CJ",
        "public_transport": "station",
        "railway": "station",
        "railway:ref": "BOLL",
        "train": "yes",
        "uic_name": "Bollement",
        "uic_ref": "8500196",
        "wikidata": "Q16508020",
        "id": "node/3081154351"
      },
      "geometry": {
        "type": "Point",
        "coordinates": [
          7.1238645,
          47.2969282
        ]
      }
    },
    {
      "type": "Feature",
      "id": "node/3081154361",
      "properties": {
        "ele": "510",
        "name": "Corcelles-Peseux",
        "operator": "SBB",
        "public_transport": "station",
        "railway": "station",
        "railway:ref": "CP",
        "train": "yes",
        "uic_name": "Corcelles-Peseux",
        "uic_ref": "8504232",
        "wikidata": "Q31452115",
        "id": "node/3081154361"
      },
      "geometry": {
        "type": "Point",
        "coordinates": [
          6.8838017,
          46.9833892
        ]
      }
    },
    {
      "type": "Feature",
      "id": "node/3081154376",
      "properties": {
        "ele": "617",
        "name": "Givisiez",
        "operator": "TPF",
        "public_transport": "station",
        "railway": "halt",
        "train": "yes",
        "uic_name": "Givisiez",
        "uic_ref": "8504181",
        "wikidata": "Q15964138",
        "id": "node/3081154376"
      },
      "geometry": {
        "type": "Point",
        "coordinates": [
          7.1305947,
          46.816765
        ]
      }
    },
    {
      "type": "Feature",
      "id": "node/3081154391",
      "properties": {
        "addr:city": "La Chaux-de-Fonds",
        "addr:postcode": "2300",
        "ele": "994",
        "internet_access": "wlan",
        "internet_access:fee": "no",
        "internet_access:operator": "SBB",
        "name": "La Chaux-de-Fonds",
        "operator": "SBB/CFF/FFS",
        "public_transport": "station",
        "railway": "station",
        "railway:ref": "CF",
        "train": "yes",
        "uic_name": "Chaux-de-Fonds, La",
        "uic_ref": "8504314",
        "wikidata": "Q3096773",
        "id": "node/3081154391"
      },
      "geometry": {
        "type": "Point",
        "coordinates": [
          6.825113,
          47.098598
        ]
      }
    },
    {
      "type": "Feature",
      "id": "node/3081154392",
      "properties": {
        "ele": "626",
        "name": "Combe-Tabeillon",
        "operator": "CJ",
        "public_transport": "station",
        "railway": "station",
        "railway:ref": "COTA",
        "train": "yes",
        "uic_name": "Combe-Tabeillon",
        "uic_ref": "8500199",
        "wikidata": "Q33438522",
        "id": "node/3081154392"
      },
      "geometry": {
        "type": "Point",
        "coordinates": [
          7.1578727,
          47.3135756
        ]
      }
    },
    {
      "type": "Feature",
      "id": "node/3081154405",
      "properties": {
        "ele": "444",
        "farezone:libero": "837",
        "farezone:zigzag": "32",
        "internet_access": "wlan",
        "internet_access:fee": "no",
        "internet_access:operator": "SBB",
        "name": "Lyss",
        "operator": "SBB",
        "public_transport": "station",
        "railway": "station",
        "railway:ref": "LY",
        "train": "yes",
        "uic_name": "Lyss",
        "uic_ref": "8504414",
        "wheelchair": "yes",
        "wikidata": "Q15964198",
        "id": "node/3081154405"
      },
      "geometry": {
        "type": "Point",
        "coordinates": [
          7.3062939,
          47.0762355
        ]
      }
    },
    {
      "type": "Feature",
      "id": "node/3081154409",
      "properties": {
        "ele": "381",
        "internet_access": "wlan",
        "internet_access:fee": "no",
        "internet_access:operator": "SBB",
        "name": "Morges",
        "operator": "SBB",
        "public_transport": "station",
        "railway": "station",
        "railway:ref": "MOR",
        "train": "yes",
        "uic_name": "Morges",
        "uic_ref": "8501037",
        "wheelchair": "yes",
        "wikidata": "Q2384426",
        "id": "node/3081154409"
      },
      "geometry": {
        "type": "Point",
        "coordinates": [
          6.4941304,
          46.5110186
        ]
      }
    },
    {
      "type": "Feature",
      "id": "node/3081154410",
      "properties": {
        "ele": "529",
        "name": "Moutier",
        "operator": "SBB",
        "public_transport": "station",
        "railway": "station",
        "railway:ref": "MOU",
        "train": "yes",
        "uic_name": "Moutier",
        "uic_ref": "8500105",
        "wikidata": "Q5846774",
        "id": "node/3081154410"
      },
      "geometry": {
        "type": "Point",
        "coordinates": [
          7.3812357,
          47.2808585
        ]
      }
    },
    {
      "type": "Feature",
      "id": "node/3081154421",
      "properties": {
        "ele": "928",
        "name": "Pré-Petitjean",
        "operator": "CJ",
        "public_transport": "station",
        "railway": "station",
        "railway:ref": "PREP",
        "train": "yes",
        "uic_name": "Pré-Petitjean",
        "uic_ref": "8500194",
        "wikidata": "Q28058356",
        "id": "node/3081154421"
      },
      "geometry": {
        "type": "Point",
        "coordinates": [
          7.0585354,
          47.2770992
        ]
      }
    },
    {
      "type": "Feature",
      "id": "node/3081154442",
      "properties": {
        "addr:city": "Thun",
        "addr:postcode": "3600",
        "addr:street": "Bahnhofplatz",
        "ele": "560",
        "internet_access": "wlan",
        "internet_access:fee": "no",
        "internet_access:operator": "SBB",
        "name": "Thun",
        "network": "Libero",
        "operator": "SBB",
        "public_transport": "station",
        "railway": "station",
        "railway:ref": "TH",
        "train": "yes",
        "uic_name": "Thun",
        "uic_ref": "8507100",
        "wheelchair": "yes",
        "wikidata": "Q801516",
        "wikipedia": "de:Bahnhof Thun",
        "id": "node/3081154442"
      },
      "geometry": {
        "type": "Point",
        "coordinates": [
          7.6297325,
          46.7548621
        ]
      }
    },
    {
      "type": "Feature",
      "id": "node/3092179807",
      "properties": {
        "name": "Chiasso",
        "operator": "SBB",
        "public_transport": "station",
        "railway": "station",
        "railway:ref": "CHI",
        "train": "yes",
        "uic_name": "Chiasso",
        "uic_ref": "8505307",
        "wikidata": "Q683236",
        "wikipedia": "it:Stazione di Chiasso",
        "id": "node/3092179807"
      },
      "geometry": {
        "type": "Point",
        "coordinates": [
          9.0316031,
          45.832248
        ]
      }
    },
    {
      "type": "Feature",
      "id": "node/3095343997",
      "properties": {
        "ele": "442",
        "name": "Horw",
        "operator": "ZB",
        "public_transport": "station",
        "railway": "station",
        "railway:ref": "HW",
        "train": "yes",
        "uic_name": "Horw",
        "uic_ref": "8508319",
        "wheelchair": "limited",
        "wikidata": "Q5907042",
        "id": "node/3095343997"
      },
      "geometry": {
        "type": "Point",
        "coordinates": [
          8.3068709,
          47.0173955
        ]
      }
    },
    {
      "type": "Feature",
      "id": "node/3095367597",
      "properties": {
        "ele": "449",
        "name": "Hergiswil",
        "operator": "ZB",
        "public_transport": "station",
        "railway": "station",
        "railway:ref": "HGW",
        "train": "yes",
        "uic_name": "Hergiswil NW",
        "uic_ref": "8508318",
        "wheelchair": "yes",
        "wikidata": "Q10640346",
        "id": "node/3095367597"
      },
      "geometry": {
        "type": "Point",
        "coordinates": [
          8.3101053,
          46.9826021
        ]
      }
    },
    {
      "type": "Feature",
      "id": "node/3095850718",
      "properties": {
        "ele": "438",
        "name": "Stansstad",
        "operator": "ZB",
        "public_transport": "station",
        "railway": "station",
        "railway:ref": "SSTA",
        "train": "yes",
        "uic_name": "Stansstad",
        "uic_ref": "8508390",
        "wikidata": "Q7600185",
        "id": "node/3095850718"
      },
      "geometry": {
        "type": "Point",
        "coordinates": [
          8.3366667,
          46.976317
        ]
      }
    },
    {
      "type": "Feature",
      "id": "node/3096774485",
      "properties": {
        "ele": "454",
        "name": "Stans",
        "operator": "ZB",
        "public_transport": "station",
        "railway": "station",
        "railway:ref": "STAN",
        "toilets:wheelchair": "yes",
        "train": "yes",
        "uic_name": "Stans",
        "uic_ref": "8508391",
        "wheelchair": "yes",
        "wikidata": "Q7600170",
        "id": "node/3096774485"
      },
      "geometry": {
        "type": "Point",
        "coordinates": [
          8.3666014,
          46.9584477
        ]
      }
    },
    {
      "type": "Feature",
      "id": "node/3096963294",
      "properties": {
        "ele": "486",
        "name": "Dallenwil",
        "operator": "ZB",
        "public_transport": "station",
        "railway": "station",
        "railway:ref": "DAL",
        "train": "yes",
        "uic_name": "Dallenwil",
        "uic_ref": "8508392",
        "wikidata": "Q5211468",
        "id": "node/3096963294"
      },
      "geometry": {
        "type": "Point",
        "coordinates": [
          8.3919787,
          46.9336623
        ]
      }
    },
    {
      "type": "Feature",
      "id": "node/3096963295",
      "properties": {
        "ele": "496",
        "name": "Niederrickenbach Station",
        "operator": "ZB",
        "public_transport": "station",
        "railway": "halt",
        "railway:ref": "NRRB",
        "train": "yes",
        "uic_name": "Niederrickenbach Station",
        "uic_ref": "8508384",
        "wikidata": "Q7031159",
        "id": "node/3096963295"
      },
      "geometry": {
        "type": "Point",
        "coordinates": [
          8.3959243,
          46.9281242
        ]
      }
    },
    {
      "type": "Feature",
      "id": "node/3097149275",
      "properties": {
        "ele": "514",
        "name": "Wolfenschiessen",
        "operator": "ZB",
        "public_transport": "station",
        "railway": "station",
        "railway:ref": "WOS",
        "train": "yes",
        "uic_name": "Wolfenschiessen",
        "uic_ref": "8508394",
        "wikidata": "Q8029999",
        "id": "node/3097149275"
      },
      "geometry": {
        "type": "Point",
        "coordinates": [
          8.3948272,
          46.9078303
        ]
      }
    },
    {
      "type": "Feature",
      "id": "node/3097782203",
      "properties": {
        "ele": "1002",
        "name": "Engelberg",
        "operator": "ZB",
        "public_transport": "station",
        "railway": "station",
        "railway:ref": "EBG",
        "train": "yes",
        "uic_name": "Engelberg",
        "uic_ref": "8508399",
        "wheelchair": "yes",
        "wikidata": "Q5377491",
        "id": "node/3097782203"
      },
      "geometry": {
        "type": "Point",
        "coordinates": [
          8.4026245,
          46.819526
        ]
      }
    },
    {
      "type": "Feature",
      "id": "node/3098264663",
      "properties": {
        "ele": "445",
        "name": "Hergiswil Matt",
        "operator": "ZB",
        "public_transport": "station",
        "railway": "halt",
        "railway:ref": "MATT",
        "train": "yes",
        "uic_name": "Hergiswil Matt",
        "uic_ref": "8508320",
        "wheelchair": "limited",
        "wikidata": "Q5738385",
        "id": "node/3098264663"
      },
      "geometry": {
        "type": "Point",
        "coordinates": [
          8.312718,
          46.9937212
        ]
      }
    },
    {
      "type": "Feature",
      "id": "node/3103498752",
      "properties": {
        "ele": "436",
        "name": "Alpnachstad",
        "operator": "ZB",
        "public_transport": "station",
        "railway": "station",
        "railway:ref": "AST",
        "train": "yes",
        "uic_name": "Alpnachstad",
        "uic_ref": "8508317",
        "wheelchair": "limited",
        "wikidata": "Q4735626",
        "id": "node/3103498752"
      },
      "geometry": {
        "type": "Point",
        "coordinates": [
          8.277767,
          46.9550597
        ]
      }
    },
    {
      "type": "Feature",
      "id": "node/3103520832",
      "properties": {
        "ele": "452",
        "name": "Alpnach Dorf",
        "operator": "ZB",
        "public_transport": "station",
        "railway": "station",
        "railway:ref": "ADF",
        "train": "yes",
        "uic_name": "Alpnach Dorf",
        "uic_ref": "8508316",
        "wikidata": "Q4735625",
        "id": "node/3103520832"
      },
      "geometry": {
        "type": "Point",
        "coordinates": [
          8.2753793,
          46.9406316
        ]
      }
    },
    {
      "type": "Feature",
      "id": "node/3103763722",
      "properties": {
        "ele": "475",
        "name": "Ewil Maxon",
        "operator": "ZB",
        "public_transport": "station",
        "railway": "halt",
        "train": "yes",
        "uic_name": "Ewil Maxon",
        "uic_ref": "8508327",
        "wikidata": "Q5419036",
        "id": "node/3103763722"
      },
      "geometry": {
        "type": "Point",
        "coordinates": [
          8.2186772,
          46.860621
        ]
      }
    },
    {
      "type": "Feature",
      "id": "node/3114699244",
      "properties": {
        "ele": "344",
        "name": "Stabio",
        "operator": "SBB",
        "public_transport": "station",
        "railway": "halt",
        "railway:ref": "STAF",
        "station": "train",
        "train": "yes",
        "uic_name": "Stabio",
        "uic_ref": "8517519",
        "wikidata": "Q18420525",
        "id": "node/3114699244"
      },
      "geometry": {
        "type": "Point",
        "coordinates": [
          8.9441291,
          45.8497166
        ]
      }
    },
    {
      "type": "Feature",
      "id": "node/3142358425",
      "properties": {
        "name": "Balerna",
        "operator": "SBB",
        "public_transport": "station",
        "railway": "station",
        "railway:ref": "BAL",
        "train": "yes",
        "uic_name": "Balerna",
        "uic_ref": "8505306",
        "wikidata": "Q3968955",
        "wikipedia": "it:Stazione di Balerna",
        "id": "node/3142358425"
      },
      "geometry": {
        "type": "Point",
        "coordinates": [
          9.0051129,
          45.8467632
        ]
      }
    },
    {
      "type": "Feature",
      "id": "node/3158326264",
      "properties": {
        "ele": "690",
        "internet_access": "no",
        "name": "Brig Bahnhofplatz",
        "operator": "MGB",
        "public_transport": "station",
        "railway": "station",
        "train": "yes",
        "uic_name": "Brig Bahnhofplatz",
        "uic_ref": "8515296",
        "wheelchair": "yes",
        "wikidata": "Q33511938",
        "id": "node/3158326264"
      },
      "geometry": {
        "type": "Point",
        "coordinates": [
          7.9875675,
          46.3190096
        ]
      }
    },
    {
      "type": "Feature",
      "id": "node/3313765161",
      "properties": {
        "ele": "620",
        "name": "Uitikon Waldegg",
        "network": "ZVV",
        "operator": "SZU",
        "public_transport": "station",
        "railway": "station",
        "railway:ref": "UIWA",
        "train": "yes",
        "uic_name": "Uitikon Waldegg",
        "uic_ref": "8503055",
        "wikidata": "Q7878137",
        "id": "node/3313765161"
      },
      "geometry": {
        "type": "Point",
        "coordinates": [
          8.4658341,
          47.366016
        ]
      }
    },
    {
      "type": "Feature",
      "id": "node/3313770935",
      "properties": {
        "ele": "459",
        "name": "Zürich Schweighof",
        "network": "ZVV",
        "operator": "SZU",
        "public_transport": "station",
        "railway": "halt",
        "railway:ref": "SHF",
        "train": "yes",
        "uic_name": "Zürich Schweighof",
        "uic_ref": "8503053",
        "wheelchair": "yes",
        "wikidata": "Q8076080",
        "id": "node/3313770935"
      },
      "geometry": {
        "type": "Point",
        "coordinates": [
          8.5035323,
          47.3649655
        ]
      }
    },
    {
      "type": "Feature",
      "id": "node/3316140071",
      "properties": {
        "ele": "431",
        "name": "Zürich Manegg",
        "network": "ZVV",
        "operator": "SZU",
        "public_transport": "station",
        "railway": "halt",
        "railway:ref": "ZMA",
        "train": "yes",
        "uic_name": "Zürich Manegg",
        "uic_ref": "8503093",
        "wheelchair": "yes",
        "wikidata": "Q8075397",
        "id": "node/3316140071"
      },
      "geometry": {
        "type": "Point",
        "coordinates": [
          8.5196214,
          47.3378542
        ]
      }
    },
    {
      "type": "Feature",
      "id": "node/3316144419",
      "properties": {
        "ele": "456",
        "name": "Sihlau",
        "network": "ZVV",
        "operator": "SZU",
        "public_transport": "station",
        "railway": "station",
        "railway:ref": "SIA",
        "toilets:wheelchair": "no",
        "train": "yes",
        "uic_name": "Sihlau",
        "uic_ref": "8503099",
        "wheelchair": "limited",
        "wikidata": "Q10640355",
        "id": "node/3316144419"
      },
      "geometry": {
        "type": "Point",
        "coordinates": [
          8.5253036,
          47.3032402
        ]
      }
    },
    {
      "type": "Feature",
      "id": "node/3316144420",
      "properties": {
        "ele": "443",
        "name": "Sood-Oberleimbach",
        "network": "ZVV",
        "operator": "SZU",
        "public_transport": "station",
        "railway": "station",
        "railway:ref": "SOOD",
        "train": "yes",
        "uic_name": "Sood-Oberleimbach",
        "uic_ref": "8503095",
        "wheelchair": "yes",
        "wikidata": "Q10640357",
        "id": "node/3316144420"
      },
      "geometry": {
        "type": "Point",
        "coordinates": [
          8.5214698,
          47.3195841
        ]
      }
    },
    {
      "type": "Feature",
      "id": "node/3316144421",
      "properties": {
        "ele": "458",
        "name": "Wildpark-Höfli",
        "network": "ZVV",
        "operator": "SZU",
        "public_transport": "station",
        "railway": "station",
        "railway:ref": "WP",
        "train": "yes",
        "uic_name": "Wildpark-Höfli",
        "uic_ref": "8503089",
        "wheelchair": "yes",
        "wikidata": "Q10640354",
        "id": "node/3316144421"
      },
      "geometry": {
        "type": "Point",
        "coordinates": [
          8.5355864,
          47.2965453
        ]
      }
    },
    {
      "type": "Feature",
      "id": "node/3329832219",
      "properties": {
        "ele": "435",
        "name": "Distelberg",
        "operator": "Aargau Verkehr AG (AVA)",
        "public_transport": "station",
        "railway": "station",
        "railway:ref": "DIBE",
        "train": "yes",
        "uic_name": "Distelberg",
        "uic_ref": "8502192",
        "wikidata": "Q33452996",
        "id": "node/3329832219"
      },
      "geometry": {
        "type": "Point",
        "coordinates": [
          8.0493184,
          47.3758147
        ]
      }
    },
    {
      "type": "Feature",
      "id": "node/3329983220",
      "properties": {
        "ele": "427",
        "name": "Muhen",
        "operator": "Aargau Verkehr AG (AVA)",
        "public_transport": "station",
        "railway": "station",
        "railway:ref": "MUH",
        "train": "yes",
        "uic_name": "Muhen",
        "uic_ref": "8502195",
        "wikidata": "Q33453050",
        "id": "node/3329983220"
      },
      "geometry": {
        "type": "Point",
        "coordinates": [
          8.0532272,
          47.3388437
        ]
      }
    },
    {
      "type": "Feature",
      "id": "node/3331939683",
      "properties": {
        "ele": "526",
        "name": "Reinach Mitte",
        "operator": "AAR",
        "public_transport": "station",
        "railway": "halt",
        "railway:ref": "REMI",
        "toilets:wheelchair": "no",
        "train": "yes",
        "uic_name": "Reinach AG Mitte",
        "uic_ref": "8502176",
        "wheelchair": "yes",
        "wikidata": "Q33452421",
        "id": "node/3331939683"
      },
      "geometry": {
        "type": "Point",
        "coordinates": [
          8.1836077,
          47.2540995
        ]
      }
    },
    {
      "type": "Feature",
      "id": "node/3605815323",
      "properties": {
        "ele": "1306",
        "image": "http://standseilbahnen.ch/images/6400/6430.02-stoosbahn-standseilbahn-stoos-23.jpg",
        "name": "Stoos (Stoosbahn)",
        "public_transport": "station",
        "railway": "station",
        "source": "https://stoos-muotatal.ch/train/stoosbahnen/",
        "start_date": "17.12.2017",
        "toilets:wheelchair": "yes",
        "train": "yes",
        "uic_name": "Stoos SZ",
        "uic_ref": "8505091",
        "wheelchair": "yes",
        "id": "node/3605815323"
      },
      "geometry": {
        "type": "Point",
        "coordinates": [
          8.6677764,
          46.9781992
        ]
      }
    },
    {
      "type": "Feature",
      "id": "node/3664792747",
      "properties": {
        "ele": "551",
        "name": "Pensier",
        "operator": "TPF",
        "public_transport": "station",
        "railway": "station",
        "train": "yes",
        "uic_name": "Pensier",
        "uic_ref": "8504183",
        "wikidata": "Q15964207",
        "id": "node/3664792747"
      },
      "geometry": {
        "type": "Point",
        "coordinates": [
          7.1361681,
          46.8420247
        ]
      }
    },
    {
      "type": "Feature",
      "id": "node/3668308747",
      "properties": {
        "name": "Kleine Scheidegg",
        "name:cs": "Kleine Scheidegg",
        "name:de": "Kleine Scheidegg",
        "name:en": "Kleine Scheidegg",
        "name:ja": "クライネ・シャイデック",
        "name:ru": "Клайне-Шайдег",
        "network": "Jungfraubahnen",
        "operator": "WAB;JB",
        "public_transport": "station",
        "railway": "station",
        "source": "Bundesamt für Verkehr (BAV), DIDOK 2015",
        "train": "yes",
        "uic_name": "Kleine Scheidegg",
        "uic_ref": "8507374",
        "wikidata": "Q869540",
        "wikipedia": "cs:Kleine Scheidegg",
        "id": "node/3668308747"
      },
      "geometry": {
        "type": "Point",
        "coordinates": [
          7.9608968,
          46.5850987
        ]
      }
    },
    {
      "type": "Feature",
      "id": "node/3790241420",
      "properties": {
        "ele": "1542",
        "name": "Breitlauenen",
        "public_transport": "station",
        "railway": "station",
        "train": "yes",
        "uic_name": "Breitlauenen",
        "uic_ref": "8507386",
        "wikidata": "Q4960452",
        "id": "node/3790241420"
      },
      "geometry": {
        "type": "Point",
        "coordinates": [
          7.895499,
          46.6597692
        ]
      }
    },
    {
      "type": "Feature",
      "id": "node/3816971171",
      "properties": {
        "ele": "1616",
        "name": "Alpiglen",
        "network": "Jungfraubahnen",
        "operator": "WAB",
        "public_transport": "station",
        "railway": "station",
        "source": "Bundesamt für Verkehr (BAV), DIDOK 2015",
        "train": "yes",
        "uic_name": "Alpiglen",
        "uic_ref": "8507375",
        "wikidata": "Q4735442",
        "id": "node/3816971171"
      },
      "geometry": {
        "type": "Point",
        "coordinates": [
          8.0019524,
          46.6000697
        ]
      }
    },
    {
      "type": "Feature",
      "id": "node/4161784980",
      "properties": {
        "name": "Wengernalp",
        "network": "Jungfraubahnen",
        "operator": "WAB",
        "public_transport": "station",
        "railway": "station",
        "source": "Bundesamt für Verkehr (BAV), DIDOK 2015",
        "train": "yes",
        "uic_name": "Wengernalp",
        "uic_ref": "8507373",
        "wikidata": "Q7982859",
        "id": "node/4161784980"
      },
      "geometry": {
        "type": "Point",
        "coordinates": [
          7.939032,
          46.5756768
        ]
      }
    },
    {
      "type": "Feature",
      "id": "node/4313036324",
      "properties": {
        "ele": "2320",
        "name": "Eigergletscher",
        "name:ru": "Айгерглетчер",
        "network": "Jungfraubahnen",
        "operator": "JB",
        "public_transport": "station",
        "railway": "station",
        "source": "Bundesamt für Verkehr (BAV), DIDOK 2015",
        "train": "yes",
        "uic_name": "Eigergletscher",
        "uic_ref": "8507361",
        "wikidata": "Q800710",
        "id": "node/4313036324"
      },
      "geometry": {
        "type": "Point",
        "coordinates": [
          7.9748643,
          46.574801
        ]
      }
    },
    {
      "type": "Feature",
      "id": "node/4313036325",
      "properties": {
        "ele": "3454",
        "name": "Jungfraujoch",
        "name:de": "Jungfraujoch",
        "name:en": "Jungfraujoch",
        "name:fr": "Jungfraujoch",
        "name:ru": "Юнгфрауйох",
        "network": "Jungfraubahnen",
        "operator": "JB",
        "public_transport": "station",
        "railway": "station",
        "train": "yes",
        "uic_name": "Jungfraujoch",
        "uic_ref": "8507364",
        "wheelchair": "yes",
        "wikidata": "Q3695590",
        "id": "node/4313036325"
      },
      "geometry": {
        "type": "Point",
        "coordinates": [
          7.9827094,
          46.5474958
        ]
      }
    },
    {
      "type": "Feature",
      "id": "node/4377500956",
      "properties": {
        "ele": "1333",
        "name": "Brandegg",
        "network": "Jungfraubahnen",
        "operator": "WAB",
        "public_transport": "station",
        "railway": "station",
        "source": "Bundesamt für Verkehr (BAV), DIDOK 2015",
        "train": "yes",
        "uic_name": "Brandegg",
        "uic_ref": "8507552",
        "wikidata": "Q4956623",
        "id": "node/4377500956"
      },
      "geometry": {
        "type": "Point",
        "coordinates": [
          8.0112153,
          46.6088998
        ]
      }
    },
    {
      "type": "Feature",
      "id": "node/4611497644",
      "properties": {
        "name": "Burglauenen",
        "network": "Jungfraubahnen",
        "operator": "BOB",
        "public_transport": "station",
        "railway": "station",
        "train": "yes",
        "uic_name": "Burglauenen",
        "uic_ref": "8507382",
        "wikidata": "Q4998659",
        "id": "node/4611497644"
      },
      "geometry": {
        "type": "Point",
        "coordinates": [
          7.9755015,
          46.635837
        ]
      }
    },
    {
      "type": "Feature",
      "id": "node/4611497645",
      "properties": {
        "name": "Lütschental",
        "network": "Jungfraubahnen",
        "operator": "BOB",
        "public_transport": "station",
        "railway": "station",
        "train": "yes",
        "uic_name": "Lütschental",
        "uic_ref": "8507383",
        "wikidata": "Q6711578",
        "id": "node/4611497645"
      },
      "geometry": {
        "type": "Point",
        "coordinates": [
          7.9489646,
          46.6370926
        ]
      }
    },
    {
      "type": "Feature",
      "id": "node/4810927705",
      "properties": {
        "name": "Dürrenroth",
        "operator": "ETB",
        "public_transport": "station",
        "railway": "station",
        "railway:ref": "DROT",
        "train": "yes",
        "wikidata": "Q33510065",
        "id": "node/4810927705"
      },
      "geometry": {
        "type": "Point",
        "coordinates": [
          7.7920324,
          47.0912843
        ]
      }
    },
    {
      "type": "Feature",
      "id": "node/4869992510",
      "properties": {
        "name": "Häusernmoos",
        "operator": "ETB",
        "public_transport": "station",
        "railway": "halt",
        "railway:ref": "HAMO",
        "train": "yes",
        "wikidata": "Q33510058",
        "id": "node/4869992510"
      },
      "geometry": {
        "type": "Point",
        "coordinates": [
          7.749609,
          47.0785532
        ]
      }
    },
    {
      "type": "Feature",
      "id": "node/4890696636",
      "properties": {
        "addr:city": "Genève",
        "alt_name": "Genève-Cornavin",
        "ele": "392",
        "internet_access": "wlan",
        "internet_access:fee": "no",
        "internet_access:operator": "SBB",
        "name": "Genève",
        "name:ar": "جنيف",
        "name:azb": "ژنو",
        "name:de": "Genf Hauptbahnhof",
        "name:en": "Geneva Railway Station",
        "name:fa": "ژنو",
        "name:kk-Arab": "جەنەۆا",
        "name:pnb": "جنیوا",
        "name:sd": "جنيوا",
        "name:ur": "جنیوا",
        "name:zh": "日内瓦火车站",
        "network": "Unireso",
        "operator": "CFF",
        "public_transport": "station",
        "railway": "station",
        "railway:ref": "GE",
        "train": "yes",
        "uic_name": "Genève",
        "uic_ref": "8501008",
        "wheelchair": "yes",
        "wikidata": "Q800819",
        "wikipedia": "fr:Gare de Genève-Cornavin",
        "id": "node/4890696636"
      },
      "geometry": {
        "type": "Point",
        "coordinates": [
          6.1426218,
          46.2102288
        ]
      }
    },
    {
      "type": "Feature",
      "id": "node/4920624334",
      "properties": {
        "ele": "625",
        "name": "Innertkirchen Grimseltor",
        "operator": "KWO",
        "public_transport": "station",
        "railway": "halt",
        "train": "yes",
        "uic_name": "Innertkirchen Grimseltor",
        "uic_ref": "8508395",
        "wikidata": "Q33510844",
        "id": "node/4920624334"
      },
      "geometry": {
        "type": "Point",
        "coordinates": [
          8.2295744,
          46.7055486
        ]
      }
    },
    {
      "type": "Feature",
      "id": "node/4920624335",
      "properties": {
        "ele": "636",
        "name": "Innertkirchen MIB",
        "operator": "KWO",
        "public_transport": "station",
        "railway": "station",
        "train": "yes",
        "uic_name": "Innertkirchen MIB",
        "uic_ref": "8508359",
        "wikidata": "Q33510803",
        "id": "node/4920624335"
      },
      "geometry": {
        "type": "Point",
        "coordinates": [
          8.2324981,
          46.7022578
        ]
      }
    },
    {
      "type": "Feature",
      "id": "node/5007055738",
      "properties": {
        "addr:city": "Meiringen",
        "addr:housenumber": "12",
        "addr:postcode": "3860",
        "addr:street": "Bahnhofplatz",
        "ele": "595",
        "name": "Meiringen",
        "operator": "ZB",
        "public_transport": "station",
        "railway": "station",
        "railway:ref": "MR",
        "train": "yes",
        "uic_name": "Meiringen",
        "uic_ref": "8508308",
        "wikidata": "Q5544215",
        "id": "node/5007055738"
      },
      "geometry": {
        "type": "Point",
        "coordinates": [
          8.1842995,
          46.727357
        ]
      }
    },
    {
      "type": "Feature",
      "id": "node/5292629070",
      "properties": {
        "name": "Allmend",
        "network": "Jungfraubahnen",
        "operator": "WAB",
        "public_transport": "station",
        "railway": "station",
        "source": "Bundesamt für Verkehr (BAV), DIDOK 2015",
        "train": "yes",
        "uic_name": "Allmend",
        "uic_ref": "8507550",
        "wikidata": "Q4732953",
        "id": "node/5292629070"
      },
      "geometry": {
        "type": "Point",
        "coordinates": [
          7.932255,
          46.5943474
        ]
      }
    },
    {
      "type": "Feature",
      "id": "node/5813442488",
      "properties": {
        "ele": "1085",
        "name": "Ondallaz-L'Alliaz",
        "operator": "MVR",
        "public_transport": "station",
        "railway": "halt",
        "train": "yes",
        "uic_name": "Ondallaz-L'Alliaz",
        "uic_ref": "8501286",
        "wikidata": "Q33445748",
        "id": "node/5813442488"
      },
      "geometry": {
        "type": "Point",
        "coordinates": [
          6.9138452,
          46.4732337
        ]
      }
    },
    {
      "type": "Feature",
      "id": "node/5929437856",
      "properties": {
        "ele": "975",
        "name": "Le Sépey",
        "operator": "TPC",
        "operator:wikidata": "Q429547",
        "public_transport": "station",
        "railway": "station",
        "train": "yes",
        "uic_name": "Le Sépey",
        "uic_ref": "8501474",
        "website": "https://tpc.ch",
        "wikidata": "Q33447502",
        "id": "node/5929437856"
      },
      "geometry": {
        "type": "Point",
        "coordinates": [
          7.0521465,
          46.3613852
        ]
      }
    },
    {
      "type": "Feature",
      "id": "node/6019897829",
      "properties": {
        "name": "Bahnhof Baumschulsee",
        "operator": "Verein Schinznacher Baumschulbahn",
        "public_transport": "station",
        "railway": "station",
        "train": "yes",
        "id": "node/6019897829"
      },
      "geometry": {
        "type": "Point",
        "coordinates": [
          8.1521602,
          47.4509841
        ]
      }
    },
    {
      "type": "Feature",
      "id": "node/6034006570",
      "properties": {
        "name": "Niederried",
        "operator": "ZB",
        "public_transport": "station",
        "railway": "station",
        "railway:ref": "NR",
        "source": "Bundesamt für Verkehr (BAV), DIDOK 2015",
        "train": "yes",
        "uic_name": "Niederried",
        "uic_ref": "8508302",
        "wheelchair": "limited",
        "wikidata": "Q7031161",
        "id": "node/6034006570"
      },
      "geometry": {
        "type": "Point",
        "coordinates": [
          7.9287466,
          46.7163603
        ]
      }
    },
    {
      "type": "Feature",
      "id": "node/6034006571",
      "properties": {
        "name": "Oberried",
        "operator": "ZB",
        "public_transport": "station",
        "railway": "station",
        "railway:ref": "OAB",
        "train": "yes",
        "uic_name": "Oberried am Brienzersee",
        "uic_ref": "8508303",
        "wikidata": "Q10640342",
        "id": "node/6034006571"
      },
      "geometry": {
        "type": "Point",
        "coordinates": [
          7.9588585,
          46.7365592
        ]
      }
    },
    {
      "type": "Feature",
      "id": "node/6034006574",
      "properties": {
        "ele": "625",
        "name": "Unterwasser",
        "operator": "KWO",
        "public_transport": "station",
        "railway": "halt",
        "train": "yes",
        "uic_name": "Innertkirchen Unterwasser",
        "uic_ref": "8530800",
        "wikidata": "Q33512574",
        "id": "node/6034006574"
      },
      "geometry": {
        "type": "Point",
        "coordinates": [
          8.2260232,
          46.7082398
        ]
      }
    },
    {
      "type": "Feature",
      "id": "node/6034006575",
      "properties": {
        "ele": "604",
        "name": "Aareschlucht West",
        "operator": "KWO",
        "public_transport": "station",
        "railway": "halt",
        "train": "yes",
        "uic_name": "Aareschlucht West",
        "uic_ref": "8530760",
        "wikidata": "Q33512537",
        "id": "node/6034006575"
      },
      "geometry": {
        "type": "Point",
        "coordinates": [
          8.1986023,
          46.7212689
        ]
      }
    },
    {
      "type": "Feature",
      "id": "node/6034006576",
      "properties": {
        "ele": "602",
        "name": "Alpbach MIB",
        "operator": "KWO",
        "public_transport": "station",
        "railway": "halt",
        "train": "yes",
        "uic_name": "Meiringen Alpbach",
        "uic_ref": "8530799",
        "wikidata": "Q33512566",
        "id": "node/6034006576"
      },
      "geometry": {
        "type": "Point",
        "coordinates": [
          8.1900441,
          46.7231327
        ]
      }
    },
    {
      "type": "Feature",
      "id": "node/6034007287",
      "properties": {
        "name": "Kaiserstuhl",
        "operator": "ZB",
        "public_transport": "station",
        "railway": "station",
        "railway:ref": "KAI",
        "train": "yes",
        "uic_name": "Kaiserstuhl OW",
        "uic_ref": "8508311",
        "wikidata": "Q6348526",
        "id": "node/6034007287"
      },
      "geometry": {
        "type": "Point",
        "coordinates": [
          8.1755599,
          46.8143722
        ]
      }
    },
    {
      "type": "Feature",
      "id": "node/6034007288",
      "properties": {
        "name": "Lungern",
        "operator": "ZB",
        "public_transport": "station",
        "railway": "station",
        "railway:ref": "LUN",
        "train": "yes",
        "uic_name": "Lungern",
        "uic_ref": "8508310",
        "wikidata": "Q6704319",
        "id": "node/6034007288"
      },
      "geometry": {
        "type": "Point",
        "coordinates": [
          8.1634918,
          46.7863466
        ]
      }
    },
    {
      "type": "Feature",
      "id": "node/6034007289",
      "properties": {
        "name": "Brünig-Hasliberg",
        "operator": "ZB",
        "public_transport": "station",
        "railway": "station",
        "railway:ref": "BRUE",
        "train": "yes",
        "uic_name": "Brünig-Hasliberg",
        "uic_ref": "8508309",
        "wikidata": "Q4981938",
        "id": "node/6034007289"
      },
      "geometry": {
        "type": "Point",
        "coordinates": [
          8.1380463,
          46.7576182
        ]
      }
    },
    {
      "type": "Feature",
      "id": "node/6034007290",
      "properties": {
        "fixme": "neues Feld 'history: old_name: Balmhof Gruss: AB",
        "name": "Brienzwiler",
        "operator": "ZB",
        "public_transport": "station",
        "railway": "station",
        "train": "yes",
        "uic_name": "Brienzwiler",
        "uic_ref": "8508306",
        "wikidata": "Q4967056",
        "id": "node/6034007290"
      },
      "geometry": {
        "type": "Point",
        "coordinates": [
          8.0906329,
          46.7456705
        ]
      }
    },
    {
      "type": "Feature",
      "id": "node/6034007294",
      "properties": {
        "name": "Brienz",
        "operator": "BRB",
        "public_transport": "station",
        "railway": "station",
        "train": "yes",
        "uic_name": "Brienz BRB",
        "uic_ref": "8508350",
        "wheelchair": "limited",
        "id": "node/6034007294"
      },
      "geometry": {
        "type": "Point",
        "coordinates": [
          8.0388942,
          46.7550821
        ]
      }
    },
    {
      "type": "Feature",
      "id": "node/6037884615",
      "properties": {
        "name": "Grindelwald Grund",
        "network": "Jungfraubahnen",
        "operator": "WAB",
        "public_transport": "station",
        "railway": "station",
        "train": "yes",
        "wikidata": "Q5609422",
        "id": "node/6037884615"
      },
      "geometry": {
        "type": "Point",
        "coordinates": [
          8.023627,
          46.6225024
        ]
      }
    },
    {
      "type": "Feature",
      "id": "node/6037884617",
      "properties": {
        "ele": "1588",
        "name": "Winteregg",
        "network": "Jungfraubahnen",
        "operator": "BLM",
        "public_transport": "station",
        "railway": "station",
        "source": "Bundesamt für Verkehr (BAV), DIDOK 2015",
        "train": "yes",
        "uic_name": "Winteregg",
        "uic_ref": "8507560",
        "wikidata": "Q8026446",
        "id": "node/6037884617"
      },
      "geometry": {
        "type": "Point",
        "coordinates": [
          7.8959966,
          46.5818172
        ]
      }
    },
    {
      "type": "Feature",
      "id": "node/6037884621",
      "properties": {
        "name": "Zweilütschinen",
        "network": "Jungfraubahnen",
        "operator": "BOB",
        "public_transport": "station",
        "railway": "station",
        "railway:ref": "ZWEI",
        "source": "Bundesamt für Verkehr (BAV), DIDOK 2015",
        "train": "yes",
        "uic_name": "Zweilütschinen",
        "uic_ref": "8507389",
        "wikidata": "Q8075650",
        "id": "node/6037884621"
      },
      "geometry": {
        "type": "Point",
        "coordinates": [
          7.8998263,
          46.6325665
        ]
      }
    },
    {
      "type": "Feature",
      "id": "node/6037884622",
      "properties": {
        "ele": "1987",
        "name": "Schynige Platte",
        "network": "Jungfraubahnen",
        "operator": "SPB",
        "public_transport": "station",
        "railway": "station",
        "source": "Bundesamt für Verkehr (BAV), DIDOK 2015",
        "train": "yes",
        "uic_name": "Schynige Platte",
        "uic_ref": "8507387",
        "wikidata": "Q617181",
        "wikipedia": "de:Schynige Platte Bahn",
        "id": "node/6037884622"
      },
      "geometry": {
        "type": "Point",
        "coordinates": [
          7.9111731,
          46.6522608
        ]
      }
    },
    {
      "type": "Feature",
      "id": "node/6037884629",
      "properties": {
        "ele": "584",
        "name": "Wilderswil",
        "network": "Jungfraubahnen",
        "operator": "BOB",
        "public_transport": "station",
        "railway": "station",
        "railway:ref": "WILD",
        "train": "yes",
        "uic_name": "Wilderswil",
        "uic_ref": "8507388",
        "wikidata": "Q8001195",
        "id": "node/6037884629"
      },
      "geometry": {
        "type": "Point",
        "coordinates": [
          7.8692166,
          46.665651
        ]
      }
    },
    {
      "type": "Feature",
      "id": "node/6044426065",
      "properties": {
        "name": "Chêne-Bourg",
        "network": "ch-direct",
        "operator": "SBB CFF FFS",
        "public_transport": "station",
        "railway": "station",
        "railway:ref": "CHEB",
        "train": "yes",
        "uic_name": "Chêne-Bourg",
        "uic_ref": "8516274",
        "wikidata": "Q3096243",
        "id": "node/6044426065"
      },
      "geometry": {
        "type": "Point",
        "coordinates": [
          6.1972535,
          46.1966071
        ]
      }
    },
    {
      "type": "Feature",
      "id": "node/6044426066",
      "properties": {
        "name": "Genève-Eaux-Vives",
        "network": "ch-direct",
        "operator": "SBB",
        "public_transport": "station",
        "railway": "station",
        "railway:ref": "GEV",
        "train": "yes",
        "uic_name": "Genève-Eaux-Vives",
        "uic_ref": "8516273",
        "wikidata": "Q3098155",
        "wikipedia": "fr:Gare de Genève-Eaux-Vives",
        "id": "node/6044426066"
      },
      "geometry": {
        "type": "Point",
        "coordinates": [
          6.1648206,
          46.200523
        ]
      }
    },
    {
      "type": "Feature",
      "id": "node/6702891247",
      "properties": {
        "ele": "730",
        "name": "Bossonnens",
        "operator": "TPF",
        "public_transport": "station",
        "railway": "halt",
        "train": "yes",
        "uic_name": "Bossonnens",
        "uic_ref": "8504060",
        "wikidata": "Q33462426",
        "id": "node/6702891247"
      },
      "geometry": {
        "type": "Point",
        "coordinates": [
          6.8532473,
          46.525775
        ]
      }
    },
    {
      "type": "Feature",
      "id": "node/6886527481",
      "properties": {
        "name": "Lancy-Bachet",
        "network": "ch-direct;unireso",
        "operator": "SBB",
        "public_transport": "station",
        "railway": "station",
        "railway:ref": "CABA",
        "train": "yes",
        "uic_name": "Lancy-Bachet",
        "uic_ref": "8517142",
        "wikidata": "Q43890330",
        "wikipedia": "fr:Gare de Lancy-Bachet",
        "id": "node/6886527481"
      },
      "geometry": {
        "type": "Point",
        "coordinates": [
          6.1302687,
          46.1740246
        ]
      }
    },
    {
      "type": "Feature",
      "id": "node/6886690043",
      "properties": {
        "name": "Genève-Champel",
        "network": "ch-direct",
        "operator": "SBB",
        "public_transport": "station",
        "railway": "station",
        "railway:ref": "CHHO",
        "train": "yes",
        "uic_name": "Genève-Champel",
        "uic_ref": "8516272",
        "wikidata": "Q48610587",
        "wikipedia": "fr:Gare de Genève-Champel",
        "id": "node/6886690043"
      },
      "geometry": {
        "type": "Point",
        "coordinates": [
          6.1537008,
          46.1924838
        ]
      }
    },
    {
      "type": "Feature",
      "id": "node/8131895051",
      "properties": {
        "ele": "407",
        "name": "Villy",
        "operator": "TPC",
        "operator:wikidata": "Q429547",
        "public_transport": "station",
        "railway": "halt",
        "train": "yes",
        "uic_name": "Villy",
        "uic_ref": "8501458",
        "website": "https://tpc.ch",
        "wikidata": "Q33447059",
        "id": "node/8131895051"
      },
      "geometry": {
        "type": "Point",
        "coordinates": [
          6.9944248,
          46.2868863
        ]
      }
    },
    {
      "type": "Feature",
      "id": "node/8176304043",
      "properties": {
        "internet_access": "no",
        "name": "Burgholz",
        "operator": "BLS",
        "public_transport": "station",
        "railway": "halt",
        "train": "yes",
        "wheelchair": "yes",
        "id": "node/8176304043"
      },
      "geometry": {
        "type": "Point",
        "coordinates": [
          7.6030711,
          46.6657535
        ]
      }
    },
    {
      "type": "Feature",
      "id": "node/8951918011",
      "properties": {
        "name": "Leissigen",
        "operator": "BLS",
        "public_transport": "station",
        "railway": "station",
        "train": "yes",
        "id": "node/8951918011"
      },
      "geometry": {
        "type": "Point",
        "coordinates": [
          7.775568,
          46.6555568
        ]
      }
    },
    {
      "type": "Feature",
      "id": "node/9117244895",
      "properties": {
        "name": "Bahnhof Steiner Liliputbahn",
        "operator": "Steiner Liliputbahn Verein",
        "public_transport": "station",
        "railway": "station",
        "train": "yes",
        "id": "node/9117244895"
      },
      "geometry": {
        "type": "Point",
        "coordinates": [
          8.8564359,
          47.6607067
        ]
      }
    },
    {
      "type": "Feature",
      "id": "node/9130881705",
      "properties": {
        "name": "Unterschwanden",
        "public_transport": "station",
        "railway": "station",
        "train": "yes",
        "id": "node/9130881705"
      },
      "geometry": {
        "type": "Point",
        "coordinates": [
          8.4841457,
          47.0170772
        ]
      }
    },
    {
      "type": "Feature",
      "id": "node/9182807866",
      "properties": {
        "name": "La Chaux-de-Fonds, Les Forges",
        "operator": "CFF",
        "public_transport": "station",
        "railway": "station",
        "train": "yes",
        "id": "node/9182807866"
      },
      "geometry": {
        "type": "Point",
        "coordinates": [
          6.8128245,
          47.0914038
        ]
      }
    },
    {
      "type": "Feature",
      "id": "node/9456210159",
      "properties": {
        "internet_access": "no",
        "name": "Huttwil Sportzentrum",
        "operator": "ETB",
        "public_transport": "station",
        "railway": "halt",
        "railway:ref": "HWSZ",
        "train": "yes",
        "wikidata": "Q33509653",
        "id": "node/9456210159"
      },
      "geometry": {
        "type": "Point",
        "coordinates": [
          7.8299578,
          47.1109201
        ]
      }
    },
    {
      "type": "Feature",
      "id": "node/9482064440",
      "properties": {
        "name": "Rorschach Stadt",
        "network": "Ostwind",
        "operator": "SBB",
        "public_transport": "station",
        "railway": "station",
        "train": "yes",
        "uic_name": "Rorschach Stadt",
        "uic_ref": "8506322",
        "wikidata": "Q15964244",
        "id": "node/9482064440"
      },
      "geometry": {
        "type": "Point",
        "coordinates": [
          9.4895759,
          47.47555
        ]
      }
    }
  ]
}