{
  "type": "FeatureCollection",
  "features": [
    {
      "type": "Feature",
      "id": "node/24596053",
      "properties": {
        "addr:city": "Praha 6",
        "addr:postcode": "16000",
        "name": "Praha-Dejvice",
        "name:de": "Prag-Dejwitz",
        "operator": "Správa železnic, s. o.",
        "public_transport": "station",
        "railway": "station",
        "railway:ref": "570663",
        "train": "yes",
        "wheelchair": "yes",
        "wikidata": "Q11826597",
        "wikipedia": "cs:Praha-Dejvice (nádraží)",
        "id": "node/24596053"
      },
      "geometry": {
        "type": "Point",
        "coordinates": [
          14.3995374,
          50.0969648
        ]
      }
    },
    {
      "type": "Feature",
      "id": "node/24681433",
      "properties": {
        "name": "Lanšperk",
        "operator": "cz:SŽDC",
        "public_transport": "station",
        "railway": "station",
        "railway:ref": "533802",
        "train": "yes",
        "uic_ref": "5453380",
        "wikidata": "Q66888950",
        "id": "node/24681433"
      },
      "geometry": {
        "type": "Point",
        "coordinates": [
          16.447299,
          49.9927009
        ]
      }
    },
    {
      "type": "Feature",
      "id": "node/24685076",
      "properties": {
        "name": "Kařízek",
        "public_transport": "station",
        "railway": "station",
        "train": "yes",
        "id": "node/24685076"
      },
      "geometry": {
        "type": "Point",
        "coordinates": [
          13.7679314,
          49.8010346
        ]
      }
    },
    {
      "type": "Feature",
      "id": "node/24692504",
      "properties": {
        "name": "Dlouhá Třebová",
        "operator": "cz:SŽDC",
        "public_transport": "station",
        "railway": "station",
        "railway:ref": "539239",
        "train": "yes",
        "id": "node/24692504"
      },
      "geometry": {
        "type": "Point",
        "coordinates": [
          16.4227017,
          49.9354692
        ]
      }
    },
    {
      "type": "Feature",
      "id": "node/24697051",
      "properties": {
        "addr:city": "Čelákovice",
        "addr:postcode": "25088",
        "alt_name:de": "Tschelakowitz",
        "internet_access": "no",
        "name": "Čelákovice",
        "name:de": "Czelakowitz",
        "name:ru": "Челаковице",
        "name:sr": "Челаковице",
        "network": "PID",
        "operator": "cz:SŽDC",
        "public_transport": "station",
        "railway": "station",
        "railway:ref": "547760",
        "train": "yes",
        "wheelchair": "limited",
        "id": "node/24697051"
      },
      "geometry": {
        "type": "Point",
        "coordinates": [
          14.7543777,
          50.1580183
        ]
      }
    },
    {
      "type": "Feature",
      "id": "node/24952579",
      "properties": {
        "ele": "292",
        "name": "Choceň",
        "name:de": "Chotzen",
        "operator": "cz:SŽDC",
        "public_transport": "station",
        "railway": "station",
        "railway:ref": "538132",
        "start_date": "1845-08-20",
        "train": "yes",
        "uic_ref": "5453813",
        "wikidata": "Q2621367",
        "wikipedia": "cs:Choceň (nádraží)",
        "id": "node/24952579"
      },
      "geometry": {
        "type": "Point",
        "coordinates": [
          16.2232836,
          49.9937377
        ]
      }
    },
    {
      "type": "Feature",
      "id": "node/24952581",
      "properties": {
        "ele": "305",
        "name": "Brandýs nad Orlicí",
        "name:cs": "Brandýs nad Orlicí",
        "name:de": "Brandeis an der Adler",
        "operator": "cz:SŽDC",
        "public_transport": "station",
        "railway": "station",
        "railway:ref": "538439",
        "start_date": "1845-08-20",
        "train": "yes",
        "wheelchair": "no",
        "wikidata": "Q2687328",
        "wikipedia": "cs:Brandýs nad Orlicí (nádraží)",
        "id": "node/24952581"
      },
      "geometry": {
        "type": "Point",
        "coordinates": [
          16.2838866,
          50.0002795
        ]
      }
    },
    {
      "type": "Feature",
      "id": "node/25957521",
      "properties": {
        "ele": "265",
        "name": "Lukavice na Moravě",
        "operator": "cz:SŽDC",
        "public_transport": "station",
        "railway": "station",
        "railway:ref": "341628",
        "train": "yes",
        "uic_ref": "5434162",
        "wikidata": "Q11764209",
        "wikipedia": "cs:Lukavice na Moravě (nádraží)",
        "id": "node/25957521"
      },
      "geometry": {
        "type": "Point",
        "coordinates": [
          16.9167704,
          49.8254104
        ]
      }
    },
    {
      "type": "Feature",
      "id": "node/33305575",
      "properties": {
        "name": "Hazlov",
        "name:de": "Haslau",
        "public_transport": "station",
        "railway": "station",
        "train": "yes",
        "id": "node/33305575"
      },
      "geometry": {
        "type": "Point",
        "coordinates": [
          12.2790278,
          50.1618702
        ]
      }
    },
    {
      "type": "Feature",
      "id": "node/34000815",
      "properties": {
        "name": "Rudoltice v Čechách",
        "operator": "cz:SŽDC",
        "public_transport": "station",
        "railway": "station",
        "railway:ref": "539437",
        "train": "yes",
        "uic_ref": "5453943",
        "wikidata": "Q18590817",
        "id": "node/34000815"
      },
      "geometry": {
        "type": "Point",
        "coordinates": [
          16.5720621,
          49.8926651
        ]
      }
    },
    {
      "type": "Feature",
      "id": "node/34002457",
      "properties": {
        "ele": "260",
        "internet_access": "no",
        "name": "Mohelnice",
        "name:de": "Müglitz",
        "operator": "cz:SŽDC",
        "public_transport": "station",
        "railway": "station",
        "railway:ref": "342824",
        "start_date": "1845-08-20",
        "train": "yes",
        "uic_ref": "5434282",
        "wikidata": "Q11784678",
        "wikipedia": "cs:Mohelnice (nádraží)",
        "id": "node/34002457"
      },
      "geometry": {
        "type": "Point",
        "coordinates": [
          16.9430951,
          49.7766829
        ]
      }
    },
    {
      "type": "Feature",
      "id": "node/215462461",
      "properties": {
        "ele:local": "782.186",
        "name": "Moldava v Krušných horách",
        "operator": "Správa železnic",
        "public_transport": "station",
        "railway": "station",
        "source:ele": "commons.wikimedia.org/wiki/File:Moldau,_Bahnhofsgebäude.04.JPG",
        "train": "yes",
        "id": "node/215462461"
      },
      "geometry": {
        "type": "Point",
        "coordinates": [
          13.6913647,
          50.7177908
        ]
      }
    },
    {
      "type": "Feature",
      "id": "node/243974254",
      "properties": {
        "name": "Nižbor",
        "public_transport": "station",
        "railway": "station",
        "train": "yes",
        "wheelchair": "limited",
        "wikidata": "Q66888151",
        "wikipedia": "cs:Nižbor (nádraží)",
        "id": "node/243974254"
      },
      "geometry": {
        "type": "Point",
        "coordinates": [
          13.9983529,
          50.0033423
        ]
      }
    },
    {
      "type": "Feature",
      "id": "node/246780422",
      "properties": {
        "name": "Teplice, Řetenice",
        "public_transport": "station",
        "railway": "station",
        "train": "yes",
        "id": "node/246780422"
      },
      "geometry": {
        "type": "Point",
        "coordinates": [
          13.8008181,
          50.6424536
        ]
      }
    },
    {
      "type": "Feature",
      "id": "node/249335299",
      "properties": {
        "name": "Poděbrady",
        "name:cs": "Poděbrady",
        "name:de": "Podiebrad",
        "operator": "cz:SŽDC",
        "public_transport": "station",
        "railway": "station",
        "railway:ref": "532341",
        "train": "yes",
        "id": "node/249335299"
      },
      "geometry": {
        "type": "Point",
        "coordinates": [
          15.1238243,
          50.1496609
        ]
      }
    },
    {
      "type": "Feature",
      "id": "node/249419471",
      "properties": {
        "ele": "420",
        "name": "Jablonné nad Orlicí",
        "name:de": "Gabel an der Adler",
        "operator": "cz:SŽDC",
        "public_transport": "station",
        "railway": "station",
        "railway:ref": "534008",
        "start_date": "1875-10-15",
        "train": "yes",
        "uic_ref": "5453400",
        "wikidata": "Q18180272",
        "wikipedia": "cs:Jablonné nad Orlicí (nádraží)",
        "id": "node/249419471"
      },
      "geometry": {
        "type": "Point",
        "coordinates": [
          16.5945804,
          50.0263484
        ]
      }
    },
    {
      "type": "Feature",
      "id": "node/249426765",
      "properties": {
        "ele": "535",
        "name": "Lichkov",
        "operator": "cz:SŽDC",
        "public_transport": "station",
        "railway": "station",
        "railway:ref": "534305",
        "start_date": "1875-10-15",
        "train": "yes",
        "uic_ref": "5453430",
        "wikidata": "Q11755789",
        "wikipedia": "cs:Lichkov (nádraží)",
        "id": "node/249426765"
      },
      "geometry": {
        "type": "Point",
        "coordinates": [
          16.6589782,
          50.0972682
        ]
      }
    },
    {
      "type": "Feature",
      "id": "node/249426852",
      "properties": {
        "name": "Dolní Lipka",
        "name:de": "Niederlipka",
        "operator": "cz:SŽDC",
        "public_transport": "station",
        "railway": "station",
        "railway:ref": "534602",
        "train": "yes",
        "uic_ref": "5453460",
        "wikidata": "Q18180192",
        "id": "node/249426852"
      },
      "geometry": {
        "type": "Point",
        "coordinates": [
          16.720932,
          50.0893984
        ]
      }
    },
    {
      "type": "Feature",
      "id": "node/249487229",
      "properties": {
        "name": "Ruda nad Moravou",
        "operator": "cz:SŽDC",
        "public_transport": "station",
        "railway": "station",
        "railway:ref": "348128",
        "train": "yes",
        "uic_ref": "5434812",
        "id": "node/249487229"
      },
      "geometry": {
        "type": "Point",
        "coordinates": [
          16.8887974,
          49.9838417
        ]
      }
    },
    {
      "type": "Feature",
      "id": "node/250398414",
      "properties": {
        "name": "Zubrnice-Týniště",
        "name:de": "Saubernitz-Tünscht",
        "operator": "Zubrnická muzeální železnice",
        "public_transport": "station",
        "railway": "station",
        "train": "yes",
        "id": "node/250398414"
      },
      "geometry": {
        "type": "Point",
        "coordinates": [
          14.2176738,
          50.6469409
        ]
      }
    },
    {
      "type": "Feature",
      "id": "node/252666531",
      "properties": {
        "name": "Broumov",
        "name:cs": "Broumov",
        "name:de": "Braunau",
        "operator": "sždc",
        "public_transport": "station",
        "railway": "station",
        "train": "yes",
        "id": "node/252666531"
      },
      "geometry": {
        "type": "Point",
        "coordinates": [
          16.3395719,
          50.5806631
        ]
      }
    },
    {
      "type": "Feature",
      "id": "node/264948846",
      "properties": {
        "name": "Kutná Hora město",
        "name:de": "Kuttenberg Stadt",
        "operator": "cz:SŽDC",
        "public_transport": "station",
        "railway": "station",
        "railway:ref": "563460",
        "train": "yes",
        "uic_ref": "5456346",
        "wheelchair": "yes",
        "wikidata": "Q18180356",
        "id": "node/264948846"
      },
      "geometry": {
        "type": "Point",
        "coordinates": [
          15.2773521,
          49.9498597
        ]
      }
    },
    {
      "type": "Feature",
      "id": "node/266867488",
      "properties": {
        "name": "Milotice nad Opavou",
        "operator": "cz:SŽDC",
        "public_transport": "station",
        "railway": "station",
        "railway:ref": "342527",
        "train": "yes",
        "uic_ref": "5434252",
        "id": "node/266867488"
      },
      "geometry": {
        "type": "Point",
        "coordinates": [
          17.5576211,
          50.0142906
        ]
      }
    },
    {
      "type": "Feature",
      "id": "node/267247424",
      "properties": {
        "name": "Krupá",
        "operator": "SŽDC",
        "public_transport": "station",
        "railway": "station",
        "railway:ref": "533760",
        "train": "yes",
        "id": "node/267247424"
      },
      "geometry": {
        "type": "Point",
        "coordinates": [
          13.722933,
          50.1697107
        ]
      }
    },
    {
      "type": "Feature",
      "id": "node/268273745",
      "properties": {
        "name": "Kostelec u Heřmanova Městce",
        "note": "resurvey southern part",
        "public_transport": "station",
        "railway": "station",
        "train": "yes",
        "id": "node/268273745"
      },
      "geometry": {
        "type": "Point",
        "coordinates": [
          15.6511207,
          49.9207307
        ]
      }
    },
    {
      "type": "Feature",
      "id": "node/269252753",
      "properties": {
        "name": "Třemošnice",
        "name:de": "Tremoschnitz",
        "operator": "cz:SŽDC",
        "public_transport": "station",
        "railway": "station",
        "railway:ref": "554139",
        "train": "yes",
        "id": "node/269252753"
      },
      "geometry": {
        "type": "Point",
        "coordinates": [
          15.5762511,
          49.8720293
        ]
      }
    },
    {
      "type": "Feature",
      "id": "node/269730947",
      "properties": {
        "name": "Čermná nad Orlicí",
        "operator": "cz:SŽDC",
        "public_transport": "station",
        "railway": "station",
        "railway:ref": "540708",
        "train": "yes",
        "uic_ref": "5454070",
        "wikidata": "Q18924231",
        "id": "node/269730947"
      },
      "geometry": {
        "type": "Point",
        "coordinates": [
          16.1358466,
          50.0648063
        ]
      }
    },
    {
      "type": "Feature",
      "id": "node/269734294",
      "properties": {
        "name": "Újezd u Chocně",
        "operator": "cz:SŽDC",
        "public_transport": "station",
        "railway": "station",
        "railway:ref": "540807",
        "train": "yes",
        "uic_ref": "5454080",
        "wikidata": "Q19401547",
        "id": "node/269734294"
      },
      "geometry": {
        "type": "Point",
        "coordinates": [
          16.1788815,
          50.0318287
        ]
      }
    },
    {
      "type": "Feature",
      "id": "node/272425923",
      "properties": {
        "ele": "540",
        "internet_access": "no",
        "name": "Herálec",
        "operator": "cz:SŽDC",
        "public_transport": "station",
        "railway": "station",
        "railway:ref": "558437",
        "start_date": "1894-09-01",
        "train": "yes",
        "uic_ref": "5455843",
        "wikidata": "Q19400676",
        "wikipedia": "cs:Herálec (nádraží)",
        "id": "node/272425923"
      },
      "geometry": {
        "type": "Point",
        "coordinates": [
          15.4731381,
          49.5254338
        ]
      }
    },
    {
      "type": "Feature",
      "id": "node/276040829",
      "properties": {
        "name": "Červená Voda",
        "name:de": "Mährisch Rothwasser",
        "operator": "cz:SŽDC",
        "public_transport": "station",
        "railway": "station",
        "railway:ref": "535203",
        "train": "yes",
        "uic_ref": "5453520",
        "wikidata": "Q18180162",
        "id": "node/276040829"
      },
      "geometry": {
        "type": "Point",
        "coordinates": [
          16.7464801,
          50.0470959
        ]
      }
    },
    {
      "type": "Feature",
      "id": "node/280170110",
      "properties": {
        "name": "Adršpach",
        "name:de": "Adersbach",
        "operator": "cz:SŽDC",
        "public_transport": "station",
        "railway": "station",
        "railway:ref": "573501",
        "train": "yes",
        "id": "node/280170110"
      },
      "geometry": {
        "type": "Point",
        "coordinates": [
          16.1248604,
          50.6154176
        ]
      }
    },
    {
      "type": "Feature",
      "id": "node/288455900",
      "properties": {
        "name": "Horní Cerekev",
        "operator": "cz:SŽDC",
        "public_transport": "station",
        "railway": "station",
        "railway:ref": "758029",
        "source": "uhul:ortofoto",
        "train": "yes",
        "id": "node/288455900"
      },
      "geometry": {
        "type": "Point",
        "coordinates": [
          15.3245682,
          49.3111787
        ]
      }
    },
    {
      "type": "Feature",
      "id": "node/293772087",
      "properties": {
        "addr:city": "Libochovice",
        "addr:housenumber": "304",
        "addr:postcode": "41117",
        "addr:street": "Nádražní",
        "ele": "165",
        "name": "Libochovice",
        "name:de": "Libochowitz",
        "public_transport": "station",
        "railway": "station",
        "start_date": "1882",
        "train": "yes",
        "wikidata": "Q18180374",
        "wikipedia": "cs:Libochovice (nádraží)",
        "id": "node/293772087"
      },
      "geometry": {
        "type": "Point",
        "coordinates": [
          14.054876,
          50.4105323
        ]
      }
    },
    {
      "type": "Feature",
      "id": "node/301812407",
      "properties": {
        "name": "Kunov",
        "operator": "cz:AWT",
        "public_transport": "station",
        "railway": "station",
        "railway:ref": "342626",
        "train": "yes",
        "id": "node/301812407"
      },
      "geometry": {
        "type": "Point",
        "coordinates": [
          17.5159887,
          50.0373155
        ]
      }
    },
    {
      "type": "Feature",
      "id": "node/301815100",
      "properties": {
        "name": "Široká Niva",
        "operator": "cz:AWT",
        "public_transport": "station",
        "railway": "station",
        "railway:ref": "354027",
        "train": "yes",
        "id": "node/301815100"
      },
      "geometry": {
        "type": "Point",
        "coordinates": [
          17.4734536,
          50.0666027
        ]
      }
    },
    {
      "type": "Feature",
      "id": "node/303816283",
      "properties": {
        "name": "Rychnov u Jablonce nad Nisou",
        "public_transport": "station",
        "railway": "station",
        "train": "yes",
        "id": "node/303816283"
      },
      "geometry": {
        "type": "Point",
        "coordinates": [
          15.1431447,
          50.6837941
        ]
      }
    },
    {
      "type": "Feature",
      "id": "node/305100898",
      "properties": {
        "ele": "325",
        "name": "Potštejn",
        "operator": "cz:SŽDC",
        "public_transport": "station",
        "railway": "station",
        "railway:ref": "532804",
        "start_date": "1874-01-10",
        "train": "yes",
        "uic_ref": "5453280",
        "wikidata": "Q66888882",
        "wikipedia": "cs:Potštejn (nádraží)",
        "id": "node/305100898"
      },
      "geometry": {
        "type": "Point",
        "coordinates": [
          16.3152183,
          50.0837976
        ]
      }
    },
    {
      "type": "Feature",
      "id": "node/305573889",
      "properties": {
        "name": "Litice nad Orlicí",
        "operator": "cz:SŽDC",
        "public_transport": "station",
        "railway": "station",
        "railway:ref": "533000",
        "train": "yes",
        "uic_ref": "5453300",
        "wikidata": "Q66888988",
        "id": "node/305573889"
      },
      "geometry": {
        "type": "Point",
        "coordinates": [
          16.3578143,
          50.086985
        ]
      }
    },
    {
      "type": "Feature",
      "id": "node/305883506",
      "properties": {
        "ele": "420",
        "name": "Žamberk",
        "name:de": "Senftenberg in Böhmen",
        "operator": "cz:SŽDC",
        "public_transport": "station",
        "railway": "station",
        "railway:ref": "533208",
        "start_date": "1874-01-10",
        "train": "yes",
        "uic_ref": "5453320",
        "wikidata": "Q18180609",
        "wikipedia": "cs:Žamberk (nádraží)",
        "id": "node/305883506"
      },
      "geometry": {
        "type": "Point",
        "coordinates": [
          16.4499536,
          50.0738011
        ]
      }
    },
    {
      "type": "Feature",
      "id": "node/308721563",
      "properties": {
        "ele": "300",
        "name": "Vamberk",
        "name:de": "Wamberg",
        "operator": "cz:SŽDC",
        "public_transport": "station",
        "railway": "station",
        "railway:ref": "541607",
        "train": "yes",
        "uic_ref": "5454160",
        "wikidata": "Q18180582",
        "wikipedia": "cs:Vamberk (nádraží)",
        "id": "node/308721563"
      },
      "geometry": {
        "type": "Point",
        "coordinates": [
          16.282329,
          50.1175906
        ]
      }
    },
    {
      "type": "Feature",
      "id": "node/308721670",
      "properties": {
        "name": "Slatina nad Zdobnicí",
        "operator": "cz:SŽDC",
        "public_transport": "station",
        "railway": "station",
        "railway:ref": "541706",
        "train": "yes",
        "uic_ref": "5454170",
        "wikidata": "Q66888907",
        "id": "node/308721670"
      },
      "geometry": {
        "type": "Point",
        "coordinates": [
          16.3776547,
          50.1368336
        ]
      }
    },
    {
      "type": "Feature",
      "id": "node/308867747",
      "properties": {
        "name": "Vysoké Mýto",
        "operator": "cz:SŽDC",
        "public_transport": "station",
        "railway": "station",
        "railway:ref": "552836",
        "start_date": "1882-10-22",
        "train": "yes",
        "uic_ref": "5455283",
        "wikidata": "Q18180605",
        "wikipedia": "cs:Vysoké Mýto (nádraží)",
        "id": "node/308867747"
      },
      "geometry": {
        "type": "Point",
        "coordinates": [
          16.1469854,
          49.9555904
        ]
      }
    },
    {
      "type": "Feature",
      "id": "node/308990602",
      "properties": {
        "ele": "310",
        "name": "Rychnov nad Kněžnou",
        "name:cs": "Rychnov nad Kněžnou",
        "name:de": "Reichenau an der Knieschna",
        "name:ru": "Рихнов-над-Кнежноу",
        "operator": "cz:SŽDC",
        "public_transport": "station",
        "railway": "station",
        "railway:ref": "541102",
        "start_date": "1893-10-26",
        "train": "yes",
        "uic_ref": "5454110",
        "wikidata": "Q18170855",
        "wikipedia": "cs:Rychnov nad Kněžnou (nádraží)",
        "id": "node/308990602"
      },
      "geometry": {
        "type": "Point",
        "coordinates": [
          16.2733588,
          50.1582482
        ]
      }
    },
    {
      "type": "Feature",
      "id": "node/308990716",
      "properties": {
        "ele": "310",
        "name": "Solnice",
        "name:de": "Solnitz",
        "operator": "cz:SŽDC",
        "public_transport": "station",
        "railway": "station",
        "railway:ref": "541003",
        "start_date": "1893-10-26",
        "train": "yes",
        "uic_ref": "5454100",
        "wikidata": "Q18180518",
        "wikipedia": "cs:Solnice (nádraží)",
        "id": "node/308990716"
      },
      "geometry": {
        "type": "Point",
        "coordinates": [
          16.2541477,
          50.2037659
        ]
      }
    },
    {
      "type": "Feature",
      "id": "node/309134496",
      "properties": {
        "internet_access": "no",
        "name": "Vejprty",
        "operator": "České dráhy",
        "public_transport": "station",
        "railway": "station",
        "train": "yes",
        "id": "node/309134496"
      },
      "geometry": {
        "type": "Point",
        "coordinates": [
          13.0338317,
          50.5007023
        ]
      }
    },
    {
      "type": "Feature",
      "id": "node/318458424",
      "properties": {
        "name": "Mělník",
        "name:cs": "Mělník",
        "name:de": "Melnik",
        "name:pl": "Mielnik",
        "name:ru": "Мельник",
        "name:sr": "Мелник",
        "operator": "cz:SŽDC",
        "public_transport": "station",
        "railway": "station",
        "railway:ref": "530188",
        "train": "yes",
        "id": "node/318458424"
      },
      "geometry": {
        "type": "Point",
        "coordinates": [
          14.4918092,
          50.3533665
        ]
      }
    },
    {
      "type": "Feature",
      "id": "node/514661246",
      "properties": {
        "name": "Kájov",
        "name:cs": "Kájov",
        "name:de": "Gojau",
        "operator": "cz:SŽDC",
        "public_transport": "station",
        "railway": "station",
        "railway:ref": "759928",
        "train": "yes",
        "uic_ref": "5401411",
        "id": "node/514661246"
      },
      "geometry": {
        "type": "Point",
        "coordinates": [
          14.2654059,
          48.813015
        ]
      }
    },
    {
      "type": "Feature",
      "id": "node/615818327",
      "properties": {
        "name": "Jince",
        "name:cs": "Jince",
        "name:de": "Jinetz",
        "operator": "cz:SŽDC",
        "public_transport": "station",
        "railway": "station",
        "railway:ref": "768846",
        "train": "yes",
        "id": "node/615818327"
      },
      "geometry": {
        "type": "Point",
        "coordinates": [
          13.9873939,
          49.7821634
        ]
      }
    },
    {
      "type": "Feature",
      "id": "node/686578798",
      "properties": {
        "name": "Hýskov",
        "public_transport": "station",
        "railway": "station",
        "train": "yes",
        "id": "node/686578798"
      },
      "geometry": {
        "type": "Point",
        "coordinates": [
          14.0448341,
          49.9888327
        ]
      }
    },
    {
      "type": "Feature",
      "id": "node/957319857",
      "properties": {
        "addr:conscriptionnumber": "1046",
        "addr:country": "CZ",
        "addr:housenumber": "1046",
        "addr:place": "Uherský Brod",
        "addr:postcode": "68801",
        "addr:street": "Pod Valy",
        "public_transport": "station",
        "railway": "station",
        "ref:ruian:addr": "5011825",
        "train": "yes",
        "id": "node/957319857"
      },
      "geometry": {
        "type": "Point",
        "coordinates": [
          17.6437975,
          49.0220538
        ]
      }
    },
    {
      "type": "Feature",
      "id": "node/987655760",
      "properties": {
        "name": "Prachovice",
        "public_transport": "station",
        "railway": "station",
        "train": "yes",
        "id": "node/987655760"
      },
      "geometry": {
        "type": "Point",
        "coordinates": [
          15.632711,
          49.8927092
        ]
      }
    },
    {
      "type": "Feature",
      "id": "node/1108267788",
      "properties": {
        "ele": "555",
        "name": "Bruntál",
        "operator": "cz:SŽDC",
        "public_transport": "station",
        "railway": "station",
        "railway:ref": "331629",
        "start_date": "1872-11-01",
        "train": "yes",
        "uic_ref": "5433162",
        "wikidata": "Q9180524",
        "wikipedia": "cs:Bruntál (nádraží)",
        "id": "node/1108267788"
      },
      "geometry": {
        "type": "Point",
        "coordinates": [
          17.4745741,
          49.9939607
        ]
      }
    },
    {
      "type": "Feature",
      "id": "node/1371963281",
      "properties": {
        "addr:city": "Postoloprty",
        "addr:conscriptionnumber": "236",
        "addr:country": "CZ",
        "addr:housenumber": "236",
        "addr:postcode": "43942",
        "addr:street": "Žižkova",
        "name": "Postoloprty",
        "public_transport": "station",
        "railway": "station",
        "ref:ruian": "19951647",
        "source:addr": "ruian",
        "train": "yes",
        "id": "node/1371963281"
      },
      "geometry": {
        "type": "Point",
        "coordinates": [
          13.691899,
          50.3603384
        ]
      }
    },
    {
      "type": "Feature",
      "id": "node/1601695431",
      "properties": {
        "name": "Ševčínský důl",
        "operator": "Hornické muzeum Příbram",
        "public_transport": "station",
        "railway": "station",
        "train": "yes",
        "id": "node/1601695431"
      },
      "geometry": {
        "type": "Point",
        "coordinates": [
          13.9873685,
          49.6837194
        ]
      }
    },
    {
      "type": "Feature",
      "id": "node/1720969909",
      "properties": {
        "name": "Divadelní náměstí",
        "name:de": "Theaterplatz",
        "public_transport": "station",
        "railway": "station",
        "train": "yes",
        "id": "node/1720969909"
      },
      "geometry": {
        "type": "Point",
        "coordinates": [
          12.8830416,
          50.221707
        ]
      }
    },
    {
      "type": "Feature",
      "id": "node/1911498034",
      "properties": {
        "name": "Praha-Bubny",
        "name:de": "Prag-Buben",
        "public_transport": "station",
        "railway": "station",
        "train": "yes",
        "wikidata": "Q3502458",
        "id": "node/1911498034"
      },
      "geometry": {
        "type": "Point",
        "coordinates": [
          14.4388889,
          50.102303
        ]
      }
    },
    {
      "type": "Feature",
      "id": "node/1994269174",
      "properties": {
        "name": "Ševčínská štola",
        "operator": "Hornické muzeum Příbram",
        "public_transport": "station",
        "railway": "station",
        "train": "yes",
        "id": "node/1994269174"
      },
      "geometry": {
        "type": "Point",
        "coordinates": [
          13.9892637,
          49.6847084
        ]
      }
    },
    {
      "type": "Feature",
      "id": "node/2163190014",
      "properties": {
        "addr:city": "Velké Poříčí",
        "addr:postcode": "54932",
        "addr:street": "Krausova",
        "air_conditioning": "no",
        "designation": "zastávka",
        "internet_access": "no",
        "name": "Velké Poříčí",
        "operator": "Správa Železnic",
        "public_transport": "station",
        "railway": "halt",
        "start_date": "2005",
        "train": "yes",
        "wheelchair": "yes",
        "id": "node/2163190014"
      },
      "geometry": {
        "type": "Point",
        "coordinates": [
          16.1820243,
          50.4635604
        ]
      }
    },
    {
      "type": "Feature",
      "id": "node/2217559858",
      "properties": {
        "ele": "190",
        "name": "Nymburk hlavní nádraží",
        "operator": "cz:SŽDC",
        "public_transport": "station",
        "railway": "station",
        "railway:ref": "532143",
        "start_date": "1870",
        "train": "yes",
        "wikidata": "Q18180441",
        "wikipedia": "cs:Nymburk hlavní nádraží",
        "id": "node/2217559858"
      },
      "geometry": {
        "type": "Point",
        "coordinates": [
          15.0459436,
          50.1933725
        ]
      }
    },
    {
      "type": "Feature",
      "id": "node/2430931240",
      "properties": {
        "name": "Aš",
        "name:de": "Asch",
        "operator": "cz:SŽDC",
        "public_transport": "station",
        "railway": "station",
        "railway:ref": "730051",
        "train": "yes",
        "id": "node/2430931240"
      },
      "geometry": {
        "type": "Point",
        "coordinates": [
          12.200915,
          50.2093124
        ]
      }
    },
    {
      "type": "Feature",
      "id": "node/2817911774",
      "properties": {
        "ele": "420",
        "name": "Letohrad",
        "operator": "cz:SŽDC",
        "public_transport": "station",
        "railway": "station",
        "railway:ref": "533307",
        "start_date": "1874-01-10",
        "train": "yes",
        "uic_ref": "5453330",
        "wikidata": "Q2777491",
        "wikipedia": "cs:Letohrad (nádraží)",
        "id": "node/2817911774"
      },
      "geometry": {
        "type": "Point",
        "coordinates": [
          16.50771,
          50.0315042
        ]
      }
    },
    {
      "type": "Feature",
      "id": "node/2833574667",
      "properties": {
        "name": "Chornice",
        "name:cs": "Chornice",
        "name:de": "Kornitz",
        "operator": "cz:SŽDC",
        "public_transport": "station",
        "railway": "station",
        "railway:ref": "340372",
        "train": "yes",
        "id": "node/2833574667"
      },
      "geometry": {
        "type": "Point",
        "coordinates": [
          16.745168,
          49.6769427
        ]
      }
    },
    {
      "type": "Feature",
      "id": "node/2929316772",
      "properties": {
        "addr:conscriptionnumber": "124",
        "addr:housenumber": "124",
        "addr:place": "Postřelmov",
        "addr:postcode": "78969",
        "addr:street": "Klubovní",
        "name": "Postřelmov",
        "operator": "cz:SŽDC",
        "public_transport": "station",
        "railway": "station",
        "railway:ref": "355123",
        "ref:ruian:addr": "8062552",
        "train": "yes",
        "id": "node/2929316772"
      },
      "geometry": {
        "type": "Point",
        "coordinates": [
          16.9230287,
          49.9101406
        ]
      }
    },
    {
      "type": "Feature",
      "id": "node/3129289404",
      "properties": {
        "ele": "385",
        "name": "Česká Třebová",
        "operator": "cz:SŽDC",
        "public_transport": "station",
        "railway": "station",
        "railway:ref": "539130",
        "train": "yes",
        "uic_name": "Ceska Trebova",
        "uic_ref": "5453913",
        "wikidata": "Q2321172",
        "wikipedia": "cs:Česká Třebová (nádraží)",
        "id": "node/3129289404"
      },
      "geometry": {
        "type": "Point",
        "coordinates": [
          16.4466776,
          49.8970763
        ]
      }
    },
    {
      "type": "Feature",
      "id": "node/3256441427",
      "properties": {
        "name": "Veřovice",
        "name:de": "Wernsdorf",
        "network": "cz:ODIS",
        "operator": "cz:SŽDC",
        "public_transport": "station",
        "railway": "station",
        "railway:ref": "349845",
        "train": "yes",
        "wheelchair": "limited",
        "id": "node/3256441427"
      },
      "geometry": {
        "type": "Point",
        "coordinates": [
          18.1328957,
          49.5370061
        ]
      }
    },
    {
      "type": "Feature",
      "id": "node/3259758509",
      "properties": {
        "name": "Lískovec u Frýdku",
        "network": "cz:ODIS",
        "operator": "cz:SŽDC",
        "public_transport": "station",
        "railway": "station",
        "railway:ref": "339747",
        "train": "yes",
        "wheelchair": "no",
        "id": "node/3259758509"
      },
      "geometry": {
        "type": "Point",
        "coordinates": [
          18.3280076,
          49.6981655
        ]
      }
    },
    {
      "type": "Feature",
      "id": "node/3259758511",
      "properties": {
        "name": "Ostrava-Kunčice",
        "network": "cz:ODIS",
        "opening_hours": "Mo-Su 05:00-22:45",
        "operator": "cz:SŽDC",
        "public_transport": "station",
        "railway": "station",
        "railway:ref": "344143",
        "train": "yes",
        "wheelchair": "yes",
        "wikidata": "Q11800681",
        "wikipedia": "cs:Ostrava-Kunčice (nádraží)",
        "id": "node/3259758511"
      },
      "geometry": {
        "type": "Point",
        "coordinates": [
          18.2908855,
          49.7905611
        ]
      }
    },
    {
      "type": "Feature",
      "id": "node/3261711044",
      "properties": {
        "name": "Ostrava-Bartovice",
        "network": "cz:ODIS",
        "operator": "cz:SŽDC",
        "public_transport": "station",
        "railway": "station",
        "railway:ref": "344242",
        "train": "yes",
        "wikidata": "Q11800679",
        "wikipedia": "cs:Ostrava-Bartovice (nádraží)",
        "id": "node/3261711044"
      },
      "geometry": {
        "type": "Point",
        "coordinates": [
          18.3400288,
          49.7786515
        ]
      }
    },
    {
      "type": "Feature",
      "id": "node/3271081279",
      "properties": {
        "name": "Mladá Boleslav hlavní nádraží",
        "public_transport": "station",
        "railway": "station",
        "train": "yes",
        "id": "node/3271081279"
      },
      "geometry": {
        "type": "Point",
        "coordinates": [
          14.8872411,
          50.4071427
        ]
      }
    },
    {
      "type": "Feature",
      "id": "node/3273436278",
      "properties": {
        "name": "Kopřivnice",
        "network": "cz:ODIS",
        "operator": "cz:SŽDC",
        "public_transport": "station",
        "railway": "station",
        "railway:ref": "337048",
        "train": "yes",
        "wheelchair": "no",
        "id": "node/3273436278"
      },
      "geometry": {
        "type": "Point",
        "coordinates": [
          18.1470862,
          49.5954578
        ]
      }
    },
    {
      "type": "Feature",
      "id": "node/3274267878",
      "properties": {
        "name": "Český Těšín",
        "name:cs": "Český Těšín",
        "name:de": "Tschechisch Teschen",
        "name:pl": "Czeski Cieszyn",
        "name:ru": "Чески-Тешин",
        "name:sk": "Český Tešín",
        "name:sr": "Чешки Тјешин",
        "network": "cz:ODIS",
        "opening_hours": "24/7",
        "operator": "cz:SŽDC",
        "public_transport": "station",
        "railway": "station",
        "railway:ref": "332346",
        "train": "yes",
        "id": "node/3274267878"
      },
      "geometry": {
        "type": "Point",
        "coordinates": [
          18.6229519,
          49.7436938
        ]
      }
    },
    {
      "type": "Feature",
      "id": "node/3284163699",
      "properties": {
        "alt_name:de": "Mosty bei Jablunkau",
        "name": "Mosty u Jablunkova",
        "name:de": "Mosty in den Beskiden",
        "name:pl": "Mosty koło Jabłonkowa",
        "network": "cz:ODIS",
        "opening_hours": "Mo-Fr 04:30-17:05; Sa 07:50-17:05; Su 07:45-19:05; PH 07:45-19:05",
        "operator": "cz:SŽDC",
        "public_transport": "station",
        "railway": "station",
        "railway:ref": "341040",
        "train": "yes",
        "wikidata": "Q11786027",
        "wikipedia": "cs:Mosty u Jablunkova (nádraží)",
        "id": "node/3284163699"
      },
      "geometry": {
        "type": "Point",
        "coordinates": [
          18.7512501,
          49.5242706
        ]
      }
    },
    {
      "type": "Feature",
      "id": "node/3305512302",
      "properties": {
        "ele": "245",
        "name": "Rousínov",
        "network": "IDS JMK",
        "operator": "cz:SŽDC",
        "public_transport": "station",
        "railway": "station",
        "railway:ref": "359059",
        "source": "survey",
        "start_date": "1869-08-30",
        "train": "yes",
        "uic_ref": "5435905",
        "wheelchair": "no",
        "wikidata": "Q18180495",
        "id": "node/3305512302"
      },
      "geometry": {
        "type": "Point",
        "coordinates": [
          16.8675827,
          49.1972856
        ]
      }
    },
    {
      "type": "Feature",
      "id": "node/3311646184",
      "properties": {
        "ele": "215",
        "name": "Zlín střed",
        "network": "cz:ZID",
        "operator": "cz:SŽDC",
        "public_transport": "station",
        "railway": "station",
        "railway:ref": "337550",
        "train": "yes",
        "wikidata": "Q17750109",
        "wikipedia": "cs:Zlín střed",
        "id": "node/3311646184"
      },
      "geometry": {
        "type": "Point",
        "coordinates": [
          17.6585683,
          49.2262602
        ]
      }
    },
    {
      "type": "Feature",
      "id": "node/3622337507",
      "properties": {
        "name": "Chrudim",
        "operator": "cz:SŽDC",
        "public_transport": "station",
        "railway": "station",
        "railway:ref": "546531",
        "train": "yes",
        "id": "node/3622337507"
      },
      "geometry": {
        "type": "Point",
        "coordinates": [
          15.7867546,
          49.9482418
        ]
      }
    },
    {
      "type": "Feature",
      "id": "node/3706431790",
      "properties": {
        "name": "Praha-Žvahov",
        "name:de": "Prag-Schwahow",
        "public_transport": "station",
        "railway": "station",
        "train": "yes",
        "uic_ref": "5453026",
        "wikidata": "Q16957150",
        "wikipedia": "cs:Praha-Žvahov (nádraží)",
        "id": "node/3706431790"
      },
      "geometry": {
        "type": "Point",
        "coordinates": [
          14.4022036,
          50.0455772
        ]
      }
    },
    {
      "type": "Feature",
      "id": "node/3960771842",
      "properties": {
        "name": "Lochovice",
        "name:de": "Lochowitz",
        "public_transport": "station",
        "railway": "station",
        "train": "yes",
        "id": "node/3960771842"
      },
      "geometry": {
        "type": "Point",
        "coordinates": [
          13.9743145,
          49.8464199
        ]
      }
    },
    {
      "type": "Feature",
      "id": "node/4069900192",
      "properties": {
        "description": "中欧班列",
        "name": "Lovosice",
        "name:zh": "捷克洛沃西采站",
        "operator": "cz:SŽDC",
        "public_transport": "station",
        "railway": "station",
        "railway:ref": "558593",
        "train": "yes",
        "uic_ref": "5455859",
        "id": "node/4069900192"
      },
      "geometry": {
        "type": "Point",
        "coordinates": [
          14.059583,
          50.5096914
        ]
      }
    },
    {
      "type": "Feature",
      "id": "node/4267035216",
      "properties": {
        "name": "Poběžovice",
        "name:de": "Ronsperg",
        "public_transport": "station",
        "railway": "station",
        "train": "yes",
        "id": "node/4267035216"
      },
      "geometry": {
        "type": "Point",
        "coordinates": [
          12.8115012,
          49.513428
        ]
      }
    },
    {
      "type": "Feature",
      "id": "node/4274477550",
      "properties": {
        "ele": "280",
        "name": "Zábřeh na Moravě",
        "operator": "cz:SŽDC",
        "public_transport": "station",
        "railway": "station",
        "railway:ref": "355024",
        "start_date": "1845",
        "train": "yes",
        "uic_ref": "5435502",
        "wheelchair": "yes",
        "wikidata": "Q9393250",
        "wikipedia": "cs:Zábřeh na Moravě (nádraží)",
        "id": "node/4274477550"
      },
      "geometry": {
        "type": "Point",
        "coordinates": [
          16.8870404,
          49.8721465
        ]
      }
    },
    {
      "type": "Feature",
      "id": "node/4294224867",
      "properties": {
        "ele": "542",
        "name": "Český Krumlov",
        "name:de": "Krumau",
        "operator": "cz:SŽDC",
        "public_transport": "station",
        "railway": "station",
        "railway:ref": "760025",
        "start_date": "1891-11-19",
        "train": "yes",
        "uic_ref": "5476002",
        "wheelchair": "yes",
        "wikidata": "Q15887199",
        "wikipedia": "cs:Český Krumlov (nádraží)",
        "id": "node/4294224867"
      },
      "geometry": {
        "type": "Point",
        "coordinates": [
          14.3170566,
          48.8223895
        ]
      }
    },
    {
      "type": "Feature",
      "id": "node/4319691406",
      "properties": {
        "ele": "650",
        "name": "Rokytnice v Orlických horách",
        "operator": "cz:SŽDC",
        "public_transport": "station",
        "railway": "station",
        "railway:ref": "541409",
        "start_date": "1906-10-15",
        "train": "yes",
        "uic_ref": "5454140",
        "wikidata": "Q18180492",
        "wikipedia": "cs:Rokytnice v Orlických horách (nádraží)",
        "id": "node/4319691406"
      },
      "geometry": {
        "type": "Point",
        "coordinates": [
          16.4651967,
          50.161583
        ]
      }
    },
    {
      "type": "Feature",
      "id": "node/4364776089",
      "properties": {
        "name": "Chlumec nad Cidlinou",
        "name:cs": "Chlumec nad Cidlinou",
        "name:de": "Chlumetz an der Zidlina",
        "operator": "cz:SŽDC",
        "public_transport": "station",
        "railway": "station",
        "railway:ref": "530501",
        "train": "yes",
        "id": "node/4364776089"
      },
      "geometry": {
        "type": "Point",
        "coordinates": [
          15.4574566,
          50.163377
        ]
      }
    },
    {
      "type": "Feature",
      "id": "node/4684736200",
      "properties": {
        "name": "Vraňany",
        "operator": "cz:SŽDC",
        "public_transport": "station",
        "railway": "station",
        "railway:ref": "543264",
        "train": "yes",
        "id": "node/4684736200"
      },
      "geometry": {
        "type": "Point",
        "coordinates": [
          14.371622,
          50.33521
        ]
      }
    },
    {
      "type": "Feature",
      "id": "node/4695516339",
      "properties": {
        "name": "Nové Město nad Metují",
        "public_transport": "station",
        "railway": "station",
        "train": "yes",
        "id": "node/4695516339"
      },
      "geometry": {
        "type": "Point",
        "coordinates": [
          16.1377724,
          50.3534264
        ]
      }
    },
    {
      "type": "Feature",
      "id": "node/4782523800",
      "properties": {
        "ele": "340",
        "name": "Letovice",
        "name:de": "Lettowitz",
        "network": "IDS JMK",
        "operator": "cz:SŽDC",
        "public_transport": "station",
        "railway": "station",
        "railway:ref": "347252",
        "start_date": "1849-01-01",
        "train": "yes",
        "uic_ref": "5434725",
        "wikidata": "Q18180369",
        "wikipedia": "cs:Letovice (nádraží)",
        "id": "node/4782523800"
      },
      "geometry": {
        "type": "Point",
        "coordinates": [
          16.5707648,
          49.5564523
        ]
      }
    },
    {
      "type": "Feature",
      "id": "node/4935876997",
      "properties": {
        "internet_access": "no",
        "name": "Praha-Holešovice zastávka",
        "operator": "SŽDC",
        "public_transport": "station",
        "railway": "station",
        "train": "yes",
        "wikidata": "Q12046774",
        "id": "node/4935876997"
      },
      "geometry": {
        "type": "Point",
        "coordinates": [
          14.4373376,
          50.1060585
        ]
      }
    },
    {
      "type": "Feature",
      "id": "node/5270319432",
      "properties": {
        "ele": "585",
        "name": "Žďár nad Sázavou",
        "name:de": "Saar",
        "opening_hours": "Mo-Fr 06:30-18:00; Sa 06:30-11:00; Su 08:00-11:00",
        "operator": "cz:SŽDC",
        "public_transport": "station",
        "railway": "station",
        "railway:ref": "370155",
        "start_date": "1953",
        "train": "yes",
        "uic_ref": "5437015",
        "wikidata": "Q12041540",
        "wikipedia": "cs:Žďár nad Sázavou (nádraží)",
        "id": "node/5270319432"
      },
      "geometry": {
        "type": "Point",
        "coordinates": [
          15.9394144,
          49.5541842
        ]
      }
    },
    {
      "type": "Feature",
      "id": "node/5282656244",
      "properties": {
        "ele": "375",
        "name": "Velké Opatovice",
        "name:de": "Groß Opatowitz",
        "network": "IDS JMK",
        "operator": "cz:SŽDC",
        "public_transport": "station",
        "railway": "station",
        "railway:ref": "367557",
        "start_date": "1889-09-01",
        "train": "yes",
        "uic_ref": "5436755",
        "wikidata": "Q18180589",
        "wikipedia": "cs:Velké Opatovice (nádraží)",
        "id": "node/5282656244"
      },
      "geometry": {
        "type": "Point",
        "coordinates": [
          16.6907376,
          49.6114077
        ]
      }
    },
    {
      "type": "Feature",
      "id": "node/5288126303",
      "properties": {
        "name": "Terezín",
        "public_transport": "station",
        "railway": "halt",
        "train": "yes",
        "id": "node/5288126303"
      },
      "geometry": {
        "type": "Point",
        "coordinates": [
          16.9380661,
          48.956569
        ]
      }
    },
    {
      "type": "Feature",
      "id": "node/5288126304",
      "properties": {
        "internet_access": "no",
        "name": "Krumvíř",
        "public_transport": "station",
        "railway": "halt",
        "train": "yes",
        "id": "node/5288126304"
      },
      "geometry": {
        "type": "Point",
        "coordinates": [
          16.916065,
          48.983644
        ]
      }
    },
    {
      "type": "Feature",
      "id": "node/5320759178",
      "properties": {
        "ele": "570",
        "name": "Bystřice nad Pernštejnem",
        "network": "IDS JMK",
        "operator": "cz:SŽDC",
        "public_transport": "station",
        "railway": "station",
        "railway:ref": "335554",
        "start_date": "1905-06-23",
        "train": "yes",
        "wikidata": "Q18423620",
        "wikipedia": "cs:Bystřice nad Pernštejnem (nádraží)",
        "id": "node/5320759178"
      },
      "geometry": {
        "type": "Point",
        "coordinates": [
          16.2484038,
          49.5133782
        ]
      }
    },
    {
      "type": "Feature",
      "id": "node/5320759179",
      "properties": {
        "name": "Rožná",
        "network": "IDS JMK",
        "operator": "cz:SŽDC",
        "public_transport": "station",
        "railway": "station",
        "railway:ref": "359257",
        "train": "yes",
        "id": "node/5320759179"
      },
      "geometry": {
        "type": "Point",
        "coordinates": [
          16.2450001,
          49.4729269
        ]
      }
    },
    {
      "type": "Feature",
      "id": "node/5640126317",
      "properties": {
        "name": "Horšovský týn",
        "name:de": "Bischofteinitz",
        "public_transport": "station",
        "railway": "station",
        "train": "yes",
        "id": "node/5640126317"
      },
      "geometry": {
        "type": "Point",
        "coordinates": [
          12.9375703,
          49.5243926
        ]
      }
    },
    {
      "type": "Feature",
      "id": "node/5640149032",
      "properties": {
        "name": "Klenčí pod Čerchovem",
        "name:de": "Klentsch",
        "public_transport": "station",
        "railway": "station",
        "train": "yes",
        "id": "node/5640149032"
      },
      "geometry": {
        "type": "Point",
        "coordinates": [
          12.8225331,
          49.4389188
        ]
      }
    },
    {
      "type": "Feature",
      "id": "node/5646103350",
      "properties": {
        "name": "Bludov",
        "operator": "cz:SŽDC",
        "public_transport": "station",
        "railway": "station",
        "railway:ref": "330423",
        "train": "yes",
        "uic_ref": "5433042",
        "id": "node/5646103350"
      },
      "geometry": {
        "type": "Point",
        "coordinates": [
          16.9385862,
          49.9278535
        ]
      }
    },
    {
      "type": "Feature",
      "id": "node/5646174928",
      "properties": {
        "name": "Dobruška",
        "name:de": "Gutenfeld",
        "operator": "cz:SŽDC",
        "public_transport": "station",
        "railway": "station",
        "railway:ref": "540104",
        "train": "yes",
        "id": "node/5646174928"
      },
      "geometry": {
        "type": "Point",
        "coordinates": [
          16.152557,
          50.2893333
        ]
      }
    },
    {
      "type": "Feature",
      "id": "node/5646209727",
      "properties": {
        "name": "Králíky",
        "name:de": "Grulich",
        "operator": "cz:SŽDC",
        "public_transport": "station",
        "railway": "station",
        "railway:ref": "535005",
        "train": "yes",
        "uic_ref": "5453500",
        "wikidata": "Q17749992",
        "id": "node/5646209727"
      },
      "geometry": {
        "type": "Point",
        "coordinates": [
          16.7564431,
          50.080647
        ]
      }
    },
    {
      "type": "Feature",
      "id": "node/5646290893",
      "properties": {
        "ele": "335",
        "name": "Litomyšl",
        "name:de": "Leitomischl",
        "operator": "cz:SŽDC",
        "public_transport": "station",
        "railway": "station",
        "railway:ref": "552133",
        "train": "yes",
        "uic_ref": "5455213",
        "wikidata": "Q18180378",
        "wikipedia": "cs:Litomyšl (nádraží)",
        "id": "node/5646290893"
      },
      "geometry": {
        "type": "Point",
        "coordinates": [
          16.3041564,
          49.8748536
        ]
      }
    },
    {
      "type": "Feature",
      "id": "node/5648132743",
      "properties": {
        "internet_access": "no",
        "name": "Luhačovice",
        "name:cs": "Luhačovice",
        "name:de": "Bad Luhatschowitz",
        "name:ru": "Лугачовице",
        "operator": "cz:SŽDC",
        "public_transport": "station",
        "railway": "station",
        "railway:ref": "347559",
        "train": "yes",
        "uic_ref": "5434755",
        "wheelchair": "yes",
        "id": "node/5648132743"
      },
      "geometry": {
        "type": "Point",
        "coordinates": [
          17.7520761,
          49.0987463
        ]
      }
    },
    {
      "type": "Feature",
      "id": "node/5649009162",
      "properties": {
        "ele": "555",
        "name": "Polička",
        "name:de": "Politschka",
        "operator": "cz:SŽDC",
        "public_transport": "station",
        "railway": "station",
        "railway:ref": "550632",
        "start_date": "1896-09-15",
        "train": "yes",
        "uic_ref": "5455063",
        "wikidata": "Q18180466",
        "wikipedia": "cs:Polička (nádraží)",
        "id": "node/5649009162"
      },
      "geometry": {
        "type": "Point",
        "coordinates": [
          16.2639835,
          49.7188913
        ]
      }
    },
    {
      "type": "Feature",
      "id": "node/5659609176",
      "properties": {
        "name": "Žihle",
        "name:de": "Scheles",
        "public_transport": "station",
        "railway": "station",
        "train": "yes",
        "id": "node/5659609176"
      },
      "geometry": {
        "type": "Point",
        "coordinates": [
          13.3628559,
          50.0467626
        ]
      }
    },
    {
      "type": "Feature",
      "id": "node/5668716718",
      "properties": {
        "name": "Václavice",
        "operator": "cz:SŽDC",
        "public_transport": "station",
        "railway": "station",
        "railway:ref": "538801",
        "train": "yes",
        "id": "node/5668716718"
      },
      "geometry": {
        "type": "Point",
        "coordinates": [
          16.1230138,
          50.3930993
        ]
      }
    },
    {
      "type": "Feature",
      "id": "node/5668725020",
      "properties": {
        "name": "Hronov",
        "name:de": "Hronow",
        "operator": "cz:SŽDC",
        "public_transport": "station",
        "railway": "station",
        "railway:ref": "538207",
        "train": "yes",
        "id": "node/5668725020"
      },
      "geometry": {
        "type": "Point",
        "coordinates": [
          16.1771723,
          50.4724532
        ]
      }
    },
    {
      "type": "Feature",
      "id": "node/5673530272",
      "properties": {
        "name": "Doudleby nad Orlicí",
        "name:de": "Daudleb",
        "operator": "cz:SŽDC",
        "public_transport": "station",
        "railway": "station",
        "railway:ref": "532606",
        "start_date": "1874-01-10",
        "train": "yes",
        "uic_ref": "5453260",
        "wikidata": "Q66827546",
        "wikipedia": "cs:Doudleby nad Orlicí (nádraží)",
        "id": "node/5673530272"
      },
      "geometry": {
        "type": "Point",
        "coordinates": [
          16.2587412,
          50.1094493
        ]
      }
    },
    {
      "type": "Feature",
      "id": "node/5673530274",
      "properties": {
        "name": "Třebechovice pod Orebem",
        "name:de": "Hohenbruck",
        "old_name": "Třebechovice",
        "operator": "cz:SŽDC",
        "public_transport": "station",
        "railway": "station",
        "railway:ref": "531608",
        "train": "yes",
        "uic_ref": "5453160",
        "id": "node/5673530274"
      },
      "geometry": {
        "type": "Point",
        "coordinates": [
          15.982253,
          50.2000918
        ]
      }
    },
    {
      "type": "Feature",
      "id": "node/5935167014",
      "properties": {
        "name": "Brno-Starý Lískovec",
        "proposed:railway": "halt",
        "public_transport": "station",
        "railway": "halt",
        "train": "yes",
        "id": "node/5935167014"
      },
      "geometry": {
        "type": "Point",
        "coordinates": [
          16.5707414,
          49.1621692
        ]
      }
    },
    {
      "type": "Feature",
      "id": "node/6532116689",
      "properties": {
        "name": "Kraslice",
        "name:cs": "Kraslice",
        "name:de": "Graslitz",
        "public_transport": "station",
        "railway": "station",
        "railway:ref": "765354",
        "train": "yes",
        "id": "node/6532116689"
      },
      "geometry": {
        "type": "Point",
        "coordinates": [
          12.5027932,
          50.3306307
        ]
      }
    },
    {
      "type": "Feature",
      "id": "node/6681588937",
      "properties": {
        "name": "Náchod",
        "public_transport": "station",
        "railway": "station",
        "train": "yes",
        "wikidata": "Q7483832",
        "wikipedia": "cs:Náchod (nádraží)",
        "id": "node/6681588937"
      },
      "geometry": {
        "type": "Point",
        "coordinates": [
          16.1716375,
          50.4174334
        ]
      }
    },
    {
      "type": "Feature",
      "id": "node/6822303630",
      "properties": {
        "ele": "415",
        "name": "Veselí nad Lužnicí",
        "operator": "cz:SŽDC",
        "public_transport": "station",
        "railway": "station",
        "railway:ref": "735522",
        "start_date": "1871",
        "train": "yes",
        "uic_ref": "5473552",
        "wheelchair": "yes",
        "wikidata": "Q15887128",
        "wikipedia": "cs:Veselí nad Lužnicí (nádraží)",
        "id": "node/6822303630"
      },
      "geometry": {
        "type": "Point",
        "coordinates": [
          14.7167898,
          49.1938309
        ]
      }
    },
    {
      "type": "Feature",
      "id": "node/7055035333",
      "properties": {
        "name": "Turnov",
        "public_transport": "station",
        "railway": "station",
        "train": "yes",
        "wikidata": "Q17750108",
        "wikipedia": "cs:Turnov (nádraží)",
        "id": "node/7055035333"
      },
      "geometry": {
        "type": "Point",
        "coordinates": [
          15.138705,
          50.5871872
        ]
      }
    },
    {
      "type": "Feature",
      "id": "node/7117714960",
      "properties": {
        "name": "Praha-Zahradní Město",
        "public_transport": "station",
        "railway": "station",
        "start_date": "2021-09-24",
        "train": "yes",
        "wikidata": "Q70907000",
        "wikipedia": "cs:Praha-Zahradní Město (nádraží)",
        "id": "node/7117714960"
      },
      "geometry": {
        "type": "Point",
        "coordinates": [
          14.5038101,
          50.0621421
        ]
      }
    },
    {
      "type": "Feature",
      "id": "node/7408284054",
      "properties": {
        "name": "Dobruška",
        "name:de": "Gutenfeld",
        "operator": "cz:SŽDC",
        "public_transport": "station",
        "railway": "station",
        "railway:ref": "540104",
        "train": "yes",
        "id": "node/7408284054"
      },
      "geometry": {
        "type": "Point",
        "coordinates": [
          16.1520626,
          50.2895161
        ]
      }
    },
    {
      "type": "Feature",
      "id": "node/7434565227",
      "properties": {
        "name": "Mladějov na Moravě",
        "operator": "cz:SŽDC",
        "public_transport": "station",
        "railway": "station",
        "railway:ref": "349076",
        "train": "yes",
        "uic_ref": "5434907",
        "wikidata": "Q67199207",
        "id": "node/7434565227"
      },
      "geometry": {
        "type": "Point",
        "coordinates": [
          16.5884549,
          49.8251145
        ]
      }
    },
    {
      "type": "Feature",
      "id": "node/7459400520",
      "properties": {
        "name": "Kamenný Újezd u Rokycan",
        "public_transport": "station",
        "railway": "station",
        "train": "halt",
        "id": "node/7459400520"
      },
      "geometry": {
        "type": "Point",
        "coordinates": [
          13.6173971,
          49.7224223
        ]
      }
    },
    {
      "type": "Feature",
      "id": "node/8131899281",
      "properties": {
        "name": "Písek město",
        "operator": "cz:SŽDC",
        "public_transport": "station",
        "railway": "station",
        "railway:ref": "756429",
        "ref:ruian": "5525331",
        "ref:ruian:building": "5492092",
        "train": "yes",
        "id": "node/8131899281"
      },
      "geometry": {
        "type": "Point",
        "coordinates": [
          14.1615313,
          49.313799
        ]
      }
    },
    {
      "type": "Feature",
      "id": "node/8739127638",
      "properties": {
        "name": "Prachovice",
        "public_transport": "station",
        "railway": "station",
        "train": "yes",
        "id": "node/8739127638"
      },
      "geometry": {
        "type": "Point",
        "coordinates": [
          15.6327695,
          49.8926946
        ]
      }
    },
    {
      "type": "Feature",
      "id": "node/8821323945",
      "properties": {
        "public_transport": "station",
        "railway": "station",
        "train": "yes",
        "id": "node/8821323945"
      },
      "geometry": {
        "type": "Point",
        "coordinates": [
          14.5323718,
          50.6770212
        ]
      }
    },
    {
      "type": "Feature",
      "id": "node/8821323946",
      "properties": {
        "public_transport": "station",
        "railway": "station",
        "train": "yes",
        "id": "node/8821323946"
      },
      "geometry": {
        "type": "Point",
        "coordinates": [
          14.5325627,
          50.6770457
        ]
      }
    },
    {
      "type": "Feature",
      "id": "node/9071674912",
      "properties": {
        "name": "Záboří",
        "operator": "Železnice 600, z.s.",
        "public_transport": "station",
        "railway": "station",
        "train": "yes",
        "id": "node/9071674912"
      },
      "geometry": {
        "type": "Point",
        "coordinates": [
          17.2160214,
          48.9706199
        ]
      }
    },
    {
      "type": "Feature",
      "id": "node/9071687974",
      "properties": {
        "name": "Tábořiště",
        "operator": "Železnice 600, z.s.",
        "public_transport": "station",
        "railway": "halt",
        "train": "yes",
        "id": "node/9071687974"
      },
      "geometry": {
        "type": "Point",
        "coordinates": [
          17.2163943,
          48.9711569
        ]
      }
    },
    {
      "type": "Feature",
      "id": "node/9074146255",
      "properties": {
        "name": "Vracov hlavní nádraží",
        "operator": "Železnice 600, z.s.",
        "public_transport": "station",
        "railway": "station",
        "train": "yes",
        "id": "node/9074146255"
      },
      "geometry": {
        "type": "Point",
        "coordinates": [
          17.2158997,
          48.9710904
        ]
      }
    },
    {
      "type": "Feature",
      "id": "node/9138535576",
      "properties": {
        "name": "Blížejov",
        "public_transport": "station",
        "railway": "station",
        "train": "yes",
        "id": "node/9138535576"
      },
      "geometry": {
        "type": "Point",
        "coordinates": [
          12.9949435,
          49.5015448
        ]
      }
    },
    {
      "type": "Feature",
      "id": "node/9152225450",
      "properties": {
        "name": "Hřebeč - Doly MPD",
        "public_transport": "station",
        "railway": "halt",
        "train": "yes",
        "id": "node/9152225450"
      },
      "geometry": {
        "type": "Point",
        "coordinates": [
          16.5836459,
          49.7628726
        ]
      }
    },
    {
      "type": "Feature",
      "id": "node/9163251801",
      "properties": {
        "name": "Ostopovice",
        "proposed:railway": "halt",
        "public_transport": "station",
        "railway": "halt",
        "train": "yes",
        "id": "node/9163251801"
      },
      "geometry": {
        "type": "Point",
        "coordinates": [
          16.5438656,
          49.1651083
        ]
      }
    }
  ]
}