{
  "type": "FeatureCollection",
  "features": [
    {
      "type": "Feature",
      "id": "node/290860102",
      "properties": {
        "alt_name:ar": "ثاذمايث",
        "name": "Tadmait",
        "name:ar": "تادمايت",
        "name:en": "Tadmait",
        "name:fr": "Tadmaït",
        "name:kab": "Tadmayt",
        "operator": "SNTF",
        "public_transport": "station",
        "railway": "station",
        "train": "yes",
        "id": "node/290860102"
      },
      "geometry": {
        "type": "Point",
        "coordinates": [
          3.8997576,
          36.7422864
        ]
      }
    },
    {
      "type": "Feature",
      "id": "node/334207859",
      "properties": {
        "addr:city": "Gdyel",
        "name": "Hassi Mefssoukh",
        "name:ar": "حاسي مفسوخ",
        "name:fr": "Hassi Mefssoukh",
        "operator": "SNTF",
        "public_transport": "station",
        "railway": "station",
        "train": "yes",
        "id": "node/334207859"
      },
      "geometry": {
        "type": "Point",
        "coordinates": [
          -0.383711,
          35.7884817
        ]
      }
    },
    {
      "type": "Feature",
      "id": "node/659300342",
      "properties": {
        "addr:city": "قسنطينة",
        "addr:city:ar": "قسنطينة",
        "name": "سيدي مبروك",
        "name:ar": "سيدي مبروك",
        "name:en": "Sidi Mabrouk",
        "name:fr": "Sidi Mabrouk",
        "operator": "الشركة الوطنية للنقل بالسكك الحديدية",
        "operator:ar": "الشركة الوطنية للنقل بالسكك الحديدية",
        "operator:wikidata": "Q1275038",
        "operator:wikipedia": "ar:الشركة الوطنية للنقل بالسكك الحديدية",
        "public_transport": "station",
        "railway": "station",
        "train": "yes",
        "id": "node/659300342"
      },
      "geometry": {
        "type": "Point",
        "coordinates": [
          6.6303001,
          36.354124
        ]
      }
    },
    {
      "type": "Feature",
      "id": "node/660203698",
      "properties": {
        "addr:city": "سطيف",
        "name": "سطيف",
        "name:ar": "سطيف",
        "name:de": "Sétif",
        "name:en": "Sétif",
        "name:es": "Sétif",
        "name:fr": "Sétif",
        "operator": "الشركة الوطنية للنقل بالسكك الحديدية",
        "public_transport": "station",
        "railway": "station",
        "train": "yes",
        "id": "node/660203698"
      },
      "geometry": {
        "type": "Point",
        "coordinates": [
          5.4149671,
          36.1874028
        ]
      }
    },
    {
      "type": "Feature",
      "id": "node/1634782069",
      "properties": {
        "name": "Moulay Slissen",
        "public_transport": "station",
        "railway": "station",
        "train": "yes",
        "id": "node/1634782069"
      },
      "geometry": {
        "type": "Point",
        "coordinates": [
          -0.7560913,
          34.8234282
        ]
      }
    },
    {
      "type": "Feature",
      "id": "node/1686557617",
      "properties": {
        "addr:city": "العامرية",
        "name": "العامرية",
        "name:ar": "العامرية",
        "name:fr": "El Amria",
        "operator": "الشركة الوطنية للنقل بالسكك الحديدية",
        "public_transport": "station",
        "railway": "station",
        "train": "yes",
        "id": "node/1686557617"
      },
      "geometry": {
        "type": "Point",
        "coordinates": [
          -1.0093491,
          35.5212248
        ]
      }
    },
    {
      "type": "Feature",
      "id": "node/1816994999",
      "properties": {
        "name": "عين مليلة",
        "name:en": "Ain M'lila",
        "name:fr": "Aïn M'lila",
        "operator": "SNTF",
        "public_transport": "station",
        "railway": "station",
        "train": "yes",
        "id": "node/1816994999"
      },
      "geometry": {
        "type": "Point",
        "coordinates": [
          6.586705,
          36.0385151
        ]
      }
    },
    {
      "type": "Feature",
      "id": "node/1885252540",
      "properties": {
        "addr:city:ber": "Bgayet",
        "addr:city:en": "Bejaia",
        "addr:city:fr": "Béjaia",
        "addr:postcode": "06000",
        "alt_name:es": "Bujía",
        "name": "بجاية",
        "name:ar": "بجاية",
        "name:de": "Bejaia",
        "name:en": "Bejaia",
        "name:es": "Bugía",
        "name:fr": "Béjaïa",
        "name:kab": "Bgayet",
        "operator": "الشركة الوطنية للنقل بالسكك الحديدية",
        "operator:ar": "الشركة الوطنية للنقل بالسكك الحديدية",
        "operator:wikidata": "Q1275038",
        "operator:wikipedia": "ar:الشركة الوطنية للنقل بالسكك الحديدية",
        "public_transport": "station",
        "railway": "station",
        "train": "yes",
        "id": "node/1885252540"
      },
      "geometry": {
        "type": "Point",
        "coordinates": [
          5.0814369,
          36.7510211
        ]
      }
    },
    {
      "type": "Feature",
      "id": "node/1937550325",
      "properties": {
        "name": "Allaghane",
        "name:ar": "ألاغن",
        "name:en": "Allaghane",
        "name:fr": "Allaghane",
        "network": "SNTF",
        "operator": "SNTF",
        "public_transport": "station",
        "railway": "halt",
        "train": "yes",
        "id": "node/1937550325"
      },
      "geometry": {
        "type": "Point",
        "coordinates": [
          4.4546287,
          36.3988347
        ]
      }
    },
    {
      "type": "Feature",
      "id": "node/2024251226",
      "properties": {
        "addr:city": "Tazmalt",
        "name": "Tazmalt",
        "name:ar": "ثازمالت",
        "name:en": "Tazmalt",
        "name:fr": "Tazmalt",
        "network": "SNTF",
        "operator": "SNTF",
        "public_transport": "station",
        "railway": "station",
        "train": "yes",
        "id": "node/2024251226"
      },
      "geometry": {
        "type": "Point",
        "coordinates": [
          4.4061722,
          36.3794421
        ]
      }
    },
    {
      "type": "Feature",
      "id": "node/2042157379",
      "properties": {
        "addr:city": "عين تموشنت",
        "name": "Aïn Temouchent",
        "name:ar": "عين تموشنت",
        "name:es": "Aín Temushent",
        "operator": "الشركة الوطنية للنقل بالسكك الحديدية",
        "public_transport": "station",
        "railway": "station",
        "train": "yes",
        "id": "node/2042157379"
      },
      "geometry": {
        "type": "Point",
        "coordinates": [
          -1.1400885,
          35.2983379
        ]
      }
    },
    {
      "type": "Feature",
      "id": "node/2065666579",
      "properties": {
        "name": "Tizi Ouzou",
        "name:ar": "محطة تيزي وزو",
        "name:fr": "Tizi Ouzou",
        "name:kab": "Tizi Wezzu",
        "name:zgh": "ⴰⵙⴰⵏⴰⴳ ⵏ ⵜⵉⵣⵉ ⵡⴻⵣⵣⵓ",
        "operator": "SNTF",
        "operator:ar": "الشركة الوطنية للنقل بالسكك الحديدية",
        "public_transport": "station",
        "railway": "station",
        "train": "yes",
        "website": "https://www.sntf.dz/",
        "id": "node/2065666579"
      },
      "geometry": {
        "type": "Point",
        "coordinates": [
          4.0345525,
          36.7097249
        ]
      }
    },
    {
      "type": "Feature",
      "id": "node/2081294603",
      "properties": {
        "name": "خميس مليانة",
        "name:de": "Khemis Miliana",
        "name:en": "Khemis Miliana",
        "name:fr": "Khemis Miliana",
        "operator": "SNTF",
        "public_transport": "station",
        "railway": "station",
        "train": "yes",
        "id": "node/2081294603"
      },
      "geometry": {
        "type": "Point",
        "coordinates": [
          2.2117335,
          36.2630549
        ]
      }
    },
    {
      "type": "Feature",
      "id": "node/2099477981",
      "properties": {
        "public_transport": "station",
        "railway": "station",
        "train": "yes",
        "id": "node/2099477981"
      },
      "geometry": {
        "type": "Point",
        "coordinates": [
          0.1530478,
          34.6838507
        ]
      }
    },
    {
      "type": "Feature",
      "id": "node/2107620831",
      "properties": {
        "name": "العجيبة",
        "name:en": "El Adjiba",
        "name:fr": "El Adjiba",
        "operator": "SNTF",
        "public_transport": "station",
        "railway": "station",
        "train": "yes",
        "id": "node/2107620831"
      },
      "geometry": {
        "type": "Point",
        "coordinates": [
          4.1535132,
          36.3281161
        ]
      }
    },
    {
      "type": "Feature",
      "id": "node/2107688995",
      "properties": {
        "addr:city": "Bouira",
        "addr:postcode": "10000",
        "name": "Bouira",
        "name:ar": "البويرة",
        "operator": "SNTF",
        "public_transport": "station",
        "railway": "station",
        "train": "yes",
        "id": "node/2107688995"
      },
      "geometry": {
        "type": "Point",
        "coordinates": [
          3.8964059,
          36.3779015
        ]
      }
    },
    {
      "type": "Feature",
      "id": "node/2155392412",
      "properties": {
        "name": "عين الدفلى",
        "name:en": "Ain Defla",
        "name:fr": "Aïn Defla",
        "operator": "SNTF",
        "public_transport": "station",
        "railway": "station",
        "train": "yes",
        "id": "node/2155392412"
      },
      "geometry": {
        "type": "Point",
        "coordinates": [
          1.9691297,
          36.2676256
        ]
      }
    },
    {
      "type": "Feature",
      "id": "node/2191924627",
      "properties": {
        "addr:city": "تبسة",
        "addr:city:ar": "تبسة",
        "addr:postcode": "12000",
        "name": "تبسة",
        "name:ar": "تبسة",
        "name:fr": "Tébessa",
        "operator": "الشركة الوطنية للنقل بالسكك الحديدية",
        "operator:ar": "الشركة الوطنية للنقل بالسكك الحديدية",
        "operator:wikidata": "Q1275038",
        "operator:wikipedia": "ar:الشركة الوطنية للنقل بالسكك الحديدية",
        "public_transport": "station",
        "railway": "station",
        "train": "yes",
        "id": "node/2191924627"
      },
      "geometry": {
        "type": "Point",
        "coordinates": [
          8.1221779,
          35.4071286
        ]
      }
    },
    {
      "type": "Feature",
      "id": "node/2206913210",
      "properties": {
        "name": "ميسهتاءطيكوكا",
        "name:fr": "Meshta-Tekuka",
        "public_transport": "station",
        "railway": "halt",
        "train": "yes",
        "id": "node/2206913210"
      },
      "geometry": {
        "type": "Point",
        "coordinates": [
          8.1251966,
          36.3207712
        ]
      }
    },
    {
      "type": "Feature",
      "id": "node/2206932295",
      "properties": {
        "name": "لخضارة",
        "name:fr": "Khedara",
        "public_transport": "station",
        "railway": "halt",
        "train": "yes",
        "id": "node/2206932295"
      },
      "geometry": {
        "type": "Point",
        "coordinates": [
          8.1684484,
          36.338331
        ]
      }
    },
    {
      "type": "Feature",
      "id": "node/2206932298",
      "properties": {
        "addr:city": "سيدي الهميسي",
        "name": "سيدي الهميسي",
        "name:ar": "سيدي الهميسي",
        "name:en": "Sidi El Hemissi",
        "name:fr": "Sidi El Hemissi",
        "operator": "الشركة الوطنية للنقل بالسكك الحديدية",
        "public_transport": "station",
        "railway": "station",
        "train": "yes",
        "id": "node/2206932298"
      },
      "geometry": {
        "type": "Point",
        "coordinates": [
          8.3651896,
          36.4078921
        ]
      }
    },
    {
      "type": "Feature",
      "id": "node/2210118419",
      "properties": {
        "name": "الدريعة",
        "name:en": "Drea",
        "name:fr": "Dréa",
        "public_transport": "station",
        "railway": "station",
        "train": "yes",
        "id": "node/2210118419"
      },
      "geometry": {
        "type": "Point",
        "coordinates": [
          7.8845622,
          36.1212623
        ]
      }
    },
    {
      "type": "Feature",
      "id": "node/2283259980",
      "properties": {
        "name": "Tabia",
        "name:ar": "طابية",
        "name:fr": "Tabia",
        "public_transport": "station",
        "railway": "station",
        "train": "yes",
        "id": "node/2283259980"
      },
      "geometry": {
        "type": "Point",
        "coordinates": [
          -0.7429831,
          35.0220355
        ]
      }
    },
    {
      "type": "Feature",
      "id": "node/2320074022",
      "properties": {
        "addr:city": "عين الصفراء",
        "name": "عين الصفراء",
        "name:ar": "عين الصفراء",
        "name:en": "Ain Sefra",
        "name:fr": "Aïn Séfra",
        "network": "الشركة الوطنية للنقل بالسكك الحديدية",
        "public_transport": "station",
        "railway": "station",
        "train": "yes",
        "id": "node/2320074022"
      },
      "geometry": {
        "type": "Point",
        "coordinates": [
          -0.5657454,
          32.7657555
        ]
      }
    },
    {
      "type": "Feature",
      "id": "node/2320074234",
      "properties": {
        "addr:city": "المشرية",
        "alt_name:ar": "مشرية",
        "name": "المشرية",
        "name:ar": "المشرية",
        "name:en": "Mechriya",
        "name:fr": "Mecheria",
        "name:kab": "Mecriya",
        "operator": "الشركة الوطنية للنقل بالسكك الحديدية",
        "public_transport": "station",
        "railway": "station",
        "train": "yes",
        "id": "node/2320074234"
      },
      "geometry": {
        "type": "Point",
        "coordinates": [
          -0.2561656,
          33.5435991
        ]
      }
    },
    {
      "type": "Feature",
      "id": "node/2423144965",
      "properties": {
        "addr:city": "شبايطة مختار",
        "addr:city:ar": "شبايطة مختار",
        "name": "شبايطة مختار",
        "name:ar": "شبايطة مختار",
        "name:en": "Chbaita Mokhtar",
        "name:fr": "Chbaita Mokhtar",
        "operator": "الشركة الوطنية للنقل بالسكك الحديدية",
        "operator:ar": "الشركة الوطنية للنقل بالسكك الحديدية",
        "operator:wikidata": "Q1275038",
        "operator:wikipedia": "ar:الشركة الوطنية للنقل بالسكك الحديدية",
        "public_transport": "station",
        "railway": "station",
        "train": "yes",
        "id": "node/2423144965"
      },
      "geometry": {
        "type": "Point",
        "coordinates": [
          7.7418723,
          36.7590373
        ]
      }
    },
    {
      "type": "Feature",
      "id": "node/2424861290",
      "properties": {
        "addr:city": "المغير",
        "alt_name:fr": "El M'ghiyar",
        "name": "المغير",
        "name:ar": "المغير",
        "name:azb": "مغیر",
        "name:fa": "مغیر",
        "name:fr": "El M'Ghair",
        "operator": "الشركة الوطنية للنقل بالسكك الحديدية",
        "public_transport": "station",
        "railway": "station",
        "train": "yes",
        "id": "node/2424861290"
      },
      "geometry": {
        "type": "Point",
        "coordinates": [
          5.9353443,
          33.9570304
        ]
      }
    },
    {
      "type": "Feature",
      "id": "node/2454069068",
      "properties": {
        "name": "الميلية",
        "name:de": "El Milia",
        "name:en": "El Milia",
        "name:fr": "El Milia",
        "public_transport": "station",
        "railway": "station",
        "train": "yes",
        "id": "node/2454069068"
      },
      "geometry": {
        "type": "Point",
        "coordinates": [
          6.2563784,
          36.7832278
        ]
      }
    },
    {
      "type": "Feature",
      "id": "node/2573289151",
      "properties": {
        "level": "0",
        "name": "Aïn Fakroun",
        "name:ar": "عين فكرون",
        "name:en": "Ain Fakroun",
        "name:fr": "Aïn Fakroun",
        "public_transport": "station",
        "railway": "station",
        "train": "yes",
        "id": "node/2573289151"
      },
      "geometry": {
        "type": "Point",
        "coordinates": [
          6.8548115,
          35.9700054
        ]
      }
    },
    {
      "type": "Feature",
      "id": "node/2690373561",
      "properties": {
        "name": "Sidi Aïch",
        "name:ar": "سيدي عيش",
        "name:en": "Sidi Aich",
        "name:fr": "Sidi Aïch",
        "network": "SNTF",
        "operator": "SNTF",
        "public_transport": "station",
        "railway": "station",
        "train": "yes",
        "id": "node/2690373561"
      },
      "geometry": {
        "type": "Point",
        "coordinates": [
          4.6922744,
          36.6093529
        ]
      }
    },
    {
      "type": "Feature",
      "id": "node/2690373562",
      "properties": {
        "alt_name:ar": "تقريت",
        "name": "Takrietz",
        "name:ar": "ثقريتس",
        "name:en": "Takrietz",
        "name:fr": "Takrietz",
        "network": "SNTF",
        "operator": "SNTF",
        "public_transport": "station",
        "railway": "halt",
        "train": "yes",
        "id": "node/2690373562"
      },
      "geometry": {
        "type": "Point",
        "coordinates": [
          4.6502058,
          36.5776626
        ]
      }
    },
    {
      "type": "Feature",
      "id": "node/2785628270",
      "properties": {
        "addr:city": "بشار",
        "addr:city:ar": "بشار",
        "name": "بشار",
        "name:ar": "بشار",
        "name:de": "Bechar",
        "name:en": "Bashar",
        "name:fa": "بشار",
        "name:fr": "Béchar",
        "name:ks": "بشار",
        "name:pnb": "بشار",
        "name:ur": "بشار",
        "operator": "الشركة الوطنية للنقل بالسكك الحديدية",
        "operator:ar": "الشركة الوطنية للنقل بالسكك الحديدية",
        "operator:wikidata": "Q1275038",
        "operator:wikipedia": "ar:الشركة الوطنية للنقل بالسكك الحديدية",
        "operator:wikipedia:ar": "الشركة الوطنية للنقل بالسكك الحديدية",
        "public_transport": "station",
        "railway": "station",
        "train": "yes",
        "id": "node/2785628270"
      },
      "geometry": {
        "type": "Point",
        "coordinates": [
          -2.2196679,
          31.6236899
        ]
      }
    },
    {
      "type": "Feature",
      "id": "node/2837092792",
      "properties": {
        "addr:city": "الشلف",
        "name": "Chlef الشلف",
        "name:ar": "الشلف",
        "name:azb": "شلف",
        "name:de": "Asch-Schalif",
        "name:en": "Ash Shalif",
        "name:fa": "شلف",
        "name:fr": "Chlef",
        "name:pnb": "شلف",
        "name:ur": "شلف",
        "operator": "الشركة الوطنية للنقل بالسكك الحديدية",
        "public_transport": "station",
        "railway": "station",
        "train": "yes",
        "id": "node/2837092792"
      },
      "geometry": {
        "type": "Point",
        "coordinates": [
          1.3418723,
          36.166207
        ]
      }
    },
    {
      "type": "Feature",
      "id": "node/2926455119",
      "properties": {
        "name": "Barika",
        "name:ar": "بريكة",
        "name:en": "Barika",
        "name:fr": "Barika",
        "operator": "SNTF",
        "public_transport": "station",
        "railway": "station",
        "train": "yes",
        "id": "node/2926455119"
      },
      "geometry": {
        "type": "Point",
        "coordinates": [
          5.382297,
          35.3733293
        ]
      }
    },
    {
      "type": "Feature",
      "id": "node/3028463999",
      "properties": {
        "addr:city": "وادي الفضة",
        "alt_name": "واد الفضة;وادي فدة;واد فدة",
        "alt_name:ar": "واد الفضة;وادي فدة;واد فدة",
        "name": "Oued Fodda",
        "name:ar": "وادي الفضة",
        "operator": "SNTF",
        "public_transport": "station",
        "railway": "station",
        "train": "yes",
        "id": "node/3028463999"
      },
      "geometry": {
        "type": "Point",
        "coordinates": [
          1.5356662,
          36.1896953
        ]
      }
    },
    {
      "type": "Feature",
      "id": "node/3103272616",
      "properties": {
        "addr:city": "العقيد عباس",
        "alt_name": "العقيد عباس",
        "alt_name:ar": "العقيد عباس",
        "name": "زوج بغال",
        "name:ar": "زوج بغال",
        "name:fr": "Zoudj Bghal",
        "public_transport": "station",
        "railway": "station",
        "train": "yes",
        "id": "node/3103272616"
      },
      "geometry": {
        "type": "Point",
        "coordinates": [
          -1.8038619,
          34.7872793
        ]
      }
    },
    {
      "type": "Feature",
      "id": "node/3105351550",
      "properties": {
        "addr:city": "الغزوات",
        "name": "الغزوات",
        "name:ar": "الغزوات",
        "name:fr": "Ghazaouet",
        "operator": "الشركة الوطنية للنقل بالسكك الحديدية",
        "public_transport": "station",
        "railway": "station",
        "train": "yes",
        "id": "node/3105351550"
      },
      "geometry": {
        "type": "Point",
        "coordinates": [
          -1.8603654,
          35.1012417
        ]
      }
    },
    {
      "type": "Feature",
      "id": "node/3207145348",
      "properties": {
        "addr:city": "البليدة",
        "addr:postcode": "09000",
        "name": "Blida البليدة",
        "name:ar": "البليدة",
        "name:en": "Blida",
        "name:fr": "Blida",
        "operator": "الشركة الوطنية للنقل بالسكك الحديدية",
        "public_transport": "station",
        "railway": "station",
        "train": "yes",
        "usage": "main",
        "id": "node/3207145348"
      },
      "geometry": {
        "type": "Point",
        "coordinates": [
          2.8160657,
          36.4785227
        ]
      }
    },
    {
      "type": "Feature",
      "id": "node/3250896614",
      "properties": {
        "addr:city": "النعامة",
        "name": "النعامة",
        "name:ar": "النعامة",
        "name:en": "Naama",
        "name:fr": "Nâama",
        "operator": "الشركة الوطنية للنقل بالسكك الحديدية",
        "public_transport": "station",
        "railway": "station",
        "train": "yes",
        "id": "node/3250896614"
      },
      "geometry": {
        "type": "Point",
        "coordinates": [
          -0.3153726,
          33.2652817
        ]
      }
    },
    {
      "type": "Feature",
      "id": "node/3251492467",
      "properties": {
        "addr:city": "بني ونيف",
        "addr:postcode": "08100",
        "name": "بني ونيف",
        "name:ar": "بني ونيف",
        "name:fr": "Béni Ounif",
        "operator": "الشركة الوطنية للنقل بالسكك الحديدية",
        "public_transport": "station",
        "railway": "station",
        "train": "yes",
        "id": "node/3251492467"
      },
      "geometry": {
        "type": "Point",
        "coordinates": [
          -1.2472191,
          32.0507964
        ]
      }
    },
    {
      "type": "Feature",
      "id": "node/3415672289",
      "properties": {
        "addr:city": "الغزوات",
        "name": "الغزوات",
        "name:ar": "الغزوات",
        "name:fr": "Ghazaouet",
        "operator": "الشركة الوطنية للنقل بالسكك الحديدية",
        "public_transport": "station",
        "railway": "station",
        "train": "yes",
        "id": "node/3415672289"
      },
      "geometry": {
        "type": "Point",
        "coordinates": [
          -1.8609048,
          35.0960503
        ]
      }
    },
    {
      "type": "Feature",
      "id": "node/3441899440",
      "properties": {
        "addr:city": "سعيدة",
        "name": "سعيدة",
        "name:ar": "سعيدة",
        "name:en": "Saida",
        "name:fr": "Saïda",
        "operator": "الشركة الوطنية للنقل بالسكك الحديدية",
        "public_transport": "station",
        "railway": "station",
        "train": "yes",
        "id": "node/3441899440"
      },
      "geometry": {
        "type": "Point",
        "coordinates": [
          0.1448724,
          34.8324852
        ]
      }
    },
    {
      "type": "Feature",
      "id": "node/3476405645",
      "properties": {
        "name": "الأخضرية",
        "name:en": "Lakhdaria",
        "name:fr": "Lakhdaria",
        "operator": "SNTF",
        "public_transport": "station",
        "railway": "station",
        "train": "yes",
        "id": "node/3476405645"
      },
      "geometry": {
        "type": "Point",
        "coordinates": [
          3.5874283,
          36.5610604
        ]
      }
    },
    {
      "type": "Feature",
      "id": "node/3476681020",
      "properties": {
        "name": "عمال",
        "name:de": "Ammal",
        "public_transport": "station",
        "railway": "halt",
        "train": "yes",
        "id": "node/3476681020"
      },
      "geometry": {
        "type": "Point",
        "coordinates": [
          3.5907816,
          36.6333855
        ]
      }
    },
    {
      "type": "Feature",
      "id": "node/3476985005",
      "properties": {
        "name": "القادرية",
        "name:fr": "Kadiria",
        "public_transport": "station",
        "railway": "station",
        "train": "yes",
        "id": "node/3476985005"
      },
      "geometry": {
        "type": "Point",
        "coordinates": [
          3.6880815,
          36.5346842
        ]
      }
    },
    {
      "type": "Feature",
      "id": "node/3482984487",
      "properties": {
        "addr:city": "عنابة",
        "name": "Annaba عنابة",
        "name:ar": "عنابة",
        "name:en": "Annaba",
        "name:fr": "Annaba",
        "operator": "الشركة الوطنية للنقل بالسكك الحديدية",
        "public_transport": "station",
        "railway": "station",
        "train": "yes",
        "id": "node/3482984487"
      },
      "geometry": {
        "type": "Point",
        "coordinates": [
          7.7587319,
          36.8955448
        ]
      }
    },
    {
      "type": "Feature",
      "id": "node/3608167679",
      "properties": {
        "addr:city": "قسنطينة",
        "name": "قسنطينة",
        "name:ar": "قسنطينة",
        "name:en": "Constantine",
        "name:fr": "Constantine",
        "operator": "الشركة الوطنية للنقل بالسكك الحديدية",
        "public_transport": "station",
        "railway": "station",
        "train": "yes",
        "id": "node/3608167679"
      },
      "geometry": {
        "type": "Point",
        "coordinates": [
          6.6190457,
          36.367244
        ]
      }
    },
    {
      "type": "Feature",
      "id": "node/3639439325",
      "properties": {
        "addr:city": "أم البواقي",
        "addr:city:ar": "أم البواقي",
        "name": "Oum El Bouaghi",
        "name:ar": "أم البواقي",
        "name:en": "Oum El Bouaghi",
        "name:fr": "Oum El Bouaghi",
        "operator": "الشركة الوطنية للنقل بالسكك الحديدية",
        "operator:ar": "الشركة الوطنية للنقل بالسكك الحديدية",
        "operator:wikidata": "Q1275038",
        "operator:wikipedia": "ar:الشركة الوطنية للنقل بالسكك الحديدية",
        "operator:wikipedia:ar": "الشركة الوطنية للنقل بالسكك الحديدية",
        "public_transport": "station",
        "railway": "station",
        "train": "yes",
        "id": "node/3639439325"
      },
      "geometry": {
        "type": "Point",
        "coordinates": [
          7.1126749,
          35.8587608
        ]
      }
    },
    {
      "type": "Feature",
      "id": "node/3639980398",
      "properties": {
        "name": "التلاغمة",
        "name:de": "Teleghma",
        "name:en": "Teleghma",
        "name:fr": "Teleghma",
        "operator": "SNTF",
        "public_transport": "station",
        "railway": "station",
        "train": "yes",
        "id": "node/3639980398"
      },
      "geometry": {
        "type": "Point",
        "coordinates": [
          6.3554964,
          36.1119014
        ]
      }
    },
    {
      "type": "Feature",
      "id": "node/3693974533",
      "properties": {
        "name": "Ahnif",
        "public_transport": "station",
        "railway": "station",
        "train": "yes",
        "id": "node/3693974533"
      },
      "geometry": {
        "type": "Point",
        "coordinates": [
          4.2638361,
          36.3358789
        ]
      }
    },
    {
      "type": "Feature",
      "id": "node/3714008182",
      "properties": {
        "addr:city": "جيجل",
        "name": "جيجل",
        "name:de": "Jijel",
        "name:en": "Jijel",
        "name:fr": "Jijel",
        "operator": "الشركة الوطنية للنقل بالسكك الحديدية",
        "public_transport": "station",
        "railway": "station",
        "train": "yes",
        "id": "node/3714008182"
      },
      "geometry": {
        "type": "Point",
        "coordinates": [
          5.7754197,
          36.8093831
        ]
      }
    },
    {
      "type": "Feature",
      "id": "node/3779929942",
      "properties": {
        "addr:city": "الخروب",
        "addr:city:ar": "الخروب",
        "name": "الخروب",
        "name:ar": "الخروب",
        "name:en": "El Kheroub",
        "name:fr": "El Kheroub",
        "operator": "الشركة الوطنية للنقل بالسكك الحديدية",
        "operator:ar": "الشركة الوطنية للنقل بالسكك الحديدية",
        "operator:wikidata": "Q1275038",
        "operator:wikipedia": "ar:الشركة الوطنية للنقل بالسكك الحديدية",
        "public_transport": "station",
        "railway": "station",
        "train": "yes",
        "id": "node/3779929942"
      },
      "geometry": {
        "type": "Point",
        "coordinates": [
          6.6849114,
          36.2591151
        ]
      }
    },
    {
      "type": "Feature",
      "id": "node/3781025575",
      "properties": {
        "name": "Mansourah",
        "name:ar": "منصورة",
        "name:en": "Mansourah",
        "name:fr": "Mansourah",
        "operator": "SNTF",
        "public_transport": "station",
        "railway": "station",
        "train": "yes",
        "id": "node/3781025575"
      },
      "geometry": {
        "type": "Point",
        "coordinates": [
          4.4613312,
          36.0816852
        ]
      }
    },
    {
      "type": "Feature",
      "id": "node/3841802203",
      "properties": {
        "gauge": "1435",
        "name": "برج بوعريريج",
        "name:fr": "Bordj Bou Arreridj",
        "operator": "SNTF",
        "public_transport": "station",
        "railway": "station",
        "train": "yes",
        "usage": "main",
        "id": "node/3841802203"
      },
      "geometry": {
        "type": "Point",
        "coordinates": [
          4.7468729,
          36.0624911
        ]
      }
    },
    {
      "type": "Feature",
      "id": "node/3847601856",
      "properties": {
        "name:": "الجرف",
        "name:fr": "Djorf",
        "operator": "SNTF",
        "public_transport": "station",
        "railway": "station",
        "train": "yes",
        "id": "node/3847601856"
      },
      "geometry": {
        "type": "Point",
        "coordinates": [
          4.7355963,
          35.6819872
        ]
      }
    },
    {
      "type": "Feature",
      "id": "node/3871177834",
      "properties": {
        "addr:city": "تقرت",
        "name": "تقرت",
        "name:ar": "تقرت",
        "name:azb": "تقورت",
        "name:en": "Touggourt",
        "name:fa": "تقورت",
        "name:fr": "Touggourt",
        "name:kab": "Tuggurt",
        "operator": "الشركة الوطنية للنقل بالسكك الحديدية",
        "public_transport": "station",
        "railway": "station",
        "train": "yes",
        "id": "node/3871177834"
      },
      "geometry": {
        "type": "Point",
        "coordinates": [
          6.06986,
          33.1116512
        ]
      }
    },
    {
      "type": "Feature",
      "id": "node/3885025884",
      "properties": {
        "addr:city": "بوتليليس",
        "disused:railway": "station",
        "name": "بوتليليس",
        "name:ar": "بوتليليس",
        "name:azb": "بوتلیلیس",
        "name:fa": "بوتلیلیس",
        "name:fr": "Boutelilis",
        "operator": "الشركة الوطنية للنقل بالسكك الحديدية",
        "public_transport": "station",
        "railway": "halt",
        "train": "yes",
        "id": "node/3885025884"
      },
      "geometry": {
        "type": "Point",
        "coordinates": [
          -0.8969651,
          35.5678459
        ]
      }
    },
    {
      "type": "Feature",
      "id": "node/3917341686",
      "properties": {
        "name": "Tixter",
        "name:ar": "تكستار",
        "name:fr": "Tixer",
        "operator": "SNTF",
        "public_transport": "station",
        "railway": "halt",
        "train": "yes",
        "id": "node/3917341686"
      },
      "geometry": {
        "type": "Point",
        "coordinates": [
          5.0856159,
          36.0484618
        ]
      }
    },
    {
      "type": "Feature",
      "id": "node/3917374658",
      "properties": {
        "addr:city": "القراح",
        "addr:city:ar": "القراح",
        "name": "القراح",
        "name:ar": "القراح",
        "name:en": "El Guerrah",
        "name:fr": "El Guerrah",
        "name:kab": "الڤراح",
        "operator": "الشركة الوطنية للنقل بالسكك الحديدية",
        "operator:ar": "الشركة الوطنية للنقل بالسكك الحديدية",
        "operator:wikidata": "Q1275038",
        "operator:wikipedia": "ar:الشركة الوطنية للنقل بالسكك الحديدية",
        "public_transport": "station",
        "railway": "station",
        "train": "yes",
        "id": "node/3917374658"
      },
      "geometry": {
        "type": "Point",
        "coordinates": [
          6.6081862,
          36.1365192
        ]
      }
    },
    {
      "type": "Feature",
      "id": "node/3917374659",
      "properties": {
        "addr:city": "أولاد رحمون",
        "addr:city:ar": "أولاد رحمون",
        "name": "أولاد رحمون",
        "name:ar": "أولاد رحمون",
        "name:en": "Ouled Rahmoun",
        "name:fr": "Ouled Rahmoun",
        "name:kab": "اولاد رحمون",
        "operator": "الشركة الوطنية للنقل بالسكك الحديدية",
        "operator:ar": "الشركة الوطنية للنقل بالسكك الحديدية",
        "operator:wikidata": "Q1275038",
        "operator:wikipedia": "ar:الشركة الوطنية للنقل بالسكك الحديدية",
        "public_transport": "station",
        "railway": "station",
        "train": "yes",
        "id": "node/3917374659"
      },
      "geometry": {
        "type": "Point",
        "coordinates": [
          6.692689,
          36.1709589
        ]
      }
    },
    {
      "type": "Feature",
      "id": "node/3931436475",
      "properties": {
        "name": "مقرة",
        "name:ar": "مقرة",
        "name:en": "Magra",
        "name:fr": "Magra",
        "operator": "الشركة الوطنية للنقل بالسكك الحديدية",
        "operator:ar": "الشركة الوطنية للنقل بالسكك الحديدية",
        "operator:wikidata": "Q1275038",
        "operator:wikipedia": "ar:الشركة الوطنية للنقل بالسكك الحديدية",
        "public_transport": "station",
        "railway": "station",
        "train": "yes",
        "id": "node/3931436475"
      },
      "geometry": {
        "type": "Point",
        "coordinates": [
          5.074274,
          35.5624963
        ]
      }
    },
    {
      "type": "Feature",
      "id": "node/3931436587",
      "properties": {
        "name": "أولاد عمار",
        "name:fr": "Ouled Ammar",
        "operator": "SNTF",
        "public_transport": "station",
        "railway": "station",
        "train": "yes",
        "id": "node/3931436587"
      },
      "geometry": {
        "type": "Point",
        "coordinates": [
          5.1506905,
          35.4802099
        ]
      }
    },
    {
      "type": "Feature",
      "id": "node/3952991297",
      "properties": {
        "name": "سيدي براهيم",
        "name:fr": "Sidi Brahim",
        "operator": "SNTF",
        "public_transport": "station",
        "railway": "station",
        "train": "yes",
        "id": "node/3952991297"
      },
      "geometry": {
        "type": "Point",
        "coordinates": [
          4.3897124,
          36.2302851
        ]
      }
    },
    {
      "type": "Feature",
      "id": "node/3961837203",
      "properties": {
        "name": "Sebbakh",
        "public_transport": "station",
        "railway": "station",
        "train": "yes",
        "id": "node/3961837203"
      },
      "geometry": {
        "type": "Point",
        "coordinates": [
          6.4998256,
          35.8880137
        ]
      }
    },
    {
      "type": "Feature",
      "id": "node/3963846545",
      "properties": {
        "name": "جرمة",
        "name:fr": "Djerma",
        "public_transport": "station",
        "railway": "station",
        "train": "yes",
        "id": "node/3963846545"
      },
      "geometry": {
        "type": "Point",
        "coordinates": [
          6.3081911,
          35.6583076
        ]
      }
    },
    {
      "type": "Feature",
      "id": "node/3992387466",
      "properties": {
        "addr:city": "مغنية",
        "name": "مغنية",
        "name:ar": "مغنية",
        "name:fr": "Maghnia",
        "operator": "الشركة الوطنية للنقل بالسكك الحديدية",
        "public_transport": "station",
        "railway": "station",
        "train": "yes",
        "id": "node/3992387466"
      },
      "geometry": {
        "type": "Point",
        "coordinates": [
          -1.726854,
          34.8428344
        ]
      }
    },
    {
      "type": "Feature",
      "id": "node/4053732289",
      "properties": {
        "name": "El Kseur - Amizour",
        "name:ar": "القصر - أميزور",
        "name:fr": "El Kseur - Amizour",
        "operator": "SNTF",
        "operator:ar": "الشركة الوطنية للنقل بالسكك الحديدية",
        "operator:wikidata": "Q1275038",
        "operator:wikipedia": "ar:الشركة الوطنية للنقل بالسكك الحديدية",
        "public_transport": "station",
        "railway": "station",
        "train": "yes",
        "id": "node/4053732289"
      },
      "geometry": {
        "type": "Point",
        "coordinates": [
          4.8555973,
          36.6700377
        ]
      }
    },
    {
      "type": "Feature",
      "id": "node/4078635938",
      "properties": {
        "addr:city": "أوزلاقن",
        "addr:city:ar": "أوزلاقن",
        "addr:place": "إغزار أمقران",
        "addr:place:ar": "إغزار أمقران",
        "alt_name:ar": "اغزرامقران",
        "name": "إغزار أمقران",
        "name:ar": "إغزار أمقران",
        "name:en": "Ighzar Amoqrane",
        "name:fr": "Ighzer Amokrane",
        "name:kab": "Iγẓaṛ Amuqṛan",
        "name:kab-Arab": "إغزار أمقران",
        "name:kab-Tfng": "ⵉⵖⵥⴰⵕ ⴰⵎⵓⵇⵕⴰⵏ",
        "network": "SNTF",
        "official_name": "أوزلاقن",
        "official_name:ar": "أوزلاقن",
        "operator": "الشركة الوطنية للنقل بالسكك الحديدية",
        "operator:ar": "الشركة الوطنية للنقل بالسكك الحديدية",
        "operator:wikidata": "Q1275038",
        "operator:wikipedia": "ar:الشركة الوطنية للنقل بالسكك الحديدية",
        "public_transport": "station",
        "railway": "station",
        "train": "yes",
        "id": "node/4078635938"
      },
      "geometry": {
        "type": "Point",
        "coordinates": [
          4.6106073,
          36.5323757
        ]
      }
    },
    {
      "type": "Feature",
      "id": "node/4273070922",
      "properties": {
        "name": "El Biodh",
        "name:ar": "البيوض",
        "name:fr": "El Biodh",
        "public_transport": "station",
        "railway": "station",
        "train": "yes",
        "id": "node/4273070922"
      },
      "geometry": {
        "type": "Point",
        "coordinates": [
          -0.1630439,
          33.7423454
        ]
      }
    },
    {
      "type": "Feature",
      "id": "node/4274574376",
      "properties": {
        "name": "Tahouna",
        "name:ar": "طاحونة",
        "name:fr": "Tahouna",
        "public_transport": "station",
        "railway": "station",
        "train": "yes",
        "id": "node/4274574376"
      },
      "geometry": {
        "type": "Point",
        "coordinates": [
          6.5122459,
          36.7991973
        ]
      }
    },
    {
      "type": "Feature",
      "id": "node/4427053253",
      "properties": {
        "name": "El Achir",
        "public_transport": "station",
        "railway": "halt",
        "train": "yes",
        "id": "node/4427053253"
      },
      "geometry": {
        "type": "Point",
        "coordinates": [
          4.6250667,
          36.0559786
        ]
      }
    },
    {
      "type": "Feature",
      "id": "node/4548760351",
      "properties": {
        "addr:city": "قسنطينة",
        "public_transport": "station",
        "railway": "halt",
        "train": "yes",
        "id": "node/4548760351"
      },
      "geometry": {
        "type": "Point",
        "coordinates": [
          6.6216378,
          36.3563563
        ]
      }
    },
    {
      "type": "Feature",
      "id": "node/4574342810",
      "properties": {
        "name": "محطة قطار",
        "name:fr": "Boughezoul",
        "public_transport": "station",
        "railway": "station",
        "train": "yes",
        "id": "node/4574342810"
      },
      "geometry": {
        "type": "Point",
        "coordinates": [
          2.883892,
          35.7007245
        ]
      }
    },
    {
      "type": "Feature",
      "id": "node/4781164954",
      "properties": {
        "name": "Naciria",
        "name:ar": "الناصرية",
        "name:fr": "Naciria",
        "public_transport": "station",
        "railway": "station",
        "train": "yes",
        "id": "node/4781164954"
      },
      "geometry": {
        "type": "Point",
        "coordinates": [
          3.8259919,
          36.7514501
        ]
      }
    },
    {
      "type": "Feature",
      "id": "node/4781287443",
      "properties": {
        "name": "Draâ Ben Khedda",
        "name:ar": "ذراع بن خدة",
        "name:fr": "Draâ Ben Khedda",
        "operator": "SNTF",
        "public_transport": "station",
        "railway": "station",
        "train": "yes",
        "id": "node/4781287443"
      },
      "geometry": {
        "type": "Point",
        "coordinates": [
          3.9596345,
          36.7414853
        ]
      }
    },
    {
      "type": "Feature",
      "id": "node/5268129935",
      "properties": {
        "loc_ref": "1",
        "name": "سقانة",
        "name:ar": "سقانة",
        "name:en": "Seggana",
        "name:fr": "Seggana",
        "operator": "الشركة الوطنية للنقل بالسكك الحديدية",
        "operator:ar": "الشركة الوطنية للنقل بالسكك الحديدية",
        "operator:wikidata": "Q1275038",
        "operator:wikipedia": "ar:الشركة الوطنية للنقل بالسكك الحديدية",
        "public_transport": "station",
        "railway": "station",
        "train": "yes",
        "id": "node/5268129935"
      },
      "geometry": {
        "type": "Point",
        "coordinates": [
          5.5588295,
          35.367626
        ]
      }
    },
    {
      "type": "Feature",
      "id": "node/5368531814",
      "properties": {
        "name": "Arrêt de train",
        "public_transport": "station",
        "railway": "station",
        "train": "yes",
        "id": "node/5368531814"
      },
      "geometry": {
        "type": "Point",
        "coordinates": [
          -1.1042819,
          35.3419426
        ]
      }
    },
    {
      "type": "Feature",
      "id": "node/5416215334",
      "properties": {
        "addr:city": "أرزيو",
        "name": "أرزيو",
        "name:ar": "أرزيو",
        "name:en": "Arziw",
        "name:fr": "Arzew",
        "operator": "الشركة الوطنية للنقل بالسكك الحديدية",
        "operator:ar": "الشركة الوطنية للنقل بالسكك الحديدية",
        "operator:wikidata": "Q1275038",
        "operator:wikipedia": "ar:الشركة الوطنية للنقل بالسكك الحديدية",
        "public_transport": "station",
        "railway": "station",
        "train": "yes",
        "id": "node/5416215334"
      },
      "geometry": {
        "type": "Point",
        "coordinates": [
          -0.3200193,
          35.8472592
        ]
      }
    },
    {
      "type": "Feature",
      "id": "node/5571463482",
      "properties": {
        "image": "https://upload.wikimedia.org/wikipedia/fr/thumb/f/fc/Metroalger.png/100px-Metroalger.png",
        "name": "Haï El Badr",
        "name:ar": "حي البدر",
        "name:de": "Haï El Badr",
        "name:fr": "Haï El Badr",
        "network": "Ligne 1",
        "operator": "RATP El Djazaïr",
        "public_transport": "station",
        "railway": "station",
        "ref": "HEB",
        "station": "subway",
        "subway": "yes",
        "train": "yes",
        "wikidata": "Q3128904",
        "wikipedia": "fr:Haï El Badr (métro d'Alger)",
        "wikipedia:en": "Haï El Badr Station",
        "id": "node/5571463482"
      },
      "geometry": {
        "type": "Point",
        "coordinates": [
          3.1022698,
          36.7254312
        ]
      }
    },
    {
      "type": "Feature",
      "id": "node/5732975510",
      "properties": {
        "name": "عين تالوت",
        "name:ar": "عين تالوت",
        "name:fr": "Aïn Tallout",
        "network": "تلمسان-----وهران",
        "operator": "محرر",
        "public_transport": "station",
        "railway": "station",
        "train": "yes",
        "id": "node/5732975510"
      },
      "geometry": {
        "type": "Point",
        "coordinates": [
          -0.9567162,
          34.9297962
        ]
      }
    },
    {
      "type": "Feature",
      "id": "node/6270773066",
      "properties": {
        "bench": "yes",
        "bin": "yes",
        "covered": "yes",
        "level": "-1",
        "name": "محطة المطار هواري بومدين",
        "name:ar": "محطة المطار هواري بومدين",
        "name:fr": "Gare de l'Aéroport Houari Boumédiène",
        "network": "SNFT",
        "operator": "الشركة الوطنية للنقل بالسكك الحديدية",
        "operator:ar": "الشركة الوطنية للنقل بالسكك الحديدية",
        "operator:wikidata": "Q1275038",
        "operator:wikipedia": "ar:الشركة الوطنية للنقل بالسكك الحديدية",
        "public_transport": "station",
        "railway": "station",
        "share_taxi": "yes",
        "shelter": "yes",
        "train": "yes",
        "id": "node/6270773066"
      },
      "geometry": {
        "type": "Point",
        "coordinates": [
          3.2091629,
          36.7002838
        ]
      }
    },
    {
      "type": "Feature",
      "id": "node/6291588383",
      "properties": {
        "name": "محطة القطار القديمة تأسست سنة 1912",
        "name:ar": "محطة القطار القديمة تأسست سنة 1912",
        "public_transport": "station",
        "railway": "halt",
        "train": "yes",
        "id": "node/6291588383"
      },
      "geometry": {
        "type": "Point",
        "coordinates": [
          3.0345001,
          35.0637937
        ]
      }
    },
    {
      "type": "Feature",
      "id": "node/9308715704",
      "properties": {
        "name": "ويدءموعراس",
        "name:fr": "Ued-Mugras",
        "public_transport": "station",
        "railway": "station",
        "train": "yes",
        "id": "node/9308715704"
      },
      "geometry": {
        "type": "Point",
        "coordinates": [
          8.2214252,
          36.3717898
        ]
      }
    },
    {
      "type": "Feature",
      "id": "node/9308755704",
      "properties": {
        "public_transport": "station",
        "railway": "station",
        "train": "yes",
        "id": "node/9308755704"
      },
      "geometry": {
        "type": "Point",
        "coordinates": [
          8.0033769,
          36.2890548
        ]
      }
    },
    {
      "type": "Feature",
      "id": "node/9317765989",
      "properties": {
        "name": "مرسط",
        "name:fr": "Morsott",
        "public_transport": "station",
        "railway": "station",
        "train": "yes",
        "id": "node/9317765989"
      },
      "geometry": {
        "type": "Point",
        "coordinates": [
          8.0060723,
          35.6680585
        ]
      }
    },
    {
      "type": "Feature",
      "id": "node/9318565548",
      "properties": {
        "name": "الزعرورية",
        "name:fr": "Zarouria",
        "public_transport": "station",
        "railway": "station",
        "train": "yes",
        "id": "node/9318565548"
      },
      "geometry": {
        "type": "Point",
        "coordinates": [
          7.9395241,
          36.2404097
        ]
      }
    },
    {
      "type": "Feature",
      "id": "node/9329157812",
      "properties": {
        "name": "انسيغة",
        "name:fr": "N'Sigha",
        "public_transport": "station",
        "railway": "station",
        "train": "yes",
        "id": "node/9329157812"
      },
      "geometry": {
        "type": "Point",
        "coordinates": [
          5.9485771,
          34.0190085
        ]
      }
    },
    {
      "type": "Feature",
      "id": "node/9334245663",
      "properties": {
        "name": "تيلاطو",
        "name:fr": "Tilatou",
        "public_transport": "station",
        "railway": "station",
        "train": "yes",
        "id": "node/9334245663"
      },
      "geometry": {
        "type": "Point",
        "coordinates": [
          5.7653938,
          35.3571237
        ]
      }
    },
    {
      "type": "Feature",
      "id": "node/9334513473",
      "properties": {
        "public_transport": "station",
        "railway": "station",
        "train": "yes",
        "id": "node/9334513473"
      },
      "geometry": {
        "type": "Point",
        "coordinates": [
          5.2609813,
          35.4082604
        ]
      }
    },
    {
      "type": "Feature",
      "id": "node/9334752794",
      "properties": {
        "name": "المسيلة",
        "name:fr": "M'Sila",
        "public_transport": "station",
        "railway": "station",
        "train": "yes",
        "id": "node/9334752794"
      },
      "geometry": {
        "type": "Point",
        "coordinates": [
          4.5196476,
          35.7066742
        ]
      }
    },
    {
      "type": "Feature",
      "id": "node/9334761044",
      "properties": {
        "public_transport": "station",
        "railway": "station",
        "train": "yes",
        "id": "node/9334761044"
      },
      "geometry": {
        "type": "Point",
        "coordinates": [
          4.1073747,
          35.6493736
        ]
      }
    },
    {
      "type": "Feature",
      "id": "node/9334766588",
      "properties": {
        "name": "عين الحجل",
        "name:fr": "Aïn El Hadjel",
        "public_transport": "station",
        "railway": "station",
        "train": "yes",
        "id": "node/9334766588"
      },
      "geometry": {
        "type": "Point",
        "coordinates": [
          3.9120214,
          35.6569119
        ]
      }
    },
    {
      "type": "Feature",
      "id": "node/9334992853",
      "properties": {
        "name": "بوطي السايح",
        "name:fr": "Bouti Sayah",
        "public_transport": "station",
        "railway": "station",
        "train": "yes",
        "id": "node/9334992853"
      },
      "geometry": {
        "type": "Point",
        "coordinates": [
          3.6969154,
          35.635465
        ]
      }
    },
    {
      "type": "Feature",
      "id": "node/9335078829",
      "properties": {
        "name": "البيرين",
        "name:fr": "Birine",
        "public_transport": "station",
        "railway": "station",
        "train": "yes",
        "id": "node/9335078829"
      },
      "geometry": {
        "type": "Point",
        "coordinates": [
          3.2134822,
          35.6602996
        ]
      }
    },
    {
      "type": "Feature",
      "id": "node/9336699380",
      "properties": {
        "name": "مجاز",
        "name:fr": "Medjez",
        "public_transport": "station",
        "railway": "station",
        "train": "yes",
        "id": "node/9336699380"
      },
      "geometry": {
        "type": "Point",
        "coordinates": [
          4.5938491,
          35.8663755
        ]
      }
    },
    {
      "type": "Feature",
      "id": "node/9340041898",
      "properties": {
        "name": "المهير",
        "name:fr": "El Mehir",
        "public_transport": "station",
        "railway": "station",
        "train": "yes",
        "id": "node/9340041898"
      },
      "geometry": {
        "type": "Point",
        "coordinates": [
          4.3872348,
          36.1188874
        ]
      }
    },
    {
      "type": "Feature",
      "id": "node/9341097805",
      "properties": {
        "name": "عمر",
        "name:fr": "Aomar",
        "public_transport": "station",
        "railway": "station",
        "train": "yes",
        "id": "node/9341097805"
      },
      "geometry": {
        "type": "Point",
        "coordinates": [
          3.7736778,
          36.4906517
        ]
      }
    },
    {
      "type": "Feature",
      "id": "node/9355150817",
      "properties": {
        "public_transport": "station",
        "railway": "halt",
        "train": "yes",
        "id": "node/9355150817"
      },
      "geometry": {
        "type": "Point",
        "coordinates": [
          6.630483,
          36.431891
        ]
      }
    },
    {
      "type": "Feature",
      "id": "node/9355174217",
      "properties": {
        "name": "Zighoud Youcef",
        "public_transport": "station",
        "railway": "station",
        "train": "yes",
        "id": "node/9355174217"
      },
      "geometry": {
        "type": "Point",
        "coordinates": [
          6.713052,
          36.5308659
        ]
      }
    },
    {
      "type": "Feature",
      "id": "node/9357647100",
      "properties": {
        "public_transport": "station",
        "railway": "station",
        "train": "yes",
        "id": "node/9357647100"
      },
      "geometry": {
        "type": "Point",
        "coordinates": [
          -2.0646652,
          31.7980774
        ]
      }
    },
    {
      "type": "Feature",
      "id": "node/9357961826",
      "properties": {
        "public_transport": "station",
        "railway": "station",
        "train": "yes",
        "id": "node/9357961826"
      },
      "geometry": {
        "type": "Point",
        "coordinates": [
          -1.8414514,
          31.9264845
        ]
      }
    },
    {
      "type": "Feature",
      "id": "node/9357961836",
      "properties": {
        "public_transport": "station",
        "railway": "station",
        "train": "yes",
        "id": "node/9357961836"
      },
      "geometry": {
        "type": "Point",
        "coordinates": [
          -1.661642,
          32.0108496
        ]
      }
    },
    {
      "type": "Feature",
      "id": "node/9358324908",
      "properties": {
        "name": "جنيان بورزق",
        "public_transport": "station",
        "railway": "halt",
        "train": "yes",
        "id": "node/9358324908"
      },
      "geometry": {
        "type": "Point",
        "coordinates": [
          -0.7969239,
          32.3717839
        ]
      }
    },
    {
      "type": "Feature",
      "id": "node/9358324914",
      "properties": {
        "name": "مغرار",
        "public_transport": "station",
        "railway": "halt",
        "train": "yes",
        "id": "node/9358324914"
      },
      "geometry": {
        "type": "Point",
        "coordinates": [
          -0.5715148,
          32.5236658
        ]
      }
    },
    {
      "type": "Feature",
      "id": "node/9358330035",
      "properties": {
        "public_transport": "station",
        "railway": "station",
        "train": "yes",
        "id": "node/9358330035"
      },
      "geometry": {
        "type": "Point",
        "coordinates": [
          -0.4063897,
          32.6141379
        ]
      }
    },
    {
      "type": "Feature",
      "id": "node/9360220023",
      "properties": {
        "public_transport": "station",
        "railway": "station",
        "train": "yes",
        "id": "node/9360220023"
      },
      "geometry": {
        "type": "Point",
        "coordinates": [
          -0.4822178,
          33.0031447
        ]
      }
    },
    {
      "type": "Feature",
      "id": "node/9360993934",
      "properties": {
        "public_transport": "station",
        "railway": "station",
        "train": "yes",
        "id": "node/9360993934"
      },
      "geometry": {
        "type": "Point",
        "coordinates": [
          -0.4247485,
          33.8127838
        ]
      }
    },
    {
      "type": "Feature",
      "id": "node/9360993950",
      "properties": {
        "public_transport": "station",
        "railway": "station",
        "train": "yes",
        "id": "node/9360993950"
      },
      "geometry": {
        "type": "Point",
        "coordinates": [
          -0.5083447,
          33.9296749
        ]
      }
    },
    {
      "type": "Feature",
      "id": "node/9361020148",
      "properties": {
        "public_transport": "station",
        "railway": "station",
        "train": "yes",
        "id": "node/9361020148"
      },
      "geometry": {
        "type": "Point",
        "coordinates": [
          -0.5501963,
          34.0576
        ]
      }
    },
    {
      "type": "Feature",
      "id": "node/9361020157",
      "properties": {
        "public_transport": "station",
        "railway": "station",
        "train": "yes",
        "id": "node/9361020157"
      },
      "geometry": {
        "type": "Point",
        "coordinates": [
          -0.551914,
          34.1902293
        ]
      }
    },
    {
      "type": "Feature",
      "id": "node/9361038934",
      "properties": {
        "public_transport": "station",
        "railway": "station",
        "train": "yes",
        "id": "node/9361038934"
      },
      "geometry": {
        "type": "Point",
        "coordinates": [
          -0.6684904,
          34.4027013
        ]
      }
    },
    {
      "type": "Feature",
      "id": "node/9361038971",
      "properties": {
        "name": "رجم دموش",
        "name:en": "Redjem Demouche",
        "public_transport": "station",
        "railway": "station",
        "train": "yes",
        "id": "node/9361038971"
      },
      "geometry": {
        "type": "Point",
        "coordinates": [
          -0.7863765,
          34.4252236
        ]
      }
    },
    {
      "type": "Feature",
      "id": "node/9363416620",
      "properties": {
        "name": "رأس الماء",
        "name:fr": "Ras El Ma",
        "public_transport": "station",
        "railway": "station",
        "train": "yes",
        "id": "node/9363416620"
      },
      "geometry": {
        "type": "Point",
        "coordinates": [
          -0.8081835,
          34.4882321
        ]
      }
    },
    {
      "type": "Feature",
      "id": "node/9363457099",
      "properties": {
        "name": "الحصيبة",
        "name:en": "El Hassaiba",
        "public_transport": "station",
        "railway": "station",
        "train": "yes",
        "id": "node/9363457099"
      },
      "geometry": {
        "type": "Point",
        "coordinates": [
          -0.7583413,
          34.7040765
        ]
      }
    },
    {
      "type": "Feature",
      "id": "node/9369856848",
      "properties": {
        "name": "تلمسان",
        "name:fr": "Tlemcen",
        "public_transport": "station",
        "railway": "station",
        "train": "yes",
        "id": "node/9369856848"
      },
      "geometry": {
        "type": "Point",
        "coordinates": [
          -1.3011389,
          34.8850856
        ]
      }
    },
    {
      "type": "Feature",
      "id": "node/9372808148",
      "properties": {
        "name": "بني صاف",
        "name:fr": "Beni Saf",
        "public_transport": "station",
        "railway": "station",
        "train": "yes",
        "id": "node/9372808148"
      },
      "geometry": {
        "type": "Point",
        "coordinates": [
          -1.3567028,
          35.3075794
        ]
      }
    },
    {
      "type": "Feature",
      "id": "node/9375782945",
      "properties": {
        "name": "El Malah",
        "public_transport": "station",
        "railway": "station",
        "train": "yes",
        "id": "node/9375782945"
      },
      "geometry": {
        "type": "Point",
        "coordinates": [
          -1.0829168,
          35.3959128
        ]
      }
    },
    {
      "type": "Feature",
      "id": "node/9379486385",
      "properties": {
        "name": "Douar El Ayayda",
        "public_transport": "station",
        "railway": "station",
        "train": "yes",
        "id": "node/9379486385"
      },
      "geometry": {
        "type": "Point",
        "coordinates": [
          -0.3325063,
          35.7893425
        ]
      }
    },
    {
      "type": "Feature",
      "id": "node/9379498814",
      "properties": {
        "name": "Mers El Hadjadj",
        "public_transport": "station",
        "railway": "station",
        "train": "yes",
        "id": "node/9379498814"
      },
      "geometry": {
        "type": "Point",
        "coordinates": [
          -0.1662699,
          35.7970848
        ]
      }
    },
    {
      "type": "Feature",
      "id": "node/9391507402",
      "properties": {
        "name": "سيق",
        "name:fr": "Sig",
        "public_transport": "station",
        "railway": "station",
        "train": "yes",
        "id": "node/9391507402"
      },
      "geometry": {
        "type": "Point",
        "coordinates": [
          -0.1948167,
          35.5382679
        ]
      }
    },
    {
      "type": "Feature",
      "id": "node/9394027219",
      "properties": {
        "public_transport": "station",
        "railway": "station",
        "train": "yes",
        "id": "node/9394027219"
      },
      "geometry": {
        "type": "Point",
        "coordinates": [
          -0.009534,
          35.4594758
        ]
      }
    },
    {
      "type": "Feature",
      "id": "node/9394027237",
      "properties": {
        "public_transport": "station",
        "railway": "station",
        "train": "yes",
        "id": "node/9394027237"
      },
      "geometry": {
        "type": "Point",
        "coordinates": [
          -0.0349682,
          35.3439666
        ]
      }
    },
    {
      "type": "Feature",
      "id": "node/9394440098",
      "properties": {
        "name": "تيزي",
        "name:fr": "Tizi",
        "public_transport": "station",
        "railway": "station",
        "train": "yes",
        "id": "node/9394440098"
      },
      "geometry": {
        "type": "Point",
        "coordinates": [
          0.0777965,
          35.3173501
        ]
      }
    },
    {
      "type": "Feature",
      "id": "node/9394505807",
      "properties": {
        "name": "غريس",
        "name:fr": "Ghriss",
        "public_transport": "station",
        "railway": "station",
        "train": "yes",
        "id": "node/9394505807"
      },
      "geometry": {
        "type": "Point",
        "coordinates": [
          0.1471299,
          35.2422512
        ]
      }
    },
    {
      "type": "Feature",
      "id": "node/9394604951",
      "properties": {
        "name": "وادي التاغية",
        "name:fr": "Oued Taria",
        "public_transport": "station",
        "railway": "station",
        "train": "yes",
        "id": "node/9394604951"
      },
      "geometry": {
        "type": "Point",
        "coordinates": [
          0.0910709,
          35.1244377
        ]
      }
    },
    {
      "type": "Feature",
      "id": "node/9394612804",
      "properties": {
        "name": "سيدي بوبكر",
        "name:fr": "Sidi Boubekeur",
        "public_transport": "station",
        "railway": "station",
        "train": "yes",
        "id": "node/9394612804"
      },
      "geometry": {
        "type": "Point",
        "coordinates": [
          0.060652,
          35.0295843
        ]
      }
    },
    {
      "type": "Feature",
      "id": "node/9394649552",
      "properties": {
        "name": "سيدي عمار",
        "name:fr": "Sidi Amar",
        "public_transport": "station",
        "railway": "station",
        "train": "yes",
        "id": "node/9394649552"
      },
      "geometry": {
        "type": "Point",
        "coordinates": [
          0.1063556,
          35.0233882
        ]
      }
    },
    {
      "type": "Feature",
      "id": "node/9394705414",
      "properties": {
        "name": "يلل",
        "name:fr": "Yellel",
        "public_transport": "station",
        "railway": "station",
        "train": "yes",
        "id": "node/9394705414"
      },
      "geometry": {
        "type": "Point",
        "coordinates": [
          0.3515308,
          35.723974
        ]
      }
    },
    {
      "type": "Feature",
      "id": "node/9397029330",
      "properties": {
        "public_transport": "station",
        "railway": "station",
        "train": "yes",
        "id": "node/9397029330"
      },
      "geometry": {
        "type": "Point",
        "coordinates": [
          6.6499569,
          36.7312009
        ]
      }
    },
    {
      "type": "Feature",
      "id": "node/9397063519",
      "properties": {
        "name": "امجاز ادشيش",
        "name:fr": "Emdjez Edchich",
        "public_transport": "station",
        "railway": "station",
        "train": "yes",
        "id": "node/9397063519"
      },
      "geometry": {
        "type": "Point",
        "coordinates": [
          6.8057831,
          36.7118846
        ]
      }
    },
    {
      "type": "Feature",
      "id": "node/9399822512",
      "properties": {
        "name": "صيديءبادير",
        "name:fr": "Sisi-Bader",
        "public_transport": "station",
        "railway": "halt",
        "train": "yes",
        "id": "node/9399822512"
      },
      "geometry": {
        "type": "Point",
        "coordinates": [
          8.0789553,
          36.3118108
        ]
      }
    }
  ]
}