{
  "type": "FeatureCollection",
  "features": [
    {
      "type": "Feature",
      "id": "node/27508651",
      "properties": {
        "light_rail": "yes",
        "name": "Ülemiste",
        "name:et": "Ülemiste",
        "name:ru": "Юлемисте",
        "public_transport": "station",
        "railway": "station",
        "station": "light_rail",
        "tln_ID": "10877;10878",
        "train": "yes",
        "uic_ref": "2600003",
        "wheelchair": "yes",
        "wikidata": "Q2116583",
        "id": "node/27508651"
      },
      "geometry": {
        "type": "Point",
        "coordinates": [
          24.7963256,
          59.4233227
        ]
      }
    },
    {
      "type": "Feature",
      "id": "node/30153696",
      "properties": {
        "name": "Riisipere",
        "name:et": "Riisipere",
        "name:ru": "Рийзипере",
        "public_transport": "station",
        "railway": "station",
        "station": "light_rail",
        "tln_ID": "12305",
        "train": "yes",
        "uic_ref": "2600891",
        "wikidata": "Q12374048",
        "id": "node/30153696"
      },
      "geometry": {
        "type": "Point",
        "coordinates": [
          24.3120598,
          59.1191761
        ]
      }
    },
    {
      "type": "Feature",
      "id": "node/30402685",
      "properties": {
        "name": "Paldiski",
        "name:et": "Paldiski",
        "name:lt": "Paldiskis",
        "name:ru": "Палдиски",
        "public_transport": "station",
        "railway": "station",
        "station": "light_rail",
        "train": "yes",
        "uic_ref": "2600765",
        "id": "node/30402685"
      },
      "geometry": {
        "type": "Point",
        "coordinates": [
          24.0604429,
          59.3443492
        ]
      }
    },
    {
      "type": "Feature",
      "id": "node/344390060",
      "properties": {
        "esr:user": "082509",
        "name": "Kehra",
        "name:de": "Kedder",
        "name:et": "Kehra",
        "name:lt": "Kehra",
        "name:ru": "Кехра",
        "public_transport": "station",
        "railway": "station",
        "station": "light_rail",
        "tln_ID": "10844;10845",
        "train": "yes",
        "uic_ref": "2600211",
        "id": "node/344390060"
      },
      "geometry": {
        "type": "Point",
        "coordinates": [
          25.3349065,
          59.3368895
        ]
      }
    },
    {
      "type": "Feature",
      "id": "node/529932898",
      "properties": {
        "esr:user": "084006",
        "name": "Narva",
        "name:et": "Narva",
        "name:ru": "Нарва",
        "public_transport": "station",
        "railway": "station",
        "train": "yes",
        "uic_ref": "2600330",
        "wikidata": "Q403227",
        "wikipedia": "ru:Нарва (станция)",
        "id": "node/529932898"
      },
      "geometry": {
        "type": "Point",
        "coordinates": [
          28.1995108,
          59.3684873
        ]
      }
    },
    {
      "type": "Feature",
      "id": "node/579964359",
      "properties": {
        "esr:user": "083107",
        "name": "Kiviõli",
        "name:de": "Steinöl",
        "name:et": "Kiviõli",
        "name:lt": "Kivielis",
        "name:ru": "Кивиыли",
        "public_transport": "station",
        "railway": "station",
        "train": "yes",
        "uic_ref": "2600336",
        "id": "node/579964359"
      },
      "geometry": {
        "type": "Point",
        "coordinates": [
          26.965961,
          59.3531601
        ]
      }
    },
    {
      "type": "Feature",
      "id": "node/1372263675",
      "properties": {
        "name": "Vastse-Kuuste",
        "name:et": "Vastse-Kuuste",
        "name:ru": "Вастсе-Куусте",
        "public_transport": "station",
        "railway": "station",
        "train": "yes",
        "uic_ref": "2600082",
        "wikidata": "Q12378340",
        "id": "node/1372263675"
      },
      "geometry": {
        "type": "Point",
        "coordinates": [
          26.9321974,
          58.17377
        ]
      }
    },
    {
      "type": "Feature",
      "id": "node/4175738941",
      "properties": {
        "esr:user": "088331",
        "name": "Saku",
        "name:ee": "Saku",
        "name:ru": "Саку",
        "public_transport": "station",
        "railway": "station",
        "train": "yes",
        "uic_ref": "2600935",
        "wikidata": "Q12374605",
        "id": "node/4175738941"
      },
      "geometry": {
        "type": "Point",
        "coordinates": [
          24.676489,
          59.3009522
        ]
      }
    },
    {
      "type": "Feature",
      "id": "node/6913337838",
      "properties": {
        "esr:user": "080593",
        "name": "Turba",
        "public_transport": "station",
        "railway": "station",
        "train": "yes",
        "uic_ref": "2600663",
        "wikidata": "Q12377405",
        "id": "node/6913337838"
      },
      "geometry": {
        "type": "Point",
        "coordinates": [
          24.2411418,
          59.0763371
        ]
      }
    },
    {
      "type": "Feature",
      "id": "node/7804437999",
      "properties": {
        "esr:user": "086209",
        "name": "Valga",
        "name:de": "Walk",
        "name:et": "Valga",
        "name:lt": "Valga",
        "name:ru": "Валга",
        "public_transport": "station",
        "railway": "station",
        "source": "Yahoo",
        "train": "yes",
        "uic_ref": "2600340",
        "id": "node/7804437999"
      },
      "geometry": {
        "type": "Point",
        "coordinates": [
          26.0533073,
          57.7745919
        ]
      }
    }
  ]
}