{
  "type": "FeatureCollection",
  "features": [
    {
      "type": "Feature",
      "id": "node/269662884",
      "properties": {
        "name": "الحضرة",
        "name:ar": "الحضرة",
        "name:en": "Al-Hadra",
        "railway": "station",
        "id": "node/269662884"
      },
      "geometry": {
        "type": "Point",
        "coordinates": [
          29.9299874,
          31.2040673
        ]
      }
    },
    {
      "type": "Feature",
      "id": "node/271864421",
      "properties": {
        "alt_name": "المحطة المركزية",
        "name": "محطة قطار رمسيس",
        "name:ar": "محطة قطار رمسيس",
        "name:de": "Ramses-Bahnhof",
        "name:en": "Ramses Station",
        "name:fr": "Station Ramsès",
        "operator": "سكك حديد مصر",
        "public_transport": "station",
        "railway": "station",
        "station": "train",
        "train": "yes",
        "wikidata": "Q633754",
        "id": "node/271864421"
      },
      "geometry": {
        "type": "Point",
        "coordinates": [
          31.2462801,
          30.0632446
        ]
      }
    },
    {
      "type": "Feature",
      "id": "node/272197931",
      "properties": {
        "name": "شبرا الخيمة",
        "name:ar": "شبرا الخيمة",
        "name:en": "Shobra Al-Kheima",
        "public_transport": "station",
        "railway": "station",
        "train": "yes",
        "id": "node/272197931"
      },
      "geometry": {
        "type": "Point",
        "coordinates": [
          31.2446088,
          30.1224837
        ]
      }
    },
    {
      "type": "Feature",
      "id": "node/316708494",
      "properties": {
        "name": "الحوامدية",
        "name:ar": "الحوامدية",
        "name:en": "Al-Hawamdiwa",
        "railway": "station",
        "id": "node/316708494"
      },
      "geometry": {
        "type": "Point",
        "coordinates": [
          31.2703737,
          29.8943151
        ]
      }
    },
    {
      "type": "Feature",
      "id": "node/316709022",
      "properties": {
        "name": "المزغونة",
        "name:ar": "المزغونة",
        "name:en": "El-Mazghona",
        "railway": "station",
        "id": "node/316709022"
      },
      "geometry": {
        "type": "Point",
        "coordinates": [
          31.2713823,
          29.8089181
        ]
      }
    },
    {
      "type": "Feature",
      "id": "node/316710105",
      "properties": {
        "name": "العيط",
        "name:ar": "العيط",
        "name:en": "El-Aiat",
        "railway": "station",
        "id": "node/316710105"
      },
      "geometry": {
        "type": "Point",
        "coordinates": [
          31.2558359,
          29.6200085
        ]
      }
    },
    {
      "type": "Feature",
      "id": "node/316713741",
      "properties": {
        "name": "أبو قير",
        "name:ar": "أبو قير",
        "name:en": "Abu Qir",
        "railway": "station",
        "id": "node/316713741"
      },
      "geometry": {
        "type": "Point",
        "coordinates": [
          30.0619075,
          31.3175041
        ]
      }
    },
    {
      "type": "Feature",
      "id": "node/316877183",
      "properties": {
        "name": "محطة الفرز للسكة الحديد",
        "name:ar": "محطة الفرز للسكة الحديد",
        "name:en": "Al-Farz Station",
        "note": "correct arabic tag",
        "railway": "station",
        "id": "node/316877183"
      },
      "geometry": {
        "type": "Point",
        "coordinates": [
          31.2675878,
          30.0865968
        ]
      }
    },
    {
      "type": "Feature",
      "id": "node/317997201",
      "properties": {
        "name": "كفر الدوار",
        "name:ar": "كفر الدوار",
        "name:en": "Kafr El-Dauwar",
        "railway": "station",
        "id": "node/317997201"
      },
      "geometry": {
        "type": "Point",
        "coordinates": [
          30.1303561,
          31.1323499
        ]
      }
    },
    {
      "type": "Feature",
      "id": "node/318014918",
      "properties": {
        "public_transport": "station",
        "railway": "station",
        "id": "node/318014918"
      },
      "geometry": {
        "type": "Point",
        "coordinates": [
          29.5487985,
          30.8954871
        ]
      }
    },
    {
      "type": "Feature",
      "id": "node/318015125",
      "properties": {
        "alt_name": "جبل الحمام",
        "int_name": "Gabel el Hammâm, Gabel al Hammam",
        "name": "جبل الحمام",
        "name:ar": "جبل الحمام",
        "name:ar1": "جبل الحمام",
        "name:de": "Gabel al Hammam",
        "name:en": "Gabel al Hammam",
        "name:fr": "Gabel al Hammam",
        "railway": "station",
        "id": "node/318015125"
      },
      "geometry": {
        "type": "Point",
        "coordinates": [
          29.4977651,
          30.8800018
        ]
      }
    },
    {
      "type": "Feature",
      "id": "node/318019172",
      "properties": {
        "public_transport": "stop_position",
        "railway": "halt",
        "train": "yes",
        "id": "node/318019172"
      },
      "geometry": {
        "type": "Point",
        "coordinates": [
          27.5393199,
          31.1867977
        ]
      }
    },
    {
      "type": "Feature",
      "id": "node/318020034",
      "properties": {
        "addr:city": "الجراولة",
        "addr:city:ar": "الجراولة",
        "int_name": "Garāwla;Garawla;Jerawla",
        "name": "الجراولة",
        "name:ar": "الجراولة",
        "name:en": "Garawla",
        "public_transport": "station",
        "railway": "station",
        "train": "yes",
        "id": "node/318020034"
      },
      "geometry": {
        "type": "Point",
        "coordinates": [
          27.394073,
          31.2412578
        ]
      }
    },
    {
      "type": "Feature",
      "id": "node/318020042",
      "properties": {
        "public_transport": "stop_position",
        "railway": "station",
        "train": "yes",
        "id": "node/318020042"
      },
      "geometry": {
        "type": "Point",
        "coordinates": [
          27.3326036,
          31.2935726
        ]
      }
    },
    {
      "type": "Feature",
      "id": "node/321239620",
      "properties": {
        "alt_name": "أسوان",
        "int_name": "Aswān, Aswan",
        "name": "أسوان",
        "name:ar": "أسوان",
        "name:ar1": "أسوان",
        "name:ca": "Assuan",
        "name:de": "Assuan",
        "name:en": "Aswan",
        "name:fr": "Aswan",
        "name:sk": "Asuán",
        "railway": "station",
        "id": "node/321239620"
      },
      "geometry": {
        "type": "Point",
        "coordinates": [
          32.9024433,
          24.0998202
        ]
      }
    },
    {
      "type": "Feature",
      "id": "node/324557234",
      "properties": {
        "name": "قليوب",
        "name:ar": "قليوب",
        "name:en": "Qalyub",
        "railway": "station",
        "id": "node/324557234"
      },
      "geometry": {
        "type": "Point",
        "coordinates": [
          31.2249539,
          30.181856
        ]
      }
    },
    {
      "type": "Feature",
      "id": "node/325776301",
      "properties": {
        "railway": "station",
        "source": "bing",
        "id": "node/325776301"
      },
      "geometry": {
        "type": "Point",
        "coordinates": [
          31.3627894,
          30.2040108
        ]
      }
    },
    {
      "type": "Feature",
      "id": "node/325776390",
      "properties": {
        "name": "ابو زعبل البلد",
        "name:ar": "ابو زعبل البلد",
        "name:en": "Abu Zaabal Al-Balad",
        "railway": "station",
        "id": "node/325776390"
      },
      "geometry": {
        "type": "Point",
        "coordinates": [
          31.3552904,
          30.2496756
        ]
      }
    },
    {
      "type": "Feature",
      "id": "node/325778920",
      "properties": {
        "name": "المرج",
        "name:ar": "المرج",
        "name:en": "Al-Marg",
        "railway": "station",
        "id": "node/325778920"
      },
      "geometry": {
        "type": "Point",
        "coordinates": [
          31.3420035,
          30.1666365
        ]
      }
    },
    {
      "type": "Feature",
      "id": "node/325794384",
      "properties": {
        "alt_name": "طوخ",
        "name": "طوخ",
        "name:ar": "طوخ",
        "name:en": "Tukh",
        "railway": "station",
        "id": "node/325794384"
      },
      "geometry": {
        "type": "Point",
        "coordinates": [
          31.1971568,
          30.3555922
        ]
      }
    },
    {
      "type": "Feature",
      "id": "node/325795208",
      "properties": {
        "name": "قها",
        "name:ar": "قها",
        "name:en": "Qaha",
        "railway": "station",
        "id": "node/325795208"
      },
      "geometry": {
        "type": "Point",
        "coordinates": [
          31.208643,
          30.2850099
        ]
      }
    },
    {
      "type": "Feature",
      "id": "node/336223060",
      "properties": {
        "name": "Baris",
        "railway": "station",
        "id": "node/336223060"
      },
      "geometry": {
        "type": "Point",
        "coordinates": [
          30.599294,
          24.7066449
        ]
      }
    },
    {
      "type": "Feature",
      "id": "node/336374479",
      "properties": {
        "public_transport": "stop_position",
        "railway": "stop",
        "train": "yes",
        "id": "node/336374479"
      },
      "geometry": {
        "type": "Point",
        "coordinates": [
          29.6480231,
          29.2762132
        ]
      }
    },
    {
      "type": "Feature",
      "id": "node/339078601",
      "properties": {
        "name": "محطة النقراشى",
        "name:ar": "النقراشى",
        "name:en": "Al-Noqrashi",
        "public_transport": "station",
        "railway": "station",
        "id": "node/339078601"
      },
      "geometry": {
        "type": "Point",
        "coordinates": [
          29.9794294,
          31.2482264
        ]
      }
    },
    {
      "type": "Feature",
      "id": "node/339078708",
      "properties": {
        "name": "محطة سيدي بشر",
        "name:ar": "سيدي بشر",
        "name:en": "Sidi Beshr",
        "public_transport": "stop_position",
        "railway": "station",
        "train": "yes",
        "id": "node/339078708"
      },
      "geometry": {
        "type": "Point",
        "coordinates": [
          29.9940386,
          31.2570882
        ]
      }
    },
    {
      "type": "Feature",
      "id": "node/395415551",
      "properties": {
        "railway": "station",
        "id": "node/395415551"
      },
      "geometry": {
        "type": "Point",
        "coordinates": [
          31.1556275,
          30.7249354
        ]
      }
    },
    {
      "type": "Feature",
      "id": "node/520511965",
      "properties": {
        "name": "جرجا",
        "name:ar": "جرجا",
        "name:en": "Gerga",
        "public_transport": "station",
        "railway": "station",
        "id": "node/520511965"
      },
      "geometry": {
        "type": "Point",
        "coordinates": [
          31.889107,
          26.3364072
        ]
      }
    },
    {
      "type": "Feature",
      "id": "node/520512280",
      "properties": {
        "name": "نجع حمادي",
        "name:ar": "نجع حمادي",
        "name:en": "Naga Hammadi",
        "railway": "station",
        "id": "node/520512280"
      },
      "geometry": {
        "type": "Point",
        "coordinates": [
          32.24105,
          26.0432778
        ]
      }
    },
    {
      "type": "Feature",
      "id": "node/520512542",
      "properties": {
        "name": "المنشاة",
        "name:ar": "المنشاة",
        "name:en": "Al-Manshah",
        "railway": "station",
        "id": "node/520512542"
      },
      "geometry": {
        "type": "Point",
        "coordinates": [
          31.7967128,
          26.475705
        ]
      }
    },
    {
      "type": "Feature",
      "id": "node/520513134",
      "properties": {
        "alt_name": "محطة فاو",
        "int_name": "Fâw Station, Faw Station",
        "name": "محطة فاو",
        "name:ar": "محطة فاو",
        "name:ar1": "محطة فاو",
        "name:de": "Faw Station",
        "name:en": "Faw Station",
        "name:fr": "Faw Station",
        "railway": "station",
        "id": "node/520513134"
      },
      "geometry": {
        "type": "Point",
        "coordinates": [
          32.4120068,
          26.1011067
        ]
      }
    },
    {
      "type": "Feature",
      "id": "node/520513717",
      "properties": {
        "name": "قنا",
        "name:ar": "قنا",
        "name:en": "Qena",
        "public_transport": "station",
        "railway": "station",
        "id": "node/520513717"
      },
      "geometry": {
        "type": "Point",
        "coordinates": [
          32.7271236,
          26.1625853
        ]
      }
    },
    {
      "type": "Feature",
      "id": "node/520514464",
      "properties": {
        "addr:city": "أسيوط",
        "name": "أسيوط",
        "name:ar": "أسيوط",
        "name:cop": "Ⲥⲓⲟⲟⲩⲧ",
        "name:en": "Asyut",
        "name:ru": "Асьют",
        "public_transport": "station",
        "railway": "station",
        "id": "node/520514464"
      },
      "geometry": {
        "type": "Point",
        "coordinates": [
          31.1881884,
          27.1803762
        ]
      }
    },
    {
      "type": "Feature",
      "id": "node/520514974",
      "properties": {
        "name": "مغاغة",
        "name:ar": "مغاغة",
        "name:en": "Maghagheh",
        "railway": "station",
        "id": "node/520514974"
      },
      "geometry": {
        "type": "Point",
        "coordinates": [
          30.8385764,
          28.6495512
        ]
      }
    },
    {
      "type": "Feature",
      "id": "node/520515100",
      "properties": {
        "name": "الفشن",
        "name:ar": "الفشن",
        "name:en": "Fashn",
        "railway": "station",
        "id": "node/520515100"
      },
      "geometry": {
        "type": "Point",
        "coordinates": [
          30.9037843,
          28.8232028
        ]
      }
    },
    {
      "type": "Feature",
      "id": "node/520515246",
      "properties": {
        "name": "بني سويف",
        "name:ar": "بني سويف",
        "name:en": "Beni Suef",
        "public_transport": "station",
        "railway": "station",
        "id": "node/520515246"
      },
      "geometry": {
        "type": "Point",
        "coordinates": [
          31.0947833,
          29.0762716
        ]
      }
    },
    {
      "type": "Feature",
      "id": "node/520515418",
      "properties": {
        "name": "الواسطة",
        "name:ar": "الواسطة",
        "name:en": "Al-Wasitah",
        "railway": "station",
        "id": "node/520515418"
      },
      "geometry": {
        "type": "Point",
        "coordinates": [
          31.2042775,
          29.3373324
        ]
      }
    },
    {
      "type": "Feature",
      "id": "node/768026317",
      "properties": {
        "alt_name": "جلال",
        "int_name": "Jalāl, Jalal",
        "name": "جلال",
        "name:ar": "جلال",
        "name:ar1": "جلال",
        "name:de": "Jalal",
        "name:en": "Jalal",
        "name:fr": "Jalal",
        "public_transport": "stop_position",
        "railway": "station",
        "train": "yes",
        "id": "node/768026317"
      },
      "geometry": {
        "type": "Point",
        "coordinates": [
          28.1813226,
          31.03556
        ]
      }
    },
    {
      "type": "Feature",
      "id": "node/768026921",
      "properties": {
        "int_name": "Sîdi ‘Abd el Raḥmân, Sidi Abd al Rahman",
        "name": "محطة سيدى عبد الرحمن",
        "name:ar": "محطة سيدى عبد الرحمن",
        "name:de": "Sidi Abdelrahman",
        "name:en": "Sidi Abdelrahman",
        "name:fr": "Sidi Abdelrahman",
        "railway": "station",
        "id": "node/768026921"
      },
      "geometry": {
        "type": "Point",
        "coordinates": [
          28.7322325,
          30.9665245
        ]
      }
    },
    {
      "type": "Feature",
      "id": "node/768077221",
      "properties": {
        "alt_name": "محطة الخطارة",
        "int_name": "Maḩaţţat al Khaţţārah, Mahattat al Khattarah",
        "name": "محطة الخطارة",
        "name:ar": "محطة الخطارة",
        "name:ar1": "محطة الخطارة",
        "name:de": "Mahattat al Khattarah",
        "name:en": "Mahattat al Khattarah",
        "name:fr": "Mahattat al Khattarah",
        "railway": "station",
        "id": "node/768077221"
      },
      "geometry": {
        "type": "Point",
        "coordinates": [
          32.8755759,
          24.2047501
        ]
      }
    },
    {
      "type": "Feature",
      "id": "node/768077307",
      "properties": {
        "alt_name": "سلسلة",
        "int_name": "Silsila, Silsila",
        "name": "سلسلة",
        "name:ar": "سلسلة",
        "name:ar1": "سلسلة",
        "name:de": "Silsila",
        "name:en": "Silsila",
        "name:fr": "Silsila",
        "railway": "station",
        "id": "node/768077307"
      },
      "geometry": {
        "type": "Point",
        "coordinates": [
          32.95,
          24.583333
        ]
      }
    },
    {
      "type": "Feature",
      "id": "node/768084639",
      "properties": {
        "alt_name": "محطة الأشراف",
        "int_name": "El Ashrâf Station, Al Ashraf Station, Mahattat al Ashraf",
        "name": "محطة الأشراف",
        "name:ar": "محطة الأشراف",
        "name:ar1": "محطة الأشراف",
        "name:de": "Al Ashraf Station",
        "name:en": "Al Ashraf Station",
        "name:fr": "Al Ashraf Station",
        "railway": "station",
        "id": "node/768084639"
      },
      "geometry": {
        "type": "Point",
        "coordinates": [
          32.783333,
          26.083333
        ]
      }
    },
    {
      "type": "Feature",
      "id": "node/768085014",
      "properties": {
        "alt_name": "محطة البليانا الجديدة",
        "int_name": "El Balyana, Al Balyana, Al Blina Balyana Station",
        "name": "محطة البليانا الجديدة",
        "name:ar": "محطة البليانا الجديدة",
        "name:ar1": "محطة البليانا الجديدة",
        "name:de": "Al Balyana",
        "name:en": "Al Balyana",
        "name:fr": "Al Balyana",
        "railway": "station",
        "id": "node/768085014"
      },
      "geometry": {
        "type": "Point",
        "coordinates": [
          31.9972169,
          26.2348173
        ]
      }
    },
    {
      "type": "Feature",
      "id": "node/768091620",
      "properties": {
        "alt_name": "بني قرة",
        "int_name": "Banī Qurrah, Bani Qurrah",
        "name": "بني قرة",
        "name:ar": "بني قرة",
        "name:ar1": "بني قرة",
        "name:de": "Bani Qurrah",
        "name:en": "Bani Qurrah",
        "name:fr": "Bani Qurrah",
        "railway": "station",
        "id": "node/768091620"
      },
      "geometry": {
        "type": "Point",
        "coordinates": [
          30.8936852,
          27.3872227
        ]
      }
    },
    {
      "type": "Feature",
      "id": "node/768095266",
      "properties": {
        "alt_name": "منشية سلطان",
        "int_name": "Manshīyet Sultān, Manshiyet Sultan",
        "name": "منشية سلطان",
        "name:ar": "منشية سلطان",
        "name:ar1": "منشية سلطان",
        "name:de": "Manshiyet Sultan",
        "name:en": "Manshiyet Sultan",
        "name:fr": "Manshiyet Sultan",
        "railway": "station",
        "id": "node/768095266"
      },
      "geometry": {
        "type": "Point",
        "coordinates": [
          30.9177728,
          30.5298021
        ]
      }
    },
    {
      "type": "Feature",
      "id": "node/768526257",
      "properties": {
        "alt_name": "محطة إنشاص الرمل",
        "int_name": "Inshās er Raml, Inshas al Raml",
        "name": "محطة إنشاص الرمل",
        "name:ar": "محطة إنشاص الرمل",
        "name:ar1": "محطة إنشاص الرمل",
        "name:de": "Inshas al Raml",
        "name:en": "Inshas al Raml",
        "name:fr": "Inshas al Raml",
        "railway": "station",
        "id": "node/768526257"
      },
      "geometry": {
        "type": "Point",
        "coordinates": [
          31.45,
          30.383333
        ]
      }
    },
    {
      "type": "Feature",
      "id": "node/768549946",
      "properties": {
        "alt_name": "محطة محي الدين",
        "int_name": "Maḩaţţat Muḩyī ad Dīn, Mahattat Muhyi al Din",
        "name": "محطة محي الدين",
        "name:ar": "محطة محي الدين",
        "name:ar1": "محطة محي الدين",
        "name:de": "Mahattat Muhyi al Din",
        "name:en": "Mahattat Muhyi al Din",
        "name:fr": "Mahattat Muhyi al Din",
        "railway": "station",
        "id": "node/768549946"
      },
      "geometry": {
        "type": "Point",
        "coordinates": [
          31.266667,
          30.55
        ]
      }
    },
    {
      "type": "Feature",
      "id": "node/768550630",
      "properties": {
        "alt_name": "محطة أبو غالب",
        "int_name": "Maḩaţţat Abū Ghālib, Mahattat Abu Ghalib",
        "name": "محطة أبو غالب",
        "name:ar": "محطة أبو غالب",
        "name:ar1": "محطة أبو غالب",
        "name:de": "Mahattat Abu Ghalib",
        "name:en": "Mahattat Abu Ghalib",
        "name:fr": "Mahattat Abu Ghalib",
        "railway": "station",
        "id": "node/768550630"
      },
      "geometry": {
        "type": "Point",
        "coordinates": [
          30.9,
          30.266667
        ]
      }
    },
    {
      "type": "Feature",
      "id": "node/768550706",
      "properties": {
        "alt_name": "الوردين",
        "int_name": "El Wardian, Al Wardian",
        "name": "الوردين",
        "name:ar": "الوردين",
        "name:ar1": "الوردين",
        "name:de": "Al Wardian",
        "name:en": "Al Wardian",
        "name:fr": "Al Wardian",
        "railway": "station",
        "id": "node/768550706"
      },
      "geometry": {
        "type": "Point",
        "coordinates": [
          30.883333,
          30.283333
        ]
      }
    },
    {
      "type": "Feature",
      "id": "node/768551883",
      "properties": {
        "alt_name": "الخانكة",
        "int_name": "El-Khânka, Al Khanka",
        "name": "الخانكة",
        "name:ar": "الخانكة",
        "name:ar1": "الخانكة",
        "name:de": "Al Khanka",
        "name:en": "Al Khanka",
        "name:fr": "Al Khanka",
        "railway": "station",
        "id": "node/768551883"
      },
      "geometry": {
        "type": "Point",
        "coordinates": [
          31.3657336,
          30.2130321
        ]
      }
    },
    {
      "type": "Feature",
      "id": "node/768551884",
      "properties": {
        "alt_name": "محطة الجبل الأصفر",
        "int_name": "Maḩaţţat al Jabal al Aşfar, Mahattat al Jabal al Asfar",
        "name": "محطة الجبل الأصفر",
        "name:ar": "محطة الجبل الأصفر",
        "name:ar1": "محطة الجبل الأصفر",
        "name:de": "Mahattat al Jabal al Asfar",
        "name:en": "Mahattat al Jabal al Asfar",
        "name:fr": "Mahattat al Jabal al Asfar",
        "railway": "station",
        "id": "node/768551884"
      },
      "geometry": {
        "type": "Point",
        "coordinates": [
          31.3624828,
          30.2018161
        ]
      }
    },
    {
      "type": "Feature",
      "id": "node/768553982",
      "properties": {
        "alt_name": "المناشي",
        "int_name": "El Manâshi, Al Manashi",
        "name": "المناشي",
        "name:ar": "المناشي",
        "name:ar1": "المناشي",
        "name:de": "Al Manashi",
        "name:en": "Al Manashi",
        "name:fr": "Al Manashi",
        "railway": "station",
        "id": "node/768553982"
      },
      "geometry": {
        "type": "Point",
        "coordinates": [
          31.1152484,
          30.1743955
        ]
      }
    },
    {
      "type": "Feature",
      "id": "node/768556560",
      "properties": {
        "alt_name": "أبوكساح",
        "int_name": "Abūksāh, Abuksah",
        "name": "أبوكساح",
        "name:ar": "أبوكساح",
        "name:ar1": "أبوكساح",
        "name:de": "Abuksah",
        "name:en": "Abuksah",
        "name:fr": "Abuksah",
        "railway": "station",
        "id": "node/768556560"
      },
      "geometry": {
        "type": "Point",
        "coordinates": [
          30.716667,
          29.4
        ]
      }
    },
    {
      "type": "Feature",
      "id": "node/768556869",
      "properties": {
        "alt_name": "محطة سيلة",
        "int_name": "Sella, Sella, Sayla",
        "name": "محطة سيلة",
        "name:ar": "محطة سيلة",
        "name:ar1": "محطة سيلة",
        "name:de": "Sella",
        "name:en": "Sella",
        "name:fr": "Sella",
        "railway": "station",
        "id": "node/768556869"
      },
      "geometry": {
        "type": "Point",
        "coordinates": [
          30.966667,
          29.333333
        ]
      }
    },
    {
      "type": "Feature",
      "id": "node/768563708",
      "properties": {
        "alt_name": "محطة المحجر",
        "int_name": "El Mahgar Station, Al Mahgar Station",
        "name": "محطة المحجر",
        "name:ar": "محطة المحجر",
        "name:ar1": "محطة المحجر",
        "name:de": "Al Mahgar Station",
        "name:en": "Al Mahgar Station",
        "name:fr": "Al Mahgar Station",
        "railway": "station",
        "id": "node/768563708"
      },
      "geometry": {
        "type": "Point",
        "coordinates": [
          31.716667,
          30.55
        ]
      }
    },
    {
      "type": "Feature",
      "id": "node/768565346",
      "properties": {
        "alt_name": "محطة بغدادلي باشا",
        "int_name": "Maḩaţţat Baghdādlī Bāshā, Mahattat Baghdadli Basha",
        "name": "محطة بغدادلي باشا",
        "name:ar": "محطة بغدادلي باشا",
        "name:ar1": "محطة بغدادلي باشا",
        "name:de": "Mahattat Baghdadli Basha",
        "name:en": "Mahattat Baghdadli Basha",
        "name:fr": "Mahattat Baghdadli Basha",
        "railway": "station",
        "id": "node/768565346"
      },
      "geometry": {
        "type": "Point",
        "coordinates": [
          31.333333,
          30.6
        ]
      }
    },
    {
      "type": "Feature",
      "id": "node/768565555",
      "properties": {
        "alt_name": "محطة الصفين",
        "int_name": "El-Ṣaffein Station, Al Saffein Station",
        "name": "محطة الصفين",
        "name:ar": "محطة الصفين",
        "name:ar1": "محطة الصفين",
        "name:de": "Al Saffein Station",
        "name:en": "Al Saffein Station",
        "name:fr": "Al Saffein Station",
        "railway": "station",
        "id": "node/768565555"
      },
      "geometry": {
        "type": "Point",
        "coordinates": [
          31.266667,
          30.6
        ]
      }
    },
    {
      "type": "Feature",
      "id": "node/768565564",
      "properties": {
        "alt_name": "سعد باشا زغلول",
        "int_name": "Sa‘d Pasha Zaghlûl, Sad Pasha Zaghlul",
        "name": "سعد باشا زغلول",
        "name:ar": "سعد باشا زغلول",
        "name:ar1": "سعد باشا زغلول",
        "name:de": "Sad Pasha Zaghlul",
        "name:en": "Sad Pasha Zaghlul",
        "name:fr": "Sad Pasha Zaghlul",
        "railway": "station",
        "id": "node/768565564"
      },
      "geometry": {
        "type": "Point",
        "coordinates": [
          31.25,
          30.633333
        ]
      }
    },
    {
      "type": "Feature",
      "id": "node/768565850",
      "properties": {
        "alt_name": "محلة روح",
        "int_name": "Maḥallet Rôḥ, Mahallet Roh",
        "name": "محلة روح",
        "name:ar": "محلة روح",
        "name:ar1": "محلة روح",
        "name:de": "Mahallet Roh",
        "name:en": "Mahallet Roh",
        "name:fr": "Mahallet Roh",
        "railway": "station",
        "id": "node/768565850"
      },
      "geometry": {
        "type": "Point",
        "coordinates": [
          31.083333,
          30.866667
        ]
      }
    },
    {
      "type": "Feature",
      "id": "node/768567186",
      "properties": {
        "alt_name": "زرقون",
        "int_name": "Zarqūn, Zarqun",
        "name": "زرقون",
        "name:ar": "زرقون",
        "name:ar1": "زرقون",
        "name:de": "Zarqun",
        "name:en": "Zarqun",
        "name:fr": "Zarqun",
        "railway": "station",
        "id": "node/768567186"
      },
      "geometry": {
        "type": "Point",
        "coordinates": [
          30.466667,
          31.116667
        ]
      }
    },
    {
      "type": "Feature",
      "id": "node/768567334",
      "properties": {
        "alt_name": "الطرح",
        "int_name": "El-Tarh, Al Tarh",
        "name": "الطرح",
        "name:ar": "الطرح",
        "name:ar1": "الطرح",
        "name:de": "Al Tarh",
        "name:en": "Al Tarh",
        "name:fr": "Al Tarh",
        "railway": "station",
        "id": "node/768567334"
      },
      "geometry": {
        "type": "Point",
        "coordinates": [
          30.133333,
          31.266667
        ]
      }
    },
    {
      "type": "Feature",
      "id": "node/768577699",
      "properties": {
        "int_name": "Al ‘Amā’id, Al Amaid, Al Imayid",
        "name": "العمائد",
        "name:ar": "العمائد",
        "name:de": "Al Amaid",
        "name:en": "Al Amaid",
        "name:fr": "Al Amaid",
        "railway": "station",
        "id": "node/768577699"
      },
      "geometry": {
        "type": "Point",
        "coordinates": [
          29.1945819,
          30.7897741
        ]
      }
    },
    {
      "type": "Feature",
      "id": "node/768579929",
      "properties": {
        "alt_name": "كوم الطويل",
        "int_name": "Kôm-el-Tawîl, Kom al Tawil",
        "name": "كوم الطويل",
        "name:ar": "كوم الطويل",
        "name:ar1": "كوم الطويل",
        "name:de": "Kom al Tawil",
        "name:en": "Kom al Tawil",
        "name:fr": "Kom al Tawil",
        "railway": "station",
        "id": "node/768579929"
      },
      "geometry": {
        "type": "Point",
        "coordinates": [
          31.0834848,
          31.1997403
        ]
      }
    },
    {
      "type": "Feature",
      "id": "node/768581285",
      "properties": {
        "alt_name": "محطة خمسة",
        "int_name": "Khamsa Station, Khamsa Station",
        "name": "محطة خمسة",
        "name:ar": "محطة خمسة",
        "name:ar1": "محطة خمسة",
        "name:de": "Khamsa Station",
        "name:en": "Khamsa Station",
        "name:fr": "Khamsa Station",
        "railway": "station",
        "id": "node/768581285"
      },
      "geometry": {
        "type": "Point",
        "coordinates": [
          32.383333,
          30.416667
        ]
      }
    },
    {
      "type": "Feature",
      "id": "node/768582840",
      "properties": {
        "alt_name": "محطة العسيرات",
        "int_name": "Maḩaţţat al ‘Asīrāt, Mahattat al Asirat",
        "name": "محطة العسيرات",
        "name:ar": "محطة العسيرات",
        "name:ar1": "محطة العسيرات",
        "name:de": "Mahattat al Asirat",
        "name:en": "Mahattat al Asirat",
        "name:fr": "Mahattat al Asirat",
        "railway": "station",
        "id": "node/768582840"
      },
      "geometry": {
        "type": "Point",
        "coordinates": [
          31.816667,
          26.4
        ]
      }
    },
    {
      "type": "Feature",
      "id": "node/768583365",
      "properties": {
        "alt_name": "الدابة",
        "int_name": "El-Dabba, Al Dabba",
        "name": "الدابة",
        "name:ar": "الدابة",
        "name:ar1": "الدابة",
        "name:de": "Al Dabba",
        "name:en": "Al Dabba",
        "name:fr": "Al Dabba",
        "railway": "station",
        "id": "node/768583365"
      },
      "geometry": {
        "type": "Point",
        "coordinates": [
          32.2928535,
          26.0721448
        ]
      }
    },
    {
      "type": "Feature",
      "id": "node/768585071",
      "properties": {
        "alt_name": "محطة إشنين",
        "int_name": "Ishnîn Halt, Ishnin Halt",
        "name": "محطة إشنين",
        "name:ar": "محطة إشنين",
        "name:ar1": "محطة إشنين",
        "name:de": "Ishnin Halt",
        "name:en": "Ishnin Halt",
        "name:fr": "Ishnin Halt",
        "railway": "station",
        "id": "node/768585071"
      },
      "geometry": {
        "type": "Point",
        "coordinates": [
          30.8245832,
          28.6137699
        ]
      }
    },
    {
      "type": "Feature",
      "id": "node/768587159",
      "properties": {
        "alt_name": "سدس",
        "int_name": "Sads, Sads",
        "name": "سدس",
        "name:ar": "سدس",
        "name:ar1": "سدس",
        "name:de": "Sads",
        "name:en": "Sads",
        "name:fr": "Sads",
        "railway": "station",
        "id": "node/768587159"
      },
      "geometry": {
        "type": "Point",
        "coordinates": [
          30.95,
          28.9
        ]
      }
    },
    {
      "type": "Feature",
      "id": "node/768592811",
      "properties": {
        "alt_name": "محطة أبو أكدة",
        "int_name": "Abu Akda Station, Abu Akda Station",
        "name": "محطة أبو أكدة",
        "name:ar": "محطة أبو أكدة",
        "name:ar1": "محطة أبو أكدة",
        "name:de": "Abu Akda Station",
        "name:en": "Abu Akda Station",
        "name:fr": "Abu Akda Station",
        "railway": "station",
        "id": "node/768592811"
      },
      "geometry": {
        "type": "Point",
        "coordinates": [
          31.5752271,
          30.5726595
        ]
      }
    },
    {
      "type": "Feature",
      "id": "node/768592894",
      "properties": {
        "alt_name": "البعالوة",
        "int_name": "Al Ba‘āliwah, Al Baaliwah",
        "name": "البعالوة",
        "name:ar": "البعالوة",
        "name:ar1": "البعالوة",
        "name:de": "Al Baaliwah",
        "name:en": "Al Baaliwah",
        "name:fr": "Al Baaliwah",
        "railway": "station",
        "id": "node/768592894"
      },
      "geometry": {
        "type": "Point",
        "coordinates": [
          31.85,
          30.55
        ]
      }
    },
    {
      "type": "Feature",
      "id": "node/768595639",
      "properties": {
        "alt_name": "محطة المحسمة",
        "int_name": "Mahsameh, Mahsameh, Mahsamah, Mahattat al Mahsamah",
        "name": "محطة المحسمة",
        "name:ar": "محطة المحسمة",
        "name:ar1": "محطة المحسمة",
        "name:de": "Mahsameh",
        "name:en": "Mahsameh",
        "name:fr": "Mahsameh",
        "railway": "station",
        "id": "node/768595639"
      },
      "geometry": {
        "type": "Point",
        "coordinates": [
          32.016667,
          30.566667
        ]
      }
    },
    {
      "type": "Feature",
      "id": "node/768595681",
      "properties": {
        "alt_name": "الوسفية",
        "int_name": "El Wasfîya, Al Wasfiya",
        "name": "الوسفية",
        "name:ar": "الوسفية",
        "name:ar1": "الوسفية",
        "name:de": "Al Wasfiya",
        "name:en": "Al Wasfiya",
        "name:fr": "Al Wasfiya",
        "railway": "station",
        "id": "node/768595681"
      },
      "geometry": {
        "type": "Point",
        "coordinates": [
          32.166667,
          30.583333
        ]
      }
    },
    {
      "type": "Feature",
      "id": "node/768596322",
      "properties": {
        "alt_name": "عزبة الكاب",
        "int_name": "‘Ezbet el Câp, Ezbet al Cap",
        "name": "عزبة الكاب",
        "name:ar": "عزبة الكاب",
        "name:ar1": "عزبة الكاب",
        "name:de": "Ezbet al Cap",
        "name:en": "Ezbet al Cap",
        "name:fr": "Ezbet al Cap",
        "railway": "station",
        "id": "node/768596322"
      },
      "geometry": {
        "type": "Point",
        "coordinates": [
          32.307778,
          30.950556
        ]
      }
    },
    {
      "type": "Feature",
      "id": "node/768596447",
      "properties": {
        "alt_name": "محطة التينة",
        "int_name": "El Tineh, Al Tineh, Al Tinah, Al Tinah",
        "name": "محطة التينة",
        "name:ar": "محطة التينة",
        "name:ar1": "محطة التينة",
        "name:de": "Al Tineh",
        "name:en": "Al Tineh",
        "name:fr": "Al Tineh",
        "public_transport": "station",
        "railway": "station",
        "id": "node/768596447"
      },
      "geometry": {
        "type": "Point",
        "coordinates": [
          32.3072599,
          31.0426333
        ]
      }
    },
    {
      "type": "Feature",
      "id": "node/768599168",
      "properties": {
        "alt_name": "فوكة",
        "int_name": "Fūkah, Fukah",
        "name": "فوكة",
        "name:ar": "فوكة",
        "name:ar1": "فوكة",
        "name:de": "Fukah",
        "name:en": "Fukah",
        "name:fr": "Fukah",
        "public_transport": "stop_position",
        "railway": "station",
        "train": "yes",
        "id": "node/768599168"
      },
      "geometry": {
        "type": "Point",
        "coordinates": [
          27.9171619,
          31.067756
        ]
      }
    },
    {
      "type": "Feature",
      "id": "node/768600990",
      "properties": {
        "alt_name": "محطة كنيسة",
        "int_name": "Kunaîyisa Station, Kunaiyisa Station",
        "name": "محطة كنيسة",
        "name:ar": "محطة كنيسة",
        "name:ar1": "محطة كنيسة",
        "name:de": "Kunaiyisa Station",
        "name:en": "Kunaiyisa Station",
        "name:fr": "Kunaiyisa Station",
        "railway": "station",
        "id": "node/768600990"
      },
      "geometry": {
        "type": "Point",
        "coordinates": [
          31.0238038,
          30.9198333
        ]
      }
    },
    {
      "type": "Feature",
      "id": "node/768600995",
      "properties": {
        "alt_name": "الشين",
        "int_name": "El-Shîn, Al Shin",
        "name": "الشين",
        "name:ar": "الشين",
        "name:ar1": "الشين",
        "name:de": "Al Shin",
        "name:en": "Al Shin",
        "name:fr": "Al Shin",
        "railway": "station",
        "id": "node/768600995"
      },
      "geometry": {
        "type": "Point",
        "coordinates": [
          30.896944,
          31.011944
        ]
      }
    },
    {
      "type": "Feature",
      "id": "node/768601634",
      "properties": {
        "alt_name": "شرنوب",
        "int_name": "Sharnūb, Sharnub",
        "name": "شرنوب",
        "name:ar": "شرنوب",
        "name:ar1": "شرنوب",
        "name:de": "Sharnub",
        "name:en": "Sharnub",
        "name:fr": "Sharnub",
        "railway": "station",
        "id": "node/768601634"
      },
      "geometry": {
        "type": "Point",
        "coordinates": [
          30.583333,
          31.016667
        ]
      }
    },
    {
      "type": "Feature",
      "id": "node/768730269",
      "properties": {
        "alt_name": "نزالي جانوب",
        "int_name": "Nazāli Gānūb, Nazali Ganub",
        "name": "نزالي جانوب",
        "name:ar": "نزالي جانوب",
        "name:ar1": "نزالي جانوب",
        "name:de": "Nazali Ganub",
        "name:en": "Nazali Ganub",
        "name:fr": "Nazali Ganub",
        "public_transport": "station",
        "railway": "station",
        "id": "node/768730269"
      },
      "geometry": {
        "type": "Point",
        "coordinates": [
          30.8331136,
          27.438287
        ]
      }
    },
    {
      "type": "Feature",
      "id": "node/768736618",
      "properties": {
        "alt_name": "المريس",
        "int_name": "El Marîs Junction Cabin, Al Maris Junction Cabin",
        "name": "المريس",
        "name:ar": "المريس",
        "name:ar1": "المريس",
        "name:de": "Al Maris Junction Cabin",
        "name:en": "Al Maris Junction Cabin",
        "name:fr": "Al Maris Junction Cabin",
        "railway": "station",
        "id": "node/768736618"
      },
      "geometry": {
        "type": "Point",
        "coordinates": [
          32.566667,
          25.6500046
        ]
      }
    },
    {
      "type": "Feature",
      "id": "node/768738154",
      "properties": {
        "alt_name": "محطة المطاعنة",
        "int_name": "El Matâ‘na Station, Al Matana Station, Mahttat al Matainah",
        "name": "محطة المطاعنة",
        "name:ar": "محطة المطاعنة",
        "name:ar1": "محطة المطاعنة",
        "name:de": "Al Matana Station",
        "name:en": "Al Matana Station",
        "name:fr": "Al Matana Station",
        "railway": "station",
        "id": "node/768738154"
      },
      "geometry": {
        "type": "Point",
        "coordinates": [
          32.5666924,
          25.3833101
        ]
      }
    },
    {
      "type": "Feature",
      "id": "node/768757269",
      "properties": {
        "alt_name": "محطة الصوامعة",
        "int_name": "Maḩaţţat aş Şawāmi‘ah, Mahattat al Sawamiah",
        "name": "محطة الصوامعة",
        "name:ar": "محطة الصوامعة",
        "name:ar1": "محطة الصوامعة",
        "name:de": "Mahattat al Sawamiah",
        "name:en": "Mahattat al Sawamiah",
        "name:fr": "Mahattat al Sawamiah",
        "railway": "station",
        "id": "node/768757269"
      },
      "geometry": {
        "type": "Point",
        "coordinates": [
          31.533333,
          26.733333
        ]
      }
    },
    {
      "type": "Feature",
      "id": "node/768765389",
      "properties": {
        "alt_name": "محطة جبل عويبد",
        "int_name": "Maḩaţţat ‘Uwaybid, Mahattat Uwaybid",
        "name": "محطة جبل عويبد",
        "name:ar": "محطة جبل عويبد",
        "name:ar1": "محطة جبل عويبد",
        "name:de": "Mahattat Uwaybid",
        "name:en": "Mahattat Uwaybid",
        "name:fr": "Mahattat Uwaybid",
        "railway": "station",
        "id": "node/768765389"
      },
      "geometry": {
        "type": "Point",
        "coordinates": [
          32.2,
          30.15
        ]
      }
    },
    {
      "type": "Feature",
      "id": "node/768765397",
      "properties": {
        "alt_name": "الجناين",
        "int_name": "El-Ganâyen, Al Ganayen",
        "name": "الجناين",
        "name:ar": "الجناين",
        "name:ar1": "الجناين",
        "name:de": "Al Ganayen",
        "name:en": "Al Ganayen",
        "name:fr": "Al Ganayen",
        "railway": "station",
        "id": "node/768765397"
      },
      "geometry": {
        "type": "Point",
        "coordinates": [
          32.5532949,
          30.0891707
        ]
      }
    },
    {
      "type": "Feature",
      "id": "node/768766271",
      "properties": {
        "alt_name": "محطة جبل الجفرا",
        "int_name": "Gebel el- Gafra Station, Gebel al Gafra Station",
        "name": "محطة جبل الجفرا",
        "name:ar": "محطة جبل الجفرا",
        "name:ar1": "محطة جبل الجفرا",
        "name:de": "Gebel al Gafra Station",
        "name:en": "Gebel al Gafra Station",
        "name:fr": "Gebel al Gafra Station",
        "railway": "station",
        "id": "node/768766271"
      },
      "geometry": {
        "type": "Point",
        "coordinates": [
          31.966667,
          30.15
        ]
      }
    },
    {
      "type": "Feature",
      "id": "node/768766275",
      "properties": {
        "alt_name": "محطة وادي السيل",
        "int_name": "Maḩaţţat Wādī as Sayl, Mahattat Wadi al Sayl",
        "name": "محطة وادي السيل",
        "name:ar": "محطة وادي السيل",
        "name:ar1": "محطة وادي السيل",
        "name:de": "Mahattat Wadi al Sayl",
        "name:en": "Mahattat Wadi al Sayl",
        "name:fr": "Mahattat Wadi al Sayl",
        "railway": "station",
        "id": "node/768766275"
      },
      "geometry": {
        "type": "Point",
        "coordinates": [
          31.8997452,
          30.1629444
        ]
      }
    },
    {
      "type": "Feature",
      "id": "node/768766285",
      "properties": {
        "alt_name": "محطة الربيقي",
        "int_name": "Maḩaţţat ar Rubayqī, Mahattat al Rubayqi",
        "name": "محطة الربيقي",
        "name:ar": "محطة الربيقي",
        "name:ar1": "محطة الربيقي",
        "name:de": "Mahattat al Rubayqi",
        "name:en": "Mahattat al Rubayqi",
        "name:fr": "Mahattat al Rubayqi",
        "public_transport": "station",
        "railway": "station",
        "id": "node/768766285"
      },
      "geometry": {
        "type": "Point",
        "coordinates": [
          31.771111,
          30.169167
        ]
      }
    },
    {
      "type": "Feature",
      "id": "node/768792815",
      "properties": {
        "alt_name": "الفردان",
        "int_name": "Al Firdān, Al Firdan, Al Ferdane",
        "name": "الفردان",
        "name:ar": "الفردان",
        "name:ar1": "الفردان",
        "name:de": "Al Firdan",
        "name:en": "Al Firdan",
        "name:fr": "Al Firdan",
        "public_transport": "station",
        "railway": "station",
        "id": "node/768792815"
      },
      "geometry": {
        "type": "Point",
        "coordinates": [
          32.3354707,
          30.6866112
        ]
      }
    },
    {
      "type": "Feature",
      "id": "node/768811940",
      "properties": {
        "alt_name": "السوالم",
        "int_name": "El Sawâlim, Al Sawalim",
        "name": "السوالم",
        "name:ar": "السوالم",
        "name:ar1": "السوالم",
        "name:de": "Al Sawalim",
        "name:en": "Al Sawalim",
        "name:fr": "Al Sawalim",
        "railway": "station",
        "id": "node/768811940"
      },
      "geometry": {
        "type": "Point",
        "coordinates": [
          31.633333,
          31.3
        ]
      }
    },
    {
      "type": "Feature",
      "id": "node/768811998",
      "properties": {
        "alt_name": "ميت الخولي عبد الله",
        "int_name": "Mīt al Khawlī ‘Abd Allāh, Mit al Khawli Abd Allah",
        "name": "ميت الخولي عبد الله",
        "name:ar": "ميت الخولي عبد الله",
        "name:ar1": "ميت الخولي عبد الله",
        "name:de": "Mit al Khawli Abd Allah",
        "name:en": "Mit al Khawli Abd Allah",
        "name:fr": "Mit al Khawli Abd Allah",
        "railway": "station",
        "id": "node/768811998"
      },
      "geometry": {
        "type": "Point",
        "coordinates": [
          31.624444,
          31.205
        ]
      }
    },
    {
      "type": "Feature",
      "id": "node/768812188",
      "properties": {
        "alt_name": "رأس الخليج",
        "int_name": "Ra’s al Khalīj, Ras al Khalij",
        "name": "رأس الخليج",
        "name:ar": "رأس الخليج",
        "name:ar1": "رأس الخليج",
        "name:de": "Ras al Khalij",
        "name:en": "Ras al Khalij",
        "name:fr": "Ras al Khalij",
        "railway": "station",
        "id": "node/768812188"
      },
      "geometry": {
        "type": "Point",
        "coordinates": [
          31.616667,
          31.25
        ]
      }
    },
    {
      "type": "Feature",
      "id": "node/769118974",
      "properties": {
        "alt_name": "محطة القباري",
        "int_name": "Maḩaţţat al Qabbārī, Mahattat al Qabbari, Qabbari Station",
        "name": "محطة القباري",
        "name:ar": "محطة القباري",
        "name:ar1": "محطة القباري",
        "name:de": "Mahattat al Qabbari",
        "name:en": "Mahattat al Qabbari",
        "name:fr": "Mahattat al Qabbari",
        "railway": "station",
        "id": "node/769118974"
      },
      "geometry": {
        "type": "Point",
        "coordinates": [
          29.8869163,
          31.1783232
        ]
      }
    },
    {
      "type": "Feature",
      "id": "node/769128533",
      "properties": {
        "alt_name": "محطة شاوة",
        "int_name": "Maḩaţţat Shāwah, Mahattat Shawah",
        "name": "محطة شاوة",
        "name:ar": "محطة شاوة",
        "name:ar1": "محطة شاوة",
        "name:de": "Mahattat Shawah",
        "name:en": "Mahattat Shawah",
        "name:fr": "Mahattat Shawah",
        "public_transport": "station",
        "railway": "station",
        "id": "node/769128533"
      },
      "geometry": {
        "type": "Point",
        "coordinates": [
          31.4017888,
          30.9994355
        ]
      }
    },
    {
      "type": "Feature",
      "id": "node/769129229",
      "properties": {
        "alt_name": "الشيخ القاسمي",
        "int_name": "Ash Shaykh al Qāsimī, Al Shaykh al Qasimi",
        "name": "الشيخ القاسمي",
        "name:ar": "الشيخ القاسمي",
        "name:ar1": "الشيخ القاسمي",
        "name:de": "Al Shaykh al Qasimi",
        "name:en": "Al Shaykh al Qasimi",
        "name:fr": "Al Shaykh al Qasimi",
        "railway": "station",
        "id": "node/769129229"
      },
      "geometry": {
        "type": "Point",
        "coordinates": [
          31.466667,
          30.816667
        ]
      }
    },
    {
      "type": "Feature",
      "id": "node/769129657",
      "properties": {
        "alt_name": "فاضل الباشا",
        "fixme": "no trainstation on this spot",
        "int_name": "Fâḍel-Pasha, Fadal Pasha",
        "name": "فاضل الباشا",
        "name:ar": "فاضل الباشا",
        "name:ar1": "فاضل الباشا",
        "name:de": "Fadal Pasha",
        "name:en": "Fadal Pasha",
        "name:fr": "Fadal Pasha",
        "railway": "station",
        "id": "node/769129657"
      },
      "geometry": {
        "type": "Point",
        "coordinates": [
          30.4,
          31
        ]
      }
    },
    {
      "type": "Feature",
      "id": "node/769129679",
      "properties": {
        "alt_name": "محطة الرؤوس",
        "int_name": "Maḩaţţat ar Ru’ūs, Mahattat al Ruus",
        "name": "محطة الرؤوس",
        "name:ar": "محطة الرؤوس",
        "name:ar1": "محطة الرؤوس",
        "name:de": "Mahattat al Ruus",
        "name:en": "Mahattat al Ruus",
        "name:fr": "Mahattat al Ruus",
        "railway": "station",
        "id": "node/769129679"
      },
      "geometry": {
        "type": "Point",
        "coordinates": [
          31.0732582,
          29.3440144
        ]
      }
    },
    {
      "type": "Feature",
      "id": "node/997582384",
      "properties": {
        "railway": "station",
        "id": "node/997582384"
      },
      "geometry": {
        "type": "Point",
        "coordinates": [
          32.5558042,
          25.5983999
        ]
      }
    },
    {
      "type": "Feature",
      "id": "node/1015922905",
      "properties": {
        "name": "المحلة الكبرى",
        "name:ar": "المحلة الكبرى",
        "name:en": "Al-Mahalla Al-Kubra",
        "railway": "station",
        "id": "node/1015922905"
      },
      "geometry": {
        "type": "Point",
        "coordinates": [
          31.1691035,
          30.9690821
        ]
      }
    },
    {
      "type": "Feature",
      "id": "node/1018510154",
      "properties": {
        "name": "الإسماعيلية",
        "name:ar": "الإسماعيلية",
        "name:en": "Al-Ismailia",
        "public_transport": "station",
        "railway": "station",
        "id": "node/1018510154"
      },
      "geometry": {
        "type": "Point",
        "coordinates": [
          32.2700945,
          30.5932714
        ]
      }
    },
    {
      "type": "Feature",
      "id": "node/1018818485",
      "properties": {
        "alt_name": "الأقصر",
        "int_name": "Al Uqsur (Luxor)",
        "name": "الأقصر",
        "name:ar": "الأقصر",
        "name:ar1": "الأقصر",
        "name:de": "Luxor",
        "name:en": "Luxor",
        "name:fr": "Louxor",
        "name:ru": "Луксор",
        "name:sk": "Luxor",
        "nat_name": "الأقصر",
        "railway": "station",
        "id": "node/1018818485"
      },
      "geometry": {
        "type": "Point",
        "coordinates": [
          32.6449661,
          25.6965417
        ]
      }
    },
    {
      "type": "Feature",
      "id": "node/1019565539",
      "properties": {
        "name": "المنصورة",
        "name:ar": "المنصورة",
        "name:en": "Al-Mansura",
        "platforms": "6",
        "public_transport": "station",
        "railway": "station",
        "id": "node/1019565539"
      },
      "geometry": {
        "type": "Point",
        "coordinates": [
          31.3885997,
          31.0453655
        ]
      }
    },
    {
      "type": "Feature",
      "id": "node/1019599326",
      "properties": {
        "name": "طلخا",
        "name:ar": "طلخا",
        "name:en": "Talkha",
        "railway": "station",
        "id": "node/1019599326"
      },
      "geometry": {
        "type": "Point",
        "coordinates": [
          31.3775579,
          31.0541599
        ]
      }
    },
    {
      "type": "Feature",
      "id": "node/1020478764",
      "properties": {
        "name": "دمياط",
        "name:ar": "دمياط",
        "name:en": "Dumiat",
        "public_transport": "station",
        "railway": "station",
        "id": "node/1020478764"
      },
      "geometry": {
        "type": "Point",
        "coordinates": [
          31.8023991,
          31.4225022
        ]
      }
    },
    {
      "type": "Feature",
      "id": "node/1022171353",
      "properties": {
        "name": "الفيوم",
        "name:ar": "الفيوم",
        "name:en": "Al-Fayoum",
        "railway": "station",
        "id": "node/1022171353"
      },
      "geometry": {
        "type": "Point",
        "coordinates": [
          30.8475567,
          29.3090616
        ]
      }
    },
    {
      "type": "Feature",
      "id": "node/1022196175",
      "properties": {
        "name": "الزقازيق",
        "name:ar": "الزقازيق",
        "name:en": "Al-Zaqaziq",
        "railway": "station",
        "id": "node/1022196175"
      },
      "geometry": {
        "type": "Point",
        "coordinates": [
          31.5020668,
          30.5822934
        ]
      }
    },
    {
      "type": "Feature",
      "id": "node/1022251311",
      "properties": {
        "name": "دمنهور",
        "name:ar": "دمنهور",
        "name:en": "Damanhur",
        "railway": "station",
        "id": "node/1022251311"
      },
      "geometry": {
        "type": "Point",
        "coordinates": [
          30.4684248,
          31.034346
        ]
      }
    },
    {
      "type": "Feature",
      "id": "node/1022358058",
      "properties": {
        "name": "المنيا",
        "name:ar": "المنيا",
        "name:en": "Al-Minya",
        "platforms": "5",
        "public_transport": "station",
        "railway": "station",
        "id": "node/1022358058"
      },
      "geometry": {
        "type": "Point",
        "coordinates": [
          30.7534861,
          28.0967978
        ]
      }
    },
    {
      "type": "Feature",
      "id": "node/1023702822",
      "properties": {
        "alt_name": "القنطرة",
        "int_name": "El Qantara, Al Qantara",
        "name": "القنطرة",
        "name:ar": "القنطرة",
        "name:ar1": "القنطرة",
        "name:de": "Al Qantara",
        "name:en": "Al Qantara",
        "name:fr": "Al Qantara",
        "public_transport": "station",
        "railway": "station",
        "id": "node/1023702822"
      },
      "geometry": {
        "type": "Point",
        "coordinates": [
          32.3139741,
          30.8573084
        ]
      }
    },
    {
      "type": "Feature",
      "id": "node/1024943367",
      "properties": {
        "name": "شبين الكوم",
        "name:ar": "شبين الكوم",
        "name:en": "Shibin Al-Kom",
        "railway": "station",
        "id": "node/1024943367"
      },
      "geometry": {
        "type": "Point",
        "coordinates": [
          31.0048727,
          30.5534924
        ]
      }
    },
    {
      "type": "Feature",
      "id": "node/1024972031",
      "properties": {
        "name": "كفر الشيخ",
        "name:ar": "كفر الشيخ",
        "name:en": "Kafr Al-Sheikh",
        "name:ru": "Кафр-эш-Шейх",
        "public_transport": "station",
        "railway": "station",
        "id": "node/1024972031"
      },
      "geometry": {
        "type": "Point",
        "coordinates": [
          30.939208,
          31.1095345
        ]
      }
    },
    {
      "type": "Feature",
      "id": "node/1024994600",
      "properties": {
        "addr:city": "دسوق",
        "addr:street": "الشركات",
        "int_name": "Desouk Station",
        "name": "دسوق",
        "name:ar": "دسوق",
        "name:en": "Desouk",
        "operator": "سكك حديد مصر",
        "platforms": "2",
        "railway": "station",
        "id": "node/1024994600"
      },
      "geometry": {
        "type": "Point",
        "coordinates": [
          30.6415652,
          31.1326186
        ]
      }
    },
    {
      "type": "Feature",
      "id": "node/1027144453",
      "properties": {
        "addr:city": "أبو كبير‎",
        "addr:city:ar": "أبو كبير",
        "name": "أبو كبير",
        "name:ar": "أبو كبير",
        "name:en": "Abu Kabir",
        "name:fa": "ابو کبیر",
        "name:ur": "ابوکبیر",
        "public_transport": "station",
        "railway": "station",
        "id": "node/1027144453"
      },
      "geometry": {
        "type": "Point",
        "coordinates": [
          31.6684833,
          30.7270324
        ]
      }
    },
    {
      "type": "Feature",
      "id": "node/1027173234",
      "properties": {
        "name": "دكرنس",
        "name:ar": "دكرنس",
        "name:en": "Dekernes",
        "railway": "station",
        "id": "node/1027173234"
      },
      "geometry": {
        "type": "Point",
        "coordinates": [
          31.5991544,
          31.0783431
        ]
      }
    },
    {
      "type": "Feature",
      "id": "node/1028067604",
      "properties": {
        "alt_name": "محطة تل الكبير",
        "int_name": "Et Tell el Kebīr, Al Tall al Kebir, Tel al Kebir Station",
        "name": "محطة تل الكبير",
        "name:ar": "محطة تل الكبير",
        "name:ar1": "محطة تل الكبير",
        "name:de": "Al Tall al Kebir",
        "name:en": "Al Tall al Kebir",
        "name:fr": "Al Tall al Kebir",
        "railway": "station",
        "id": "node/1028067604"
      },
      "geometry": {
        "type": "Point",
        "coordinates": [
          31.7851292,
          30.5626064
        ]
      }
    },
    {
      "type": "Feature",
      "id": "node/1029624589",
      "properties": {
        "name": "بنها",
        "name:ar": "بنها",
        "name:en": "Banha",
        "railway": "station",
        "id": "node/1029624589"
      },
      "geometry": {
        "type": "Point",
        "coordinates": [
          31.1809339,
          30.4559082
        ]
      }
    },
    {
      "type": "Feature",
      "id": "node/1029624628",
      "properties": {
        "name": "سندنهور",
        "name:ar": "سندنهور",
        "name:en": "Sandanhur",
        "railway": "halt",
        "id": "node/1029624628"
      },
      "geometry": {
        "type": "Point",
        "coordinates": [
          31.1881635,
          30.4113405
        ]
      }
    },
    {
      "type": "Feature",
      "id": "node/1029706810",
      "properties": {
        "name": "ميت غمر",
        "name:ar": "ميت غمر",
        "name:en": "Mit Ghamr",
        "railway": "station",
        "id": "node/1029706810"
      },
      "geometry": {
        "type": "Point",
        "coordinates": [
          31.2605849,
          30.7190216
        ]
      }
    },
    {
      "type": "Feature",
      "id": "node/1033287435",
      "properties": {
        "name": "محلة روح",
        "name:ar": "محلة روح",
        "name:en": "Mehallet Roh",
        "railway": "station",
        "id": "node/1033287435"
      },
      "geometry": {
        "type": "Point",
        "coordinates": [
          31.0842725,
          30.8738132
        ]
      }
    },
    {
      "type": "Feature",
      "id": "node/1035397813",
      "properties": {
        "name": "شربين",
        "name:ar": "شربين",
        "name:en": "Shirbin",
        "railway": "station",
        "id": "node/1035397813"
      },
      "geometry": {
        "type": "Point",
        "coordinates": [
          31.5266932,
          31.1914781
        ]
      }
    },
    {
      "type": "Feature",
      "id": "node/1038549399",
      "properties": {
        "railway": "station",
        "id": "node/1038549399"
      },
      "geometry": {
        "type": "Point",
        "coordinates": [
          30.8964108,
          31.0130618
        ]
      }
    },
    {
      "type": "Feature",
      "id": "node/1038549410",
      "properties": {
        "public_transport": "station",
        "railway": "station",
        "id": "node/1038549410"
      },
      "geometry": {
        "type": "Point",
        "coordinates": [
          30.7475709,
          31.0906134
        ]
      }
    },
    {
      "type": "Feature",
      "id": "node/1038549436",
      "properties": {
        "railway": "station",
        "id": "node/1038549436"
      },
      "geometry": {
        "type": "Point",
        "coordinates": [
          30.9909275,
          30.9456165
        ]
      }
    },
    {
      "type": "Feature",
      "id": "node/1039233382",
      "properties": {
        "name": "بلبيس",
        "name:ar": "بلبيس",
        "name:en": "Bilbeis",
        "railway": "station",
        "id": "node/1039233382"
      },
      "geometry": {
        "type": "Point",
        "coordinates": [
          31.556483,
          30.4283372
        ]
      }
    },
    {
      "type": "Feature",
      "id": "node/1039310348",
      "properties": {
        "name": "سمادون",
        "name:ar": "سمادون",
        "name:en": "Samadon",
        "railway": "station",
        "id": "node/1039310348"
      },
      "geometry": {
        "type": "Point",
        "coordinates": [
          30.9577058,
          30.3338958
        ]
      }
    },
    {
      "type": "Feature",
      "id": "node/1039313595",
      "properties": {
        "name": "كفر الزيات",
        "name:ar": "كفر الزيات",
        "name:en": "Kafr Al-Zaiyat",
        "railway": "station",
        "id": "node/1039313595"
      },
      "geometry": {
        "type": "Point",
        "coordinates": [
          30.8159551,
          30.8190679
        ]
      }
    },
    {
      "type": "Feature",
      "id": "node/1039313722",
      "properties": {
        "name": "أشمون",
        "name:ar": "أشمون",
        "name:en": "Ashmoun",
        "railway": "station",
        "id": "node/1039313722"
      },
      "geometry": {
        "type": "Point",
        "coordinates": [
          30.9793159,
          30.2988671
        ]
      }
    },
    {
      "type": "Feature",
      "id": "node/1039314336",
      "properties": {
        "alt_name": "محطة الشهداء",
        "int_name": "Esh Shuhada, Al Shuhada, Mahattat al Shuhada",
        "name": "محطة الشهداء",
        "name:ar": "محطة الشهداء",
        "name:ar1": "محطة الشهداء",
        "name:de": "Al Shuhada",
        "name:en": "Al Shuhada",
        "name:fr": "Al Shuhada",
        "railway": "station",
        "id": "node/1039314336"
      },
      "geometry": {
        "type": "Point",
        "coordinates": [
          30.8975673,
          30.5888499
        ]
      }
    },
    {
      "type": "Feature",
      "id": "node/1039343019",
      "properties": {
        "name": "تلا",
        "name:ar": "تلا",
        "name:en": "Tala",
        "public_transport": "stop_position",
        "railway": "station",
        "id": "node/1039343019"
      },
      "geometry": {
        "type": "Point",
        "coordinates": [
          30.9449051,
          30.6778686
        ]
      }
    },
    {
      "type": "Feature",
      "id": "node/1039369281",
      "properties": {
        "name": "إدكو",
        "name:ar": "إدكو",
        "name:en": "Idku",
        "public_transport": "station",
        "railway": "station",
        "id": "node/1039369281"
      },
      "geometry": {
        "type": "Point",
        "coordinates": [
          30.303548,
          31.2984119
        ]
      }
    },
    {
      "type": "Feature",
      "id": "node/1039369482",
      "properties": {
        "name": "رشيد",
        "name:ar": "رشيد",
        "name:en": "Rosetta",
        "public_transport": "station",
        "railway": "station",
        "id": "node/1039369482"
      },
      "geometry": {
        "type": "Point",
        "coordinates": [
          30.4193666,
          31.4083
        ]
      }
    },
    {
      "type": "Feature",
      "id": "node/1039369509",
      "properties": {
        "alt_name": "محطة البصيلي",
        "int_name": "Al Buşayit, Al Busayit, Mahattat al Busayl, Mahattat al Busayli",
        "name": "محطة البصيلي",
        "name:ar": "محطة البصيلي",
        "name:ar1": "محطة البصيلي",
        "name:de": "Al Busayit",
        "name:en": "Al Busayit",
        "name:fr": "Al Busayit",
        "public_transport": "station",
        "railway": "station",
        "id": "node/1039369509"
      },
      "geometry": {
        "type": "Point",
        "coordinates": [
          30.4031461,
          31.3321205
        ]
      }
    },
    {
      "type": "Feature",
      "id": "node/1039391155",
      "properties": {
        "name": "مطوبس",
        "name:ar": "مطوبس",
        "name:en": "Mutubis",
        "railway": "station",
        "id": "node/1039391155"
      },
      "geometry": {
        "type": "Point",
        "coordinates": [
          30.5251335,
          31.2868476
        ]
      }
    },
    {
      "type": "Feature",
      "id": "node/1039391169",
      "properties": {
        "name": "القصابي",
        "name:ar": "القصابي",
        "name:en": "Al-Qasabi",
        "railway": "station",
        "id": "node/1039391169"
      },
      "geometry": {
        "type": "Point",
        "coordinates": [
          30.6785846,
          31.2643075
        ]
      }
    },
    {
      "type": "Feature",
      "id": "node/1039398638",
      "properties": {
        "name": "فوة",
        "name:ar": "فوة",
        "name:en": "Fuwah",
        "public_transport": "station",
        "railway": "station",
        "id": "node/1039398638"
      },
      "geometry": {
        "type": "Point",
        "coordinates": [
          30.5528374,
          31.2099415
        ]
      }
    },
    {
      "type": "Feature",
      "id": "node/1039401955",
      "properties": {
        "addr:city": "قلين",
        "name": "قلين",
        "name:en": "Qallin",
        "operator": "سكك حديد مصر",
        "railway": "station",
        "train": "yes",
        "id": "node/1039401955"
      },
      "geometry": {
        "type": "Point",
        "coordinates": [
          30.8402878,
          31.0502729
        ]
      }
    },
    {
      "type": "Feature",
      "id": "node/1039541796",
      "properties": {
        "name": "السنبلاوين",
        "name:ar": "محطة قطار مدينة السنبلاوين",
        "name:en": "Al-Sunbullawayn",
        "railway": "station",
        "id": "node/1039541796"
      },
      "geometry": {
        "type": "Point",
        "coordinates": [
          31.461703,
          30.8842264
        ]
      }
    },
    {
      "type": "Feature",
      "id": "node/1039542007",
      "properties": {
        "int_name": "Abu-el-Shuqûq, Abu al Shuquq",
        "name": "أبو الشقوق",
        "name:ar": "أبو الشقوق",
        "name:ar1": "أبو الشقوق",
        "name:de": "Abu Al-Shuquq",
        "name:en": "Abu Al-Shuquq",
        "name:fr": "Abu Al-Shuquq",
        "public_transport": "station",
        "railway": "station",
        "id": "node/1039542007"
      },
      "geometry": {
        "type": "Point",
        "coordinates": [
          31.591302,
          30.8323894
        ]
      }
    },
    {
      "type": "Feature",
      "id": "node/1039566997",
      "properties": {
        "name": "السماعنة",
        "name:ar": "السماعنة",
        "name:en": "Al-Samaanah",
        "railway": "station",
        "id": "node/1039566997"
      },
      "geometry": {
        "type": "Point",
        "coordinates": [
          31.8614988,
          30.7864061
        ]
      }
    },
    {
      "type": "Feature",
      "id": "node/1039567147",
      "properties": {
        "name": "فاقوس",
        "name:ar": "فاقوس",
        "name:en": "Faqous",
        "railway": "station",
        "id": "node/1039567147"
      },
      "geometry": {
        "type": "Point",
        "coordinates": [
          31.7945714,
          30.7274337
        ]
      }
    },
    {
      "type": "Feature",
      "id": "node/1039956166",
      "properties": {
        "public_transport": "stop_position",
        "railway": "halt",
        "train": "yes",
        "id": "node/1039956166"
      },
      "geometry": {
        "type": "Point",
        "coordinates": [
          30.0759698,
          31.2927916
        ]
      }
    },
    {
      "type": "Feature",
      "id": "node/1039956176",
      "properties": {
        "name": "محطة قطار المعمورة",
        "name:ar": "محطة المعمورة",
        "name:en": "Maamoura",
        "public_transport": "stop_position",
        "railway": "station",
        "train": "yes",
        "id": "node/1039956176"
      },
      "geometry": {
        "type": "Point",
        "coordinates": [
          30.0537395,
          31.2940156
        ]
      }
    },
    {
      "type": "Feature",
      "id": "node/1039990521",
      "properties": {
        "name": "سبك الضحاك",
        "name:ar": "سبك الضحاك",
        "name:en": "Subk Al-Dahak",
        "railway": "station",
        "id": "node/1039990521"
      },
      "geometry": {
        "type": "Point",
        "coordinates": [
          31.0689918,
          30.4424934
        ]
      }
    },
    {
      "type": "Feature",
      "id": "node/1040778821",
      "properties": {
        "alt_name": "الخطاطبة",
        "int_name": "El Khataba, Al Khataba, Al Khatatebeh, Khataba",
        "name": "الخطاطبة",
        "name:ar": "الخطاطبة",
        "name:ar1": "الخطاطبة",
        "name:de": "Al-Khatatba",
        "name:en": "Al-Khatatba",
        "name:fr": "Al-Khatatba",
        "public_transport": "station",
        "railway": "station",
        "id": "node/1040778821"
      },
      "geometry": {
        "type": "Point",
        "coordinates": [
          30.8207266,
          30.3610472
        ]
      }
    },
    {
      "type": "Feature",
      "id": "node/1040778845",
      "properties": {
        "name": "كوم حمادة",
        "name:ar": "كوم حمادة",
        "name:en": "Kom Hamada",
        "public_transport": "station",
        "railway": "station",
        "id": "node/1040778845"
      },
      "geometry": {
        "type": "Point",
        "coordinates": [
          30.6977678,
          30.7597931
        ]
      }
    },
    {
      "type": "Feature",
      "id": "node/1040778954",
      "properties": {
        "alt_name": "محطة الطيرية",
        "int_name": "Maḩaţţat aţ Ţayrīyah, Mahattat al Tayriyah",
        "name": "محطة الطيرية",
        "name:ar": "محطة الطيرية",
        "name:ar1": "محطة الطيرية",
        "name:de": "Mahattat al Tayriyah",
        "name:en": "Mahattat al Tayriyah",
        "name:fr": "Mahattat al Tayriyah",
        "public_transport": "station",
        "railway": "station",
        "id": "node/1040778954"
      },
      "geometry": {
        "type": "Point",
        "coordinates": [
          30.7758379,
          30.6450082
        ]
      }
    },
    {
      "type": "Feature",
      "id": "node/1040778959",
      "properties": {
        "name": "إيتاي البارود",
        "name:ar": "إتاي البارود",
        "name:en": "Ityai Al-Barud",
        "railway": "station",
        "id": "node/1040778959"
      },
      "geometry": {
        "type": "Point",
        "coordinates": [
          30.6619877,
          30.8841122
        ]
      }
    },
    {
      "type": "Feature",
      "id": "node/1040789405",
      "properties": {
        "name": "قنطرة شرقية",
        "name:ar": "قنطرة شرقية",
        "name:en": "Qantara Sharqeya",
        "railway": "station",
        "id": "node/1040789405"
      },
      "geometry": {
        "type": "Point",
        "coordinates": [
          32.3978503,
          30.8670341
        ]
      }
    },
    {
      "type": "Feature",
      "id": "node/1040800192",
      "properties": {
        "railway": "halt",
        "id": "node/1040800192"
      },
      "geometry": {
        "type": "Point",
        "coordinates": [
          31.4778667,
          31.0701243
        ]
      }
    },
    {
      "type": "Feature",
      "id": "node/1040800195",
      "properties": {
        "name": "ميت ضافر",
        "name:ar": "ميت ضافر",
        "name:en": "Meet Dafer",
        "railway": "station",
        "id": "node/1040800195"
      },
      "geometry": {
        "type": "Point",
        "coordinates": [
          31.5449169,
          31.0788019
        ]
      }
    },
    {
      "type": "Feature",
      "id": "node/1040800284",
      "properties": {
        "name": "سلامون القماش",
        "name:ar": "سلامون القماش",
        "name:en": "Salamon Al-Qomash",
        "railway": "station",
        "id": "node/1040800284"
      },
      "geometry": {
        "type": "Point",
        "coordinates": [
          31.4612163,
          31.0669499
        ]
      }
    },
    {
      "type": "Feature",
      "id": "node/1040806645",
      "properties": {
        "name": "برمبال القديمة",
        "name:ar": "برمبال القديمة",
        "name:en": "Birimbal Al-Qadima",
        "public_transport": "station",
        "railway": "station",
        "id": "node/1040806645"
      },
      "geometry": {
        "type": "Point",
        "coordinates": [
          31.743213,
          31.1576424
        ]
      }
    },
    {
      "type": "Feature",
      "id": "node/1040806676",
      "properties": {
        "name": "ميت الخولى",
        "name:ar": "ميت الخولى",
        "name:en": "Meet Al-Khouly",
        "railway": "station",
        "id": "node/1040806676"
      },
      "geometry": {
        "type": "Point",
        "coordinates": [
          31.6526966,
          31.1142056
        ]
      }
    },
    {
      "type": "Feature",
      "id": "node/1040806678",
      "properties": {
        "name": "ميت خضير",
        "name:ar": "ميت خضير",
        "name:en": "Meet Khudeir",
        "railway": "halt",
        "id": "node/1040806678"
      },
      "geometry": {
        "type": "Point",
        "coordinates": [
          31.8964499,
          31.1556945
        ]
      }
    },
    {
      "type": "Feature",
      "id": "node/1040806712",
      "properties": {
        "name": "المنزلة",
        "name:ar": "المنزلة",
        "name:en": "Al-Manzala",
        "railway": "station",
        "id": "node/1040806712"
      },
      "geometry": {
        "type": "Point",
        "coordinates": [
          31.9328418,
          31.1490313
        ]
      }
    },
    {
      "type": "Feature",
      "id": "node/1040806727",
      "properties": {
        "name": "الجماليه",
        "name:ar": "الجماليه",
        "name:en": "Al-Gamaleya",
        "public_transport": "station",
        "railway": "station",
        "id": "node/1040806727"
      },
      "geometry": {
        "type": "Point",
        "coordinates": [
          31.8692879,
          31.1726897
        ]
      }
    },
    {
      "type": "Feature",
      "id": "node/1040811607",
      "properties": {
        "name": "بلقاس",
        "name:ar": "بلقاس",
        "name:en": "Bilqas",
        "railway": "station",
        "id": "node/1040811607"
      },
      "geometry": {
        "type": "Point",
        "coordinates": [
          31.35535,
          31.2087193
        ]
      }
    },
    {
      "type": "Feature",
      "id": "node/1040814157",
      "properties": {
        "addr:city": "بئر العبد",
        "addr:city:ar": "بئر العبد",
        "name": "بئر العبد",
        "name:ar": "بئر العبد",
        "name:en": "Bir el Abd",
        "operator": "الهيئة القومية لسكك حديد مصر",
        "operator:ar": "الهيئة القومية لسكك حديد مصر",
        "operator:wikidata": "Q253927",
        "operator:wikipedia": "ar:سكك حديد مصر",
        "public_transport": "station",
        "railway": "station",
        "id": "node/1040814157"
      },
      "geometry": {
        "type": "Point",
        "coordinates": [
          33.007681,
          31.0033662
        ]
      }
    },
    {
      "type": "Feature",
      "id": "node/1041037218",
      "properties": {
        "name": "محطة شبين القناطر",
        "name:ar": "محطة شبين القناطر",
        "name:en": "Shebin Al-Qanater Station",
        "railway": "station",
        "id": "node/1041037218"
      },
      "geometry": {
        "type": "Point",
        "coordinates": [
          31.3157079,
          30.3131401
        ]
      }
    },
    {
      "type": "Feature",
      "id": "node/1041084561",
      "properties": {
        "name": "كفر سعد البلد",
        "name:ar": "كفر سعد البلد",
        "railway": "halt",
        "id": "node/1041084561"
      },
      "geometry": {
        "type": "Point",
        "coordinates": [
          31.6562888,
          31.3194759
        ]
      }
    },
    {
      "type": "Feature",
      "id": "node/1041084565",
      "properties": {
        "name": "كفر سعد",
        "name:ar": "كفر سعد",
        "railway": "station",
        "id": "node/1041084565"
      },
      "geometry": {
        "type": "Point",
        "coordinates": [
          31.6889887,
          31.3551718
        ]
      }
    },
    {
      "type": "Feature",
      "id": "node/1041084580",
      "properties": {
        "name": "كفر سليمان البحري",
        "name:ar": "كفر سليمان البحري",
        "name:en": "Kafr Suleiman Al-Bahary",
        "railway": "station",
        "id": "node/1041084580"
      },
      "geometry": {
        "type": "Point",
        "coordinates": [
          31.710606,
          31.3389228
        ]
      }
    },
    {
      "type": "Feature",
      "id": "node/1049682510",
      "properties": {
        "name": "طما",
        "name:ar": "طما",
        "name:en": "Tima",
        "public_transport": "station",
        "railway": "station",
        "id": "node/1049682510"
      },
      "geometry": {
        "type": "Point",
        "coordinates": [
          31.4320112,
          26.9048996
        ]
      }
    },
    {
      "type": "Feature",
      "id": "node/1049859125",
      "properties": {
        "name": "إسنا",
        "name:ar": "إسنا",
        "name:en": "Isna",
        "railway": "station",
        "id": "node/1049859125"
      },
      "geometry": {
        "type": "Point",
        "coordinates": [
          32.5708378,
          25.3100294
        ]
      }
    },
    {
      "type": "Feature",
      "id": "node/1049926096",
      "properties": {
        "railway": "station",
        "id": "node/1049926096"
      },
      "geometry": {
        "type": "Point",
        "coordinates": [
          32.8842132,
          25.0161454
        ]
      }
    },
    {
      "type": "Feature",
      "id": "node/1049926155",
      "properties": {
        "railway": "halt",
        "id": "node/1049926155"
      },
      "geometry": {
        "type": "Point",
        "coordinates": [
          32.8110508,
          25.1156774
        ]
      }
    },
    {
      "type": "Feature",
      "id": "node/1049926156",
      "properties": {
        "name": "المحاميد",
        "name:ar": "المحاميد",
        "name:en": "Al-Mahamid",
        "railway": "station",
        "id": "node/1049926156"
      },
      "geometry": {
        "type": "Point",
        "coordinates": [
          32.7781989,
          25.1340812
        ]
      }
    },
    {
      "type": "Feature",
      "id": "node/1049926367",
      "properties": {
        "railway": "station",
        "id": "node/1049926367"
      },
      "geometry": {
        "type": "Point",
        "coordinates": [
          32.8793114,
          25.0486143
        ]
      }
    },
    {
      "type": "Feature",
      "id": "node/1060253795",
      "properties": {
        "name": "بنى مزار",
        "name:ar": "بنى مزار",
        "name:en": "Beni Mazar",
        "railway": "station",
        "id": "node/1060253795"
      },
      "geometry": {
        "type": "Point",
        "coordinates": [
          30.8063817,
          28.4951264
        ]
      }
    },
    {
      "type": "Feature",
      "id": "node/1086218676",
      "properties": {
        "name": "منيا القمح",
        "name:ar": "منيا القمح",
        "name:en": "Minya Al-Qamh",
        "railway": "station",
        "id": "node/1086218676"
      },
      "geometry": {
        "type": "Point",
        "coordinates": [
          31.3415755,
          30.5146721
        ]
      }
    },
    {
      "type": "Feature",
      "id": "node/1087859073",
      "properties": {
        "alt_name": "محطة أبو صوير",
        "int_name": "Maḩaţţat Abū Şuwayr, Mahattat Abu Suwayr",
        "name": "محطة أبو صوير",
        "name:ar": "محطة أبو صوير",
        "name:ar1": "محطة أبو صوير",
        "name:de": "Mahattat Abu Suwayr",
        "name:en": "Mahattat Abu Suwayr",
        "name:fr": "Mahattat Abu Suwayr",
        "public_transport": "station",
        "railway": "station",
        "id": "node/1087859073"
      },
      "geometry": {
        "type": "Point",
        "coordinates": [
          32.1164724,
          30.562299
        ]
      }
    },
    {
      "type": "Feature",
      "id": "node/1088062020",
      "properties": {
        "railway": "station",
        "id": "node/1088062020"
      },
      "geometry": {
        "type": "Point",
        "coordinates": [
          32.5012851,
          30.9347863
        ]
      }
    },
    {
      "type": "Feature",
      "id": "node/1088063381",
      "properties": {
        "railway": "station",
        "id": "node/1088063381"
      },
      "geometry": {
        "type": "Point",
        "coordinates": [
          32.5560868,
          30.9978835
        ]
      }
    },
    {
      "type": "Feature",
      "id": "node/1088289923",
      "properties": {
        "alt_name": "محطة قويسنا",
        "int_name": "Mahaţţat Quwaysinā, Mahattat Quwaysina",
        "name": "محطة قويسنا",
        "name:ar": "محطة قويسنا",
        "name:ar1": "محطة قويسنا",
        "name:de": "Mahattat Quwaysina",
        "name:en": "Mahattat Quwaysina",
        "name:fr": "Mahattat Quwaysina",
        "railway": "station",
        "id": "node/1088289923"
      },
      "geometry": {
        "type": "Point",
        "coordinates": [
          31.1399226,
          30.5475438
        ]
      }
    },
    {
      "type": "Feature",
      "id": "node/1088356093",
      "properties": {
        "alt_name": "محطة الرؤوس",
        "int_name": "Maḩaţţat ar Ru’ūs, Mahattat al Ruus",
        "name": "محطة الرؤوس",
        "name:ar": "محطة الرؤوس",
        "name:ar1": "محطة الرؤوس",
        "name:de": "Mahattat al Ruus",
        "name:en": "Mahattat al Ruus",
        "name:fr": "Mahattat al Ruus",
        "railway": "station",
        "id": "node/1088356093"
      },
      "geometry": {
        "type": "Point",
        "coordinates": [
          31.0731975,
          29.3437404
        ]
      }
    },
    {
      "type": "Feature",
      "id": "node/1090852593",
      "properties": {
        "name": "ميت سلسيل",
        "name:ar": "ميت سلسيل",
        "name:en": "Meet Selseel",
        "railway": "station",
        "id": "node/1090852593"
      },
      "geometry": {
        "type": "Point",
        "coordinates": [
          31.8054788,
          31.1634104
        ]
      }
    },
    {
      "type": "Feature",
      "id": "node/1090852645",
      "properties": {
        "name": "ميت عاصم",
        "name:ar": "ميت عاصم",
        "name:de": "Mīt ‘Āşim",
        "name:en": "Mit Asim",
        "public_transport": "station",
        "railway": "station",
        "id": "node/1090852645"
      },
      "geometry": {
        "type": "Point",
        "coordinates": [
          31.6948811,
          31.1213327
        ]
      }
    },
    {
      "type": "Feature",
      "id": "node/1090853306",
      "properties": {
        "name": "الكردي",
        "name:ar": "الكردي",
        "name:en": "Al-Kurdi",
        "public_transport": "station",
        "railway": "station",
        "id": "node/1090853306"
      },
      "geometry": {
        "type": "Point",
        "coordinates": [
          31.7733991,
          31.1637042
        ]
      }
    },
    {
      "type": "Feature",
      "id": "node/1090853544",
      "properties": {
        "name": "أبو الكباتن",
        "name:ar": "أبو الكباتن",
        "name:en": "Abu Al-Kabaten",
        "public_transport": "station",
        "railway": "station",
        "id": "node/1090853544"
      },
      "geometry": {
        "type": "Point",
        "coordinates": [
          31.7204095,
          31.1388293
        ]
      }
    },
    {
      "type": "Feature",
      "id": "node/1090853787",
      "properties": {
        "name": "اشمون",
        "name:ar": "اشمون",
        "name:en": "Ashmun",
        "railway": "station",
        "id": "node/1090853787"
      },
      "geometry": {
        "type": "Point",
        "coordinates": [
          31.6405995,
          31.0903552
        ]
      }
    },
    {
      "type": "Feature",
      "id": "node/1090854062",
      "properties": {
        "name": "محله دمنه",
        "name:ar": "محله دمنه",
        "name:en": "Mahallet Damana",
        "railway": "station",
        "id": "node/1090854062"
      },
      "geometry": {
        "type": "Point",
        "coordinates": [
          31.4923242,
          31.0696329
        ]
      }
    },
    {
      "type": "Feature",
      "id": "node/1090854131",
      "properties": {
        "name": "الدنابيق",
        "name:ar": "الدنابيق",
        "name:en": "Al-Danabeeq",
        "railway": "station",
        "id": "node/1090854131"
      },
      "geometry": {
        "type": "Point",
        "coordinates": [
          31.4430842,
          31.0472396
        ]
      }
    },
    {
      "type": "Feature",
      "id": "node/1090890989",
      "properties": {
        "name": "الباجور",
        "name:ar": "الباجور",
        "name:en": "Al-Bagur",
        "railway": "station",
        "id": "node/1090890989"
      },
      "geometry": {
        "type": "Point",
        "coordinates": [
          31.0371486,
          30.4339576
        ]
      }
    },
    {
      "type": "Feature",
      "id": "node/1090891020",
      "properties": {
        "name": "سرس الليان",
        "name:ar": "سرس الليان",
        "name:en": "Sers Al-Layyan",
        "railway": "station",
        "id": "node/1090891020"
      },
      "geometry": {
        "type": "Point",
        "coordinates": [
          30.9716363,
          30.4494753
        ]
      }
    },
    {
      "type": "Feature",
      "id": "node/1091247513",
      "properties": {
        "alt_name": "محطة الشلال",
        "int_name": "Shallal, Shallal, Mahattat al Shallal",
        "name": "محطة الشلال",
        "name:ar": "محطة الشلال",
        "name:ar1": "محطة الشلال",
        "name:de": "Shallal",
        "name:en": "Shallal",
        "name:fr": "Shallal",
        "railway": "station",
        "id": "node/1091247513"
      },
      "geometry": {
        "type": "Point",
        "coordinates": [
          32.9099345,
          24.0382157
        ]
      }
    },
    {
      "type": "Feature",
      "id": "node/1092461886",
      "properties": {
        "name": "بركة السبع",
        "name:ar": "بركة السبع",
        "name:en": "Birket Al-Saba",
        "railway": "station",
        "id": "node/1092461886"
      },
      "geometry": {
        "type": "Point",
        "coordinates": [
          31.0798709,
          30.6367097
        ]
      }
    },
    {
      "type": "Feature",
      "id": "node/1093564915",
      "properties": {
        "name": "زفتى",
        "name:ar": "زفتى",
        "name:en": "Zifta",
        "railway": "station",
        "id": "node/1093564915"
      },
      "geometry": {
        "type": "Point",
        "coordinates": [
          31.2448272,
          30.7231126
        ]
      }
    },
    {
      "type": "Feature",
      "id": "node/1093710418",
      "properties": {
        "alt_name": "محطة السنطة",
        "int_name": "Santa Station, Santa Station",
        "name": "محطة السنطة",
        "name:ar": "محطة السنطة",
        "name:ar1": "محطة السنطة",
        "name:de": "Santa Station",
        "name:en": "Santa Station",
        "name:fr": "Santa Station",
        "railway": "station",
        "id": "node/1093710418"
      },
      "geometry": {
        "type": "Point",
        "coordinates": [
          31.1225205,
          30.7305333
        ]
      }
    },
    {
      "type": "Feature",
      "id": "node/1093711979",
      "properties": {
        "name": "كفر أبو داوود",
        "name:ar": "كفر أبو داوود",
        "name:en": "Kafr Abu Daud",
        "railway": "station",
        "id": "node/1093711979"
      },
      "geometry": {
        "type": "Point",
        "coordinates": [
          31.0183066,
          30.747367
        ]
      }
    },
    {
      "type": "Feature",
      "id": "node/1094599531",
      "properties": {
        "name": "كفر البتانون",
        "name:ar": "كفر البتانون",
        "name:en": "Kafr Al-Batanun",
        "railway": "station",
        "id": "node/1094599531"
      },
      "geometry": {
        "type": "Point",
        "coordinates": [
          30.9746561,
          30.6020384
        ]
      }
    },
    {
      "type": "Feature",
      "id": "node/1094599866",
      "properties": {
        "name": "شبين الكوم الجديدة",
        "name:ar": "شبين الكوم الجديدة",
        "name:en": "Shibin Al-Kom New Station",
        "railway": "station",
        "id": "node/1094599866"
      },
      "geometry": {
        "type": "Point",
        "coordinates": [
          30.9965053,
          30.5687983
        ]
      }
    },
    {
      "type": "Feature",
      "id": "node/1095112715",
      "properties": {
        "alt_name": "البغدادي",
        "int_name": "El Bughdādi, Al Bughdadi",
        "name": "البغدادي",
        "name:ar": "البغدادي",
        "name:ar1": "البغدادي",
        "name:de": "Al Bughdadi",
        "name:en": "Al Bughdadi",
        "name:fr": "Al Bughdadi",
        "railway": "station",
        "id": "node/1095112715"
      },
      "geometry": {
        "type": "Point",
        "coordinates": [
          32.6027761,
          25.6363502
        ]
      }
    },
    {
      "type": "Feature",
      "id": "node/1098334301",
      "properties": {
        "name": "السلوم",
        "name:ar": "السلوم",
        "name:en": "Al Sallum",
        "public_transport": "stop_position",
        "railway": "station",
        "train": "yes",
        "id": "node/1098334301"
      },
      "geometry": {
        "type": "Point",
        "coordinates": [
          25.14596,
          31.5723369
        ]
      }
    },
    {
      "type": "Feature",
      "id": "node/1111399394",
      "properties": {
        "alt_name": "محطة التوفيقية",
        "int_name": "Maḩaţţat at Tawfīqīyah, Mahattat al Tawfiqiyah",
        "name": "محطة التوفيقية",
        "name:ar": "محطة التوفيقية",
        "name:ar1": "محطة التوفيقية",
        "name:de": "Mahattat al Tawfiqiyah",
        "name:en": "Mahattat al Tawfiqiyah",
        "name:fr": "Mahattat al Tawfiqiyah",
        "railway": "station",
        "id": "node/1111399394"
      },
      "geometry": {
        "type": "Point",
        "coordinates": [
          30.7479614,
          30.8161691
        ]
      }
    },
    {
      "type": "Feature",
      "id": "node/1111472625",
      "properties": {
        "addr:postcode": "22611",
        "name": "أبو حمص",
        "name:ar": "1",
        "name:en": "Abu Hummus",
        "railway": "station",
        "id": "node/1111472625"
      },
      "geometry": {
        "type": "Point",
        "coordinates": [
          30.3097684,
          31.0849001
        ]
      }
    },
    {
      "type": "Feature",
      "id": "node/1111472626",
      "properties": {
        "alt_name": "محطة محرم بيك",
        "int_name": "Moharram Bey, Moharram Bey",
        "name": "محطة محرم بيك",
        "name:ar": "محطة محرم بيك",
        "name:ar1": "محطة محرم بيك",
        "name:de": "Moharram Bey",
        "name:en": "Moharram Bey",
        "name:fr": "Moharram Bey",
        "railway": "station",
        "id": "node/1111472626"
      },
      "geometry": {
        "type": "Point",
        "coordinates": [
          29.9261461,
          31.1860896
        ]
      }
    },
    {
      "type": "Feature",
      "id": "node/1111494734",
      "properties": {
        "alt_name": "دفرة",
        "int_name": "Difrah, Difrah",
        "name": "دفرة",
        "name:ar": "دفرة",
        "name:ar1": "دفرة",
        "name:de": "Difrah",
        "name:en": "Difrah",
        "name:fr": "Difrah",
        "railway": "station",
        "id": "node/1111494734"
      },
      "geometry": {
        "type": "Point",
        "coordinates": [
          31.0293195,
          30.7267566
        ]
      }
    },
    {
      "type": "Feature",
      "id": "node/1125556316",
      "properties": {
        "name": "منيل شيحا",
        "name:ar": "منيل شيحا",
        "name:en": "Manial Shiha",
        "railway": "station",
        "id": "node/1125556316"
      },
      "geometry": {
        "type": "Point",
        "coordinates": [
          31.2381004,
          29.9518006
        ]
      }
    },
    {
      "type": "Feature",
      "id": "node/1125997846",
      "properties": {
        "int_name": "Alexandria Station",
        "name": "محطة مصر",
        "name:ar": "محطة مصر",
        "name:en": "Masr station",
        "railway": "station",
        "wikidata": "Q958574",
        "id": "node/1125997846"
      },
      "geometry": {
        "type": "Point",
        "coordinates": [
          29.9067595,
          31.193363
        ]
      }
    },
    {
      "type": "Feature",
      "id": "node/1126060881",
      "properties": {
        "alt_name": "محطة القرش",
        "int_name": "Maḩaţţat al Qirsh, Mahattat al Qirsh",
        "name": "محطة القرش",
        "name:ar": "محطة القرش",
        "name:ar1": "محطة القرش",
        "name:de": "Mahattat al Qirsh",
        "name:en": "Mahattat al Qirsh",
        "name:fr": "Mahattat al Qirsh",
        "public_transport": "station",
        "railway": "station",
        "id": "node/1126060881"
      },
      "geometry": {
        "type": "Point",
        "coordinates": [
          32.2978617,
          30.6012554
        ]
      }
    },
    {
      "type": "Feature",
      "id": "node/1126061203",
      "properties": {
        "alt_name": "محطة معسكر الإسماعيلية",
        "int_name": "Maḩaţţat al Mu‘askar, Mahattat al Muaskar, Moascar, Muaskar al Ismailiyah",
        "name": "محطة معسكر الإسماعيلية",
        "name:ar": "محطة معسكر الإسماعيلية",
        "name:ar1": "محطة معسكر الإسماعيلية",
        "name:de": "Mahattat Al-Muaskar",
        "name:en": "Mahattat Al-Muaskar",
        "name:fr": "Mahattat Al-Muaskar",
        "public_transport": "station",
        "railway": "station",
        "id": "node/1126061203"
      },
      "geometry": {
        "type": "Point",
        "coordinates": [
          32.253125,
          30.5838189
        ]
      }
    },
    {
      "type": "Feature",
      "id": "node/1128478280",
      "properties": {
        "name": "باكوس",
        "name:ar": "باكوس",
        "name:en": "Bakous",
        "public_transport": "station",
        "railway": "station",
        "id": "node/1128478280"
      },
      "geometry": {
        "type": "Point",
        "coordinates": [
          29.9704078,
          31.2330404
        ]
      }
    },
    {
      "type": "Feature",
      "id": "node/1129560332",
      "properties": {
        "alt_name": "محطة بشتيل",
        "int_name": "Maḩaţţat Bashtīlī, Mahattat Bashtili",
        "name": "بشتيل البلد",
        "name:ar": "محطة بشتيل",
        "name:ar1": "محطة بشتيل",
        "name:de": "Mahattat Bashtili",
        "name:en": "Mahattat Bashtili",
        "name:fr": "Mahattat Bashtili",
        "railway": "halt",
        "id": "node/1129560332"
      },
      "geometry": {
        "type": "Point",
        "coordinates": [
          31.1833278,
          30.0869972
        ]
      }
    },
    {
      "type": "Feature",
      "id": "node/1140187593",
      "properties": {
        "railway": "halt",
        "id": "node/1140187593"
      },
      "geometry": {
        "type": "Point",
        "coordinates": [
          31.0603291,
          29.9695321
        ]
      }
    },
    {
      "type": "Feature",
      "id": "node/1140187720",
      "properties": {
        "railway": "halt",
        "id": "node/1140187720"
      },
      "geometry": {
        "type": "Point",
        "coordinates": [
          31.0579589,
          29.9661071
        ]
      }
    },
    {
      "type": "Feature",
      "id": "node/1144106978",
      "properties": {
        "name": "الخارجة",
        "name:ar": "الخارجة",
        "name:en": "Kharga",
        "railway": "station",
        "id": "node/1144106978"
      },
      "geometry": {
        "type": "Point",
        "coordinates": [
          30.5552165,
          25.3896804
        ]
      }
    },
    {
      "type": "Feature",
      "id": "node/1150599673",
      "properties": {
        "public_transport": "station",
        "railway": "station",
        "id": "node/1150599673"
      },
      "geometry": {
        "type": "Point",
        "coordinates": [
          32.0349902,
          31.1766659
        ]
      }
    },
    {
      "type": "Feature",
      "id": "node/1154166993",
      "properties": {
        "name": "الضبعه",
        "name:ar": "الضبعه",
        "name:en": "Al-Dabaah",
        "public_transport": "stop_position",
        "railway": "station",
        "train": "yes",
        "id": "node/1154166993"
      },
      "geometry": {
        "type": "Point",
        "coordinates": [
          28.4434591,
          31.027702
        ]
      }
    },
    {
      "type": "Feature",
      "id": "node/1156216297",
      "properties": {
        "internet_access": "wlan",
        "name": "Damrais train station",
        "public_transport": "station",
        "railway": "station",
        "id": "node/1156216297"
      },
      "geometry": {
        "type": "Point",
        "coordinates": [
          30.7417131,
          28.12522
        ]
      }
    },
    {
      "type": "Feature",
      "id": "node/1174185363",
      "properties": {
        "public_transport": "stop_position",
        "railway": "station",
        "train": "yes",
        "id": "node/1174185363"
      },
      "geometry": {
        "type": "Point",
        "coordinates": [
          27.7339857,
          31.1361713
        ]
      }
    },
    {
      "type": "Feature",
      "id": "node/1320721139",
      "properties": {
        "alt_name": "نجع الكاجوج",
        "int_name": "Kâgûg, Kagug",
        "name": "نجع الكاجوج",
        "name:ar": "نجع الكاجوج",
        "name:ar1": "نجع الكاجوج",
        "name:de": "Kagug",
        "name:en": "Kagug",
        "name:fr": "Kagug",
        "railway": "station",
        "id": "node/1320721139"
      },
      "geometry": {
        "type": "Point",
        "coordinates": [
          32.9471139,
          24.6696422
        ]
      }
    },
    {
      "type": "Feature",
      "id": "node/1334466652",
      "properties": {
        "railway": "halt",
        "id": "node/1334466652"
      },
      "geometry": {
        "type": "Point",
        "coordinates": [
          30.5658398,
          24.9865057
        ]
      }
    },
    {
      "type": "Feature",
      "id": "node/1520340238",
      "properties": {
        "alt_name": "درب الحاج",
        "int_name": "Darb el Ḥâgg, Darb al Hagg",
        "name": "درب الحاج",
        "name:ar": "درب الحاج",
        "name:ar1": "درب الحاج",
        "name:de": "Darb al Hagg",
        "name:en": "Darb al Hagg",
        "name:fr": "Darb al Hagg",
        "railway": "halt",
        "id": "node/1520340238"
      },
      "geometry": {
        "type": "Point",
        "coordinates": [
          31.5424146,
          30.1714216
        ]
      }
    },
    {
      "type": "Feature",
      "id": "node/1520761930",
      "properties": {
        "alt_name": "محطة الشلوفة",
        "int_name": "Shallufa Station, Shallufa Station",
        "name": "محطة الشلوفة",
        "name:ar": "محطة الشلوفة",
        "name:ar1": "محطة الشلوفة",
        "name:de": "Shallufa Station",
        "name:en": "Shallufa Station",
        "name:fr": "Shallufa Station",
        "railway": "station",
        "id": "node/1520761930"
      },
      "geometry": {
        "type": "Point",
        "coordinates": [
          32.5632209,
          30.1167573
        ]
      }
    },
    {
      "type": "Feature",
      "id": "node/1521661692",
      "properties": {
        "alt_name": "محطة جنيفة",
        "int_name": "Gineifa, Gineifa",
        "name": "محطة جنيفة",
        "name:ar": "محطة جنيفة",
        "name:ar1": "محطة جنيفة",
        "name:de": "Gineifa",
        "name:en": "Gineifa",
        "name:fr": "Gineifa",
        "railway": "station",
        "id": "node/1521661692"
      },
      "geometry": {
        "type": "Point",
        "coordinates": [
          32.4277582,
          30.2067483
        ]
      }
    },
    {
      "type": "Feature",
      "id": "node/1521665589",
      "properties": {
        "alt_name": "محطة فنارة",
        "int_name": "Maḩaţţat Fanārah, Mahattat Fanarah",
        "name": "محطة فنارة",
        "name:ar": "محطة فنارة",
        "name:ar1": "محطة فنارة",
        "name:de": "Mahattat Fanarah",
        "name:en": "Mahattat Fanarah",
        "name:fr": "Mahattat Fanarah",
        "railway": "station",
        "id": "node/1521665589"
      },
      "geometry": {
        "type": "Point",
        "coordinates": [
          32.3478956,
          30.2767354
        ]
      }
    },
    {
      "type": "Feature",
      "id": "node/1521666363",
      "properties": {
        "alt_name": "موقف السعيدية",
        "int_name": "As Sa‘īdīyah, Al Saidiyah",
        "name": "موقف السعيدية",
        "name:ar": "موقف السعيدية",
        "name:ar1": "موقف السعيدية",
        "name:de": "Al Saidiyah",
        "name:en": "Al Saidiyah",
        "name:fr": "Al Saidiyah",
        "railway": "halt",
        "id": "node/1521666363"
      },
      "geometry": {
        "type": "Point",
        "coordinates": [
          32.2889939,
          30.3800052
        ]
      }
    },
    {
      "type": "Feature",
      "id": "node/1521675663",
      "properties": {
        "alt_name": "محطة أبو سلطان",
        "int_name": "Maḩaţţat Abū Sulţān, Mahattat Abu Sultan",
        "name": "محطة أبو سلطان",
        "name:ar": "محطة أبو سلطان",
        "name:ar1": "محطة أبو سلطان",
        "name:de": "Mahattat Abu Sultan",
        "name:en": "Mahattat Abu Sultan",
        "name:fr": "Mahattat Abu Sultan",
        "railway": "station",
        "id": "node/1521675663"
      },
      "geometry": {
        "type": "Point",
        "coordinates": [
          32.3122993,
          30.4123026
        ]
      }
    },
    {
      "type": "Feature",
      "id": "node/1521683874",
      "properties": {
        "alt_name": "محطة البلاح",
        "int_name": "Maḩaţţat al Ballāḩ, Mahattat al Ballah",
        "name": "محطة البلاح",
        "name:ar": "محطة البلاح",
        "name:ar1": "محطة البلاح",
        "name:de": "Mahattat al Ballah",
        "name:en": "Mahattat al Ballah",
        "name:fr": "Mahattat al Ballah",
        "public_transport": "station",
        "railway": "station",
        "id": "node/1521683874"
      },
      "geometry": {
        "type": "Point",
        "coordinates": [
          32.316647,
          30.7709688
        ]
      }
    },
    {
      "type": "Feature",
      "id": "node/1540484292",
      "properties": {
        "name": "قوص",
        "name:ar": "قوص",
        "name:en": "Qus",
        "railway": "station",
        "id": "node/1540484292"
      },
      "geometry": {
        "type": "Point",
        "coordinates": [
          32.7585718,
          25.9153578
        ]
      }
    },
    {
      "type": "Feature",
      "id": "node/1540997074",
      "properties": {
        "int_name": "Maḩaţţat ar Ru’aysāt, Mahattat al Ruaysat",
        "name": "محطة الرؤيسات",
        "name:ar": "محطة الرؤيسات",
        "name:de": "Mahattat al Ruaysat",
        "name:en": "Mahattat al Ruaysat",
        "name:fr": "Mahattat al Ruaysat",
        "public_transport": "station",
        "railway": "station",
        "id": "node/1540997074"
      },
      "geometry": {
        "type": "Point",
        "coordinates": [
          29.3163738,
          30.8122853
        ]
      }
    },
    {
      "type": "Feature",
      "id": "node/1541494459",
      "properties": {
        "alt_name": "محطة سيدي حنيش",
        "int_name": "Sidi Haneish Station, Sidi Haneish Station",
        "name": "محطة سيدي حنيش",
        "name:ar": "محطة سيدي حنيش",
        "name:ar1": "محطة سيدي حنيش",
        "name:de": "Sidi Haneish Station",
        "name:en": "Sidi Haneish Station",
        "name:fr": "Sidi Haneish Station",
        "public_transport": "stop_position",
        "railway": "station",
        "id": "node/1541494459"
      },
      "geometry": {
        "type": "Point",
        "coordinates": [
          27.6285119,
          31.1633788
        ]
      }
    },
    {
      "type": "Feature",
      "id": "node/1629363954",
      "properties": {
        "alt_name": "العيايشة",
        "int_name": "El ‘Ayâysha, Al Ayaysha",
        "name": "العيايشة",
        "name:ar": "العيايشة",
        "name:ar1": "العيايشة",
        "name:de": "Al Ayaysha",
        "name:en": "Al Ayaysha",
        "name:fr": "Al Ayaysha",
        "railway": "halt",
        "id": "node/1629363954"
      },
      "geometry": {
        "type": "Point",
        "coordinates": [
          32.7803847,
          25.8225524
        ]
      }
    },
    {
      "type": "Feature",
      "id": "node/1642185593",
      "properties": {
        "railway": "halt",
        "id": "node/1642185593"
      },
      "geometry": {
        "type": "Point",
        "coordinates": [
          31.2148494,
          30.2459364
        ]
      }
    },
    {
      "type": "Feature",
      "id": "node/1749540644",
      "properties": {
        "public_transport": "station",
        "railway": "station",
        "id": "node/1749540644"
      },
      "geometry": {
        "type": "Point",
        "coordinates": [
          31.1020206,
          30.1787523
        ]
      }
    },
    {
      "type": "Feature",
      "id": "node/1814704159",
      "properties": {
        "public_transport": "station",
        "railway": "station",
        "id": "node/1814704159"
      },
      "geometry": {
        "type": "Point",
        "coordinates": [
          31.0690777,
          30.1745022
        ]
      }
    },
    {
      "type": "Feature",
      "id": "node/1871904376",
      "properties": {
        "operator": "الهيئة القومية لسكك حديد مصر",
        "operator:ar": "الهيئة القومية لسكك حديد مصر",
        "operator:wikidata": "Q253927",
        "operator:wikipedia": "ar:سكك حديد مصر",
        "public_transport": "station",
        "railway": "station",
        "id": "node/1871904376"
      },
      "geometry": {
        "type": "Point",
        "coordinates": [
          32.8395398,
          30.9996215
        ]
      }
    },
    {
      "type": "Feature",
      "id": "node/1871908167",
      "properties": {
        "railway": "station",
        "id": "node/1871908167"
      },
      "geometry": {
        "type": "Point",
        "coordinates": [
          32.6819264,
          30.9974434
        ]
      }
    },
    {
      "type": "Feature",
      "id": "node/1885009800",
      "properties": {
        "name": "محطة قطار المنتزة",
        "name:ar": "محطة المنتزة",
        "name:en": "Montazah",
        "public_transport": "stop_position",
        "railway": "station",
        "train": "yes",
        "id": "node/1885009800"
      },
      "geometry": {
        "type": "Point",
        "coordinates": [
          30.0212858,
          31.282955
        ]
      }
    },
    {
      "type": "Feature",
      "id": "node/1889457787",
      "properties": {
        "alt_name": "العلمين",
        "int_name": "Al ‘Alamayn, Al Alamayn",
        "name": "العلمين",
        "name:ar": "العلمين",
        "name:ar1": "العلمين",
        "name:de": "Al Alamayn",
        "name:en": "Al Alamayn",
        "name:fr": "Al Alamayn",
        "public_transport": "station",
        "railway": "station",
        "id": "node/1889457787"
      },
      "geometry": {
        "type": "Point",
        "coordinates": [
          28.9562637,
          30.8245427
        ]
      }
    },
    {
      "type": "Feature",
      "id": "node/1889476237",
      "properties": {
        "addr:city": "مرسى مطروح",
        "addr:city:ar": "مرسى مطروح",
        "name": "مرسى مطروح",
        "name:ar": "مرسى مطروح",
        "name:en": "Marsa Matruh",
        "public_transport": "station",
        "railway": "station",
        "id": "node/1889476237"
      },
      "geometry": {
        "type": "Point",
        "coordinates": [
          27.2443664,
          31.3485785
        ]
      }
    },
    {
      "type": "Feature",
      "id": "node/1892910334",
      "properties": {
        "int_name": "El Zahria Station, Al Zahria Station, Al Zahriya Halt",
        "name": "الظاهرية",
        "name:ar": "محطة الظاهرية",
        "name:ar1": "محطة الظاهرية",
        "name:de": "Al Zahria Station",
        "name:en": "Al Zahria Station",
        "name:fr": "Al Zahria Station",
        "public_transport": "station",
        "railway": "station",
        "id": "node/1892910334"
      },
      "geometry": {
        "type": "Point",
        "coordinates": [
          29.9655517,
          31.2288704
        ]
      }
    },
    {
      "type": "Feature",
      "id": "node/1892910381",
      "properties": {
        "name": "غبريال",
        "name:ar": "غبريال",
        "name:en": "Gheprial",
        "public_transport": "station",
        "railway": "station",
        "id": "node/1892910381"
      },
      "geometry": {
        "type": "Point",
        "coordinates": [
          29.9758881,
          31.2381004
        ]
      }
    },
    {
      "type": "Feature",
      "id": "node/1894349319",
      "properties": {
        "name": "المتراس",
        "name:ar": "المتراس",
        "name:en": "Al-Metras",
        "railway": "halt",
        "id": "node/1894349319"
      },
      "geometry": {
        "type": "Point",
        "coordinates": [
          29.8724582,
          31.1594433
        ]
      }
    },
    {
      "type": "Feature",
      "id": "node/2120516646",
      "properties": {
        "public_transport": "station",
        "railway": "station",
        "id": "node/2120516646"
      },
      "geometry": {
        "type": "Point",
        "coordinates": [
          31.0542619,
          31.2069749
        ]
      }
    },
    {
      "type": "Feature",
      "id": "node/2265685728",
      "properties": {
        "name": "إمبابه",
        "name:ar": "إمبابه",
        "name:en": "Imbaba",
        "public_transport": "station",
        "railway": "station",
        "id": "node/2265685728"
      },
      "geometry": {
        "type": "Point",
        "coordinates": [
          31.2177818,
          30.0771206
        ]
      }
    },
    {
      "type": "Feature",
      "id": "node/2265685736",
      "properties": {
        "name": "بولاق الدكرور",
        "name:ar": "بولاق الدكرور",
        "name:en": "Bulaq Al-Dakrour",
        "railway": "station",
        "id": "node/2265685736"
      },
      "geometry": {
        "type": "Point",
        "coordinates": [
          31.1964582,
          30.0362054
        ]
      }
    },
    {
      "type": "Feature",
      "id": "node/2265692735",
      "properties": {
        "name": "بشتيل",
        "name:ar": "بشتيل",
        "name:en": "Bashteel",
        "railway": "halt",
        "id": "node/2265692735"
      },
      "geometry": {
        "type": "Point",
        "coordinates": [
          31.185144,
          30.0709945
        ]
      }
    },
    {
      "type": "Feature",
      "id": "node/2319635997",
      "properties": {
        "int_name": "Arād, Arad",
        "name": "أراد",
        "name:ar": "أراد",
        "public_transport": "stop_position",
        "railway": "station",
        "train": "yes",
        "id": "node/2319635997"
      },
      "geometry": {
        "type": "Point",
        "coordinates": [
          25.1809078,
          31.3381325
        ]
      }
    },
    {
      "type": "Feature",
      "id": "node/2544998374",
      "properties": {
        "railway": "halt",
        "id": "node/2544998374"
      },
      "geometry": {
        "type": "Point",
        "coordinates": [
          30.5679262,
          24.8842751
        ]
      }
    },
    {
      "type": "Feature",
      "id": "node/2545334577",
      "properties": {
        "railway": "halt",
        "id": "node/2545334577"
      },
      "geometry": {
        "type": "Point",
        "coordinates": [
          30.6006267,
          24.8013093
        ]
      }
    },
    {
      "type": "Feature",
      "id": "node/2555058697",
      "properties": {
        "name": "السويس",
        "name:ar": "السويس",
        "name:en": "Al-Suez",
        "public_transport": "station",
        "railway": "station",
        "id": "node/2555058697"
      },
      "geometry": {
        "type": "Point",
        "coordinates": [
          32.52757,
          29.9891862
        ]
      }
    },
    {
      "type": "Feature",
      "id": "node/2684271787",
      "properties": {
        "name": "محطة سندوب",
        "name:ar": "محطة سندوب",
        "name:en": "Sandoub",
        "public_transport": "station",
        "railway": "station",
        "id": "node/2684271787"
      },
      "geometry": {
        "type": "Point",
        "coordinates": [
          31.3931905,
          31.0163042
        ]
      }
    },
    {
      "type": "Feature",
      "id": "node/2718667236",
      "properties": {
        "int_name": "Al Fant",
        "name": "الفنت",
        "name:ar": "الفنت",
        "railway": "station",
        "id": "node/2718667236"
      },
      "geometry": {
        "type": "Point",
        "coordinates": [
          30.868204,
          28.7480324
        ]
      }
    },
    {
      "type": "Feature",
      "id": "node/2718667239",
      "properties": {
        "alt_name": "محطة أبا الوقف",
        "int_name": "Abā al Waqf, Aba al Waqf, Aba al Waqf Station",
        "name": "محطة أبا الوقف",
        "name:ar": "محطة أبا الوقف",
        "name:ar1": "محطة أبا الوقف",
        "name:de": "Aba al Waqf",
        "name:en": "Aba al Waqf",
        "name:fr": "Aba al Waqf",
        "railway": "station",
        "id": "node/2718667239"
      },
      "geometry": {
        "type": "Point",
        "coordinates": [
          30.8148245,
          28.5832181
        ]
      }
    },
    {
      "type": "Feature",
      "id": "node/2723571740",
      "properties": {
        "name": "دشنا",
        "name:ar": "دشنا",
        "railway": "station",
        "id": "node/2723571740"
      },
      "geometry": {
        "type": "Point",
        "coordinates": [
          32.4616661,
          26.1233268
        ]
      }
    },
    {
      "type": "Feature",
      "id": "node/2723584164",
      "properties": {
        "alt_name": "محطة أولاد عمر",
        "int_name": "Maḩaţţat Awlād ‘Amr, Mahattat Awlad Amr",
        "name": "محطة أولاد عمر",
        "name:ar": "محطة أولاد عمر",
        "name:ar1": "محطة أولاد عمر",
        "name:de": "Mahattat Awlad Amr",
        "name:en": "Mahattat Awlad Amr",
        "name:fr": "Mahattat Awlad Amr",
        "railway": "station",
        "id": "node/2723584164"
      },
      "geometry": {
        "type": "Point",
        "coordinates": [
          32.5878808,
          26.1606338
        ]
      }
    },
    {
      "type": "Feature",
      "id": "node/2723654248",
      "properties": {
        "name": "قفـط",
        "name:ar": "قفـط",
        "railway": "station",
        "id": "node/2723654248"
      },
      "geometry": {
        "type": "Point",
        "coordinates": [
          32.8008886,
          25.9944865
        ]
      }
    },
    {
      "type": "Feature",
      "id": "node/2723654290",
      "properties": {
        "alt_name": "محطة أبنود",
        "int_name": "Maḩaţţat Abnūd, Mahattat Abnud",
        "name": "محطة أبنود",
        "name:ar": "محطة أبنود",
        "name:ar1": "محطة أبنود",
        "name:de": "Mahattat Abnud",
        "name:en": "Mahattat Abnud",
        "name:fr": "Mahattat Abnud",
        "railway": "station",
        "id": "node/2723654290"
      },
      "geometry": {
        "type": "Point",
        "coordinates": [
          32.7967688,
          26.0539769
        ]
      }
    },
    {
      "type": "Feature",
      "id": "node/2724801300",
      "properties": {
        "railway": "halt",
        "id": "node/2724801300"
      },
      "geometry": {
        "type": "Point",
        "coordinates": [
          32.9455138,
          24.4454725
        ]
      }
    },
    {
      "type": "Feature",
      "id": "node/2724801305",
      "properties": {
        "alt_name": "محطة الجعافرة",
        "int_name": "El-Ga‘âfra Station, Al Gaafra Station",
        "name": "محطة الجعافرة",
        "name:ar": "محطة الجعافرة",
        "name:ar1": "محطة الجعافرة",
        "name:de": "Al Gaafra Station",
        "name:en": "Al Gaafra Station",
        "name:fr": "Al Gaafra Station",
        "railway": "station",
        "id": "node/2724801305"
      },
      "geometry": {
        "type": "Point",
        "coordinates": [
          32.9149535,
          24.3247123
        ]
      }
    },
    {
      "type": "Feature",
      "id": "node/2724801316",
      "properties": {
        "name": "دراو",
        "name:ar": "دراو",
        "name:en": "Daraw",
        "railway": "station",
        "id": "node/2724801316"
      },
      "geometry": {
        "type": "Point",
        "coordinates": [
          32.9273867,
          24.4053453
        ]
      }
    },
    {
      "type": "Feature",
      "id": "node/2726633654",
      "properties": {
        "alt_name": "أبو حجاج",
        "int_name": "Abū Ḩajjāj, Abu Hajjaj",
        "name": "أبو حجاج",
        "name:ar": "أبو حجاج",
        "name:ar1": "أبو حجاج",
        "name:de": "Abu Hajjaj",
        "name:en": "Abu Hajjaj",
        "name:fr": "Abu Hajjaj",
        "public_transport": "stop_position",
        "railway": "station",
        "train": "yes",
        "id": "node/2726633654"
      },
      "geometry": {
        "type": "Point",
        "coordinates": [
          27.8339051,
          31.1313084
        ]
      }
    },
    {
      "type": "Feature",
      "id": "node/2925632632",
      "properties": {
        "public_transport": "station",
        "railway": "station",
        "id": "node/2925632632"
      },
      "geometry": {
        "type": "Point",
        "coordinates": [
          29.389496,
          30.8393052
        ]
      }
    },
    {
      "type": "Feature",
      "id": "node/2930796607",
      "properties": {
        "public_transport": "stop_position",
        "railway": "station",
        "train": "yes",
        "id": "node/2930796607"
      },
      "geometry": {
        "type": "Point",
        "coordinates": [
          30.0589868,
          31.3081509
        ]
      }
    },
    {
      "type": "Feature",
      "id": "node/2988381437",
      "properties": {
        "name": "1",
        "railway": "halt",
        "id": "node/2988381437"
      },
      "geometry": {
        "type": "Point",
        "coordinates": [
          34.3159706,
          27.8553358
        ]
      }
    },
    {
      "type": "Feature",
      "id": "node/2988381520",
      "properties": {
        "name": "3",
        "railway": "halt",
        "id": "node/2988381520"
      },
      "geometry": {
        "type": "Point",
        "coordinates": [
          34.3153962,
          27.8554989
        ]
      }
    },
    {
      "type": "Feature",
      "id": "node/2988381561",
      "properties": {
        "name": "4",
        "railway": "halt",
        "id": "node/2988381561"
      },
      "geometry": {
        "type": "Point",
        "coordinates": [
          34.3147947,
          27.8556696
        ]
      }
    },
    {
      "type": "Feature",
      "id": "node/3055055939",
      "properties": {
        "name": "1",
        "railway": "halt",
        "id": "node/3055055939"
      },
      "geometry": {
        "type": "Point",
        "coordinates": [
          34.3159779,
          27.8553589
        ]
      }
    },
    {
      "type": "Feature",
      "id": "node/3055055940",
      "properties": {
        "name": "2",
        "railway": "halt",
        "id": "node/3055055940"
      },
      "geometry": {
        "type": "Point",
        "coordinates": [
          34.3156356,
          27.8554309
        ]
      }
    },
    {
      "type": "Feature",
      "id": "node/3055055941",
      "properties": {
        "name": "2",
        "railway": "halt",
        "id": "node/3055055941"
      },
      "geometry": {
        "type": "Point",
        "coordinates": [
          34.3156429,
          27.855454
        ]
      }
    },
    {
      "type": "Feature",
      "id": "node/3055055942",
      "properties": {
        "name": "3",
        "railway": "halt",
        "id": "node/3055055942"
      },
      "geometry": {
        "type": "Point",
        "coordinates": [
          34.3154035,
          27.8555219
        ]
      }
    },
    {
      "type": "Feature",
      "id": "node/3055055943",
      "properties": {
        "name": "4",
        "railway": "halt",
        "id": "node/3055055943"
      },
      "geometry": {
        "type": "Point",
        "coordinates": [
          34.314802,
          27.8556927
        ]
      }
    },
    {
      "type": "Feature",
      "id": "node/3240994964",
      "properties": {
        "name": "محطه القطار",
        "name:ar": "محطه القطار",
        "railway": "station",
        "id": "node/3240994964"
      },
      "geometry": {
        "type": "Point",
        "coordinates": [
          31.1210912,
          30.4575144
        ]
      }
    },
    {
      "type": "Feature",
      "id": "node/3605745438",
      "properties": {
        "name": "سوهاج",
        "name:ar": "سوهاج",
        "name:en": "Sohag",
        "railway": "station",
        "id": "node/3605745438"
      },
      "geometry": {
        "type": "Point",
        "coordinates": [
          31.699088,
          26.551439
        ]
      }
    },
    {
      "type": "Feature",
      "id": "node/3605745439",
      "properties": {
        "name": "سيدي جابر",
        "name:ar": "سيدي جابر",
        "name:en": "Sidi Gaber",
        "railway": "station",
        "id": "node/3605745439"
      },
      "geometry": {
        "type": "Point",
        "coordinates": [
          29.9426769,
          31.2188808
        ]
      }
    },
    {
      "type": "Feature",
      "id": "node/3735776182",
      "properties": {
        "name": "برج العرب الجديدة",
        "name:ar": "برج العرب الجديدة",
        "name:en": "New Borg El Arab",
        "public_transport": "stop_position",
        "railway": "station",
        "train": "yes",
        "id": "node/3735776182"
      },
      "geometry": {
        "type": "Point",
        "coordinates": [
          29.5935424,
          30.8869615
        ]
      }
    },
    {
      "type": "Feature",
      "id": "node/3736064406",
      "properties": {
        "railway": "station",
        "id": "node/3736064406"
      },
      "geometry": {
        "type": "Point",
        "coordinates": [
          30.5561684,
          25.0644948
        ]
      }
    },
    {
      "type": "Feature",
      "id": "node/3745059198",
      "properties": {
        "railway": "station",
        "id": "node/3745059198"
      },
      "geometry": {
        "type": "Point",
        "coordinates": [
          31.1938769,
          30.7236601
        ]
      }
    },
    {
      "type": "Feature",
      "id": "node/3745059217",
      "properties": {
        "railway": "station",
        "id": "node/3745059217"
      },
      "geometry": {
        "type": "Point",
        "coordinates": [
          31.1414074,
          30.7254145
        ]
      }
    },
    {
      "type": "Feature",
      "id": "node/3745060251",
      "properties": {
        "railway": "station",
        "id": "node/3745060251"
      },
      "geometry": {
        "type": "Point",
        "coordinates": [
          31.0496139,
          30.9037066
        ]
      }
    },
    {
      "type": "Feature",
      "id": "node/3745060290",
      "properties": {
        "railway": "station",
        "id": "node/3745060290"
      },
      "geometry": {
        "type": "Point",
        "coordinates": [
          30.959146,
          30.968113
        ]
      }
    },
    {
      "type": "Feature",
      "id": "node/3745142980",
      "properties": {
        "railway": "station",
        "id": "node/3745142980"
      },
      "geometry": {
        "type": "Point",
        "coordinates": [
          31.813454,
          30.731164
        ]
      }
    },
    {
      "type": "Feature",
      "id": "node/3759916532",
      "properties": {
        "railway": "station",
        "id": "node/3759916532"
      },
      "geometry": {
        "type": "Point",
        "coordinates": [
          32.9270653,
          24.3670398
        ]
      }
    },
    {
      "type": "Feature",
      "id": "node/3874891889",
      "properties": {
        "name": "محطة الرمل الميري",
        "name:ar": "محطة الرمل الميري",
        "public_transport": "station",
        "railway": "station",
        "id": "node/3874891889"
      },
      "geometry": {
        "type": "Point",
        "coordinates": [
          29.9767615,
          31.2429352
        ]
      }
    },
    {
      "type": "Feature",
      "id": "node/3905349883",
      "properties": {
        "name": "عرابي",
        "name:ar": "عرابي",
        "name:de": "Orabi",
        "name:en": "Orabi",
        "name:fr": "Orabi",
        "public_transport": "station",
        "railway": "station",
        "id": "node/3905349883"
      },
      "geometry": {
        "type": "Point",
        "coordinates": [
          31.2425741,
          30.0575311
        ]
      }
    },
    {
      "type": "Feature",
      "id": "node/3950064082",
      "properties": {
        "name": "محطة قطار العصافرة",
        "name:ar": "محطة العصافرة",
        "name:en": "Asafra Station",
        "public_transport": "stop_position",
        "railway": "station",
        "train": "yes",
        "id": "node/3950064082"
      },
      "geometry": {
        "type": "Point",
        "coordinates": [
          30.0080168,
          31.2727476
        ]
      }
    },
    {
      "type": "Feature",
      "id": "node/3950064083",
      "properties": {
        "name": "محطة قطار المندرة",
        "name:ar": "محطة المندرة",
        "name:en": "Mandara Station",
        "public_transport": "stop_position",
        "railway": "station",
        "train": "yes",
        "id": "node/3950064083"
      },
      "geometry": {
        "type": "Point",
        "coordinates": [
          30.0135714,
          31.2785225
        ]
      }
    },
    {
      "type": "Feature",
      "id": "node/4099047091",
      "properties": {
        "railway": "station",
        "id": "node/4099047091"
      },
      "geometry": {
        "type": "Point",
        "coordinates": [
          29.330132,
          30.7695051
        ]
      }
    },
    {
      "type": "Feature",
      "id": "node/4492770060",
      "properties": {
        "railway": "station",
        "id": "node/4492770060"
      },
      "geometry": {
        "type": "Point",
        "coordinates": [
          32.9113056,
          24.815687
        ]
      }
    },
    {
      "type": "Feature",
      "id": "node/4492770061",
      "properties": {
        "alt_name": "محطة السراج",
        "int_name": "Maḩaţţat as Sirāj, Mahattat al Siraj",
        "name": "محطة السراج",
        "name:ar": "محطة السراج",
        "name:ar1": "محطة السراج",
        "name:de": "Mahattat al Siraj",
        "name:en": "Mahattat al Siraj",
        "name:fr": "Mahattat al Siraj",
        "railway": "station",
        "id": "node/4492770061"
      },
      "geometry": {
        "type": "Point",
        "coordinates": [
          32.8914753,
          24.8560258
        ]
      }
    },
    {
      "type": "Feature",
      "id": "node/4492770062",
      "properties": {
        "railway": "station",
        "id": "node/4492770062"
      },
      "geometry": {
        "type": "Point",
        "coordinates": [
          32.8918273,
          24.8672212
        ]
      }
    },
    {
      "type": "Feature",
      "id": "node/4492770063",
      "properties": {
        "railway": "station",
        "id": "node/4492770063"
      },
      "geometry": {
        "type": "Point",
        "coordinates": [
          32.8799382,
          24.904038
        ]
      }
    },
    {
      "type": "Feature",
      "id": "node/4493010837",
      "properties": {
        "railway": "station",
        "id": "node/4493010837"
      },
      "geometry": {
        "type": "Point",
        "coordinates": [
          32.8759276,
          24.2362892
        ]
      }
    },
    {
      "type": "Feature",
      "id": "node/4621666790",
      "properties": {
        "addr:city": "كوم أمبو",
        "name": "كوم أمبو",
        "name:ar": "كوم أمبو",
        "name:en": "Kawm Umbu",
        "name:ru": "Ком Омбо",
        "public_transport": "station",
        "railway": "station",
        "id": "node/4621666790"
      },
      "geometry": {
        "type": "Point",
        "coordinates": [
          32.9470168,
          24.476656
        ]
      }
    },
    {
      "type": "Feature",
      "id": "node/4621674689",
      "properties": {
        "name:en": "Edfu",
        "railway": "station",
        "id": "node/4621674689"
      },
      "geometry": {
        "type": "Point",
        "coordinates": [
          32.8893036,
          24.9902069
        ]
      }
    },
    {
      "type": "Feature",
      "id": "node/4723141800",
      "properties": {
        "name": "محطة قطار طنطا",
        "name:ar": "محطة قطار طنطا",
        "name:en": "Tanta railway station",
        "public_transport": "station",
        "railway": "station",
        "train": "yes",
        "id": "node/4723141800"
      },
      "geometry": {
        "type": "Point",
        "coordinates": [
          30.9944117,
          30.7814664
        ]
      }
    },
    {
      "type": "Feature",
      "id": "node/5217365043",
      "properties": {
        "name": "الجيزة",
        "name:ar": "الجيزة",
        "name:en": "Giza Suburbs",
        "public_transport": "station",
        "railway": "station",
        "train": "yes",
        "id": "node/5217365043"
      },
      "geometry": {
        "type": "Point",
        "coordinates": [
          31.2082513,
          30.0052451
        ]
      }
    },
    {
      "type": "Feature",
      "id": "node/5218985313",
      "properties": {
        "alt_name": "سبية",
        "int_name": "Sebaiya, Sebaiya",
        "name": "سبية",
        "name:ar": "سبية",
        "name:ar1": "سبية",
        "name:de": "Sebaiya",
        "name:en": "Sebaiya",
        "name:fr": "Sebaiya",
        "railway": "station",
        "id": "node/5218985313"
      },
      "geometry": {
        "type": "Point",
        "coordinates": [
          32.7010849,
          25.1989569
        ]
      }
    },
    {
      "type": "Feature",
      "id": "node/5316869732",
      "properties": {
        "railway": "station",
        "id": "node/5316869732"
      },
      "geometry": {
        "type": "Point",
        "coordinates": [
          32.9281089,
          24.389191
        ]
      }
    },
    {
      "type": "Feature",
      "id": "node/5349031068",
      "properties": {
        "alt_name": "عين شمس",
        "int_name": "‘Ain Shams, Ain Shams",
        "name": "عين شمس",
        "name:ar": "عين شمس",
        "name:ar1": "عين شمس",
        "name:de": "Ain Shams",
        "name:en": "Ain Shams",
        "name:fr": "Ain Shams",
        "railway": "station",
        "id": "node/5349031068"
      },
      "geometry": {
        "type": "Point",
        "coordinates": [
          31.3198596,
          30.1312396
        ]
      }
    },
    {
      "type": "Feature",
      "id": "node/5349031092",
      "properties": {
        "int_name": "El-Malek El-Saleh",
        "name": "الملك الصالح",
        "name:ar": "الملك الصالح",
        "name:de": "Al-Malek Al-Saleh",
        "name:en": "Al-Malek Al-Saleh",
        "name:fr": "Al-Malek Al-Saleh",
        "public_transport": "station",
        "railway": "station",
        "station": "subway",
        "train": "yes",
        "id": "node/5349031092"
      },
      "geometry": {
        "type": "Point",
        "coordinates": [
          31.2309632,
          30.0168801
        ]
      }
    },
    {
      "type": "Feature",
      "id": "node/5639657927",
      "properties": {
        "public_transport": "station",
        "railway": "station",
        "train": "yes",
        "id": "node/5639657927"
      },
      "geometry": {
        "type": "Point",
        "coordinates": [
          32.8821671,
          24.1760069
        ]
      }
    },
    {
      "type": "Feature",
      "id": "node/5741713896",
      "properties": {
        "name": "منوف",
        "name:ar": "منوف",
        "name:en": "Menouf",
        "public_transport": "station",
        "railway": "station",
        "train": "yes",
        "id": "node/5741713896"
      },
      "geometry": {
        "type": "Point",
        "coordinates": [
          30.9388607,
          30.4627356
        ]
      }
    },
    {
      "type": "Feature",
      "id": "node/5784657560",
      "properties": {
        "name": "البدراشين",
        "name:ar": "البدراشين",
        "name:en": "Al-Badrasheen",
        "railway": "station",
        "id": "node/5784657560"
      },
      "geometry": {
        "type": "Point",
        "coordinates": [
          31.2774423,
          29.8536707
        ]
      }
    },
    {
      "type": "Feature",
      "id": "node/6013162698",
      "properties": {
        "name": "بئر حباطة",
        "name:ar": "بئر حباطة",
        "name:en": "Bir Habata",
        "public_transport": "stop_position",
        "railway": "station",
        "train": "yes",
        "id": "node/6013162698"
      },
      "geometry": {
        "type": "Point",
        "coordinates": [
          25.516431,
          31.154618
        ]
      }
    },
    {
      "type": "Feature",
      "id": "node/6049141554",
      "properties": {
        "public_transport": "stop_position",
        "railway": "stop",
        "train": "yes",
        "id": "node/6049141554"
      },
      "geometry": {
        "type": "Point",
        "coordinates": [
          30.9837806,
          29.1795161
        ]
      }
    },
    {
      "type": "Feature",
      "id": "node/6090804167",
      "properties": {
        "public_transport": "stop_position",
        "railway": "station",
        "train": "yes",
        "id": "node/6090804167"
      },
      "geometry": {
        "type": "Point",
        "coordinates": [
          29.5468513,
          30.8241807
        ]
      }
    },
    {
      "type": "Feature",
      "id": "node/6100702050",
      "properties": {
        "public_transport": "stop_position",
        "railway": "station",
        "train": "yes",
        "id": "node/6100702050"
      },
      "geometry": {
        "type": "Point",
        "coordinates": [
          29.5420352,
          30.855701
        ]
      }
    },
    {
      "type": "Feature",
      "id": "node/6102322694",
      "properties": {
        "name": "قرية بهيج",
        "name:ar": "قرية بهيج",
        "public_transport": "stop_position",
        "railway": "station",
        "train": "yes",
        "id": "node/6102322694"
      },
      "geometry": {
        "type": "Point",
        "coordinates": [
          29.595433,
          30.9215106
        ]
      }
    },
    {
      "type": "Feature",
      "id": "node/6112381669",
      "properties": {
        "public_transport": "stop_position",
        "railway": "halt",
        "train": "yes",
        "id": "node/6112381669"
      },
      "geometry": {
        "type": "Point",
        "coordinates": [
          30.0409287,
          31.2850472
        ]
      }
    },
    {
      "type": "Feature",
      "id": "node/6132848326",
      "properties": {
        "public_transport": "station",
        "railway": "station",
        "train": "yes",
        "id": "node/6132848326"
      },
      "geometry": {
        "type": "Point",
        "coordinates": [
          29.8509814,
          31.1519496
        ]
      }
    },
    {
      "type": "Feature",
      "id": "node/6487641607",
      "properties": {
        "name": "محطة قطار طنطا",
        "name:ar": "محطة قطار طنطا",
        "network": "محطة قطار طنطا",
        "public_transport": "station",
        "id": "node/6487641607"
      },
      "geometry": {
        "type": "Point",
        "coordinates": [
          30.9944352,
          30.7815426
        ]
      }
    },
    {
      "type": "Feature",
      "id": "node/6487641608",
      "properties": {
        "name": "الرجدية",
        "name:ar": "الرجدية",
        "network": "الرجدية",
        "public_transport": "station",
        "id": "node/6487641608"
      },
      "geometry": {
        "type": "Point",
        "coordinates": [
          31.047173,
          30.830733
        ]
      }
    },
    {
      "type": "Feature",
      "id": "node/6487641609",
      "properties": {
        "name": "شبشير الحصة",
        "name:ar": "شبشير الحصة",
        "public_transport": "station",
        "id": "node/6487641609"
      },
      "geometry": {
        "type": "Point",
        "coordinates": [
          31.0719177,
          30.8594195
        ]
      }
    },
    {
      "type": "Feature",
      "id": "node/6487641610",
      "properties": {
        "name": "صفط تراب",
        "name:ar": "صفط تراب",
        "public_transport": "station",
        "id": "node/6487641610"
      },
      "geometry": {
        "type": "Point",
        "coordinates": [
          31.1108212,
          30.9043379
        ]
      }
    },
    {
      "type": "Feature",
      "id": "node/6487641611",
      "properties": {
        "name": "منية شنتنا عياش",
        "name:ar": "منية شنتنا عياش",
        "public_transport": "station",
        "id": "node/6487641611"
      },
      "geometry": {
        "type": "Point",
        "coordinates": [
          31.1380552,
          30.9358345
        ]
      }
    },
    {
      "type": "Feature",
      "id": "node/6487641612",
      "properties": {
        "name": "منشأة البكري",
        "name:ar": "منشأة البكري",
        "public_transport": "station",
        "id": "node/6487641612"
      },
      "geometry": {
        "type": "Point",
        "coordinates": [
          31.1521768,
          30.9521595
        ]
      }
    },
    {
      "type": "Feature",
      "id": "node/6487641613",
      "properties": {
        "name": "غزل المحلة",
        "name:ar": "غزل المحلة",
        "public_transport": "station",
        "id": "node/6487641613"
      },
      "geometry": {
        "type": "Point",
        "coordinates": [
          31.1837694,
          30.9691855
        ]
      }
    },
    {
      "type": "Feature",
      "id": "node/6487765585",
      "properties": {
        "name": "محلة أبو علي",
        "name:ar": "محلة أبو علي",
        "public_transport": "station",
        "id": "node/6487765585"
      },
      "geometry": {
        "type": "Point",
        "coordinates": [
          31.192806,
          30.9685735
        ]
      }
    },
    {
      "type": "Feature",
      "id": "node/6487765586",
      "properties": {
        "name": "الراهبين",
        "name:ar": "الراهبين",
        "public_transport": "station",
        "id": "node/6487765586"
      },
      "geometry": {
        "type": "Point",
        "coordinates": [
          31.2155372,
          30.9662663
        ]
      }
    },
    {
      "type": "Feature",
      "id": "node/6487765587",
      "properties": {
        "name": "سمنود",
        "name:ar": "سمنود",
        "public_transport": "station",
        "id": "node/6487765587"
      },
      "geometry": {
        "type": "Point",
        "coordinates": [
          31.2466711,
          30.9643892
        ]
      }
    },
    {
      "type": "Feature",
      "id": "node/6487765588",
      "properties": {
        "name": "ميت خلف",
        "name:ar": "ميت خلف",
        "public_transport": "station",
        "id": "node/6487765588"
      },
      "geometry": {
        "type": "Point",
        "coordinates": [
          31.2720939,
          30.9905422
        ]
      }
    },
    {
      "type": "Feature",
      "id": "node/6487765589",
      "properties": {
        "name": "ميت عساس",
        "name:ar": "ميت عساس",
        "public_transport": "station",
        "id": "node/6487765589"
      },
      "geometry": {
        "type": "Point",
        "coordinates": [
          31.2897351,
          31.0064838
        ]
      }
    },
    {
      "type": "Feature",
      "id": "node/6487765590",
      "properties": {
        "name": "كفر العرب",
        "name:ar": "كفر العرب",
        "public_transport": "station",
        "id": "node/6487765590"
      },
      "geometry": {
        "type": "Point",
        "coordinates": [
          31.3072732,
          31.0225169
        ]
      }
    },
    {
      "type": "Feature",
      "id": "node/6487765591",
      "properties": {
        "name": "ميت الكرما",
        "name:ar": "ميت الكرما",
        "public_transport": "station",
        "id": "node/6487765591"
      },
      "geometry": {
        "type": "Point",
        "coordinates": [
          31.3305042,
          31.0433703
        ]
      }
    },
    {
      "type": "Feature",
      "id": "node/6487765592",
      "properties": {
        "name": "سماد طلخا",
        "name:ar": "سماد طلخا",
        "public_transport": "station",
        "id": "node/6487765592"
      },
      "geometry": {
        "type": "Point",
        "coordinates": [
          31.3922735,
          31.0714495
        ]
      }
    },
    {
      "type": "Feature",
      "id": "node/6487765593",
      "properties": {
        "name": "ميت عنتر",
        "name:ar": "ميت عنتر",
        "public_transport": "station",
        "id": "node/6487765593"
      },
      "geometry": {
        "type": "Point",
        "coordinates": [
          31.3988269,
          31.0838466
        ]
      }
    },
    {
      "type": "Feature",
      "id": "node/6487765594",
      "properties": {
        "name": "شرنقاش",
        "name:ar": "شرنقاش",
        "public_transport": "station",
        "id": "node/6487765594"
      },
      "geometry": {
        "type": "Point",
        "coordinates": [
          31.4047756,
          31.0950623
        ]
      }
    },
    {
      "type": "Feature",
      "id": "node/6487765595",
      "properties": {
        "name": "الطويلة",
        "name:ar": "الطويلة",
        "public_transport": "station",
        "id": "node/6487765595"
      },
      "geometry": {
        "type": "Point",
        "coordinates": [
          31.4187691,
          31.1217634
        ]
      }
    },
    {
      "type": "Feature",
      "id": "node/6487765596",
      "properties": {
        "name": "ديسط",
        "name:ar": "ديسط",
        "public_transport": "station",
        "id": "node/6487765596"
      },
      "geometry": {
        "type": "Point",
        "coordinates": [
          31.4341825,
          31.1510256
        ]
      }
    },
    {
      "type": "Feature",
      "id": "node/6487765597",
      "properties": {
        "name": "بطرة",
        "name:ar": "بطرة",
        "public_transport": "station",
        "id": "node/6487765597"
      },
      "geometry": {
        "type": "Point",
        "coordinates": [
          31.4419826,
          31.1664184
        ]
      }
    },
    {
      "type": "Feature",
      "id": "node/6487765598",
      "properties": {
        "name": "الحاج خليل",
        "name:ar": "الحاج خليل",
        "public_transport": "station",
        "id": "node/6487765598"
      },
      "geometry": {
        "type": "Point",
        "coordinates": [
          31.4653225,
          31.1789253
        ]
      }
    },
    {
      "type": "Feature",
      "id": "node/6487765599",
      "properties": {
        "name": "كفر الحطبة",
        "name:ar": "كفر الحطبة",
        "public_transport": "station",
        "id": "node/6487765599"
      },
      "geometry": {
        "type": "Point",
        "coordinates": [
          31.484465,
          31.182591
        ]
      }
    },
    {
      "type": "Feature",
      "id": "node/6487765600",
      "properties": {
        "name": "كفر الدبوسي",
        "name:ar": "كفر الدبوسي",
        "public_transport": "station",
        "id": "node/6487765600"
      },
      "geometry": {
        "type": "Point",
        "coordinates": [
          31.5003212,
          31.188766
        ]
      }
    },
    {
      "type": "Feature",
      "id": "node/6487833439",
      "properties": {
        "name": "السعادوة",
        "name:ar": "السعادوة",
        "public_transport": "station",
        "id": "node/6487833439"
      },
      "geometry": {
        "type": "Point",
        "coordinates": [
          31.5515717,
          31.2078413
        ]
      }
    },
    {
      "type": "Feature",
      "id": "node/6487833440",
      "properties": {
        "name": "الصبرية",
        "name:ar": "الصبرية",
        "public_transport": "station",
        "id": "node/6487833440"
      },
      "geometry": {
        "type": "Point",
        "coordinates": [
          31.5780305,
          31.2238947
        ]
      }
    },
    {
      "type": "Feature",
      "id": "node/6487833441",
      "properties": {
        "name": "رأس الخليج",
        "name:ar": "رأس الخليج",
        "public_transport": "station",
        "id": "node/6487833441"
      },
      "geometry": {
        "type": "Point",
        "coordinates": [
          31.6160191,
          31.2460113
        ]
      }
    },
    {
      "type": "Feature",
      "id": "node/6487833442",
      "properties": {
        "name": "محطة قطار جمصة",
        "name:ar": "محطة قطار جمصة",
        "public_transport": "station",
        "id": "node/6487833442"
      },
      "geometry": {
        "type": "Point",
        "coordinates": [
          31.6220813,
          31.2777195
        ]
      }
    },
    {
      "type": "Feature",
      "id": "node/6487833443",
      "properties": {
        "name": "السوالم",
        "name:ar": "السوالم",
        "public_transport": "station",
        "id": "node/6487833443"
      },
      "geometry": {
        "type": "Point",
        "coordinates": [
          31.6425199,
          31.3026818
        ]
      }
    },
    {
      "type": "Feature",
      "id": "node/6487833444",
      "properties": {
        "name": "التوفيقية البلد",
        "name:ar": "التوفيقية البلد",
        "public_transport": "station",
        "id": "node/6487833444"
      },
      "geometry": {
        "type": "Point",
        "coordinates": [
          31.7039016,
          31.3879979
        ]
      }
    },
    {
      "type": "Feature",
      "id": "node/6487833445",
      "properties": {
        "name": "كفر البطيخ",
        "name:ar": "كفر البطيخ",
        "public_transport": "station",
        "id": "node/6487833445"
      },
      "geometry": {
        "type": "Point",
        "coordinates": [
          31.7385489,
          31.405366
        ]
      }
    },
    {
      "type": "Feature",
      "id": "node/6487833446",
      "properties": {
        "name": "بستاين كفر البطيخ",
        "name:ar": "بستاين كفر البطيخ",
        "public_transport": "station",
        "id": "node/6487833446"
      },
      "geometry": {
        "type": "Point",
        "coordinates": [
          31.7623037,
          31.4190988
        ]
      }
    },
    {
      "type": "Feature",
      "id": "node/6497561530",
      "properties": {
        "name": "Ikingi Maryut",
        "public_transport": "station",
        "railway": "station",
        "train": "yes",
        "id": "node/6497561530"
      },
      "geometry": {
        "type": "Point",
        "coordinates": [
          29.7644822,
          30.997976
        ]
      }
    },
    {
      "type": "Feature",
      "id": "node/6497561537",
      "properties": {
        "name": "Station",
        "public_transport": "station",
        "railway": "station",
        "train": "yes",
        "id": "node/6497561537"
      },
      "geometry": {
        "type": "Point",
        "coordinates": [
          29.798189,
          31.0182664
        ]
      }
    },
    {
      "type": "Feature",
      "id": "node/6567914726",
      "properties": {
        "name": "Farshot Station",
        "name:en": "Farshot Station",
        "railway": "station",
        "id": "node/6567914726"
      },
      "geometry": {
        "type": "Point",
        "coordinates": [
          32.1663329,
          26.0578898
        ]
      }
    },
    {
      "type": "Feature",
      "id": "node/6810153728",
      "properties": {
        "name": "Toshka",
        "public_transport": "station",
        "id": "node/6810153728"
      },
      "geometry": {
        "type": "Point",
        "coordinates": [
          31.3317734,
          29.8534597
        ]
      }
    },
    {
      "type": "Feature",
      "id": "node/9287421315",
      "properties": {
        "name": "elsouk 2",
        "public_transport": "station",
        "id": "node/9287421315"
      },
      "geometry": {
        "type": "Point",
        "coordinates": [
          29.967573,
          31.2345746
        ]
      }
    },
    {
      "type": "Feature",
      "id": "node/9287466936",
      "properties": {
        "name": "elsouk 3",
        "public_transport": "station",
        "id": "node/9287466936"
      },
      "geometry": {
        "type": "Point",
        "coordinates": [
          29.9671083,
          31.2354072
        ]
      }
    },
    {
      "type": "Feature",
      "id": "node/9288904488",
      "properties": {
        "name": "Hagar",
        "public_transport": "station",
        "id": "node/9288904488"
      },
      "geometry": {
        "type": "Point",
        "coordinates": [
          29.9644336,
          31.2211024
        ]
      }
    },
    {
      "type": "Feature",
      "id": "node/9288929635",
      "properties": {
        "name": "Abou soliman على الشارع",
        "public_transport": "station",
        "id": "node/9288929635"
      },
      "geometry": {
        "type": "Point",
        "coordinates": [
          29.9834593,
          31.22425
        ]
      }
    },
    {
      "type": "Feature",
      "id": "node/9288934520",
      "properties": {
        "name": "khorshid el souk street",
        "public_transport": "station",
        "id": "node/9288934520"
      },
      "geometry": {
        "type": "Point",
        "coordinates": [
          30.0330224,
          31.200005
        ]
      }
    },
    {
      "type": "Feature",
      "id": "node/9288939850",
      "properties": {
        "name": "Sidi gader",
        "public_transport": "station",
        "id": "node/9288939850"
      },
      "geometry": {
        "type": "Point",
        "coordinates": [
          29.9433515,
          31.2184303
        ]
      }
    }
  ]
}