{
  "type": "FeatureCollection",
  "features": [
    {
      "type": "Feature",
      "id": "node/30547011",
      "properties": {
        "addr:city": "Cudillero / Cuideiru",
        "addr:postcode": "33150",
        "name": "Cudillero",
        "public_transport": "station",
        "railway": "station",
        "train": "yes",
        "wikidata": "Q17631195",
        "id": "node/30547011"
      },
      "geometry": {
        "type": "Point",
        "coordinates": [
          -6.1521582,
          43.5509064
        ]
      }
    },
    {
      "type": "Feature",
      "id": "node/30547259",
      "properties": {
        "addr:city": "El Caleyu",
        "name": "El Caleyo",
        "operator": "ADIF",
        "public_transport": "station",
        "railway": "station",
        "train": "yes",
        "wheelchair": "yes",
        "wikidata": "Q5846147",
        "id": "node/30547259"
      },
      "geometry": {
        "type": "Point",
        "coordinates": [
          -5.8728724,
          43.3291331
        ]
      }
    },
    {
      "type": "Feature",
      "id": "node/30550810",
      "properties": {
        "name": "Figaredo",
        "network": "Baiña-Collanzo",
        "operator": "Renfe",
        "public_transport": "station",
        "railway": "station",
        "train": "yes",
        "id": "node/30550810"
      },
      "geometry": {
        "type": "Point",
        "coordinates": [
          -5.7840838,
          43.2138399
        ]
      }
    },
    {
      "type": "Feature",
      "id": "node/30550910",
      "properties": {
        "addr:city": "Soto Ribera",
        "addr:postcode": "33172",
        "name": "Soto Ribera",
        "name:es": "Soto de Ribera",
        "network": "Red de Ancho Métrico (ADIF)",
        "operator": "Renfe Feve",
        "public_transport": "station",
        "railway": "station",
        "train": "yes",
        "id": "node/30550910"
      },
      "geometry": {
        "type": "Point",
        "coordinates": [
          -5.8752416,
          43.3085554
        ]
      }
    },
    {
      "type": "Feature",
      "id": "node/36130273",
      "properties": {
        "name": "Binefar",
        "public_transport": "station",
        "railway": "station",
        "train": "yes",
        "wikidata": "Q5845829",
        "id": "node/36130273"
      },
      "geometry": {
        "type": "Point",
        "coordinates": [
          0.2914061,
          41.8497394
        ]
      }
    },
    {
      "type": "Feature",
      "id": "node/59613809",
      "properties": {
        "name": "Amaña",
        "network": "Euskotren Trena",
        "operator": "Eusko Trenbideak",
        "public_transport": "station",
        "railway": "station",
        "train": "yes",
        "id": "node/59613809"
      },
      "geometry": {
        "type": "Point",
        "coordinates": [
          -2.4802593,
          43.1845581
        ]
      }
    },
    {
      "type": "Feature",
      "id": "node/183669186",
      "properties": {
        "name": "Barreiros",
        "operator": "FEVE",
        "public_transport": "station",
        "railway": "station",
        "train": "yes",
        "wikidata": "Q17631159",
        "id": "node/183669186"
      },
      "geometry": {
        "type": "Point",
        "coordinates": [
          -7.2253134,
          43.5474484
        ]
      }
    },
    {
      "type": "Feature",
      "id": "node/194683237",
      "properties": {
        "name": "San Vicente de la Barquera",
        "public_transport": "station",
        "railway": "station",
        "train": "yes",
        "wikidata": "Q18602056",
        "wikipedia": "es:Estación de San Vicente de la Barquera",
        "id": "node/194683237"
      },
      "geometry": {
        "type": "Point",
        "coordinates": [
          -4.4045521,
          43.3677583
        ]
      }
    },
    {
      "type": "Feature",
      "id": "node/230015114",
      "properties": {
        "name": "Sant Gabriel",
        "name:ca": "Sant Gabriel",
        "name:es": "San Gabriel",
        "network": "Adif",
        "operator": "Renfe - Cercanias",
        "public_transport": "station",
        "railway": "station",
        "train": "yes",
        "wikidata": "Q5847123",
        "id": "node/230015114"
      },
      "geometry": {
        "type": "Point",
        "coordinates": [
          -0.5086586,
          38.3290907
        ]
      }
    },
    {
      "type": "Feature",
      "id": "node/246824210",
      "properties": {
        "addr:city": "Borriana / Burriana",
        "addr:postcode": "12530",
        "name": "Borriana - Les Alqueries",
        "name:ca": "Borriana - Les Alqueries",
        "operator": "Adif",
        "public_transport": "station",
        "railway": "station",
        "train": "yes",
        "wikidata": "Q8779430",
        "wikipedia": "ca:Estació de Borriana-les Alqueries",
        "id": "node/246824210"
      },
      "geometry": {
        "type": "Point",
        "coordinates": [
          -0.1040509,
          39.8965047
        ]
      }
    },
    {
      "type": "Feature",
      "id": "node/254453384",
      "properties": {
        "name": "Toledo",
        "public_transport": "station",
        "railway": "station",
        "train": "yes",
        "wikidata": "Q801520",
        "wikipedia": "es:Estación de Toledo",
        "id": "node/254453384"
      },
      "geometry": {
        "type": "Point",
        "coordinates": [
          -4.0108266,
          39.8625625
        ]
      }
    },
    {
      "type": "Feature",
      "id": "node/259010337",
      "properties": {
        "addr:city": "Málaga",
        "name": "Plaza Mayor",
        "operator": "Adif",
        "public_transport": "station",
        "railway": "halt",
        "train": "yes",
        "wikidata": "Q8841487",
        "id": "node/259010337"
      },
      "geometry": {
        "type": "Point",
        "coordinates": [
          -4.4803344,
          36.6564069
        ]
      }
    },
    {
      "type": "Feature",
      "id": "node/259092311",
      "properties": {
        "fare_area": "B1",
        "interchange": "L12",
        "name": "El Casar",
        "public_transport": "station",
        "railway": "station",
        "train": "yes",
        "usage": "main",
        "wikidata": "Q2778422",
        "wikipedia": "es:Estación de El Casar",
        "id": "node/259092311"
      },
      "geometry": {
        "type": "Point",
        "coordinates": [
          -3.7096898,
          40.3185283
        ]
      }
    },
    {
      "type": "Feature",
      "id": "node/264034930",
      "properties": {
        "name": "Villacañas",
        "public_transport": "station",
        "railway": "station",
        "train": "yes",
        "wikidata": "Q5847461",
        "id": "node/264034930"
      },
      "geometry": {
        "type": "Point",
        "coordinates": [
          -3.3302642,
          39.6221538
        ]
      }
    },
    {
      "type": "Feature",
      "id": "node/266131580",
      "properties": {
        "name": "Villaverde de Pontones",
        "public_transport": "station",
        "railway": "station",
        "train": "yes",
        "wikidata": "Q107441226",
        "id": "node/266131580"
      },
      "geometry": {
        "type": "Point",
        "coordinates": [
          -3.7036647,
          43.4112444
        ]
      }
    },
    {
      "type": "Feature",
      "id": "node/274618728",
      "properties": {
        "name": "Frómista",
        "public_transport": "station",
        "railway": "station",
        "train": "yes",
        "wikidata": "Q5846262",
        "id": "node/274618728"
      },
      "geometry": {
        "type": "Point",
        "coordinates": [
          -4.4022767,
          42.2648338
        ]
      }
    },
    {
      "type": "Feature",
      "id": "node/291282434",
      "properties": {
        "name": "Marrón",
        "operator": "ADIF",
        "public_transport": "station",
        "railway": "station",
        "source": "ADIF",
        "source:url": "http://www.iderail.es/2012/02/06/posicion-de-las-estaciones-de-feve-ii/",
        "train": "yes",
        "wikidata": "Q107441236",
        "id": "node/291282434"
      },
      "geometry": {
        "type": "Point",
        "coordinates": [
          -3.4210458,
          43.3465255
        ]
      }
    },
    {
      "type": "Feature",
      "id": "node/295249206",
      "properties": {
        "name": "Son Sardina",
        "public_transport": "station",
        "railway": "station",
        "train": "yes",
        "wheelchair": "no",
        "id": "node/295249206"
      },
      "geometry": {
        "type": "Point",
        "coordinates": [
          2.6609326,
          39.6203176
        ]
      }
    },
    {
      "type": "Feature",
      "id": "node/343344299",
      "properties": {
        "name": "Chiva",
        "operator": "adif",
        "public_transport": "station",
        "railway": "station",
        "train": "yes",
        "wikidata": "Q5846045",
        "id": "node/343344299"
      },
      "geometry": {
        "type": "Point",
        "coordinates": [
          -0.722945,
          39.4710383
        ]
      }
    },
    {
      "type": "Feature",
      "id": "node/359544261",
      "properties": {
        "name": "Gilet",
        "operator": "Adif",
        "public_transport": "station",
        "railway": "halt",
        "train": "yes",
        "id": "node/359544261"
      },
      "geometry": {
        "type": "Point",
        "coordinates": [
          -0.3206579,
          39.6794065
        ]
      }
    },
    {
      "type": "Feature",
      "id": "node/362214339",
      "properties": {
        "name": "Neda",
        "public_transport": "station",
        "railway": "station",
        "train": "yes",
        "wikidata": "Q5846804",
        "id": "node/362214339"
      },
      "geometry": {
        "type": "Point",
        "coordinates": [
          -8.1610847,
          43.4953011
        ]
      }
    },
    {
      "type": "Feature",
      "id": "node/418358235",
      "properties": {
        "name": "Buñol",
        "operator": "adif",
        "public_transport": "station",
        "railway": "station",
        "train": "yes",
        "wikidata": "Q5845870",
        "id": "node/418358235"
      },
      "geometry": {
        "type": "Point",
        "coordinates": [
          -0.7873916,
          39.4271
        ]
      }
    },
    {
      "type": "Feature",
      "id": "node/444122528",
      "properties": {
        "addr:city": "La Garrovilla",
        "addr:postcode": "06870",
        "addr:street": "Carretera de la Estación",
        "internet_access": "no",
        "name": "Garrovilla-Las Vegas",
        "network": "ADIF",
        "operator": "Renfe Operadora",
        "public_transport": "station",
        "railway": "station",
        "train": "yes",
        "id": "node/444122528"
      },
      "geometry": {
        "type": "Point",
        "coordinates": [
          -6.4772448,
          38.9154013
        ]
      }
    },
    {
      "type": "Feature",
      "id": "node/461938246",
      "properties": {
        "addr:city": "Alacant / Alicante",
        "addr:housenumber": "s/n",
        "addr:postcode": "03005",
        "name": "Universidad de Alicante",
        "name:ca": "Universitat d'Alacant",
        "network": "Adif",
        "operator": "Renfe",
        "public_transport": "station",
        "railway": "station",
        "train": "yes",
        "wikidata": "Q5847383",
        "id": "node/461938246"
      },
      "geometry": {
        "type": "Point",
        "coordinates": [
          -0.5284679,
          38.3841492
        ]
      }
    },
    {
      "type": "Feature",
      "id": "node/493412699",
      "properties": {
        "name": "Meres (FEVE)",
        "public_transport": "station",
        "railway": "station",
        "train": "yes",
        "wikidata": "Q18224282",
        "wikipedia": "es:Estación de Meres",
        "id": "node/493412699"
      },
      "geometry": {
        "type": "Point",
        "coordinates": [
          -5.7485973,
          43.3810247
        ]
      }
    },
    {
      "type": "Feature",
      "id": "node/493413491",
      "properties": {
        "name": "Olloniego",
        "public_transport": "station",
        "railway": "station",
        "train": "yes",
        "wikidata": "Q5846830",
        "id": "node/493413491"
      },
      "geometry": {
        "type": "Point",
        "coordinates": [
          -5.8188069,
          43.2962787
        ]
      }
    },
    {
      "type": "Feature",
      "id": "node/495082202",
      "properties": {
        "name": "Alamedilla",
        "public_transport": "station",
        "railway": "halt",
        "train": "yes",
        "wheelchair": "yes",
        "wikidata": "Q5846453",
        "wikipedia": "es:Estación de La Alamedilla",
        "id": "node/495082202"
      },
      "geometry": {
        "type": "Point",
        "coordinates": [
          -5.6562359,
          40.9667428
        ]
      }
    },
    {
      "type": "Feature",
      "id": "node/496236010",
      "properties": {
        "addr:city": "Torremolinos",
        "name": "Torremolinos",
        "operator": "Adif",
        "public_transport": "station",
        "railway": "station",
        "train": "yes",
        "wheelchair": "no",
        "wikidata": "Q5847350",
        "id": "node/496236010"
      },
      "geometry": {
        "type": "Point",
        "coordinates": [
          -4.4995454,
          36.6225275
        ]
      }
    },
    {
      "type": "Feature",
      "id": "node/500847066",
      "properties": {
        "name": "Moixent",
        "public_transport": "station",
        "railway": "station",
        "train": "yes",
        "id": "node/500847066"
      },
      "geometry": {
        "type": "Point",
        "coordinates": [
          -0.7530892,
          38.8781338
        ]
      }
    },
    {
      "type": "Feature",
      "id": "node/500853832",
      "properties": {
        "name": "Vallada",
        "public_transport": "station",
        "railway": "station",
        "train": "yes",
        "id": "node/500853832"
      },
      "geometry": {
        "type": "Point",
        "coordinates": [
          -0.6850899,
          38.9113827
        ]
      }
    },
    {
      "type": "Feature",
      "id": "node/500853833",
      "properties": {
        "name": "Montesa",
        "public_transport": "station",
        "railway": "station",
        "train": "yes",
        "wikidata": "Q5846746",
        "id": "node/500853833"
      },
      "geometry": {
        "type": "Point",
        "coordinates": [
          -0.6411692,
          38.9428833
        ]
      }
    },
    {
      "type": "Feature",
      "id": "node/500853835",
      "properties": {
        "name": "Xàtiva",
        "name:ca": "Xàtiva",
        "public_transport": "station",
        "railway": "station",
        "train": "yes",
        "wikidata": "Q2894373",
        "wikipedia": "ca:Estació de Xàtiva (ferrocarril)",
        "id": "node/500853835"
      },
      "geometry": {
        "type": "Point",
        "coordinates": [
          -0.5245504,
          38.9921963
        ]
      }
    },
    {
      "type": "Feature",
      "id": "node/500857326",
      "properties": {
        "name": "Carcaixent",
        "public_transport": "station",
        "railway": "station",
        "train": "yes",
        "wikidata": "Q5845960",
        "id": "node/500857326"
      },
      "geometry": {
        "type": "Point",
        "coordinates": [
          -0.4544574,
          39.1205262
        ]
      }
    },
    {
      "type": "Feature",
      "id": "node/500857327",
      "properties": {
        "name": "Alzira",
        "name:ca": "Alzira",
        "public_transport": "station",
        "railway": "station",
        "train": "yes",
        "wikidata": "Q11681628",
        "wikipedia": "ca:Estació d'Alzira",
        "id": "node/500857327"
      },
      "geometry": {
        "type": "Point",
        "coordinates": [
          -0.4506755,
          39.1531972
        ]
      }
    },
    {
      "type": "Feature",
      "id": "node/500857331",
      "properties": {
        "name": "L'Ènova - Manuel",
        "name:ca": "L'Ènova-Manuel",
        "public_transport": "station",
        "railway": "station",
        "train": "yes",
        "wikidata": "Q5846450",
        "id": "node/500857331"
      },
      "geometry": {
        "type": "Point",
        "coordinates": [
          -0.4773298,
          39.0502003
        ]
      }
    },
    {
      "type": "Feature",
      "id": "node/500857332",
      "properties": {
        "name": "La Pobla Llarga",
        "public_transport": "station",
        "railway": "station",
        "train": "yes",
        "wikidata": "Q5846975",
        "id": "node/500857332"
      },
      "geometry": {
        "type": "Point",
        "coordinates": [
          -0.4696305,
          39.0832888
        ]
      }
    },
    {
      "type": "Feature",
      "id": "node/503166032",
      "properties": {
        "name": "San Antonio de Requena",
        "operator": "adif",
        "public_transport": "station",
        "railway": "station",
        "train": "yes",
        "wikidata": "Q5847111",
        "id": "node/503166032"
      },
      "geometry": {
        "type": "Point",
        "coordinates": [
          -1.150336,
          39.5223501
        ]
      }
    },
    {
      "type": "Feature",
      "id": "node/530777095",
      "properties": {
        "ele:local": "493.9",
        "name": "Vic",
        "name:ca": "Vic",
        "operator": "Adif",
        "public_transport": "station",
        "railway": "station",
        "source:ele": "commons.wikimedia.org/wiki/File:Vic_-_Estació_-_20110121_(3).jpg",
        "train": "yes",
        "wikidata": "Q8842197",
        "wikipedia": "ca:Estació de Vic",
        "id": "node/530777095"
      },
      "geometry": {
        "type": "Point",
        "coordinates": [
          2.248679,
          41.930983
        ]
      }
    },
    {
      "type": "Feature",
      "id": "node/539005521",
      "properties": {
        "name": "Cabeza Del Buey",
        "network": "ADIF",
        "public_transport": "station",
        "railway": "station",
        "train": "yes",
        "wikidata": "Q5845885",
        "id": "node/539005521"
      },
      "geometry": {
        "type": "Point",
        "coordinates": [
          -5.2268299,
          38.7240424
        ]
      }
    },
    {
      "type": "Feature",
      "id": "node/539006238",
      "properties": {
        "name": "Almadenejos-Almaden",
        "network": "ADIF",
        "public_transport": "station",
        "railway": "station",
        "train": "yes",
        "wikidata": "Q5845659",
        "id": "node/539006238"
      },
      "geometry": {
        "type": "Point",
        "coordinates": [
          -4.7303171,
          38.7404341
        ]
      }
    },
    {
      "type": "Feature",
      "id": "node/552951950",
      "properties": {
        "name": "Sagrada Familia",
        "operator": "Cercanias Renfe",
        "public_transport": "station",
        "railway": "station",
        "train": "yes",
        "wikidata": "Q8355489",
        "id": "node/552951950"
      },
      "geometry": {
        "type": "Point",
        "coordinates": [
          -3.0536821,
          43.3085685
        ]
      }
    },
    {
      "type": "Feature",
      "id": "node/552964731",
      "properties": {
        "name": "Gallarta",
        "public_transport": "station",
        "railway": "station",
        "train": "yes",
        "wikidata": "Q8357993",
        "id": "node/552964731"
      },
      "geometry": {
        "type": "Point",
        "coordinates": [
          -3.0674382,
          43.3193692
        ]
      }
    },
    {
      "type": "Feature",
      "id": "node/596122585",
      "properties": {
        "name": "Zuera",
        "public_transport": "station",
        "railway": "station",
        "train": "yes",
        "id": "node/596122585"
      },
      "geometry": {
        "type": "Point",
        "coordinates": [
          -0.7638077,
          41.8771898
        ]
      }
    },
    {
      "type": "Feature",
      "id": "node/608988814",
      "properties": {
        "name": "Legazpi",
        "name:es": "Legazpia",
        "name:eu": "Legazpi",
        "operator": "Adif",
        "public_transport": "station",
        "railway": "station",
        "train": "yes",
        "wikidata": "Q8840918",
        "id": "node/608988814"
      },
      "geometry": {
        "type": "Point",
        "coordinates": [
          -2.33048,
          43.0510088
        ]
      }
    },
    {
      "type": "Feature",
      "id": "node/618431639",
      "properties": {
        "addr:city": "Elgoibar",
        "addr:country": "ES",
        "addr:housenumber": "12",
        "addr:postcode": "20860",
        "addr:street": "Donosti",
        "b5m:id": "D_12632",
        "b5m:url": "http://b5m.gipuzkoa.net/b5map/r1/eu/mapa/lekutu/D_12632",
        "b5m:urlOrto": "http://b5m.gipuzkoa.net/url5000/index.php?id=D_12632&lengua=1&actu=0&categoria=VITO_FOTO",
        "description": "Estacion De Ferrocarril",
        "name": "Altzola",
        "network": "Euskotren Trena",
        "operator": "Eusko Trenbideak",
        "public_transport": "station",
        "railway": "halt",
        "source": "b5m",
        "train": "yes",
        "wikidata": "Q12253265",
        "wikipedia": "eu:Altzolako geltokia",
        "id": "node/618431639"
      },
      "geometry": {
        "type": "Point",
        "coordinates": [
          -2.3995256,
          43.2358719
        ]
      }
    },
    {
      "type": "Feature",
      "id": "node/620144475",
      "properties": {
        "addr:city": "Zarautz",
        "addr:country": "ES",
        "addr:housenumber": "2",
        "addr:postcode": "20800",
        "addr:street": "Lapurdi kalea",
        "b5m:id": "D_52706",
        "b5m:url": "http://b5m.gipuzkoa.net/b5map/r1/eu/mapa/lekutu/D_52706",
        "b5m:urlOrto": "http://b5m.gipuzkoa.net/url5000/index.php?id=D_52706&lengua=1&actu=0&categoria=VITO_FOTO",
        "description": "Euskotren Geltokia",
        "name": "Zarautz",
        "name:ar": "ثاراوث",
        "network": "Euskotren Trena",
        "official_name": "Zarauzko geltokia",
        "operator": "Eusko Trenbideak",
        "public_transport": "station",
        "railway": "station",
        "source": "b5m",
        "train": "yes",
        "wheelchair": "yes",
        "wikidata": "Q12269224",
        "wikipedia": "eu:Zarauzko geltokia",
        "id": "node/620144475"
      },
      "geometry": {
        "type": "Point",
        "coordinates": [
          -2.1712097,
          43.2843227
        ]
      }
    },
    {
      "type": "Feature",
      "id": "node/620156283",
      "properties": {
        "addr:city": "Zumaia",
        "addr:country": "ES",
        "addr:housenumber": "1",
        "addr:postcode": "20750",
        "addr:street": "Estazioa",
        "b5m:id": "D_240115",
        "b5m:url": "http://b5m.gipuzkoa.net/b5map/r1/eu/mapa/lekutu/D_240115",
        "b5m:urlOrto": "http://b5m.gipuzkoa.net/url5000/index.php?id=D_240115&lengua=1&actu=0&categoria=VITO_FOTO",
        "description": "Tren geltokia",
        "name": "Zumaia",
        "network": "Euskotren Trena",
        "operator": "Eusko Trenbideak",
        "public_transport": "station",
        "railway": "station",
        "source": "b5m",
        "train": "yes",
        "wheelchair": "limited",
        "wikidata": "Q12269487",
        "wikipedia": "eu:Zumaiako geltokia",
        "id": "node/620156283"
      },
      "geometry": {
        "type": "Point",
        "coordinates": [
          -2.2517786,
          43.2915586
        ]
      }
    },
    {
      "type": "Feature",
      "id": "node/650035568",
      "properties": {
        "addr:city": "Irun",
        "addr:housenumber": "63",
        "addr:postcode": "20302",
        "addr:street": "Iparralde hiribidea",
        "alt_name": "Irún-Puente Internacional",
        "b5m:id": "D_19247",
        "b5m:url": "http://b5m.gipuzkoa.net/b5map/r1/eu/mapa/lekutu/D_19247",
        "b5m:urlOrto": "http://b5m.gipuzkoa.net/url5000/index.php?id=D_19247&lengua=1&actu=0&categoria=VITO_FOTO",
        "contact:website": "http://www.transfermuga.eu/fr/les-gares-transfrontalieres/",
        "internet_access": "no",
        "name": "Irun Ficoba",
        "name:es": "Irún Ficoba",
        "name:eu": "Irun Ficoba",
        "name:fr": "Irun Ficoba",
        "network": "Euskotren Trena",
        "operator": "Eusko Trenbideak",
        "public_transport": "station",
        "railway": "station",
        "source": "b5m",
        "train": "yes",
        "wikidata": "Q12259772",
        "wikipedia": "eu:Ficoba geltokia",
        "id": "node/650035568"
      },
      "geometry": {
        "type": "Point",
        "coordinates": [
          -1.7861654,
          43.3494482
        ]
      }
    },
    {
      "type": "Feature",
      "id": "node/651274704",
      "properties": {
        "addr:city": "Deba",
        "addr:country": "ES",
        "addr:housenumber": "6",
        "addr:postcode": "20820",
        "addr:street": "Arakistain Plaza",
        "b5m:id": "D_9906",
        "b5m:url": "http://b5m.gipuzkoa.net/b5map/r1/eu/mapa/lekutu/D_9906",
        "b5m:urlOrto": "http://b5m.gipuzkoa.net/url5000/index.php?id=D_9906&lengua=1&actu=0&categoria=VITO_FOTO",
        "name": "Deba",
        "public_transport": "station",
        "railway": "station",
        "source": "b5m",
        "train": "yes",
        "wikidata": "Q12256115",
        "id": "node/651274704"
      },
      "geometry": {
        "type": "Point",
        "coordinates": [
          -2.3555485,
          43.2936429
        ]
      }
    },
    {
      "type": "Feature",
      "id": "node/718490529",
      "properties": {
        "addr:city": "Mendaro",
        "addr:country": "ES",
        "addr:housenumber": "6",
        "addr:postcode": "20850",
        "addr:street": "Jose Mª Linazasoro",
        "b5m:id": "D_54737",
        "b5m:url": "http://b5m.gipuzkoa.net/b5map/r1/eu/mapa/lekutu/D_54737",
        "b5m:urlOrto": "http://b5m.gipuzkoa.net/url5000/index.php?id=D_54737&lengua=1&actu=0&categoria=VITO_FOTO",
        "description": "Eusko Tren Geltokia",
        "name": "Mendaro",
        "network": "Euskotren Trena",
        "operator": "Eusko Trenbideak",
        "public_transport": "station",
        "railway": "station",
        "source": "b5m",
        "train": "yes",
        "wikidata": "Q12263372",
        "wikipedia": "eu:Mendaroko geltokia",
        "id": "node/718490529"
      },
      "geometry": {
        "type": "Point",
        "coordinates": [
          -2.3878988,
          43.2521961
        ]
      }
    },
    {
      "type": "Feature",
      "id": "node/748204748",
      "properties": {
        "name": "Muro",
        "public_transport": "station",
        "railway": "station",
        "train": "yes",
        "id": "node/748204748"
      },
      "geometry": {
        "type": "Point",
        "coordinates": [
          3.0319461,
          39.7340175
        ]
      }
    },
    {
      "type": "Feature",
      "id": "node/801461102",
      "properties": {
        "name": "Olloniego",
        "public_transport": "station",
        "railway": "station",
        "train": "yes",
        "id": "node/801461102"
      },
      "geometry": {
        "type": "Point",
        "coordinates": [
          -5.8188201,
          43.2961796
        ]
      }
    },
    {
      "type": "Feature",
      "id": "node/838494405",
      "properties": {
        "name": "Aldaia",
        "name:ca": "Aldaia",
        "name:es": "Aldaya",
        "public_transport": "station",
        "railway": "station",
        "train": "yes",
        "wikidata": "Q5845636",
        "id": "node/838494405"
      },
      "geometry": {
        "type": "Point",
        "coordinates": [
          -0.4637445,
          39.460971
        ]
      }
    },
    {
      "type": "Feature",
      "id": "node/968361236",
      "properties": {
        "addr:city": "L'Hospitalet de Llobregat",
        "name": "L'Hospitalet de Llobregat",
        "operator": "Adif",
        "public_transport": "station",
        "railway": "station",
        "train": "yes",
        "uic_ref": "7172305",
        "id": "node/968361236"
      },
      "geometry": {
        "type": "Point",
        "coordinates": [
          2.100942,
          41.3642387
        ]
      }
    },
    {
      "type": "Feature",
      "id": "node/1147563224",
      "properties": {
        "name": "Zaragoza-Miraflores",
        "operator": "Adif",
        "public_transport": "station",
        "railway": "station",
        "train": "yes",
        "usage": "main",
        "wikidata": "Q8841056",
        "id": "node/1147563224"
      },
      "geometry": {
        "type": "Point",
        "coordinates": [
          -0.8683152,
          41.6331858
        ]
      }
    },
    {
      "type": "Feature",
      "id": "node/1152895181",
      "properties": {
        "addr:city": "Madrid",
        "addr:postcode": "28021",
        "fare_area": "A",
        "internet_access": "no",
        "name": "Villaverde Bajo",
        "operator": "Renfe",
        "public_transport": "station",
        "railway": "station",
        "train": "yes",
        "website": "https://www.renfe.com",
        "wheelchair": "yes",
        "wikidata": "Q2560615",
        "wikipedia": "es:Estación de Villaverde Bajo",
        "id": "node/1152895181"
      },
      "geometry": {
        "type": "Point",
        "coordinates": [
          -3.6839811,
          40.352592
        ]
      }
    },
    {
      "type": "Feature",
      "id": "node/1362173662",
      "properties": {
        "light_rail": "yes",
        "name": "Gran via Asima",
        "name:ca": "Gran via Asima",
        "public_transport": "station",
        "railway": "station",
        "station": "light_rail",
        "train": "yes",
        "wikidata": "Q941350",
        "wikipedia": "ca:Estació de Gran Via Asima",
        "id": "node/1362173662"
      },
      "geometry": {
        "type": "Point",
        "coordinates": [
          2.6687509,
          39.6063852
        ]
      }
    },
    {
      "type": "Feature",
      "id": "node/1362173663",
      "properties": {
        "light_rail": "yes",
        "name": "Camí dels Reis",
        "name:ca": "Camí dels Reis",
        "public_transport": "station",
        "railway": "station",
        "station": "light_rail",
        "train": "yes",
        "wikidata": "Q5028832",
        "wikipedia": "ca:Estació de Camí dels Reis",
        "id": "node/1362173663"
      },
      "geometry": {
        "type": "Point",
        "coordinates": [
          2.6653561,
          39.6102917
        ]
      }
    },
    {
      "type": "Feature",
      "id": "node/1362173665",
      "properties": {
        "light_rail": "yes",
        "name": "Son Castelló",
        "name:ca": "Son Castelló",
        "public_transport": "station",
        "railway": "station",
        "station": "light_rail",
        "train": "yes",
        "wikidata": "Q7560575",
        "wikipedia": "ca:Estació de Son Castelló",
        "id": "node/1362173665"
      },
      "geometry": {
        "type": "Point",
        "coordinates": [
          2.6722551,
          39.6023496
        ]
      }
    },
    {
      "type": "Feature",
      "id": "node/1362173666",
      "properties": {
        "light_rail": "yes",
        "name": "Son Fuster Vell",
        "name:ca": "Son Fuster Vell",
        "public_transport": "station",
        "railway": "station",
        "station": "light_rail",
        "train": "yes",
        "wikidata": "Q7560578",
        "wikipedia": "ca:Estació de Son Fuster Vell",
        "id": "node/1362173666"
      },
      "geometry": {
        "type": "Point",
        "coordinates": [
          2.6715156,
          39.5954593
        ]
      }
    },
    {
      "type": "Feature",
      "id": "node/1419646439",
      "properties": {
        "name": "Estación de Puebla de Sanabria",
        "network": "RENFE",
        "operator": "ADIF",
        "public_transport": "station",
        "railway": "station",
        "train": "yes",
        "id": "node/1419646439"
      },
      "geometry": {
        "type": "Point",
        "coordinates": [
          -6.6269406,
          42.0455988
        ]
      }
    },
    {
      "type": "Feature",
      "id": "node/1497802242",
      "properties": {
        "name": "Gelida superior",
        "name:es": "Gelida superior",
        "public_transport": "station",
        "railway": "station",
        "train": "yes",
        "id": "node/1497802242"
      },
      "geometry": {
        "type": "Point",
        "coordinates": [
          1.8645887,
          41.4405906
        ]
      }
    },
    {
      "type": "Feature",
      "id": "node/1567648473",
      "properties": {
        "internet_access": "no",
        "name": "Aeropuerto de Jerez",
        "operator": "Adif",
        "public_transport": "station",
        "railway": "station",
        "train": "yes",
        "wikidata": "Q5845587",
        "id": "node/1567648473"
      },
      "geometry": {
        "type": "Point",
        "coordinates": [
          -6.066446,
          36.7512312
        ]
      }
    },
    {
      "type": "Feature",
      "id": "node/1604259381",
      "properties": {
        "name": "Mimetiz",
        "public_transport": "station",
        "railway": "halt",
        "train": "yes",
        "wikidata": "Q12263664",
        "id": "node/1604259381"
      },
      "geometry": {
        "type": "Point",
        "coordinates": [
          -3.1311374,
          43.2157531
        ]
      }
    },
    {
      "type": "Feature",
      "id": "node/1625248245",
      "properties": {
        "name": "Covas",
        "operator": "ADIF",
        "public_transport": "station",
        "railway": "station",
        "source": "ADIF",
        "source:url": "http://www.iderail.es/2012/02/06/posicion-de-las-estaciones-de-feve-ii/",
        "train": "yes",
        "wikidata": "Q17631192",
        "id": "node/1625248245"
      },
      "geometry": {
        "type": "Point",
        "coordinates": [
          -7.6146206,
          43.6701532
        ]
      }
    },
    {
      "type": "Feature",
      "id": "node/1625248341",
      "properties": {
        "name": "Viveiro apeadoiro",
        "operator": "ADIF",
        "public_transport": "station",
        "railway": "station",
        "source": "ADIF",
        "source:url": "http://www.iderail.es/2012/02/06/posicion-de-las-estaciones-de-feve-ii/",
        "train": "yes",
        "id": "node/1625248341"
      },
      "geometry": {
        "type": "Point",
        "coordinates": [
          -7.5921151,
          43.6630576
        ]
      }
    },
    {
      "type": "Feature",
      "id": "node/1625248357",
      "properties": {
        "name": "Xuances",
        "operator": "ADIF",
        "public_transport": "station",
        "railway": "station",
        "source": "ADIF",
        "source:url": "http://www.iderail.es/2012/02/06/posicion-de-las-estaciones-de-feve-ii/",
        "train": "yes",
        "wikidata": "Q17631477",
        "id": "node/1625248357"
      },
      "geometry": {
        "type": "Point",
        "coordinates": [
          -7.5538634,
          43.6880988
        ]
      }
    },
    {
      "type": "Feature",
      "id": "node/1669114248",
      "properties": {
        "name": "Rajadell",
        "name:ca": "Rajadell",
        "operator": "ADIF/Renfe",
        "public_transport": "station",
        "railway": "station",
        "train": "yes",
        "wikidata": "Q649294",
        "wikipedia": "ca:Estació de Rajadell",
        "id": "node/1669114248"
      },
      "geometry": {
        "type": "Point",
        "coordinates": [
          1.6985293,
          41.7324011
        ]
      }
    },
    {
      "type": "Feature",
      "id": "node/1680233321",
      "properties": {
        "name": "Aeri de Montserrat",
        "name:ca": "Aeri de Montserrat",
        "name:ru": "Аэри де Монтсеррат",
        "operator": "FGC",
        "public_transport": "station",
        "railway": "station",
        "train": "yes",
        "id": "node/1680233321"
      },
      "geometry": {
        "type": "Point",
        "coordinates": [
          1.853415,
          41.5912292
        ]
      }
    },
    {
      "type": "Feature",
      "id": "node/1707067693",
      "properties": {
        "name": "Cecebre",
        "public_transport": "station",
        "railway": "station",
        "train": "yes",
        "wheelchair": "yes",
        "wikidata": "Q6389575",
        "id": "node/1707067693"
      },
      "geometry": {
        "type": "Point",
        "coordinates": [
          -8.3077705,
          43.2878536
        ]
      }
    },
    {
      "type": "Feature",
      "id": "node/1819191529",
      "properties": {
        "addr:housenumber": "5",
        "addr:street": "Calle Galicia",
        "name": "Elda-Petrer",
        "opening_hours": "Mo-Su 06:00-22:30",
        "public_transport": "station",
        "railway": "station",
        "train": "yes",
        "website": "https://wwwrenfe.com,",
        "id": "node/1819191529"
      },
      "geometry": {
        "type": "Point",
        "coordinates": [
          -0.8012935,
          38.4844914
        ]
      }
    },
    {
      "type": "Feature",
      "id": "node/1834280969",
      "properties": {
        "name": "Santa Susanna",
        "name:ca": "Santa Susanna",
        "operator": "Adif",
        "public_transport": "station",
        "railway": "halt",
        "train": "yes",
        "wheelchair": "yes",
        "wikidata": "Q2567895",
        "wikipedia": "ca:Estació de Santa Susanna",
        "id": "node/1834280969"
      },
      "geometry": {
        "type": "Point",
        "coordinates": [
          2.7164641,
          41.6301474
        ]
      }
    },
    {
      "type": "Feature",
      "id": "node/1842017741",
      "properties": {
        "name": "Ourense",
        "name:ar": "أورنسي",
        "name:es": "Orense",
        "public_transport": "station",
        "railway": "station",
        "station": "train",
        "train": "yes",
        "wikidata": "Q3268431",
        "id": "node/1842017741"
      },
      "geometry": {
        "type": "Point",
        "coordinates": [
          -7.872551,
          42.350692
        ]
      }
    },
    {
      "type": "Feature",
      "id": "node/1864468754",
      "properties": {
        "name": "Pedrosa",
        "public_transport": "station",
        "railway": "station",
        "train": "yes",
        "id": "node/1864468754"
      },
      "geometry": {
        "type": "Point",
        "coordinates": [
          -3.7378104,
          43.0123409
        ]
      }
    },
    {
      "type": "Feature",
      "id": "node/1914054304",
      "properties": {
        "alt_name": "Figueres-Alt Empordà",
        "name": "Figueres Vilafant",
        "name:ca": "Figueres Vilafant",
        "operator": "Adif",
        "public_transport": "station",
        "railway": "station",
        "train": "yes",
        "wikidata": "Q2783545",
        "wikipedia": "ca:Estació de Figueres-Vilafant",
        "id": "node/1914054304"
      },
      "geometry": {
        "type": "Point",
        "coordinates": [
          2.9426836,
          42.2646953
        ]
      }
    },
    {
      "type": "Feature",
      "id": "node/1958324275",
      "properties": {
        "name": "Ribadavia",
        "public_transport": "station",
        "railway": "station",
        "source": "PNOA",
        "train": "yes",
        "wikidata": "Q8841616",
        "id": "node/1958324275"
      },
      "geometry": {
        "type": "Point",
        "coordinates": [
          -8.1389527,
          42.2930645
        ]
      }
    },
    {
      "type": "Feature",
      "id": "node/1966626240",
      "properties": {
        "name": "Can Ros",
        "operator": "FGC",
        "platforms": "2",
        "public_transport": "station",
        "railway": "station",
        "train": "yes",
        "wheelchair": "yes",
        "id": "node/1966626240"
      },
      "geometry": {
        "type": "Point",
        "coordinates": [
          2.0048852,
          41.3993588
        ]
      }
    },
    {
      "type": "Feature",
      "id": "node/1996338625",
      "properties": {
        "name": "Colera",
        "name:ca": "Colera",
        "operator": "Adif",
        "public_transport": "station",
        "railway": "halt",
        "train": "yes",
        "wikidata": "Q8779643",
        "wikipedia": "ca:Estació de Colera",
        "id": "node/1996338625"
      },
      "geometry": {
        "type": "Point",
        "coordinates": [
          3.1541786,
          42.4069982
        ]
      }
    },
    {
      "type": "Feature",
      "id": "node/1997914145",
      "properties": {
        "addr:city": "Barruelo de Santullán",
        "addr:postcode": "34820",
        "addr:street": "Avenida Sor María",
        "internet_access": "wlan",
        "name": "Barruelo de Santullán",
        "network": "Barruelo Camesa",
        "operator": "Renfe",
        "public_transport": "station",
        "railway": "station",
        "train": "yes",
        "id": "node/1997914145"
      },
      "geometry": {
        "type": "Point",
        "coordinates": [
          -4.2878651,
          42.903804
        ]
      }
    },
    {
      "type": "Feature",
      "id": "node/1998634565",
      "properties": {
        "name": "Llançà",
        "name:ca": "Llançà",
        "operator": "Adif",
        "public_transport": "station",
        "railway": "station",
        "source": "http://www.iderail.es/2012/03/08/posicion-estaciones-de-adif/",
        "train": "yes",
        "uic_ref": "7100207",
        "wikidata": "Q8840949",
        "wikipedia": "ca:Estació de Llançà",
        "id": "node/1998634565"
      },
      "geometry": {
        "type": "Point",
        "coordinates": [
          3.1491602,
          42.3668
        ]
      }
    },
    {
      "type": "Feature",
      "id": "node/2046477540",
      "properties": {
        "name": "Manzanos",
        "public_transport": "station",
        "railway": "station",
        "station": "train",
        "train": "yes",
        "wikidata": "Q3381098",
        "id": "node/2046477540"
      },
      "geometry": {
        "type": "Point",
        "coordinates": [
          -2.8673352,
          42.742736
        ]
      }
    },
    {
      "type": "Feature",
      "id": "node/2059973150",
      "properties": {
        "name": "Xuvia",
        "name:es": "Xuvia",
        "name:gl": "Xuvia",
        "public_transport": "station",
        "railway": "station",
        "train": "yes",
        "wikidata": "Q17631481",
        "id": "node/2059973150"
      },
      "geometry": {
        "type": "Point",
        "coordinates": [
          -8.1612901,
          43.5172256
        ]
      }
    },
    {
      "type": "Feature",
      "id": "node/2085235056",
      "properties": {
        "name": "Estació Tren Cocentaina",
        "public_transport": "station",
        "railway": "station",
        "train": "yes",
        "id": "node/2085235056"
      },
      "geometry": {
        "type": "Point",
        "coordinates": [
          -0.4470398,
          38.7407439
        ]
      }
    },
    {
      "type": "Feature",
      "id": "node/2203343273",
      "properties": {
        "name": "Babilafuente",
        "public_transport": "station",
        "railway": "station",
        "train": "yes",
        "wikidata": "Q8779326",
        "id": "node/2203343273"
      },
      "geometry": {
        "type": "Point",
        "coordinates": [
          -5.4305259,
          40.9722843
        ]
      }
    },
    {
      "type": "Feature",
      "id": "node/2209660914",
      "properties": {
        "name": "Montblanc",
        "name:ca": "Montblanc",
        "operator": "Adif",
        "public_transport": "station",
        "railway": "station",
        "train": "yes",
        "uic_ref": "7100449",
        "wikidata": "Q11681662",
        "wikipedia": "ca:Estació de Montblanc",
        "id": "node/2209660914"
      },
      "geometry": {
        "type": "Point",
        "coordinates": [
          1.1657117,
          41.3765162
        ]
      }
    },
    {
      "type": "Feature",
      "id": "node/2238588521",
      "properties": {
        "name": "Barallobre",
        "public_transport": "station",
        "railway": "station",
        "train": "yes",
        "wikidata": "Q7830477",
        "id": "node/2238588521"
      },
      "geometry": {
        "type": "Point",
        "coordinates": [
          -8.1886027,
          43.4628782
        ]
      }
    },
    {
      "type": "Feature",
      "id": "node/2238595941",
      "properties": {
        "name": "Perlío-Fene",
        "public_transport": "station",
        "railway": "station",
        "train": "yes",
        "id": "node/2238595941"
      },
      "geometry": {
        "type": "Point",
        "coordinates": [
          -8.1748625,
          43.4723381
        ]
      }
    },
    {
      "type": "Feature",
      "id": "node/2242865233",
      "properties": {
        "name": "Bellpuig",
        "public_transport": "station",
        "railway": "station",
        "train": "yes",
        "id": "node/2242865233"
      },
      "geometry": {
        "type": "Point",
        "coordinates": [
          1.0128338,
          41.6325822
        ]
      }
    },
    {
      "type": "Feature",
      "id": "node/2242865261",
      "properties": {
        "name": "Golmés",
        "name:ca": "Golmés",
        "public_transport": "station",
        "railway": "station",
        "train": "yes",
        "wikidata": "Q634492",
        "wikipedia": "ca:Estació de Golmés",
        "id": "node/2242865261"
      },
      "geometry": {
        "type": "Point",
        "coordinates": [
          0.9308954,
          41.6359293
        ]
      }
    },
    {
      "type": "Feature",
      "id": "node/2242865272",
      "properties": {
        "name": "Castellnou de Seana",
        "name:ca": "Castellnou de Seana",
        "operator": "Renfe",
        "public_transport": "station",
        "railway": "station",
        "train": "yes",
        "wikidata": "Q634409",
        "wikipedia": "ca:Estació de Castellnou de Seana",
        "id": "node/2242865272"
      },
      "geometry": {
        "type": "Point",
        "coordinates": [
          0.9678951,
          41.6373946
        ]
      }
    },
    {
      "type": "Feature",
      "id": "node/2242865298",
      "properties": {
        "addr:city": "Anglesola",
        "name": "Anglesola",
        "name:ca": "Anglesola",
        "public_transport": "station",
        "railway": "station",
        "train": "yes",
        "wikidata": "Q634427",
        "wikipedia": "ca:Estació d'Anglesola",
        "id": "node/2242865298"
      },
      "geometry": {
        "type": "Point",
        "coordinates": [
          1.0789794,
          41.646397
        ]
      }
    },
    {
      "type": "Feature",
      "id": "node/2242865318",
      "properties": {
        "name": "Tàrrega",
        "name:ca": "Tàrrega",
        "public_transport": "station",
        "railway": "station",
        "train": "yes",
        "wikidata": "Q634460",
        "wikipedia": "ca:Estació de Tàrrega",
        "id": "node/2242865318"
      },
      "geometry": {
        "type": "Point",
        "coordinates": [
          1.1390476,
          41.6502449
        ]
      }
    },
    {
      "type": "Feature",
      "id": "node/2242865371",
      "properties": {
        "name": "Cervera",
        "name:ca": "Cervera",
        "public_transport": "station",
        "railway": "station",
        "toilets:wheelchair": "yes",
        "train": "yes",
        "wheelchair": "yes",
        "wikidata": "Q634450",
        "wikipedia": "ca:Estació de Cervera",
        "id": "node/2242865371"
      },
      "geometry": {
        "type": "Point",
        "coordinates": [
          1.2746157,
          41.6736341
        ]
      }
    },
    {
      "type": "Feature",
      "id": "node/2242865426",
      "properties": {
        "name": "Seguers - Sant Pere Sallavinera",
        "public_transport": "station",
        "railway": "station",
        "train": "yes",
        "id": "node/2242865426"
      },
      "geometry": {
        "type": "Point",
        "coordinates": [
          1.5740878,
          41.74779
        ]
      }
    },
    {
      "type": "Feature",
      "id": "node/2282450274",
      "properties": {
        "name": "Aguilar de Segarra",
        "name:ca": "Aguilar de Segarra",
        "public_transport": "station",
        "railway": "station",
        "train": "yes",
        "wikidata": "Q651382",
        "wikipedia": "ca:Estació d'Aguilar de Segarra",
        "id": "node/2282450274"
      },
      "geometry": {
        "type": "Point",
        "coordinates": [
          1.6236549,
          41.7388594
        ]
      }
    },
    {
      "type": "Feature",
      "id": "node/2331876446",
      "properties": {
        "name": "Rubielos de Mora",
        "operator": "Adif",
        "public_transport": "station",
        "railway": "halt",
        "train": "yes",
        "wikidata": "Q5847073",
        "id": "node/2331876446"
      },
      "geometry": {
        "type": "Point",
        "coordinates": [
          -0.7409531,
          40.1106333
        ]
      }
    },
    {
      "type": "Feature",
      "id": "node/2359223934",
      "properties": {
        "abandoned:railway": "station",
        "name": "Andavías",
        "network": "ADIF",
        "public_transport": "station",
        "railway": "station",
        "train": "yes",
        "id": "node/2359223934"
      },
      "geometry": {
        "type": "Point",
        "coordinates": [
          -5.8577495,
          41.6271989
        ]
      }
    },
    {
      "type": "Feature",
      "id": "node/2371189635",
      "properties": {
        "name": "Vigo-Guixar",
        "public_transport": "station",
        "railway": "station",
        "station": "train",
        "train": "yes",
        "wikidata": "Q3330602",
        "id": "node/2371189635"
      },
      "geometry": {
        "type": "Point",
        "coordinates": [
          -8.712087,
          42.2394067
        ]
      }
    },
    {
      "type": "Feature",
      "id": "node/2384166014",
      "properties": {
        "addr:city": "Sahagún",
        "name": "Sahagún",
        "public_transport": "station",
        "railway": "station",
        "station": "train",
        "train": "yes",
        "wikidata": "Q968974",
        "id": "node/2384166014"
      },
      "geometry": {
        "type": "Point",
        "coordinates": [
          -5.0226614,
          42.3693433
        ]
      }
    },
    {
      "type": "Feature",
      "id": "node/2459214513",
      "properties": {
        "name": "Oza dos Ríos",
        "public_transport": "station",
        "railway": "station",
        "train": "yes",
        "wikidata": "Q6392795",
        "id": "node/2459214513"
      },
      "geometry": {
        "type": "Point",
        "coordinates": [
          -8.1870216,
          43.2187062
        ]
      }
    },
    {
      "type": "Feature",
      "id": "node/2459459539",
      "properties": {
        "name": "Logroño",
        "operator": "Adif",
        "public_transport": "station",
        "railway": "station",
        "station": "train",
        "toilets:wheelchair": "yes",
        "train": "yes",
        "wheelchair": "yes",
        "wheelchair:description": "[En: Step-free from street. Lifts down to platforms. Access from platform to train not checked.]",
        "id": "node/2459459539"
      },
      "geometry": {
        "type": "Point",
        "coordinates": [
          -2.4384028,
          42.4577405
        ]
      }
    },
    {
      "type": "Feature",
      "id": "node/2461676724",
      "properties": {
        "name": "Carrascosa de Henares",
        "public_transport": "station",
        "railway": "station",
        "train": "yes",
        "id": "node/2461676724"
      },
      "geometry": {
        "type": "Point",
        "coordinates": [
          -3.0143321,
          40.9058657
        ]
      }
    },
    {
      "type": "Feature",
      "id": "node/2475737415",
      "properties": {
        "name": "Miño",
        "operator": "Adif",
        "public_transport": "station",
        "railway": "station",
        "source": "Forza4 : Datos obtidos directamente / Datos obtenidos directamente / Directly adquired data",
        "train": "yes",
        "id": "node/2475737415"
      },
      "geometry": {
        "type": "Point",
        "coordinates": [
          -8.2072105,
          43.3496592
        ]
      }
    },
    {
      "type": "Feature",
      "id": "node/2483779639",
      "properties": {
        "name": "Fornells de la Selva",
        "name:ca": "Fornells de la Selva",
        "operator": "Adif",
        "public_transport": "station",
        "railway": "station",
        "train": "yes",
        "wikidata": "Q8779799",
        "wikipedia": "ca:Estació de Fornells de la Selva",
        "id": "node/2483779639"
      },
      "geometry": {
        "type": "Point",
        "coordinates": [
          2.8094752,
          41.9349663
        ]
      }
    },
    {
      "type": "Feature",
      "id": "node/2609534280",
      "properties": {
        "addr:housenumber": "1",
        "addr:postcode": "29002",
        "addr:street": "Calle Explanada de la Estación",
        "name": "Málaga María Zambrano",
        "name:fr": "Gare 1 malaga Maria zambrano",
        "operator": "Adif",
        "public_transport": "station",
        "railway": "station",
        "train": "yes",
        "wikidata": "Q801214",
        "id": "node/2609534280"
      },
      "geometry": {
        "type": "Point",
        "coordinates": [
          -4.4323605,
          36.7116198
        ]
      }
    },
    {
      "type": "Feature",
      "id": "node/2609596200",
      "properties": {
        "contact:website": "http://www.citram.es/HORARIOS/info.aspx?estacion=5_40",
        "name": "Laguna",
        "network": "Renfe Cercanías de Madrid",
        "operator": "Adif",
        "public_transport": "station",
        "railway": "station",
        "train": "yes",
        "website": "https://www.crtm.es/tu-transporte-publico/cercanias-renfe/estaciones/5_40.aspx",
        "id": "node/2609596200"
      },
      "geometry": {
        "type": "Point",
        "coordinates": [
          -3.7446072,
          40.3992501
        ]
      }
    },
    {
      "type": "Feature",
      "id": "node/2713026494",
      "properties": {
        "name": "Camp de Tarragona",
        "name:ca": "Camp de Tarragona",
        "name:es": "Campo de Tarragona",
        "network": "AVE",
        "operator": "Adif",
        "public_transport": "station",
        "railway": "station",
        "train": "yes",
        "website": "http://www.adif.es/es_ES/infraestructuras/estaciones/4104/informacion_000021.shtml",
        "wikidata": "Q3096129",
        "wikipedia": "ca:Estació del Camp de Tarragona",
        "id": "node/2713026494"
      },
      "geometry": {
        "type": "Point",
        "coordinates": [
          1.2735682,
          41.1921725
        ]
      }
    },
    {
      "type": "Feature",
      "id": "node/2725830566",
      "properties": {
        "addr:city": "Toses",
        "internet_access": "no",
        "name": "Toses",
        "operator": "Adif",
        "public_transport": "station",
        "railway": "halt",
        "train": "yes",
        "id": "node/2725830566"
      },
      "geometry": {
        "type": "Point",
        "coordinates": [
          2.0151268,
          42.3207545
        ]
      }
    },
    {
      "type": "Feature",
      "id": "node/2726030723",
      "properties": {
        "classification:adif": "apartadero",
        "name": "Juneda",
        "name:ca": "Juneda",
        "operator": "Adif",
        "platforms": "2",
        "public_transport": "station",
        "railway": "station",
        "train": "yes",
        "uic_ref": "7173002",
        "wikidata": "Q11920784",
        "wikipedia": "ca:Estació de Juneda",
        "id": "node/2726030723"
      },
      "geometry": {
        "type": "Point",
        "coordinates": [
          0.8253947,
          41.5439394
        ]
      }
    },
    {
      "type": "Feature",
      "id": "node/2783071440",
      "properties": {
        "internet_access": "no",
        "name": "Universitat Autònoma",
        "network": "FGC",
        "operator": "FGC",
        "public_transport": "station",
        "railway": "station",
        "train": "yes",
        "wheelchair": "yes",
        "id": "node/2783071440"
      },
      "geometry": {
        "type": "Point",
        "coordinates": [
          2.1023251,
          41.502702
        ]
      }
    },
    {
      "type": "Feature",
      "id": "node/2891273096",
      "properties": {
        "name": "el Papiol",
        "name:ca": "el Papiol",
        "operator": "Adif",
        "public_transport": "station",
        "railway": "station",
        "ref": "R4",
        "train": "yes",
        "wikidata": "Q387929",
        "wikipedia": "ca:Estació del Papiol",
        "id": "node/2891273096"
      },
      "geometry": {
        "type": "Point",
        "coordinates": [
          2.0025582,
          41.4354962
        ]
      }
    },
    {
      "type": "Feature",
      "id": "node/2892307515",
      "properties": {
        "name": "Igualada",
        "name:ca": "Igualada",
        "public_transport": "station",
        "railway": "station",
        "source:date": "2020-04-05",
        "train": "yes",
        "wikidata": "Q5805297",
        "wikipedia": "ca:Estació d'Igualada",
        "id": "node/2892307515"
      },
      "geometry": {
        "type": "Point",
        "coordinates": [
          1.6300356,
          41.5780886
        ]
      }
    },
    {
      "type": "Feature",
      "id": "node/2961586517",
      "properties": {
        "name": "Cortes de Navarra",
        "name:eu": "Cortes",
        "operator": "Adif",
        "public_transport": "station",
        "railway": "station",
        "ref": "81205",
        "train": "yes",
        "wikidata": "Q4464111",
        "id": "node/2961586517"
      },
      "geometry": {
        "type": "Point",
        "coordinates": [
          -1.4208711,
          41.9153579
        ]
      }
    },
    {
      "type": "Feature",
      "id": "node/2962633346",
      "properties": {
        "name": "Badajoz",
        "network": "ADIF",
        "public_transport": "station",
        "railway": "station",
        "train": "yes",
        "id": "node/2962633346"
      },
      "geometry": {
        "type": "Point",
        "coordinates": [
          -6.9817532,
          38.8906233
        ]
      }
    },
    {
      "type": "Feature",
      "id": "node/3150316666",
      "properties": {
        "name": "Mogro",
        "network": "ADIF",
        "operator": "Feve",
        "public_transport": "station",
        "railway": "station",
        "ref": "01076",
        "source": "ADIF",
        "source:url": "http://www.iderail.es/2012/02/06/posicion-de-las-estaciones-de-feve-ii/",
        "train": "yes",
        "wikidata": "Q18604582",
        "id": "node/3150316666"
      },
      "geometry": {
        "type": "Point",
        "coordinates": [
          -3.9604347,
          43.4249982
        ]
      }
    },
    {
      "type": "Feature",
      "id": "node/3344868583",
      "properties": {
        "name": "El Clot",
        "public_transport": "station",
        "railway": "station",
        "station": "subway",
        "train": "yes",
        "id": "node/3344868583"
      },
      "geometry": {
        "type": "Point",
        "coordinates": [
          -0.5279753,
          39.5499038
        ]
      }
    },
    {
      "type": "Feature",
      "id": "node/3592103996",
      "properties": {
        "name": "Vilaverd",
        "name:ca": "Vilaverd",
        "operator": "Adif",
        "public_transport": "station",
        "railway": "station",
        "train": "yes",
        "wikidata": "Q8842230",
        "wikipedia": "ca:Estació de Vilaverd",
        "id": "node/3592103996"
      },
      "geometry": {
        "type": "Point",
        "coordinates": [
          1.176444,
          41.3375641
        ]
      }
    },
    {
      "type": "Feature",
      "id": "node/3729477764",
      "properties": {
        "name": "Calafell",
        "name:ca": "Calafell",
        "operator": "Adif",
        "public_transport": "station",
        "railway": "halt",
        "ref": "R2 Sud",
        "train": "yes",
        "wikidata": "Q2146966",
        "wikipedia": "ca:Estació de Calafell",
        "id": "node/3729477764"
      },
      "geometry": {
        "type": "Point",
        "coordinates": [
          1.5751677,
          41.1895881
        ]
      }
    },
    {
      "type": "Feature",
      "id": "node/3909008955",
      "properties": {
        "name": "Almoraima",
        "operator": "Adif",
        "public_transport": "station",
        "railway": "halt",
        "train": "yes",
        "wikidata": "Q5845673",
        "id": "node/3909008955"
      },
      "geometry": {
        "type": "Point",
        "coordinates": [
          -5.4299725,
          36.2766541
        ]
      }
    },
    {
      "type": "Feature",
      "id": "node/4448930346",
      "properties": {
        "landuse": "railway",
        "name": "Salamanca",
        "public_transport": "station",
        "railway": "station",
        "train": "yes",
        "wheelchair": "yes",
        "wikidata": "Q6399140",
        "id": "node/4448930346"
      },
      "geometry": {
        "type": "Point",
        "coordinates": [
          -5.6486277,
          40.971382
        ]
      }
    },
    {
      "type": "Feature",
      "id": "node/4455669566",
      "properties": {
        "name": "sa Pobla",
        "name:es": "La Puebla",
        "operator": "SFM",
        "public_transport": "station",
        "railway": "station",
        "start_date": "2015",
        "train": "yes",
        "id": "node/4455669566"
      },
      "geometry": {
        "type": "Point",
        "coordinates": [
          3.0291504,
          39.764752
        ]
      }
    },
    {
      "type": "Feature",
      "id": "node/4586092220",
      "properties": {
        "name": "Oviedo",
        "public_transport": "station",
        "railway": "station",
        "toilets:wheelchair": "yes",
        "train": "yes",
        "wheelchair": "yes",
        "wikidata": "Q3394520",
        "id": "node/4586092220"
      },
      "geometry": {
        "type": "Point",
        "coordinates": [
          -5.8548667,
          43.3663632
        ]
      }
    },
    {
      "type": "Feature",
      "id": "node/4586092222",
      "properties": {
        "name": "Pola de Lena",
        "operator": "ADIF",
        "public_transport": "station",
        "railway": "station",
        "train": "yes",
        "wikidata": "Q5846945",
        "id": "node/4586092222"
      },
      "geometry": {
        "type": "Point",
        "coordinates": [
          -5.8310153,
          43.1586633
        ]
      }
    },
    {
      "type": "Feature",
      "id": "node/4710195127",
      "properties": {
        "name": "Sarrià",
        "name:ca": "Sarrià",
        "network": "FGC",
        "operator": "FGC",
        "public_transport": "station",
        "railway": "station",
        "station": "subway",
        "train": "yes",
        "wheelchair": "yes",
        "wikidata": "Q2876854",
        "wikipedia": "ca:Estació de Sarrià",
        "id": "node/4710195127"
      },
      "geometry": {
        "type": "Point",
        "coordinates": [
          2.1256293,
          41.3985662
        ]
      }
    },
    {
      "type": "Feature",
      "id": "node/4969016461",
      "properties": {
        "light_rail": "yes",
        "name": "Boo de Piélagos",
        "network": "ADIF",
        "public_transport": "station",
        "railway": "station",
        "ref": "01075",
        "shelter": "yes",
        "station": "light_rail",
        "train": "yes",
        "wikidata": "Q18619867",
        "id": "node/4969016461"
      },
      "geometry": {
        "type": "Point",
        "coordinates": [
          -3.9463527,
          43.4316373
        ]
      }
    },
    {
      "type": "Feature",
      "id": "node/4999319356",
      "properties": {
        "name": "Recoletos",
        "public_transport": "station",
        "railway": "station",
        "train": "yes",
        "url": "http://www.citram.es/HORARIOS/info.aspx?estacion=5_65",
        "website": "https://www.crtm.es/tu-transporte-publico/cercanias-renfe/estaciones/5_65.aspx",
        "wikidata": "Q8841582",
        "wikipedia": "es:Estación de Recoletos",
        "id": "node/4999319356"
      },
      "geometry": {
        "type": "Point",
        "coordinates": [
          -3.6917042,
          40.4224959
        ]
      }
    },
    {
      "type": "Feature",
      "id": "node/5059976456",
      "properties": {
        "alt_name": "Desertu-Barakaldo;Desierto-Baracaldo",
        "name": "Barakaldo",
        "operator": "Renfe",
        "public_transport": "station",
        "railway": "station",
        "station": "train",
        "train": "yes",
        "wikidata": "Q3045509",
        "wikipedia": "es:Estación de Desierto-Baracaldo",
        "id": "node/5059976456"
      },
      "geometry": {
        "type": "Point",
        "coordinates": [
          -2.9846665,
          43.3005291
        ]
      }
    },
    {
      "type": "Feature",
      "id": "node/5155885328",
      "properties": {
        "name": "Zabalburu",
        "public_transport": "station",
        "railway": "station",
        "station": "train",
        "train": "yes",
        "wikidata": "Q3042534",
        "wikipedia": "eu:Zabalburuko geltokia (Adif)",
        "id": "node/5155885328"
      },
      "geometry": {
        "type": "Point",
        "coordinates": [
          -2.9324993,
          43.2564683
        ]
      }
    },
    {
      "type": "Feature",
      "id": "node/5259835085",
      "properties": {
        "name": "Bidebieta-Basauri",
        "public_transport": "station",
        "railway": "station",
        "train": "yes",
        "wikidata": "Q5650045",
        "id": "node/5259835085"
      },
      "geometry": {
        "type": "Point",
        "coordinates": [
          -2.8896904,
          43.2367855
        ]
      }
    },
    {
      "type": "Feature",
      "id": "node/5264057227",
      "properties": {
        "name": "Barcelona - Arc de Triomf",
        "name:ca": "Barcelona - Arc de Triomf",
        "operator": "Adif",
        "public_transport": "station",
        "railway": "station",
        "source": "geolocation taken from http://en.wikipedia.org/wiki/Barcelona_metro_line_1",
        "station": "subway",
        "subway": "yes",
        "train": "yes",
        "uic_ref": "7178804",
        "wheelchair": "yes",
        "wikidata": "Q800445",
        "wikipedia": "es:Estación de Arco de Triunfo",
        "id": "node/5264057227"
      },
      "geometry": {
        "type": "Point",
        "coordinates": [
          2.1809092,
          41.3921143
        ]
      }
    },
    {
      "type": "Feature",
      "id": "node/5264057233",
      "properties": {
        "name": "Molí Nou | Ciutat Cooperativa",
        "name:ca": "Molí Nou | Ciutat Cooperativa",
        "operator": "FGC",
        "public_transport": "station",
        "railway": "station",
        "station": "subway",
        "train": "yes",
        "wikidata": "Q2646936",
        "wikipedia": "ca:Estació de Molí Nou - Ciutat Cooperativa",
        "id": "node/5264057233"
      },
      "geometry": {
        "type": "Point",
        "coordinates": [
          2.0352776,
          41.3575245
        ]
      }
    },
    {
      "type": "Feature",
      "id": "node/5264057236",
      "properties": {
        "name": "Provença",
        "name:ca": "Provença",
        "operator": "FGC",
        "public_transport": "station",
        "railway": "station",
        "station": "subway",
        "subway": "yes",
        "train": "yes",
        "wikidata": "Q2472213",
        "wikipedia": "ca:Estació de Diagonal-Provença",
        "id": "node/5264057236"
      },
      "geometry": {
        "type": "Point",
        "coordinates": [
          2.1575069,
          41.3932454
        ]
      }
    },
    {
      "type": "Feature",
      "id": "node/5289510526",
      "properties": {
        "name": "Olabeaga",
        "public_transport": "station",
        "railway": "station",
        "train": "yes",
        "wikidata": "Q3497380",
        "id": "node/5289510526"
      },
      "geometry": {
        "type": "Point",
        "coordinates": [
          -2.9552744,
          43.2641894
        ]
      }
    },
    {
      "type": "Feature",
      "id": "node/5294695234",
      "properties": {
        "name": "Ariz",
        "network": "Metro Bilbao",
        "operator": "Euskal Trenbide Sarea",
        "public_transport": "station",
        "railway": "station",
        "station": "subway",
        "train": "yes",
        "wheelchair": "yes",
        "wikidata": "Q3045499",
        "wikipedia": "es:Estación de Ariz (Metro de Bilbao)",
        "id": "node/5294695234"
      },
      "geometry": {
        "type": "Point",
        "coordinates": [
          -2.8820128,
          43.2380304
        ]
      }
    },
    {
      "type": "Feature",
      "id": "node/5294695238",
      "properties": {
        "man_made": "surveillance",
        "name": "Deustu",
        "network": "Metro Bilbao",
        "old_name": "Deusto",
        "operator": "Euskal Trenbide Sarea",
        "public_transport": "station",
        "railway": "station",
        "station": "subway",
        "subway": "yes",
        "train": "yes",
        "wheelchair": "yes",
        "wikidata": "Q3752234",
        "wikipedia": "es:Estación de Deustu",
        "id": "node/5294695238"
      },
      "geometry": {
        "type": "Point",
        "coordinates": [
          -2.949581,
          43.2713869
        ]
      }
    },
    {
      "type": "Feature",
      "id": "node/5296477082",
      "properties": {
        "name": "Hospital de Bellvitge",
        "name:ca": "Hospital de Bellvitge",
        "public_transport": "station",
        "railway": "station",
        "source": "geolocation taken from http://en.wikipedia.org/wiki/Barcelona_metro_line_1",
        "station": "subway",
        "subway": "yes",
        "train": "yes",
        "wheelchair": "yes",
        "wikidata": "Q2382515",
        "wikipedia": "es:Estación de Hospital de Bellvitge",
        "id": "node/5296477082"
      },
      "geometry": {
        "type": "Point",
        "coordinates": [
          2.1071744,
          41.3445881
        ]
      }
    },
    {
      "type": "Feature",
      "id": "node/5299078295",
      "properties": {
        "name": "León",
        "operator": "Adif",
        "public_transport": "station",
        "railway": "station",
        "train": "yes",
        "wheelchair": "yes",
        "wikidata": "Q3819662",
        "id": "node/5299078295"
      },
      "geometry": {
        "type": "Point",
        "coordinates": [
          -5.5819405,
          42.5951002
        ]
      }
    },
    {
      "type": "Feature",
      "id": "node/5299959449",
      "properties": {
        "name": "Ametzola",
        "public_transport": "station",
        "railway": "station",
        "station": "train",
        "train": "yes",
        "wikidata": "Q3497373",
        "id": "node/5299959449"
      },
      "geometry": {
        "type": "Point",
        "coordinates": [
          -2.9431329,
          43.2545365
        ]
      }
    },
    {
      "type": "Feature",
      "id": "node/5299959451",
      "properties": {
        "name": "Autonomía",
        "public_transport": "station",
        "railway": "station",
        "station": "train",
        "train": "yes",
        "wikidata": "Q3497378",
        "id": "node/5299959451"
      },
      "geometry": {
        "type": "Point",
        "coordinates": [
          -2.9461119,
          43.2585953
        ]
      }
    },
    {
      "type": "Feature",
      "id": "node/5299959452",
      "properties": {
        "name": "San Mamés",
        "public_transport": "station",
        "railway": "station",
        "station": "train",
        "train": "yes",
        "wikidata": "Q800531",
        "id": "node/5299959452"
      },
      "geometry": {
        "type": "Point",
        "coordinates": [
          -2.9492811,
          43.2621135
        ]
      }
    },
    {
      "type": "Feature",
      "id": "node/5299959453",
      "properties": {
        "name": "Zorrotza",
        "public_transport": "station",
        "railway": "station",
        "station": "train",
        "train": "yes",
        "wikidata": "Q3497419",
        "id": "node/5299959453"
      },
      "geometry": {
        "type": "Point",
        "coordinates": [
          -2.9720337,
          43.2777116
        ]
      }
    },
    {
      "type": "Feature",
      "id": "node/5299959454",
      "properties": {
        "name": "Lutxana",
        "public_transport": "station",
        "railway": "station",
        "station": "train",
        "train": "yes",
        "wikidata": "Q13580955",
        "wikipedia": "es:Estación de Lutxana (Renfe Cercanías Bilbao)",
        "id": "node/5299959454"
      },
      "geometry": {
        "type": "Point",
        "coordinates": [
          -2.9753002,
          43.2877031
        ]
      }
    },
    {
      "type": "Feature",
      "id": "node/5299959455",
      "properties": {
        "name": "Sestao",
        "public_transport": "station",
        "railway": "station",
        "station": "train",
        "train": "yes",
        "wikidata": "Q3497417",
        "wikipedia": "es:Estación de Sestao (Cercanías Bilbao)",
        "id": "node/5299959455"
      },
      "geometry": {
        "type": "Point",
        "coordinates": [
          -2.9939634,
          43.308561
        ]
      }
    },
    {
      "type": "Feature",
      "id": "node/5299959481",
      "properties": {
        "name": "La Iberia",
        "public_transport": "station",
        "railway": "halt",
        "station": "train",
        "train": "yes",
        "wikidata": "Q3497395",
        "wikipedia": "es:Estación de La Iberia",
        "id": "node/5299959481"
      },
      "geometry": {
        "type": "Point",
        "coordinates": [
          -3.0047876,
          43.312814
        ]
      }
    },
    {
      "type": "Feature",
      "id": "node/5301954666",
      "properties": {
        "name": "Zalla",
        "public_transport": "station",
        "railway": "station",
        "station": "train",
        "train": "yes",
        "wikidata": "Q12269192",
        "id": "node/5301954666"
      },
      "geometry": {
        "type": "Point",
        "coordinates": [
          -3.1333299,
          43.2128334
        ]
      }
    },
    {
      "type": "Feature",
      "id": "node/5301954667",
      "properties": {
        "name": "Kastrexana",
        "public_transport": "station",
        "railway": "halt",
        "station": "train",
        "train": "yes",
        "wikidata": "Q12261355",
        "id": "node/5301954667"
      },
      "geometry": {
        "type": "Point",
        "coordinates": [
          -2.9719856,
          43.2554381
        ]
      }
    },
    {
      "type": "Feature",
      "id": "node/5301954668",
      "properties": {
        "name": "Irauregi-Alonsotegi",
        "public_transport": "station",
        "railway": "station",
        "station": "train",
        "train": "yes",
        "wikidata": "Q3381120",
        "wikipedia": "eu:Irauregiko geltokia",
        "id": "node/5301954668"
      },
      "geometry": {
        "type": "Point",
        "coordinates": [
          -2.9899106,
          43.2484283
        ]
      }
    },
    {
      "type": "Feature",
      "id": "node/5301954681",
      "properties": {
        "name": "Zorroza",
        "public_transport": "station",
        "railway": "station",
        "station": "train",
        "train": "yes",
        "id": "node/5301954681"
      },
      "geometry": {
        "type": "Point",
        "coordinates": [
          -2.9741429,
          43.2739854
        ]
      }
    },
    {
      "type": "Feature",
      "id": "node/5301954698",
      "properties": {
        "name": "Arrigorriaga",
        "public_transport": "station",
        "railway": "station",
        "station": "train",
        "train": "yes",
        "wikidata": "Q5845731",
        "id": "node/5301954698"
      },
      "geometry": {
        "type": "Point",
        "coordinates": [
          -2.8887684,
          43.210082
        ]
      }
    },
    {
      "type": "Feature",
      "id": "node/5301954699",
      "properties": {
        "name": "Basurto/Hospital",
        "public_transport": "station",
        "railway": "station",
        "station": "train",
        "train": "yes",
        "wikidata": "Q5845781",
        "id": "node/5301954699"
      },
      "geometry": {
        "type": "Point",
        "coordinates": [
          -2.9532226,
          43.2596484
        ]
      }
    },
    {
      "type": "Feature",
      "id": "node/5303127363",
      "properties": {
        "covered": "yes",
        "fare_area": "A",
        "name": "Pueblo Nuevo",
        "operator": "Metro de Madrid",
        "public_transport": "station",
        "railway": "station",
        "station": "subway",
        "subway": "yes",
        "train": "yes",
        "website": "https://www.metromadrid.es/es/linea/linea-7#estacion-505",
        "wheelchair": "yes",
        "wikidata": "Q384453",
        "wikipedia": "es:Estación de Pueblo Nuevo",
        "id": "node/5303127363"
      },
      "geometry": {
        "type": "Point",
        "coordinates": [
          -3.644171,
          40.4350329
        ]
      }
    },
    {
      "type": "Feature",
      "id": "node/5304690747",
      "properties": {
        "covered": "yes",
        "fare_area": "A",
        "name": "Lacoma",
        "operator": "Metro de Madrid",
        "public_transport": "station",
        "railway": "station",
        "station": "subway",
        "subway": "yes",
        "train": "yes",
        "website": "https://www.metromadrid.es/es/linea/linea-7#estacion-721",
        "wheelchair": "yes",
        "wikidata": "Q2482146",
        "wikipedia": "es:Estación de Lacoma",
        "id": "node/5304690747"
      },
      "geometry": {
        "type": "Point",
        "coordinates": [
          -3.7231023,
          40.4851113
        ]
      }
    },
    {
      "type": "Feature",
      "id": "node/5305116632",
      "properties": {
        "addr:city": "Madrid",
        "addr:country": "ES",
        "colour": "#000000",
        "covered": "yes",
        "fare_area": "B1",
        "name": "Puerta del Sur",
        "network": "Metro de Madrid",
        "operator": "Metro de Madrid",
        "platforms": "2",
        "public_transport": "station",
        "railway": "station",
        "station": "subway",
        "subway": "yes",
        "train": "yes",
        "type": "public_transport",
        "wheelchair": "yes",
        "wikidata": "Q2484406",
        "wikipedia": "es:Estación de Puerta del Sur",
        "id": "node/5305116632"
      },
      "geometry": {
        "type": "Point",
        "coordinates": [
          -3.8120209,
          40.3452072
        ]
      }
    },
    {
      "type": "Feature",
      "id": "node/5305116642",
      "properties": {
        "interchange": "C-3",
        "name": "El Casar",
        "operator": "Metro de Madrid",
        "public_transport": "station",
        "railway": "station",
        "ref": "L12",
        "station": "subway",
        "subway": "yes",
        "train": "yes",
        "wikidata": "Q2778422",
        "wikipedia": "es:Estación de El Casar",
        "id": "node/5305116642"
      },
      "geometry": {
        "type": "Point",
        "coordinates": [
          -3.7102212,
          40.3183334
        ]
      }
    },
    {
      "type": "Feature",
      "id": "node/5305116645",
      "properties": {
        "alt_name": "Getafe Central",
        "covered": "yes",
        "fare_area": "B1",
        "name": "Getafe Centro",
        "public_transport": "station",
        "railway": "station",
        "ref": "L12",
        "shelter": "yes",
        "station": "subway",
        "subway": "yes",
        "train": "yes",
        "wikidata": "Q2485075",
        "wikipedia": "es:Estación de Getafe Central",
        "id": "node/5305116645"
      },
      "geometry": {
        "type": "Point",
        "coordinates": [
          -3.7340092,
          40.3099608
        ]
      }
    },
    {
      "type": "Feature",
      "id": "node/5305515771",
      "properties": {
        "name": "Bellvitge",
        "name:ca": "Bellvitge",
        "network": "Metro de Barcelona",
        "operator": "Transports Metropolitans de Barcelona",
        "public_transport": "station",
        "railway": "station",
        "station": "subway",
        "subway": "yes",
        "train": "yes",
        "wheelchair": "yes",
        "wikidata": "Q2547661",
        "wikipedia": "es:Estación de Bellvitge (Metro de Barcelona)",
        "id": "node/5305515771"
      },
      "geometry": {
        "type": "Point",
        "coordinates": [
          2.1109075,
          41.3511505
        ]
      }
    },
    {
      "type": "Feature",
      "id": "node/5305562114",
      "properties": {
        "name": "Avinguda Carrilet",
        "name:ca": "Avinguda Carrilet",
        "public_transport": "station",
        "railway": "station",
        "station": "subway",
        "subway": "yes",
        "train": "yes",
        "wheelchair": "yes",
        "wikidata": "Q2607435",
        "wikipedia": "es:Estación de Avinguda Carrilet",
        "id": "node/5305562114"
      },
      "geometry": {
        "type": "Point",
        "coordinates": [
          2.1024336,
          41.3588956
        ]
      }
    },
    {
      "type": "Feature",
      "id": "node/5307455078",
      "properties": {
        "colour": "#9F1F99",
        "covered": "yes",
        "fare_area": "A",
        "name": "Mirasierra",
        "network": "Metro de Madrid",
        "operator": "Metro de Madrid",
        "public_transport": "station",
        "railway": "station",
        "station": "subway",
        "subway": "yes",
        "train": "yes",
        "wheelchair": "yes",
        "wikidata": "Q3858791",
        "id": "node/5307455078"
      },
      "geometry": {
        "type": "Point",
        "coordinates": [
          -3.7167116,
          40.4912103
        ]
      }
    },
    {
      "type": "Feature",
      "id": "node/5307477096",
      "properties": {
        "fare_area": "A",
        "name": "Concha Espina",
        "operator": "Metro de Madrid",
        "public_transport": "station",
        "railway": "station",
        "station": "subway",
        "subway": "yes",
        "toilets:wheelchair": "no",
        "train": "yes",
        "website": "https://www.metromadrid.es/es/linea/linea-9#estacion-908",
        "wheelchair": "no",
        "wikidata": "Q2464246",
        "wikipedia": "es:Estación de Concha Espina",
        "id": "node/5307477096"
      },
      "geometry": {
        "type": "Point",
        "coordinates": [
          -3.6776079,
          40.4513295
        ]
      }
    },
    {
      "type": "Feature",
      "id": "node/5307497165",
      "properties": {
        "colour": "#9F1F99",
        "fare_area": "B3",
        "name": "La Poveda",
        "operator": "Metro de Madrid",
        "public_transport": "station",
        "railway": "station",
        "station": "subway",
        "train": "yes",
        "wheelchair": "yes",
        "wikidata": "Q2479062",
        "id": "node/5307497165"
      },
      "geometry": {
        "type": "Point",
        "coordinates": [
          -3.4777889,
          40.3190333
        ]
      }
    },
    {
      "type": "Feature",
      "id": "node/5307497166",
      "properties": {
        "colour": "#9F1F99",
        "fare_area": "B1",
        "name": "Rivas Futura",
        "operator": "Metro de Madrid",
        "public_transport": "station",
        "railway": "station",
        "station": "subway",
        "subway": "yes",
        "train": "yes",
        "wheelchair": "yes",
        "wikidata": "Q2055499",
        "wikipedia": "es:Estación de Rivas Futura",
        "id": "node/5307497166"
      },
      "geometry": {
        "type": "Point",
        "coordinates": [
          -3.5249885,
          40.3417054
        ]
      }
    },
    {
      "type": "Feature",
      "id": "node/5307617521",
      "properties": {
        "emergency": "defibrillator",
        "name": "Plaça de Catalunya (FGC)",
        "name:ca": "Plaça de Catalunya (FGC)",
        "network": "Metro de Barcelona;Metro del Vallès",
        "operator": "FGC",
        "public_transport": "station",
        "railway": "station",
        "source": "geolocation taken from http://en.wikipedia.org/wiki/Barcelona_metro_line_1",
        "station": "subway",
        "subway": "yes",
        "train": "yes",
        "train_station": "Estación de Plaza de Cataluña",
        "wheelchair": "yes",
        "wikidata": "Q800447",
        "wikipedia": "ca:Estació de Plaça de Catalunya",
        "id": "node/5307617521"
      },
      "geometry": {
        "type": "Point",
        "coordinates": [
          2.1683683,
          41.3858013
        ]
      }
    },
    {
      "type": "Feature",
      "id": "node/5307631366",
      "properties": {
        "name": "Plaça Espanya",
        "name:ca": "Plaça Espanya",
        "name:ru": "площадь испании",
        "operator": "FGC",
        "public_transport": "station",
        "railway": "station",
        "station": "subway",
        "subway": "yes",
        "train": "yes",
        "wikidata": "Q669990",
        "wikipedia": "ca:Estació d'Espanya",
        "id": "node/5307631366"
      },
      "geometry": {
        "type": "Point",
        "coordinates": [
          2.1488327,
          41.3747456
        ]
      }
    },
    {
      "type": "Feature",
      "id": "node/5308259398",
      "properties": {
        "name": "Sant Josep",
        "name:ca": "Sant Josep",
        "network": "Metro de Barcelona;Metro del Baix Llobregat",
        "operator": "Ferrocarrils de la Generalitat de Catalunya",
        "public_transport": "station",
        "railway": "station",
        "source": "yahoo sattelite image",
        "station": "subway",
        "subway": "yes",
        "train": "yes",
        "wheelchair": "yes",
        "wikidata": "Q3780405",
        "wikipedia": "es:Estación de Sant Josep",
        "id": "node/5308259398"
      },
      "geometry": {
        "type": "Point",
        "coordinates": [
          2.1103613,
          41.3609506
        ]
      }
    },
    {
      "type": "Feature",
      "id": "node/5308481070",
      "properties": {
        "name": "La Sagrera (L9N-L10)",
        "name:ca": "La Sagrera (L9N-L10)",
        "network": "Metro de Barcelona",
        "operator": "Transports Metropolitans de Barcelona",
        "public_transport": "station",
        "railway": "station",
        "source": "geolocation taken from http://en.wikipedia.org/wiki/Barcelona_metro_line_1",
        "station": "subway",
        "subway": "yes",
        "train": "yes",
        "wheelchair": "yes",
        "wikidata": "Q2140013",
        "wikipedia": "ca:Estació de la Sagrera",
        "id": "node/5308481070"
      },
      "geometry": {
        "type": "Point",
        "coordinates": [
          2.1867491,
          41.4204532
        ]
      }
    },
    {
      "type": "Feature",
      "id": "node/5313328722",
      "properties": {
        "name": "Magòria - la Campana",
        "name:ca": "Magòria - la Campana",
        "operator": "FGC",
        "public_transport": "station",
        "railway": "station",
        "source": "geolocation taken from http://en.wikipedia.org/wiki/Barcelona_metro_line_8",
        "station": "subway",
        "subway": "yes",
        "train": "yes",
        "wheelchair": "yes",
        "wikidata": "Q3780401",
        "wikipedia": "es:Estación de Magòria-La Campana",
        "id": "node/5313328722"
      },
      "geometry": {
        "type": "Point",
        "coordinates": [
          2.1394473,
          41.3679185
        ]
      }
    },
    {
      "type": "Feature",
      "id": "node/5313328723",
      "properties": {
        "name": "Ildefons Cerdà",
        "name:ca": "Ildefons Cerdà",
        "operator": "FGC",
        "public_transport": "station",
        "railway": "station",
        "station": "subway",
        "subway": "yes",
        "train": "yes",
        "wheelchair": "yes",
        "wikidata": "Q2605288",
        "wikipedia": "es:Estación de Ildefons Cerdà",
        "id": "node/5313328723"
      },
      "geometry": {
        "type": "Point",
        "coordinates": [
          2.1297739,
          41.3607854
        ]
      }
    },
    {
      "type": "Feature",
      "id": "node/5313328724",
      "properties": {
        "name": "Gornal",
        "name:ca": "Gornal",
        "operator": "FGC",
        "public_transport": "station",
        "railway": "station",
        "source": "http://en.wikipedia.org/wiki/Barcelona_metro_line_8",
        "station": "subway",
        "subway": "yes",
        "train": "yes",
        "wikidata": "Q3780396",
        "wikipedia": "es:Estación de Bellvitge/Gornal",
        "id": "node/5313328724"
      },
      "geometry": {
        "type": "Point",
        "coordinates": [
          2.1170978,
          41.3547559
        ]
      }
    },
    {
      "type": "Feature",
      "id": "node/5313340300",
      "properties": {
        "name": "Bogatell",
        "name:ca": "Bogatell",
        "network": "Metro de Barcelona",
        "operator": "Transports Metropolitans de Barcelona",
        "public_transport": "station",
        "railway": "station",
        "source": "geolocation taken from http://en.wikipedia.org/wiki/Barcelona_metro_line_4",
        "station": "subway",
        "subway": "yes",
        "train": "yes",
        "wheelchair": "yes",
        "wikidata": "Q890391",
        "wikipedia": "ca:Estació de Bogatell",
        "id": "node/5313340300"
      },
      "geometry": {
        "type": "Point",
        "coordinates": [
          2.1920399,
          41.3950987
        ]
      }
    },
    {
      "type": "Feature",
      "id": "node/5313898364",
      "properties": {
        "emergency": "defibrillator",
        "intercambiador": "La Sagrera",
        "name": "La Sagrera - Meridiana",
        "name:ca": "La Sagrera - Meridiana",
        "operator": "Adif",
        "public_transport": "station",
        "railway": "station",
        "source": "geolocation taken from http://en.wikipedia.org/wiki/Barcelona_metro_line_1",
        "train": "yes",
        "wheelchair": "yes",
        "wikidata": "Q2140013",
        "wikipedia": "ca:Estació de la Sagrera",
        "id": "node/5313898364"
      },
      "geometry": {
        "type": "Point",
        "coordinates": [
          2.1866792,
          41.4238386
        ]
      }
    },
    {
      "type": "Feature",
      "id": "node/5315505597",
      "properties": {
        "name": "Muntaner",
        "name:ca": "Muntaner",
        "network": "FGC",
        "operator": "FGC",
        "public_transport": "station",
        "railway": "station",
        "station": "subway",
        "subway": "yes",
        "train": "yes",
        "wheelchair": "yes",
        "wikidata": "Q2617870",
        "wikipedia": "es:Estación de Muntaner",
        "id": "node/5315505597"
      },
      "geometry": {
        "type": "Point",
        "coordinates": [
          2.1428749,
          41.3986188
        ]
      }
    },
    {
      "type": "Feature",
      "id": "node/5315505600",
      "properties": {
        "name": "Cornellà-Riera",
        "name:ca": "Cornellà-Riera",
        "public_transport": "station",
        "railway": "station",
        "station": "subway",
        "subway": "yes",
        "train": "yes",
        "wikidata": "Q4891068",
        "wikipedia": "es:Estación de Cornellà-Riera",
        "id": "node/5315505600"
      },
      "geometry": {
        "type": "Point",
        "coordinates": [
          2.0706597,
          41.3514715
        ]
      }
    },
    {
      "type": "Feature",
      "id": "node/5315505601",
      "properties": {
        "name": "Almeda",
        "name:ca": "Almeda",
        "public_transport": "station",
        "railway": "station",
        "source": "geolocation taken from http://en.wikipedia.org/wiki/Barcelona_metro_line_8",
        "station": "subway",
        "subway": "yes",
        "train": "yes",
        "wikidata": "Q2640991",
        "wikipedia": "es:Estación de Almeda",
        "id": "node/5315505601"
      },
      "geometry": {
        "type": "Point",
        "coordinates": [
          2.0845124,
          41.3530362
        ]
      }
    },
    {
      "type": "Feature",
      "id": "node/5316201456",
      "properties": {
        "name": "Can Feu | Gràcia",
        "network": "Metro del Vallès",
        "operator": "Ferrocarrils de la Generalitat de Catalunya",
        "public_transport": "station",
        "railway": "station",
        "train": "yes",
        "id": "node/5316201456"
      },
      "geometry": {
        "type": "Point",
        "coordinates": [
          2.100266,
          41.54244
        ]
      }
    },
    {
      "type": "Feature",
      "id": "node/5316650173",
      "properties": {
        "name": "Peu del Funicular",
        "name:ca": "Peu del Funicular",
        "network": "Metro del Vallès",
        "operator": "FGC Ferrocarrils de la Generalitat de Catalunya",
        "public_transport": "station",
        "railway": "station",
        "train": "yes",
        "wikidata": "Q8841457",
        "wikipedia": "ca:Estació de Peu del Funicular",
        "id": "node/5316650173"
      },
      "geometry": {
        "type": "Point",
        "coordinates": [
          2.1114034,
          41.4090443
        ]
      }
    },
    {
      "type": "Feature",
      "id": "node/5316837511",
      "properties": {
        "name": "Viladecans",
        "name:ca": "Viladecans",
        "operator": "Adif",
        "platforms": "2",
        "public_transport": "station",
        "railway": "halt",
        "train": "yes",
        "wikidata": "Q2956658",
        "wikipedia": "ca:Estació de Viladecans",
        "id": "node/5316837511"
      },
      "geometry": {
        "type": "Point",
        "coordinates": [
          2.02739,
          41.3093616
        ]
      }
    },
    {
      "type": "Feature",
      "id": "node/5318415084",
      "properties": {
        "name": "Pozuelo",
        "public_transport": "station",
        "railway": "station",
        "train": "yes",
        "id": "node/5318415084"
      },
      "geometry": {
        "type": "Point",
        "coordinates": [
          -3.8000647,
          40.4474071
        ]
      }
    },
    {
      "type": "Feature",
      "id": "node/5318415085",
      "properties": {
        "name": "Las Rozas",
        "public_transport": "station",
        "railway": "station",
        "train": "yes",
        "wikidata": "Q1975280",
        "id": "node/5318415085"
      },
      "geometry": {
        "type": "Point",
        "coordinates": [
          -3.867936,
          40.4942937
        ]
      }
    },
    {
      "type": "Feature",
      "id": "node/5318415087",
      "properties": {
        "fare_area": "B2",
        "name": "Pinto",
        "public_transport": "station",
        "railway": "station",
        "train": "yes",
        "usage": "main",
        "voltage": "3000",
        "wikidata": "Q10276290",
        "wikipedia": "es:Estación de Pinto",
        "id": "node/5318415087"
      },
      "geometry": {
        "type": "Point",
        "coordinates": [
          -3.7038365,
          40.2429919
        ]
      }
    },
    {
      "type": "Feature",
      "id": "node/5318415089",
      "properties": {
        "fare_area": "B1",
        "name": "Getafe Industrial",
        "public_transport": "station",
        "railway": "station",
        "train": "yes",
        "usage": "main",
        "wheelchair": "no",
        "wikidata": "Q5846298",
        "wikipedia": "es:Estación de Getafe Industrial",
        "id": "node/5318415089"
      },
      "geometry": {
        "type": "Point",
        "coordinates": [
          -3.7075792,
          40.3055087
        ]
      }
    },
    {
      "type": "Feature",
      "id": "node/5318415090",
      "properties": {
        "fare_area": "A",
        "name": "San Cristóbal Industrial",
        "public_transport": "station",
        "railway": "station",
        "train": "yes",
        "usage": "main",
        "wikidata": "Q5847117",
        "wikipedia": "es:Estación de San Cristóbal Industrial",
        "id": "node/5318415090"
      },
      "geometry": {
        "type": "Point",
        "coordinates": [
          -3.6993784,
          40.3316317
        ]
      }
    },
    {
      "type": "Feature",
      "id": "node/5318415091",
      "properties": {
        "fare_area": "A",
        "name": "San Cristóbal de los Ángeles",
        "public_transport": "station",
        "railway": "station",
        "train": "yes",
        "usage": "main",
        "wikidata": "Q5494493",
        "wikipedia": "es:Estación de San Cristóbal de los Ángeles",
        "id": "node/5318415091"
      },
      "geometry": {
        "type": "Point",
        "coordinates": [
          -3.6837517,
          40.3421978
        ]
      }
    },
    {
      "type": "Feature",
      "id": "node/5318466125",
      "properties": {
        "name": "Majadahonda",
        "public_transport": "station",
        "railway": "station",
        "train": "yes",
        "wheelchair": "yes",
        "wikidata": "Q2263478",
        "id": "node/5318466125"
      },
      "geometry": {
        "type": "Point",
        "coordinates": [
          -3.8460693,
          40.4743796
        ]
      }
    },
    {
      "type": "Feature",
      "id": "node/5318466126",
      "properties": {
        "name": "Aravaca",
        "public_transport": "station",
        "railway": "station",
        "train": "yes",
        "wheelchair": "yes",
        "id": "node/5318466126"
      },
      "geometry": {
        "type": "Point",
        "coordinates": [
          -3.7856257,
          40.4485713
        ]
      }
    },
    {
      "type": "Feature",
      "id": "node/5318466127",
      "properties": {
        "contact:website": "http://www.citram.es/HORARIOS/info.aspx?estacion=5_46",
        "fare_area": "A",
        "name": "Méndez Álvaro",
        "platforms": "4",
        "public_transport": "station",
        "railway": "station",
        "train": "yes",
        "website": "https://www.crtm.es/tu-transporte-publico/cercanias-renfe/estaciones/5_46.aspx",
        "wikidata": "Q2479775",
        "wikipedia": "es:Estación de Méndez Álvaro",
        "id": "node/5318466127"
      },
      "geometry": {
        "type": "Point",
        "coordinates": [
          -3.6785934,
          40.3956027
        ]
      }
    },
    {
      "type": "Feature",
      "id": "node/5318507233",
      "properties": {
        "name": "Valdebebas",
        "public_transport": "station",
        "railway": "station",
        "train": "yes",
        "url": "http://www.citram.es/HORARIOS/info.aspx?estacion=5_144",
        "id": "node/5318507233"
      },
      "geometry": {
        "type": "Point",
        "coordinates": [
          -3.6164188,
          40.4818094
        ]
      }
    },
    {
      "type": "Feature",
      "id": "node/5318548036",
      "properties": {
        "name": "Aeropuerto T4",
        "public_transport": "station",
        "railway": "station",
        "train": "yes",
        "url": "http://www.citram.es/HORARIOS/info.aspx?estacion=5_142",
        "id": "node/5318548036"
      },
      "geometry": {
        "type": "Point",
        "coordinates": [
          -3.5936402,
          40.4924137
        ]
      }
    },
    {
      "type": "Feature",
      "id": "node/5318600155",
      "properties": {
        "name": "Asamblea de Madrid-Entrevías",
        "public_transport": "station",
        "railway": "station",
        "train": "yes",
        "wikidata": "Q1960376",
        "id": "node/5318600155"
      },
      "geometry": {
        "type": "Point",
        "coordinates": [
          -3.6680241,
          40.3816333
        ]
      }
    },
    {
      "type": "Feature",
      "id": "node/5320204128",
      "properties": {
        "name": "Torrejón de Ardoz",
        "public_transport": "station",
        "railway": "station",
        "train": "yes",
        "id": "node/5320204128"
      },
      "geometry": {
        "type": "Point",
        "coordinates": [
          -3.4795895,
          40.4545802
        ]
      }
    },
    {
      "type": "Feature",
      "id": "node/5320204129",
      "properties": {
        "name": "Vallecas",
        "public_transport": "station",
        "railway": "station",
        "train": "yes",
        "wheelchair": "yes",
        "wikidata": "Q5548317",
        "id": "node/5320204129"
      },
      "geometry": {
        "type": "Point",
        "coordinates": [
          -3.624602,
          40.3820843
        ]
      }
    },
    {
      "type": "Feature",
      "id": "node/5320204130",
      "properties": {
        "name": "Santa Eugenia",
        "public_transport": "station",
        "railway": "station",
        "train": "yes",
        "wikidata": "Q5847173",
        "id": "node/5320204130"
      },
      "geometry": {
        "type": "Point",
        "coordinates": [
          -3.6090858,
          40.3871289
        ]
      }
    },
    {
      "type": "Feature",
      "id": "node/5320204132",
      "properties": {
        "name": "San Fernando",
        "public_transport": "station",
        "railway": "station",
        "train": "yes",
        "wheelchair": "no",
        "wikidata": "Q8841726",
        "id": "node/5320204132"
      },
      "geometry": {
        "type": "Point",
        "coordinates": [
          -3.5341508,
          40.4427379
        ]
      }
    },
    {
      "type": "Feature",
      "id": "node/5320264660",
      "properties": {
        "name": "Soto del Henares",
        "public_transport": "station",
        "railway": "station",
        "train": "yes",
        "id": "node/5320264660"
      },
      "geometry": {
        "type": "Point",
        "coordinates": [
          -3.4415393,
          40.4638909
        ]
      }
    },
    {
      "type": "Feature",
      "id": "node/5331527851",
      "properties": {
        "name": "Europa-Fira",
        "name:ca": "Europa-Fira",
        "network": "Metro de Barcelona",
        "operator": "FGC",
        "public_transport": "station",
        "railway": "station",
        "share_taxi": "no",
        "station": "subway",
        "subway": "yes",
        "train": "yes",
        "wikidata": "Q2430675",
        "wikipedia": "en:Europa – Fira station",
        "id": "node/5331527851"
      },
      "geometry": {
        "type": "Point",
        "coordinates": [
          2.1251579,
          41.3571111
        ]
      }
    },
    {
      "type": "Feature",
      "id": "node/5334025975",
      "properties": {
        "name": "Riudellots de la Selva",
        "name:ca": "Riudellots de la Selva",
        "operator": "Adif",
        "public_transport": "station",
        "railway": "station",
        "train": "yes",
        "wikidata": "Q8841623",
        "wikipedia": "ca:Estació de Riudellots",
        "id": "node/5334025975"
      },
      "geometry": {
        "type": "Point",
        "coordinates": [
          2.8117435,
          41.8961609
        ]
      }
    },
    {
      "type": "Feature",
      "id": "node/5334045983",
      "properties": {
        "name": "Palautordera",
        "name:ca": "Palautordera",
        "operator": "Adif",
        "public_transport": "station",
        "railway": "halt",
        "train": "yes",
        "wikidata": "Q8841411",
        "wikipedia": "ca:Estació de Palautordera",
        "id": "node/5334045983"
      },
      "geometry": {
        "type": "Point",
        "coordinates": [
          2.454225,
          41.671827
        ]
      }
    },
    {
      "type": "Feature",
      "id": "node/5336417069",
      "properties": {
        "name": "Sabadell Centre",
        "name:ca": "Sabadell Centre",
        "operator": "Adif",
        "public_transport": "station",
        "railway": "halt",
        "ref": "R4",
        "train": "yes",
        "wikidata": "Q8841662",
        "wikipedia": "ca:Estació de Sabadell Centre",
        "id": "node/5336417069"
      },
      "geometry": {
        "type": "Point",
        "coordinates": [
          2.1158746,
          41.5464235
        ]
      }
    },
    {
      "type": "Feature",
      "id": "node/5336750117",
      "properties": {
        "name": "Castellbisbal",
        "name:ca": "Castellbisbal",
        "operator": "Adif",
        "public_transport": "station",
        "railway": "station",
        "train": "yes",
        "wikidata": "Q3246217",
        "wikipedia": "ca:Estació de Castellbisbal",
        "id": "node/5336750117"
      },
      "geometry": {
        "type": "Point",
        "coordinates": [
          1.9677897,
          41.4732797
        ]
      }
    },
    {
      "type": "Feature",
      "id": "node/5338582288",
      "properties": {
        "name": "Cabrera de Mar - Vilassar de Mar",
        "name:ca": "Cabrera de Mar - Vilassar de Mar",
        "operator": "Adif",
        "public_transport": "station",
        "railway": "halt",
        "source": "Yahoo WMS",
        "train": "yes",
        "wikidata": "Q3073158",
        "wikipedia": "ca:Estació de Cabrera de Mar - Vilassar de Mar",
        "id": "node/5338582288"
      },
      "geometry": {
        "type": "Point",
        "coordinates": [
          2.4017689,
          41.5067347
        ]
      }
    },
    {
      "type": "Feature",
      "id": "node/5338589672",
      "properties": {
        "name": "Ocata",
        "name:ca": "Ocata",
        "operator": "Adif",
        "public_transport": "station",
        "railway": "halt",
        "source": "Yahoo WMS",
        "train": "yes",
        "wikidata": "Q951090",
        "wikipedia": "ca:Estació d'Ocata",
        "id": "node/5338589672"
      },
      "geometry": {
        "type": "Point",
        "coordinates": [
          2.3198137,
          41.4789785
        ]
      }
    },
    {
      "type": "Feature",
      "id": "node/5357452240",
      "properties": {
        "name": "Sabadell Plaça Major",
        "public_transport": "station",
        "railway": "station",
        "train": "yes",
        "id": "node/5357452240"
      },
      "geometry": {
        "type": "Point",
        "coordinates": [
          2.1088314,
          41.5474092
        ]
      }
    },
    {
      "type": "Feature",
      "id": "node/5359591632",
      "properties": {
        "name": "Manresa-Viladordis",
        "operator": "FGC",
        "public_transport": "station",
        "railway": "station",
        "train": "yes",
        "id": "node/5359591632"
      },
      "geometry": {
        "type": "Point",
        "coordinates": [
          1.8340881,
          41.7246669
        ]
      }
    },
    {
      "type": "Feature",
      "id": "node/5363196342",
      "properties": {
        "name": "Padrón-Barbanza",
        "public_transport": "station",
        "railway": "station",
        "train": "yes",
        "uic_ref": "7123021",
        "id": "node/5363196342"
      },
      "geometry": {
        "type": "Point",
        "coordinates": [
          -8.6568458,
          42.7811253
        ]
      }
    },
    {
      "type": "Feature",
      "id": "node/5393997094",
      "properties": {
        "addr:city": "Beranga",
        "addr:postcode": "39730",
        "name": "Beranga",
        "public_transport": "station",
        "railway": "station",
        "train": "yes",
        "wikidata": "Q107441229",
        "id": "node/5393997094"
      },
      "geometry": {
        "type": "Point",
        "coordinates": [
          -3.5770717,
          43.413626
        ]
      }
    },
    {
      "type": "Feature",
      "id": "node/5401560356",
      "properties": {
        "name": "O Soldón",
        "public_transport": "station",
        "railway": "station",
        "train": "yes",
        "id": "node/5401560356"
      },
      "geometry": {
        "type": "Point",
        "coordinates": [
          -7.2275495,
          42.44546
        ]
      }
    },
    {
      "type": "Feature",
      "id": "node/5418171757",
      "properties": {
        "name": "la Beguda",
        "operator": "FGC",
        "public_transport": "station",
        "railway": "station",
        "train": "yes",
        "id": "node/5418171757"
      },
      "geometry": {
        "type": "Point",
        "coordinates": [
          1.8387476,
          41.5016912
        ]
      }
    },
    {
      "type": "Feature",
      "id": "node/5418179612",
      "properties": {
        "name": "Lavern-Subirats",
        "name:ca": "Lavern-Subirats",
        "operator": "Adif",
        "public_transport": "station",
        "railway": "halt",
        "train": "yes",
        "wikidata": "Q8840908",
        "wikipedia": "ca:Estació de Lavern-Subirats",
        "id": "node/5418179612"
      },
      "geometry": {
        "type": "Point",
        "coordinates": [
          1.7680674,
          41.3957782
        ]
      }
    },
    {
      "type": "Feature",
      "id": "node/5418191428",
      "properties": {
        "name": "Volpelleres",
        "name:ca": "Volpelleres",
        "operator": "FGC",
        "public_transport": "station",
        "railway": "station",
        "train": "yes",
        "wikidata": "Q11920815",
        "wikipedia": "ca:Estació de Volpelleres",
        "id": "node/5418191428"
      },
      "geometry": {
        "type": "Point",
        "coordinates": [
          2.0728611,
          41.4812906
        ]
      }
    },
    {
      "type": "Feature",
      "id": "node/5418197107",
      "properties": {
        "alt_name": "Port-Bou",
        "name": "Portbou",
        "name:ca": "Portbou",
        "official_name": "Portbou",
        "operator": "Adif",
        "public_transport": "station",
        "railway": "station",
        "train": "yes",
        "wikidata": "Q979452",
        "wikipedia": "ca:Estació de Portbou",
        "id": "node/5418197107"
      },
      "geometry": {
        "type": "Point",
        "coordinates": [
          3.1580125,
          42.4247982
        ]
      }
    },
    {
      "type": "Feature",
      "id": "node/5418199064",
      "properties": {
        "name": "Sabadell Sud",
        "name:ca": "Sabadell Sud",
        "operator": "Adif",
        "platforms": "2",
        "public_transport": "station",
        "railway": "station",
        "train": "yes",
        "wheelchair": "yes",
        "wikidata": "Q5392062",
        "wikipedia": "ca:Estació de Sabadell Sud",
        "id": "node/5418199064"
      },
      "geometry": {
        "type": "Point",
        "coordinates": [
          2.1051748,
          41.5286558
        ]
      }
    },
    {
      "type": "Feature",
      "id": "node/5418219927",
      "properties": {
        "name": "Sant Joan Despí",
        "name:ca": "Sant Joan Despí",
        "operator": "Adif",
        "public_transport": "station",
        "railway": "halt",
        "ref": "R1;R4",
        "train": "yes",
        "wikidata": "Q2771988",
        "wikipedia": "ca:Estació de Sant Joan Despí",
        "id": "node/5418219927"
      },
      "geometry": {
        "type": "Point",
        "coordinates": [
          2.0602044,
          41.3685614
        ]
      }
    },
    {
      "type": "Feature",
      "id": "node/5419793251",
      "properties": {
        "name": "Queralbs",
        "operator": "FGC",
        "public_transport": "station",
        "railway": "station",
        "train": "yes",
        "id": "node/5419793251"
      },
      "geometry": {
        "type": "Point",
        "coordinates": [
          2.1655935,
          42.3513782
        ]
      }
    },
    {
      "type": "Feature",
      "id": "node/5420064209",
      "properties": {
        "addr:city": "Puigcerdà",
        "name": "Puigcerdà",
        "name:ca": "Puigcerdà",
        "operator": "Adif",
        "public_transport": "station",
        "railway": "station",
        "train": "yes",
        "wheelchair": "yes",
        "wikidata": "Q7662572",
        "wikipedia": "ca:Estació de Puigcerdà",
        "id": "node/5420064209"
      },
      "geometry": {
        "type": "Point",
        "coordinates": [
          1.9245617,
          42.4293732
        ]
      }
    },
    {
      "type": "Feature",
      "id": "node/5420064211",
      "properties": {
        "name": "Planoles",
        "operator": "Adif",
        "public_transport": "station",
        "railway": "station",
        "train": "yes",
        "id": "node/5420064211"
      },
      "geometry": {
        "type": "Point",
        "coordinates": [
          2.09979,
          42.3143097
        ]
      }
    },
    {
      "type": "Feature",
      "id": "node/5420775833",
      "properties": {
        "name": "Alcoletge",
        "name:ca": "Alcoletge",
        "operator": "FGC",
        "public_transport": "station",
        "railway": "halt",
        "source": "Bing",
        "train": "yes",
        "wikidata": "Q5398649",
        "wikipedia": "ca:Estació d'Alcoletge",
        "id": "node/5420775833"
      },
      "geometry": {
        "type": "Point",
        "coordinates": [
          0.6857135,
          41.6542496
        ]
      }
    },
    {
      "type": "Feature",
      "id": "node/5434388023",
      "properties": {
        "name": "Calaf",
        "name:ca": "Calaf",
        "public_transport": "station",
        "railway": "station",
        "train": "yes",
        "wikidata": "Q634454",
        "wikipedia": "ca:Estació de Calaf",
        "id": "node/5434388023"
      },
      "geometry": {
        "type": "Point",
        "coordinates": [
          1.515029,
          41.7301408
        ]
      }
    },
    {
      "type": "Feature",
      "id": "node/5434402725",
      "properties": {
        "addr:city": "Manresa",
        "name": "Manresa",
        "name:ca": "Manresa",
        "network": "Rodalies de Catalunya",
        "operator": "Adif",
        "public_transport": "station",
        "railway": "station",
        "train": "yes",
        "wikidata": "Q971146",
        "wikipedia": "ca:Estació de Manresa",
        "id": "node/5434402725"
      },
      "geometry": {
        "type": "Point",
        "coordinates": [
          1.8266326,
          41.7202649
        ]
      }
    },
    {
      "type": "Feature",
      "id": "node/5435487464",
      "properties": {
        "name": "Torredembarra",
        "name:ca": "Torredembarra",
        "platforms": "2",
        "public_transport": "station",
        "railway": "station",
        "train": "yes",
        "wikidata": "Q8842076",
        "wikipedia": "ca:Estació de Torredembarra",
        "id": "node/5435487464"
      },
      "geometry": {
        "type": "Point",
        "coordinates": [
          1.4056175,
          41.1427507
        ]
      }
    },
    {
      "type": "Feature",
      "id": "node/5448172309",
      "properties": {
        "name": "El Pozo",
        "public_transport": "station",
        "railway": "station",
        "train": "yes",
        "wikidata": "Q613656",
        "id": "node/5448172309"
      },
      "geometry": {
        "type": "Point",
        "coordinates": [
          -3.6560947,
          40.3761663
        ]
      }
    },
    {
      "type": "Feature",
      "id": "node/5451405664",
      "properties": {
        "name": "Gernika",
        "network": "Euskotren Trena",
        "operator": "Euskal Trenbide Sarea",
        "public_transport": "station",
        "railway": "station",
        "station": "train",
        "train": "yes",
        "id": "node/5451405664"
      },
      "geometry": {
        "type": "Point",
        "coordinates": [
          -2.6762206,
          43.3139626
        ]
      }
    },
    {
      "type": "Feature",
      "id": "node/5451405665",
      "properties": {
        "name": "Itsasbegi",
        "network": "Euskotren Trena",
        "operator": "Euskal Trenbide Sarea",
        "public_transport": "station",
        "railway": "station",
        "station": "train",
        "train": "yes",
        "id": "node/5451405665"
      },
      "geometry": {
        "type": "Point",
        "coordinates": [
          -2.6936695,
          43.390869
        ]
      }
    },
    {
      "type": "Feature",
      "id": "node/5451675809",
      "properties": {
        "name": "les Borges Blanques",
        "name:ca": "les Borges Blanques",
        "operator": "Adif",
        "public_transport": "station",
        "railway": "station",
        "source": "Bing",
        "train": "yes",
        "uic_ref": "7173003",
        "wikidata": "Q15296996",
        "wikipedia": "ca:Estació de les Borges Blanques",
        "id": "node/5451675809"
      },
      "geometry": {
        "type": "Point",
        "coordinates": [
          0.8780627,
          41.5213512
        ]
      }
    },
    {
      "type": "Feature",
      "id": "node/5453800281",
      "properties": {
        "name": "Les Borges del Camp",
        "operator": "Adif",
        "public_transport": "station",
        "railway": "station",
        "train": "yes",
        "id": "node/5453800281"
      },
      "geometry": {
        "type": "Point",
        "coordinates": [
          1.0220744,
          41.1664122
        ]
      }
    },
    {
      "type": "Feature",
      "id": "node/5454334442",
      "properties": {
        "name": "Aranguren",
        "public_transport": "station",
        "railway": "station",
        "station": "train",
        "train": "yes",
        "wikidata": "Q12253834",
        "id": "node/5454334442"
      },
      "geometry": {
        "type": "Point",
        "coordinates": [
          -3.1089632,
          43.2104983
        ]
      }
    },
    {
      "type": "Feature",
      "id": "node/5454334453",
      "properties": {
        "name": "Sodupe",
        "public_transport": "station",
        "railway": "station",
        "train": "yes",
        "id": "node/5454334453"
      },
      "geometry": {
        "type": "Point",
        "coordinates": [
          -3.0507325,
          43.2017279
        ]
      }
    },
    {
      "type": "Feature",
      "id": "node/5580567331",
      "properties": {
        "name": "Huelva",
        "operator": "Adif",
        "public_transport": "station",
        "railway": "station",
        "train": "yes",
        "wikidata": "Q5846375",
        "id": "node/5580567331"
      },
      "geometry": {
        "type": "Point",
        "coordinates": [
          -6.944851,
          37.2526187
        ]
      }
    },
    {
      "type": "Feature",
      "id": "node/5661671297",
      "properties": {
        "name": "Lazkano",
        "opening_hours": "Mo-Su 07:00-23:00",
        "operator": "Donostiako Udala/Ayuntamiento de San Sebastián",
        "public_transport": "station",
        "railway": "station",
        "train": "yes",
        "wheelchair": "yes",
        "id": "node/5661671297"
      },
      "geometry": {
        "type": "Point",
        "coordinates": [
          -1.9893278,
          43.3079299
        ]
      }
    },
    {
      "type": "Feature",
      "id": "node/5661671298",
      "properties": {
        "name": "Morlans",
        "opening_hours": "Mo-Su 07:00-23:00",
        "operator": "Donostiako Udala/Ayuntamiento de San Sebastian",
        "public_transport": "station",
        "railway": "station",
        "train": "yes",
        "wheelchair": "yes",
        "id": "node/5661671298"
      },
      "geometry": {
        "type": "Point",
        "coordinates": [
          -1.9880287,
          43.3080292
        ]
      }
    },
    {
      "type": "Feature",
      "id": "node/5661900464",
      "properties": {
        "name": "Derio",
        "network": "Euskotren Trena",
        "operator": "Euskal Trenbide Sarea",
        "public_transport": "station",
        "railway": "station",
        "station": "train",
        "train": "yes",
        "id": "node/5661900464"
      },
      "geometry": {
        "type": "Point",
        "coordinates": [
          -2.8874385,
          43.2908922
        ]
      }
    },
    {
      "type": "Feature",
      "id": "node/5664763140",
      "properties": {
        "name": "Sariñena",
        "public_transport": "station",
        "railway": "station",
        "train": "yes",
        "wikidata": "Q5847190",
        "id": "node/5664763140"
      },
      "geometry": {
        "type": "Point",
        "coordinates": [
          -0.1723108,
          41.8170808
        ]
      }
    },
    {
      "type": "Feature",
      "id": "node/5680147299",
      "properties": {
        "name": "Bercedo-Montija",
        "public_transport": "station",
        "railway": "station",
        "train": "yes",
        "id": "node/5680147299"
      },
      "geometry": {
        "type": "Point",
        "coordinates": [
          -3.4576262,
          43.0883972
        ]
      }
    },
    {
      "type": "Feature",
      "id": "node/5704065689",
      "properties": {
        "name": "Sotoscueva",
        "public_transport": "station",
        "railway": "station",
        "train": "yes",
        "wikidata": "Q107976055",
        "id": "node/5704065689"
      },
      "geometry": {
        "type": "Point",
        "coordinates": [
          -3.6883581,
          43.0452986
        ]
      }
    },
    {
      "type": "Feature",
      "id": "node/5740938955",
      "properties": {
        "name": "María de Huerva",
        "network": "ADIF",
        "public_transport": "station",
        "railway": "station",
        "train": "yes",
        "wikidata": "Q5846682",
        "id": "node/5740938955"
      },
      "geometry": {
        "type": "Point",
        "coordinates": [
          -0.9974635,
          41.5401094
        ]
      }
    },
    {
      "type": "Feature",
      "id": "node/5749156246",
      "properties": {
        "name": "Fuentes de Ebro",
        "public_transport": "station",
        "railway": "station",
        "train": "yes",
        "wikidata": "Q5846267",
        "id": "node/5749156246"
      },
      "geometry": {
        "type": "Point",
        "coordinates": [
          -0.6186379,
          41.5151598
        ]
      }
    },
    {
      "type": "Feature",
      "id": "node/5784019615",
      "properties": {
        "name": "Nonaspe",
        "name:ca": "Nonasp",
        "operator": "Adif",
        "public_transport": "station",
        "railway": "station",
        "ref": "71207",
        "train": "yes",
        "wikidata": "Q8841123",
        "wikipedia": "ca:Estació de Nonasp",
        "id": "node/5784019615"
      },
      "geometry": {
        "type": "Point",
        "coordinates": [
          0.2421684,
          41.2135274
        ]
      }
    },
    {
      "type": "Feature",
      "id": "node/5869099562",
      "properties": {
        "name": "Arakaldo",
        "network": "Renfe",
        "operator": "Adif",
        "public_transport": "station",
        "railway": "halt",
        "station": "train",
        "train": "yes",
        "wheelchair": "yes",
        "wikidata": "Q5845694",
        "wikipedia": "es:Estación de Aracaldo",
        "id": "node/5869099562"
      },
      "geometry": {
        "type": "Point",
        "coordinates": [
          -2.9384324,
          43.153071
        ]
      }
    },
    {
      "type": "Feature",
      "id": "node/5872061988",
      "properties": {
        "name": "Arbide",
        "network": "Renfe",
        "operator": "Adif",
        "public_transport": "station",
        "railway": "halt",
        "station": "train",
        "train": "yes",
        "wheelchair": "yes",
        "wikidata": "Q5845701",
        "wikipedia": "es:Estación de Arbide",
        "id": "node/5872061988"
      },
      "geometry": {
        "type": "Point",
        "coordinates": [
          -2.927657,
          43.1632305
        ]
      }
    },
    {
      "type": "Feature",
      "id": "node/5872101431",
      "properties": {
        "name": "Arrankudiaga",
        "network": "Renfe",
        "operator": "Adif",
        "public_transport": "station",
        "railway": "halt",
        "station": "train",
        "train": "yes",
        "wheelchair": "yes",
        "wikidata": "Q5845725",
        "wikipedia": "es:Estación de Arrancudiaga",
        "id": "node/5872101431"
      },
      "geometry": {
        "type": "Point",
        "coordinates": [
          -2.9181512,
          43.1699214
        ]
      }
    },
    {
      "type": "Feature",
      "id": "node/5888318522",
      "properties": {
        "name": "Carranza",
        "public_transport": "station",
        "railway": "station",
        "train": "yes",
        "id": "node/5888318522"
      },
      "geometry": {
        "type": "Point",
        "coordinates": [
          -3.3577478,
          43.2389304
        ]
      }
    },
    {
      "type": "Feature",
      "id": "node/5893228216",
      "properties": {
        "name": "Santander",
        "operator": "Adif",
        "public_transport": "station",
        "railway": "station",
        "ref": "01069",
        "train": "yes",
        "wikidata": "Q5847184",
        "id": "node/5893228216"
      },
      "geometry": {
        "type": "Point",
        "coordinates": [
          -3.8112272,
          43.4586539
        ]
      }
    },
    {
      "type": "Feature",
      "id": "node/5893258391",
      "properties": {
        "name": "Valdecilla",
        "public_transport": "station",
        "railway": "halt",
        "train": "yes",
        "wikidata": "Q5847394",
        "id": "node/5893258391"
      },
      "geometry": {
        "type": "Point",
        "coordinates": [
          -3.8287268,
          43.4525871
        ]
      }
    },
    {
      "type": "Feature",
      "id": "node/5919402025",
      "properties": {
        "name": "Balmaseda",
        "public_transport": "station",
        "railway": "station",
        "station": "train",
        "train": "yes",
        "id": "node/5919402025"
      },
      "geometry": {
        "type": "Point",
        "coordinates": [
          -3.1898615,
          43.1965145
        ]
      }
    },
    {
      "type": "Feature",
      "id": "node/5937929969",
      "properties": {
        "name": "Caminreal-Fuentes Claras",
        "network": "ADIF",
        "public_transport": "station",
        "railway": "station",
        "train": "yes",
        "id": "node/5937929969"
      },
      "geometry": {
        "type": "Point",
        "coordinates": [
          -1.3385784,
          40.8504524
        ]
      }
    },
    {
      "type": "Feature",
      "id": "node/5937978999",
      "properties": {
        "name": "Ateca",
        "network": "ADIF",
        "public_transport": "station",
        "railway": "station",
        "train": "yes",
        "wikidata": "Q5845741",
        "id": "node/5937978999"
      },
      "geometry": {
        "type": "Point",
        "coordinates": [
          -1.7852859,
          41.3243828
        ]
      }
    },
    {
      "type": "Feature",
      "id": "node/5938653111",
      "properties": {
        "name": "Urioste",
        "public_transport": "station",
        "railway": "halt",
        "train": "yes",
        "id": "node/5938653111"
      },
      "geometry": {
        "type": "Point",
        "coordinates": [
          -3.0409444,
          43.3075214
        ]
      }
    },
    {
      "type": "Feature",
      "id": "node/5939682666",
      "properties": {
        "name": "Cetina",
        "network": "ADIF",
        "public_transport": "station",
        "railway": "station",
        "train": "yes",
        "wikidata": "Q5679155",
        "id": "node/5939682666"
      },
      "geometry": {
        "type": "Point",
        "coordinates": [
          -1.9599362,
          41.2960373
        ]
      }
    },
    {
      "type": "Feature",
      "id": "node/5940817283",
      "properties": {
        "name": "Longares",
        "network": "ADIF",
        "public_transport": "station",
        "railway": "station",
        "train": "yes",
        "wikidata": "Q5846615",
        "id": "node/5940817283"
      },
      "geometry": {
        "type": "Point",
        "coordinates": [
          -1.1584973,
          41.4061562
        ]
      }
    },
    {
      "type": "Feature",
      "id": "node/5940842407",
      "properties": {
        "name": "Badules",
        "network": "ADIF",
        "public_transport": "station",
        "railway": "station",
        "train": "yes",
        "wikidata": "Q5845759",
        "id": "node/5940842407"
      },
      "geometry": {
        "type": "Point",
        "coordinates": [
          -1.2515586,
          41.1397989
        ]
      }
    },
    {
      "type": "Feature",
      "id": "node/5940860995",
      "properties": {
        "name": "Torrijo del Campo",
        "network": "ADIF",
        "public_transport": "station",
        "railway": "station",
        "train": "yes",
        "id": "node/5940860995"
      },
      "geometry": {
        "type": "Point",
        "coordinates": [
          -1.340519,
          40.8262528
        ]
      }
    },
    {
      "type": "Feature",
      "id": "node/5950825627",
      "properties": {
        "name": "Catoira",
        "public_transport": "station",
        "railway": "station",
        "train": "yes",
        "wikidata": "Q8027331",
        "id": "node/5950825627"
      },
      "geometry": {
        "type": "Point",
        "coordinates": [
          -8.7254226,
          42.6722441
        ]
      }
    },
    {
      "type": "Feature",
      "id": "node/6036608781",
      "properties": {
        "name": "Mercadillo-Villasana",
        "public_transport": "station",
        "railway": "station",
        "train": "yes",
        "id": "node/6036608781"
      },
      "geometry": {
        "type": "Point",
        "coordinates": [
          -3.2629513,
          43.1055377
        ]
      }
    },
    {
      "type": "Feature",
      "id": "node/6068519469",
      "properties": {
        "name": "La Garena",
        "public_transport": "station",
        "railway": "station",
        "train": "yes",
        "wikidata": "Q584442",
        "id": "node/6068519469"
      },
      "geometry": {
        "type": "Point",
        "coordinates": [
          -3.3929927,
          40.4803451
        ]
      }
    },
    {
      "type": "Feature",
      "id": "node/6074627183",
      "properties": {
        "name": "Amurrio-Iparralde",
        "public_transport": "station",
        "railway": "halt",
        "station": "train",
        "train": "yes",
        "wikidata": "Q5845686",
        "wikipedia": "es:Estación de Amurrio-Iparralde",
        "id": "node/6074627183"
      },
      "geometry": {
        "type": "Point",
        "coordinates": [
          -2.996194,
          43.0576686
        ]
      }
    },
    {
      "type": "Feature",
      "id": "node/6074666381",
      "properties": {
        "name": "Santa Cruz de Llodio",
        "name:es": "Santa Cruz de Llodio",
        "public_transport": "station",
        "railway": "halt",
        "station": "train",
        "train": "yes",
        "wikidata": "Q5847167",
        "wikipedia": "eu:Santa Kurutz–Laudio geralekua",
        "id": "node/6074666381"
      },
      "geometry": {
        "type": "Point",
        "coordinates": [
          -2.9696111,
          43.1329214
        ]
      }
    },
    {
      "type": "Feature",
      "id": "node/6074703741",
      "properties": {
        "name": "Laudio/Llodio",
        "public_transport": "station",
        "railway": "station",
        "station": "train",
        "train": "yes",
        "wikidata": "Q3381376",
        "wikipedia": "es:Estación de Llodio",
        "id": "node/6074703741"
      },
      "geometry": {
        "type": "Point",
        "coordinates": [
          -2.9605007,
          43.1422527
        ]
      }
    },
    {
      "type": "Feature",
      "id": "node/6077520291",
      "properties": {
        "name": "Bakiola",
        "public_transport": "station",
        "railway": "halt",
        "station": "train",
        "train": "yes",
        "wikidata": "Q5845765",
        "wikipedia": "es:Estación de Bakiola",
        "id": "node/6077520291"
      },
      "geometry": {
        "type": "Point",
        "coordinates": [
          -2.909141,
          43.1769055
        ]
      }
    },
    {
      "type": "Feature",
      "id": "node/6090258617",
      "properties": {
        "name": "Barra de Miño",
        "network": "ADIF",
        "public_transport": "station",
        "railway": "station",
        "source": "survey",
        "train": "yes",
        "wikidata": "Q8779352",
        "id": "node/6090258617"
      },
      "geometry": {
        "type": "Point",
        "coordinates": [
          -7.802544,
          42.4010458
        ]
      }
    },
    {
      "type": "Feature",
      "id": "node/6090575843",
      "properties": {
        "name": "Traslaviña",
        "public_transport": "station",
        "railway": "station",
        "train": "yes",
        "wikidata": "Q12268164",
        "id": "node/6090575843"
      },
      "geometry": {
        "type": "Point",
        "coordinates": [
          -3.198266,
          43.2333547
        ]
      }
    },
    {
      "type": "Feature",
      "id": "node/6127183265",
      "properties": {
        "name": "Santa María y La Peña",
        "operator": "Adif",
        "public_transport": "station",
        "railway": "station",
        "ref": "74207",
        "train": "yes",
        "wikidata": "Q5847182",
        "id": "node/6127183265"
      },
      "geometry": {
        "type": "Point",
        "coordinates": [
          -0.6958094,
          42.3802451
        ]
      }
    },
    {
      "type": "Feature",
      "id": "node/6176692831",
      "properties": {
        "name": "Estación de ferrocarril de Cabañaquinta",
        "network": "Renfe",
        "public_transport": "station",
        "railway": "station",
        "train": "yes",
        "website": "http://renfe.es",
        "id": "node/6176692831"
      },
      "geometry": {
        "type": "Point",
        "coordinates": [
          -5.6249046,
          43.1607807
        ]
      }
    },
    {
      "type": "Feature",
      "id": "node/6178980292",
      "properties": {
        "covered": "yes",
        "fare_area": "B2",
        "name": "Parla",
        "name:es": "Parla",
        "public_transport": "station",
        "railway": "station",
        "train": "yes",
        "wheelchair": "yes",
        "wikidata": "Q5846892",
        "wikipedia": "es:Estación de Parla",
        "id": "node/6178980292"
      },
      "geometry": {
        "type": "Point",
        "coordinates": [
          -3.7693581,
          40.2410464
        ]
      }
    },
    {
      "type": "Feature",
      "id": "node/6179305128",
      "properties": {
        "fare_area": "B1",
        "name": "Las Margaritas Universidad",
        "public_transport": "station",
        "railway": "station",
        "train": "yes",
        "wikidata": "Q2640301",
        "id": "node/6179305128"
      },
      "geometry": {
        "type": "Point",
        "coordinates": [
          -3.7273094,
          40.3229593
        ]
      }
    },
    {
      "type": "Feature",
      "id": "node/6221123437",
      "properties": {
        "name": "Tamarite - Altorricón",
        "public_transport": "station",
        "railway": "halt",
        "train": "yes",
        "id": "node/6221123437"
      },
      "geometry": {
        "type": "Point",
        "coordinates": [
          0.3749624,
          41.7789617
        ]
      }
    },
    {
      "type": "Feature",
      "id": "node/6235968974",
      "properties": {
        "name": "Ermua",
        "network": "Euskotren Trena",
        "operator": "Euskal Trenbide Sarea",
        "public_transport": "station",
        "railway": "station",
        "station": "train",
        "train": "yes",
        "wheelchair": "yes",
        "id": "node/6235968974"
      },
      "geometry": {
        "type": "Point",
        "coordinates": [
          -2.5011652,
          43.184827
        ]
      }
    },
    {
      "type": "Feature",
      "id": "node/6313228293",
      "properties": {
        "name": "Guadalajara",
        "public_transport": "station",
        "railway": "station",
        "train": "yes",
        "wikidata": "Q3780222",
        "id": "node/6313228293"
      },
      "geometry": {
        "type": "Point",
        "coordinates": [
          -3.1822527,
          40.6440843
        ]
      }
    },
    {
      "type": "Feature",
      "id": "node/6347113658",
      "properties": {
        "name": "A Gudiña-Porta de Galicia",
        "public_transport": "station",
        "railway": "station",
        "train": "yes",
        "wikidata": "Q106492279",
        "id": "node/6347113658"
      },
      "geometry": {
        "type": "Point",
        "coordinates": [
          -7.1344993,
          42.063899
        ]
      }
    },
    {
      "type": "Feature",
      "id": "node/6495422017",
      "properties": {
        "ele": "31.9",
        "name": "Sant Feliu de Llobregat",
        "name:ca": "Sant Feliu de Llobregat",
        "operator": "Adif",
        "platforms": "2",
        "public_transport": "station",
        "railway": "halt",
        "ref": "R1;R4;R7",
        "train": "yes",
        "wheelchair": "yes",
        "wikidata": "Q1865224",
        "wikipedia": "ca:Estació de Sant Feliu de Llobregat",
        "id": "node/6495422017"
      },
      "geometry": {
        "type": "Point",
        "coordinates": [
          2.0479757,
          41.38299
        ]
      }
    },
    {
      "type": "Feature",
      "id": "node/6565199914",
      "properties": {
        "name": "Boñar",
        "public_transport": "station",
        "railway": "station",
        "train": "yes",
        "id": "node/6565199914"
      },
      "geometry": {
        "type": "Point",
        "coordinates": [
          -5.3287108,
          42.8627798
        ]
      }
    },
    {
      "type": "Feature",
      "id": "node/6565464317",
      "properties": {
        "name": "Salinas de Pisuerga",
        "public_transport": "station",
        "railway": "halt",
        "train": "yes",
        "id": "node/6565464317"
      },
      "geometry": {
        "type": "Point",
        "coordinates": [
          -4.3861116,
          42.8513072
        ]
      }
    },
    {
      "type": "Feature",
      "id": "node/6566190548",
      "properties": {
        "name": "La Mata de la Riba",
        "public_transport": "station",
        "railway": "halt",
        "train": "yes",
        "id": "node/6566190548"
      },
      "geometry": {
        "type": "Point",
        "coordinates": [
          -5.3395155,
          42.8585503
        ]
      }
    },
    {
      "type": "Feature",
      "id": "node/6577768899",
      "properties": {
        "name": "Hoz de Anero",
        "public_transport": "station",
        "railway": "station",
        "train": "yes",
        "wikidata": "Q107441228",
        "id": "node/6577768899"
      },
      "geometry": {
        "type": "Point",
        "coordinates": [
          -3.6666629,
          43.4050227
        ]
      }
    },
    {
      "type": "Feature",
      "id": "node/6593377381",
      "properties": {
        "name": "Asunción/Universidad",
        "public_transport": "station",
        "railway": "station",
        "station": "train",
        "train": "yes",
        "wikidata": "Q107976314",
        "id": "node/6593377381"
      },
      "geometry": {
        "type": "Point",
        "coordinates": [
          -5.5662413,
          42.6159541
        ]
      }
    },
    {
      "type": "Feature",
      "id": "node/6654983965",
      "properties": {
        "name": "El Burgo de Ebro",
        "public_transport": "station",
        "railway": "halt",
        "train": "yes",
        "wikidata": "Q5846145",
        "id": "node/6654983965"
      },
      "geometry": {
        "type": "Point",
        "coordinates": [
          -0.7395756,
          41.5663799
        ]
      }
    },
    {
      "type": "Feature",
      "id": "node/6823409719",
      "properties": {
        "name": "Coslada",
        "public_transport": "station",
        "railway": "station",
        "train": "yes",
        "wheelchair": "yes",
        "wikidata": "Q2244036",
        "wikipedia": "es:Estación de Coslada",
        "id": "node/6823409719"
      },
      "geometry": {
        "type": "Point",
        "coordinates": [
          -3.5610079,
          40.4237334
        ]
      }
    },
    {
      "type": "Feature",
      "id": "node/6856208612",
      "properties": {
        "name": "Andoain-Centro",
        "name:eu": "Andoain-Erdia",
        "operator": "Renfe",
        "public_transport": "station",
        "railway": "station",
        "toilets:wheelchair": "no",
        "train": "yes",
        "wheelchair": "limited",
        "wikidata": "Q11681630",
        "id": "node/6856208612"
      },
      "geometry": {
        "type": "Point",
        "coordinates": [
          -2.0203096,
          43.2155256
        ]
      }
    },
    {
      "type": "Feature",
      "id": "node/6856255919",
      "properties": {
        "name": "Andoain",
        "operator": "Renfe",
        "public_transport": "station",
        "railway": "station",
        "train": "yes",
        "wheelchair": "limited",
        "wikidata": "Q8779282",
        "id": "node/6856255919"
      },
      "geometry": {
        "type": "Point",
        "coordinates": [
          -2.0156244,
          43.222145
        ]
      }
    },
    {
      "type": "Feature",
      "id": "node/6861330006",
      "properties": {
        "name": "Estación de FFCC de Coca (ruinas)",
        "public_transport": "station",
        "railway": "station",
        "train": "yes",
        "id": "node/6861330006"
      },
      "geometry": {
        "type": "Point",
        "coordinates": [
          -4.5438706,
          41.2039942
        ]
      }
    },
    {
      "type": "Feature",
      "id": "node/6913720698",
      "properties": {
        "addr:city": "Grado/Grau",
        "addr:postcode": "33820",
        "addr:street": "Calle Jove y Valdés",
        "ele": "64",
        "internet_access": "no",
        "name": "Estación de Tren",
        "nohousenumber": "yes",
        "operator": "Adif",
        "public_transport": "station",
        "railway": "station",
        "train": "yes",
        "wheelchair": "yes",
        "id": "node/6913720698"
      },
      "geometry": {
        "type": "Point",
        "coordinates": [
          -6.063731,
          43.3944345
        ]
      }
    },
    {
      "type": "Feature",
      "id": "node/6970536603",
      "properties": {
        "name": "Fuente de la Mora",
        "public_transport": "station",
        "railway": "station",
        "train": "yes",
        "url": "http://www.citram.es/HORARIOS/info.aspx?estacion=5_133",
        "id": "node/6970536603"
      },
      "geometry": {
        "type": "Point",
        "coordinates": [
          -3.6631142,
          40.4849618
        ]
      }
    },
    {
      "type": "Feature",
      "id": "node/6970555979",
      "properties": {
        "name": "Pirámides",
        "public_transport": "station",
        "railway": "station",
        "train": "yes",
        "wheelchair": "yes",
        "id": "node/6970555979"
      },
      "geometry": {
        "type": "Point",
        "coordinates": [
          -3.7111425,
          40.4026279
        ]
      }
    },
    {
      "type": "Feature",
      "id": "node/7044883744",
      "properties": {
        "covered": "yes",
        "name": "Nuevos Ministerios",
        "network": "Cercanías Madrid",
        "operator": "Renfe",
        "public_transport": "station",
        "railway": "station",
        "train": "yes",
        "url": "http://www.citram.es/HORARIOS/info.aspx?estacion=5_51",
        "id": "node/7044883744"
      },
      "geometry": {
        "type": "Point",
        "coordinates": [
          -3.6922272,
          40.4456089
        ]
      }
    },
    {
      "type": "Feature",
      "id": "node/7196860523",
      "properties": {
        "name": "Piera",
        "network": "ATM",
        "operator": "FGC",
        "public_transport": "station",
        "railway": "station",
        "train": "yes",
        "id": "node/7196860523"
      },
      "geometry": {
        "type": "Point",
        "coordinates": [
          1.7544148,
          41.5258773
        ]
      }
    },
    {
      "type": "Feature",
      "id": "node/7201979108",
      "properties": {
        "name": "Gavà",
        "name:ca": "Gavà",
        "operator": "Adif",
        "platforms": "4",
        "public_transport": "station",
        "railway": "station",
        "train": "yes",
        "wikidata": "Q2132288",
        "wikipedia": "ca:Estació de Gavà",
        "id": "node/7201979108"
      },
      "geometry": {
        "type": "Point",
        "coordinates": [
          2.0103509,
          41.3030507
        ]
      }
    },
    {
      "type": "Feature",
      "id": "node/7201979113",
      "properties": {
        "location": "underground",
        "name": "Barcelona - Passeig de Gràcia",
        "name:ca": "Barcelona - Passeig de Gràcia",
        "operator": "Adif",
        "public_transport": "station",
        "railway": "halt",
        "train": "yes",
        "uic_ref": "7100063",
        "wheelchair": "yes",
        "wikidata": "Q2328516",
        "wikipedia": "ca:Estació de Passeig de Gràcia",
        "id": "node/7201979113"
      },
      "geometry": {
        "type": "Point",
        "coordinates": [
          2.1662486,
          41.3932012
        ]
      }
    },
    {
      "type": "Feature",
      "id": "node/7204814162",
      "properties": {
        "addr:postcode": "08940",
        "name": "Cornellà",
        "network": "Rodalies de Catalunya",
        "operator": "Adif",
        "platforms": "2",
        "public_transport": "station",
        "railway": "station",
        "train": "yes",
        "wheelchair": "yes",
        "id": "node/7204814162"
      },
      "geometry": {
        "type": "Point",
        "coordinates": [
          2.0705574,
          41.3575183
        ]
      }
    },
    {
      "type": "Feature",
      "id": "node/7204816747",
      "properties": {
        "designation": "Sant Vicenç de Calders",
        "name": "Sant Vicenç de Calders",
        "name:ca": "Sant Vicenç de Calders",
        "network": "Rodalies de Catalunya (ATM Barcelona)",
        "operator": "Adif",
        "public_transport": "station",
        "railway": "station",
        "train": "yes",
        "wikidata": "Q2179421",
        "wikipedia": "ca:Estació de Sant Vicenç de Calders",
        "id": "node/7204816747"
      },
      "geometry": {
        "type": "Point",
        "coordinates": [
          1.5257932,
          41.1860822
        ]
      }
    },
    {
      "type": "Feature",
      "id": "node/7226723675",
      "properties": {
        "building:year": "1854",
        "ele": "31.9",
        "name": "Molins de Rei",
        "name:ca": "Molins de Rei",
        "operator": "Adif",
        "platforms": "3",
        "public_transport": "station",
        "railway": "station",
        "ref": "R1;R4",
        "train": "yes",
        "wheelchair": "yes",
        "wikidata": "Q4890615",
        "wikipedia": "ca:Estació de Molins de Rei",
        "id": "node/7226723675"
      },
      "geometry": {
        "type": "Point",
        "coordinates": [
          2.0209874,
          41.4099448
        ]
      }
    },
    {
      "type": "Feature",
      "id": "node/7243058426",
      "properties": {
        "name": "Vigo-Guixar",
        "public_transport": "station",
        "railway": "station",
        "train": "yes",
        "id": "node/7243058426"
      },
      "geometry": {
        "type": "Point",
        "coordinates": [
          -8.711659,
          42.2397916
        ]
      }
    },
    {
      "type": "Feature",
      "id": "node/7246471727",
      "properties": {
        "name": "Valencia Joaquín Sorolla",
        "name:ca": "València Joaquín Sorolla",
        "name:es": "Valencia Joaquín Sorolla",
        "operator": "Adif",
        "public_transport": "station",
        "railway": "station",
        "train": "yes",
        "wheelchair": "yes",
        "wikidata": "Q801550",
        "wikipedia": "es:Estación de Valencia-Joaquín Sorolla",
        "id": "node/7246471727"
      },
      "geometry": {
        "type": "Point",
        "coordinates": [
          -0.3813054,
          39.4599383
        ]
      }
    },
    {
      "type": "Feature",
      "id": "node/7399936636",
      "properties": {
        "name": "Sant Pol de Mar",
        "name:ca": "Sant Pol de Mar",
        "operator": "Adif",
        "public_transport": "station",
        "railway": "station",
        "train": "yes",
        "wikidata": "Q1871160",
        "wikipedia": "ca:Estació de Sant Pol de Mar",
        "id": "node/7399936636"
      },
      "geometry": {
        "type": "Point",
        "coordinates": [
          2.6246461,
          41.601631
        ]
      }
    },
    {
      "type": "Feature",
      "id": "node/7399936645",
      "properties": {
        "name": "Arenys de Mar",
        "name:ca": "Arenys de Mar",
        "operator": "Adif",
        "public_transport": "station",
        "railway": "station",
        "train": "yes",
        "wikidata": "Q1922709",
        "wikipedia": "ca:Estació d'Arenys de Mar",
        "id": "node/7399936645"
      },
      "geometry": {
        "type": "Point",
        "coordinates": [
          2.5494194,
          41.5774115
        ]
      }
    },
    {
      "type": "Feature",
      "id": "node/7401843835",
      "properties": {
        "name": "Baixador de la Font",
        "network": "AFEVI",
        "operator": "AFEVI",
        "public_transport": "station",
        "railway": "station",
        "train": "yes",
        "id": "node/7401843835"
      },
      "geometry": {
        "type": "Point",
        "coordinates": [
          1.724043,
          41.2139694
        ]
      }
    },
    {
      "type": "Feature",
      "id": "node/7444849167",
      "properties": {
        "name": "Arañales de Muel",
        "network": "ADIF",
        "public_transport": "station",
        "railway": "station",
        "ref": "ADIF",
        "train": "yes",
        "wikidata": "Q5845699",
        "id": "node/7444849167"
      },
      "geometry": {
        "type": "Point",
        "coordinates": [
          -1.0862148,
          41.4691301
        ]
      }
    },
    {
      "type": "Feature",
      "id": "node/7504130888",
      "properties": {
        "name": "Herradón-La Cañada",
        "public_transport": "station",
        "railway": "station",
        "train": "yes",
        "id": "node/7504130888"
      },
      "geometry": {
        "type": "Point",
        "coordinates": [
          -4.4949695,
          40.5994755
        ]
      }
    },
    {
      "type": "Feature",
      "id": "node/7504130889",
      "properties": {
        "name": "Herradón-La Cañada",
        "public_transport": "station",
        "railway": "station",
        "train": "yes",
        "id": "node/7504130889"
      },
      "geometry": {
        "type": "Point",
        "coordinates": [
          -4.4948831,
          40.5991914
        ]
      }
    },
    {
      "type": "Feature",
      "id": "node/7512362041",
      "properties": {
        "name": "Sabadell Nord",
        "operator": "FGC",
        "public_transport": "station",
        "railway": "station",
        "train": "yes",
        "id": "node/7512362041"
      },
      "geometry": {
        "type": "Point",
        "coordinates": [
          2.0965483,
          41.5616873
        ]
      }
    },
    {
      "type": "Feature",
      "id": "node/7512362047",
      "properties": {
        "name": "Vilajuïga",
        "name:ca": "Vilajuïga",
        "operator": "Adif",
        "public_transport": "station",
        "railway": "halt",
        "train": "yes",
        "wikidata": "Q937770",
        "wikipedia": "ca:Estació de Vilajuïga",
        "id": "node/7512362047"
      },
      "geometry": {
        "type": "Point",
        "coordinates": [
          3.0863044,
          42.3251541
        ]
      }
    },
    {
      "type": "Feature",
      "id": "node/7515916371",
      "properties": {
        "name": "Sant Andreu de la Barca",
        "operator": "FGC",
        "public_transport": "station",
        "railway": "station",
        "train": "yes",
        "id": "node/7515916371"
      },
      "geometry": {
        "type": "Point",
        "coordinates": [
          1.9730931,
          41.4468421
        ]
      }
    },
    {
      "type": "Feature",
      "id": "node/7699368435",
      "properties": {
        "internet_access": "no",
        "name": "Valladolid-Universidad",
        "network": "Adif",
        "operator": "Adif",
        "public_transport": "station",
        "railway": "halt",
        "train": "yes",
        "wikidata": "Q5847418",
        "wikipedia": "es:Estación de Valladolid-Universidad",
        "id": "node/7699368435"
      },
      "geometry": {
        "type": "Point",
        "coordinates": [
          -4.7041553,
          41.6602658
        ]
      }
    },
    {
      "type": "Feature",
      "id": "node/7788593121",
      "properties": {
        "name": "Gibraleón",
        "name:ar": "جبل العيون",
        "name:es": "Gibraleón",
        "operator": "Adif",
        "public_transport": "station",
        "railway": "station",
        "train": "yes",
        "wikidata": "Q5846302",
        "wikipedia": "es:Estación de Gibraleón",
        "id": "node/7788593121"
      },
      "geometry": {
        "type": "Point",
        "coordinates": [
          -6.9621467,
          37.3678948
        ]
      }
    },
    {
      "type": "Feature",
      "id": "node/7797479570",
      "properties": {
        "name": "Zarzaquemada",
        "public_transport": "station",
        "railway": "station",
        "train": "yes",
        "wikidata": "Q5847559",
        "wikipedia": "es:Estación de Zarzaquemada",
        "id": "node/7797479570"
      },
      "geometry": {
        "type": "Point",
        "coordinates": [
          -3.7482479,
          40.3408429
        ]
      }
    },
    {
      "type": "Feature",
      "id": "node/7797541923",
      "properties": {
        "name": "Los Negrales",
        "public_transport": "station",
        "railway": "station",
        "train": "yes",
        "url": "http://www.citram.es/HORARIOS/info.aspx?estacion=5_50",
        "id": "node/7797541923"
      },
      "geometry": {
        "type": "Point",
        "coordinates": [
          -4.0218994,
          40.6385591
        ]
      }
    },
    {
      "type": "Feature",
      "id": "node/7797548495",
      "properties": {
        "name": "Cantoblanco Universidad",
        "public_transport": "station",
        "railway": "station",
        "train": "yes",
        "wikidata": "Q4319104",
        "id": "node/7797548495"
      },
      "geometry": {
        "type": "Point",
        "coordinates": [
          -3.7001897,
          40.5438006
        ]
      }
    },
    {
      "type": "Feature",
      "id": "node/7804977670",
      "properties": {
        "name": "Almorchón",
        "network": "ADIF",
        "public_transport": "station",
        "railway": "station",
        "train": "yes",
        "id": "node/7804977670"
      },
      "geometry": {
        "type": "Point",
        "coordinates": [
          -5.2903616,
          38.6964634
        ]
      }
    },
    {
      "type": "Feature",
      "id": "node/7825436136",
      "properties": {
        "name": "Pina de Ebro",
        "public_transport": "station",
        "railway": "station",
        "train": "yes",
        "id": "node/7825436136"
      },
      "geometry": {
        "type": "Point",
        "coordinates": [
          -0.5572413,
          41.479993
        ]
      }
    },
    {
      "type": "Feature",
      "id": "node/7873767680",
      "properties": {
        "addr:city": "Sestao",
        "addr:housenumber": "A0A",
        "addr:postcode": "48910",
        "addr:street": "Calle Via Galindo",
        "addr:street:es": "Calle Via Galindo",
        "addr:street:eu": "Via Galindo kalea",
        "name": "Galindo",
        "operator": "Adif",
        "public_transport": "station",
        "railway": "station",
        "train": "yes",
        "wikidata": "Q8288561",
        "id": "node/7873767680"
      },
      "geometry": {
        "type": "Point",
        "coordinates": [
          -3.0101521,
          43.3041695
        ]
      }
    },
    {
      "type": "Feature",
      "id": "node/7894403635",
      "properties": {
        "name": "Valle de Trápaga-Trapagaran",
        "old_name": "San Salvador del Valle",
        "operator": "Cercanías Renfe",
        "platforms": "2",
        "public_transport": "station",
        "railway": "station",
        "train": "yes",
        "wheelchair": "limited",
        "id": "node/7894403635"
      },
      "geometry": {
        "type": "Point",
        "coordinates": [
          -3.028455,
          43.3014622
        ]
      }
    },
    {
      "type": "Feature",
      "id": "node/7894423036",
      "properties": {
        "name": "Ortuella",
        "operator": "Cercanias Renfe",
        "public_transport": "station",
        "railway": "station",
        "train": "yes",
        "id": "node/7894423036"
      },
      "geometry": {
        "type": "Point",
        "coordinates": [
          -3.0604095,
          43.3114858
        ]
      }
    },
    {
      "type": "Feature",
      "id": "node/7894425820",
      "properties": {
        "name": "Putxeta",
        "public_transport": "station",
        "railway": "station",
        "train": "yes",
        "wikidata": "Q8358563",
        "id": "node/7894425820"
      },
      "geometry": {
        "type": "Point",
        "coordinates": [
          -3.0911356,
          43.3155916
        ]
      }
    },
    {
      "type": "Feature",
      "id": "node/8008982086",
      "properties": {
        "name": "Pontedeume",
        "public_transport": "station",
        "railway": "station",
        "train": "yes",
        "wikidata": "Q5552484",
        "id": "node/8008982086"
      },
      "geometry": {
        "type": "Point",
        "coordinates": [
          -8.1803439,
          43.4118465
        ]
      }
    },
    {
      "type": "Feature",
      "id": "node/8013030079",
      "properties": {
        "name": "Sanabria AV",
        "operator": "ADIF",
        "public_transport": "station",
        "railway": "station",
        "start_date": "2021/07/22",
        "train": "yes",
        "wikipedia": "es:Estación de Sanabria Alta Velocidad",
        "id": "node/8013030079"
      },
      "geometry": {
        "type": "Point",
        "coordinates": [
          -6.5629523,
          42.0445746
        ]
      }
    },
    {
      "type": "Feature",
      "id": "node/8038460771",
      "properties": {
        "name": "Montabliz",
        "public_transport": "station",
        "railway": "halt",
        "train": "yes",
        "wikidata": "Q17631294",
        "wikipedia": "es:Estación de Montabliz",
        "id": "node/8038460771"
      },
      "geometry": {
        "type": "Point",
        "coordinates": [
          -4.0975104,
          43.1021377
        ]
      }
    },
    {
      "type": "Feature",
      "id": "node/8038471610",
      "properties": {
        "name": "Torrelavega Adif",
        "network": "ADIF",
        "operator": "Renfe",
        "public_transport": "station",
        "railway": "station",
        "ref": "L160",
        "train": "yes",
        "wikidata": "Q3097886",
        "wikipedia": "es:Estación de Torrelavega",
        "id": "node/8038471610"
      },
      "geometry": {
        "type": "Point",
        "coordinates": [
          -4.0426436,
          43.3276165
        ]
      }
    },
    {
      "type": "Feature",
      "id": "node/8038499695",
      "properties": {
        "name": "Arenas de Iguña",
        "public_transport": "station",
        "railway": "halt",
        "train": "yes",
        "wikidata": "Q5845711",
        "id": "node/8038499695"
      },
      "geometry": {
        "type": "Point",
        "coordinates": [
          -4.0499546,
          43.1847739
        ]
      }
    },
    {
      "type": "Feature",
      "id": "node/8038502915",
      "properties": {
        "name": "Lombera",
        "public_transport": "station",
        "railway": "halt",
        "train": "yes",
        "wikidata": "Q5846612",
        "wikipedia": "es:Estación de Lombera",
        "id": "node/8038502915"
      },
      "geometry": {
        "type": "Point",
        "coordinates": [
          -4.0675886,
          43.2658133
        ]
      }
    },
    {
      "type": "Feature",
      "id": "node/8038507760",
      "properties": {
        "name": "Pujayo",
        "public_transport": "station",
        "railway": "halt",
        "train": "yes",
        "wikidata": "Q5846999",
        "id": "node/8038507760"
      },
      "geometry": {
        "type": "Point",
        "coordinates": [
          -4.0824973,
          43.1227657
        ]
      }
    },
    {
      "type": "Feature",
      "id": "node/8040017219",
      "properties": {
        "name": "Xixún",
        "public_transport": "station",
        "railway": "halt",
        "train": "yes",
        "wikidata": "Q18286795",
        "id": "node/8040017219"
      },
      "geometry": {
        "type": "Point",
        "coordinates": [
          -5.6936731,
          43.3712807
        ]
      }
    },
    {
      "type": "Feature",
      "id": "node/8040074019",
      "properties": {
        "name": "Valdesoto",
        "public_transport": "station",
        "railway": "halt",
        "train": "yes",
        "id": "node/8040074019"
      },
      "geometry": {
        "type": "Point",
        "coordinates": [
          -5.6585792,
          43.3584475
        ]
      }
    },
    {
      "type": "Feature",
      "id": "node/8040080704",
      "properties": {
        "name": "Bendicion",
        "public_transport": "station",
        "railway": "station",
        "train": "yes",
        "wikidata": "Q18221372",
        "id": "node/8040080704"
      },
      "geometry": {
        "type": "Point",
        "coordinates": [
          -5.6806185,
          43.3634798
        ]
      }
    },
    {
      "type": "Feature",
      "id": "node/8040089876",
      "properties": {
        "name": "Villabona de Asturias",
        "public_transport": "station",
        "railway": "station",
        "train": "yes",
        "wikidata": "Q6162530",
        "id": "node/8040089876"
      },
      "geometry": {
        "type": "Point",
        "coordinates": [
          -5.8263369,
          43.4615126
        ]
      }
    },
    {
      "type": "Feature",
      "id": "node/8040191013",
      "properties": {
        "name": "Ciañu Renfe",
        "network": "Renfe Cercanías",
        "operator": "Adif",
        "public_transport": "station",
        "railway": "station",
        "train": "yes",
        "wikidata": "Q8779639",
        "id": "node/8040191013"
      },
      "geometry": {
        "type": "Point",
        "coordinates": [
          -5.6688152,
          43.2893913
        ]
      }
    },
    {
      "type": "Feature",
      "id": "node/8040194951",
      "properties": {
        "name": "Soto Rei/Soto de Rey",
        "name:es": "Soto de Rey",
        "public_transport": "station",
        "railway": "station",
        "train": "yes",
        "wikidata": "Q5847277",
        "id": "node/8040194951"
      },
      "geometry": {
        "type": "Point",
        "coordinates": [
          -5.8568299,
          43.3077101
        ]
      }
    },
    {
      "type": "Feature",
      "id": "node/8042352227",
      "properties": {
        "name": "Serín",
        "network": "Renfe",
        "operator": "Adif",
        "public_transport": "station",
        "railway": "station",
        "train": "yes",
        "wikidata": "Q5847229",
        "id": "node/8042352227"
      },
      "geometry": {
        "type": "Point",
        "coordinates": [
          -5.7819091,
          43.5048179
        ]
      }
    },
    {
      "type": "Feature",
      "id": "node/8044450666",
      "properties": {
        "name": "Lugaritz",
        "network": "Euskotren Trena",
        "operator": "Eusko Trenbideak",
        "public_transport": "station",
        "railway": "station",
        "train": "yes",
        "wheelchair": "yes",
        "wikidata": "Q12262648",
        "id": "node/8044450666"
      },
      "geometry": {
        "type": "Point",
        "coordinates": [
          -2.0007024,
          43.3024291
        ]
      }
    },
    {
      "type": "Feature",
      "id": "node/8044485140",
      "properties": {
        "name": "Bermeo",
        "operator": "Euskotren Trena;Eusko Trenbideak",
        "public_transport": "station",
        "railway": "station",
        "train": "yes",
        "wikidata": "Q12255023",
        "wikipedia": "es:Estación de Bermeo",
        "id": "node/8044485140"
      },
      "geometry": {
        "type": "Point",
        "coordinates": [
          -2.7233364,
          43.4178683
        ]
      }
    },
    {
      "type": "Feature",
      "id": "node/8044521461",
      "properties": {
        "name": "Larrondo",
        "operator": "Euskotren Trena",
        "public_transport": "station",
        "railway": "halt",
        "train": "yes",
        "id": "node/8044521461"
      },
      "geometry": {
        "type": "Point",
        "coordinates": [
          -2.9158058,
          43.2943352
        ]
      }
    },
    {
      "type": "Feature",
      "id": "node/8044557264",
      "properties": {
        "name": "Zugastieta",
        "operator": "Eusko Trenbideak",
        "public_transport": "station",
        "railway": "halt",
        "train": "yes",
        "id": "node/8044557264"
      },
      "geometry": {
        "type": "Point",
        "coordinates": [
          -2.6928297,
          43.2521238
        ]
      }
    },
    {
      "type": "Feature",
      "id": "node/8044648579",
      "properties": {
        "name": "Amorebieta",
        "operator": "Eusko Trenbideak",
        "public_transport": "station",
        "railway": "station",
        "train": "yes",
        "wikidata": "Q3497370",
        "wikipedia": "eu:Zornotzako geltokia",
        "id": "node/8044648579"
      },
      "geometry": {
        "type": "Point",
        "coordinates": [
          -2.7364558,
          43.2167598
        ]
      }
    },
    {
      "type": "Feature",
      "id": "node/8044660052",
      "properties": {
        "name": "Bedia",
        "operator": "Euskotren Trena",
        "public_transport": "station",
        "railway": "halt",
        "train": "yes",
        "id": "node/8044660052"
      },
      "geometry": {
        "type": "Point",
        "coordinates": [
          -2.7974953,
          43.2061193
        ]
      }
    },
    {
      "type": "Feature",
      "id": "node/8044660107",
      "properties": {
        "name": "Lemoa",
        "operator": "Eusko Trenbideak",
        "public_transport": "station",
        "railway": "station",
        "train": "yes",
        "id": "node/8044660107"
      },
      "geometry": {
        "type": "Point",
        "coordinates": [
          -2.7754086,
          43.2071441
        ]
      }
    },
    {
      "type": "Feature",
      "id": "node/8044661068",
      "properties": {
        "name": "Usansolo",
        "operator": "Euskotren Trena",
        "public_transport": "station",
        "railway": "halt",
        "train": "yes",
        "id": "node/8044661068"
      },
      "geometry": {
        "type": "Point",
        "coordinates": [
          -2.821761,
          43.2177421
        ]
      }
    },
    {
      "type": "Feature",
      "id": "node/8044677096",
      "properties": {
        "alt_name": "Zuhatzu-Galdakao",
        "name": "Zuhatzu",
        "operator": "Eusko Trenbideak",
        "public_transport": "station",
        "railway": "station",
        "train": "yes",
        "wikidata": "Q2361768",
        "id": "node/8044677096"
      },
      "geometry": {
        "type": "Point",
        "coordinates": [
          -2.8536327,
          43.2288866
        ]
      }
    },
    {
      "type": "Feature",
      "id": "node/8044686880",
      "properties": {
        "name": "Azitain",
        "operator": "Eusko Trenbideak",
        "public_transport": "station",
        "railway": "station",
        "train": "yes",
        "wheelchair": "yes",
        "wikidata": "Q12254566",
        "wikipedia": "eu:Azitaingo geltokia",
        "id": "node/8044686880"
      },
      "geometry": {
        "type": "Point",
        "coordinates": [
          -2.4550221,
          43.1903946
        ]
      }
    },
    {
      "type": "Feature",
      "id": "node/8044688384",
      "properties": {
        "name": "Euba",
        "operator": "Eusko Trenbideak",
        "public_transport": "station",
        "railway": "station",
        "train": "yes",
        "wikidata": "Q12257385",
        "wikipedia": "eu:Eubako geltokia",
        "id": "node/8044688384"
      },
      "geometry": {
        "type": "Point",
        "coordinates": [
          -2.6968817,
          43.1947519
        ]
      }
    },
    {
      "type": "Feature",
      "id": "node/8044694902",
      "properties": {
        "name": "Berriz",
        "name:es": "Bérriz",
        "official_name": "Berrizko geltokia",
        "operator": "Eusko Trenbideak",
        "public_transport": "station",
        "railway": "station",
        "train": "yes",
        "wikidata": "Q12255065",
        "wikipedia": "eu:Berrizko geltokia",
        "id": "node/8044694902"
      },
      "geometry": {
        "type": "Point",
        "coordinates": [
          -2.5744328,
          43.168456
        ]
      }
    },
    {
      "type": "Feature",
      "id": "node/8044698613",
      "properties": {
        "name": "Unibertsitatea",
        "name:es": "Universidad",
        "network": "Euskotren Trena",
        "operator": "Eusko Trenbideak",
        "public_transport": "station",
        "railway": "station",
        "train": "yes",
        "wheelchair": "no",
        "wikipedia": "eu:Unibertsitatea-Eibar geltokia",
        "id": "node/8044698613"
      },
      "geometry": {
        "type": "Point",
        "coordinates": [
          -2.4872659,
          43.1806916
        ]
      }
    },
    {
      "type": "Feature",
      "id": "node/8044702484",
      "properties": {
        "name": "Elgoibar",
        "network": "Euskotren Trena",
        "operator": "Eusko Trenbideak",
        "public_transport": "station",
        "railway": "station",
        "train": "yes",
        "wikidata": "Q12256712",
        "wikipedia": "eu:Elgoibarko geltokia",
        "id": "node/8044702484"
      },
      "geometry": {
        "type": "Point",
        "coordinates": [
          -2.4158272,
          43.2136008
        ]
      }
    },
    {
      "type": "Feature",
      "id": "node/8044707160",
      "properties": {
        "name": "Eibar",
        "operator": "Eusko Trenbideak",
        "public_transport": "station",
        "railway": "station",
        "train": "yes",
        "wikidata": "Q5846133",
        "id": "node/8044707160"
      },
      "geometry": {
        "type": "Point",
        "coordinates": [
          -2.4656681,
          43.1871069
        ]
      }
    },
    {
      "type": "Feature",
      "id": "node/8044735540",
      "properties": {
        "name": "Ardantza",
        "network": "Euskotren Trena",
        "operator": "Eusko Trenbideak",
        "public_transport": "station",
        "railway": "station",
        "train": "yes",
        "wikidata": "Q12253890",
        "wikipedia": "eu:Ardantzako geltokia",
        "id": "node/8044735540"
      },
      "geometry": {
        "type": "Point",
        "coordinates": [
          -2.4742555,
          43.1846237
        ]
      }
    },
    {
      "type": "Feature",
      "id": "node/8045179368",
      "properties": {
        "name": "Altza",
        "operator": "Eusko Trenbideak",
        "public_transport": "station",
        "railway": "station",
        "train": "yes",
        "wikidata": "Q27960769",
        "id": "node/8045179368"
      },
      "geometry": {
        "type": "Point",
        "coordinates": [
          -1.931079,
          43.3163643
        ]
      }
    },
    {
      "type": "Feature",
      "id": "node/8045190140",
      "properties": {
        "name": "Usurbil",
        "network": "Euskotren Trena",
        "operator": "Eusko Trenbideak",
        "public_transport": "station",
        "railway": "station",
        "train": "yes",
        "wikidata": "Q12268776",
        "wikipedia": "eu:Usurbilgo geltokia",
        "id": "node/8045190140"
      },
      "geometry": {
        "type": "Point",
        "coordinates": [
          -2.0529413,
          43.2687051
        ]
      }
    },
    {
      "type": "Feature",
      "id": "node/8047931566",
      "properties": {
        "name": "Zaldibar",
        "operator": "Eusko Trenbideak",
        "public_transport": "station",
        "railway": "station",
        "train": "yes",
        "wikidata": "Q12269179",
        "wikipedia": "eu:Zaldibarko geltokia",
        "id": "node/8047931566"
      },
      "geometry": {
        "type": "Point",
        "coordinates": [
          -2.5480241,
          43.1716256
        ]
      }
    },
    {
      "type": "Feature",
      "id": "node/8048726800",
      "properties": {
        "light_rail": "yes",
        "name": "es Pont d'Inca",
        "name:ca": "es Pont d'Inca",
        "name:es": "Puente de Inca",
        "official_name": "es Pont d'Inca",
        "public_transport": "station",
        "railway": "station",
        "station": "light_rail",
        "train": "yes",
        "wikidata": "Q5575478",
        "wikipedia": "ca:Pont d'Inca",
        "id": "node/8048726800"
      },
      "geometry": {
        "type": "Point",
        "coordinates": [
          2.6917323,
          39.59812
        ]
      }
    },
    {
      "type": "Feature",
      "id": "node/8048727321",
      "properties": {
        "light_rail": "yes",
        "name": "Son Costa - Son Fortesa",
        "name:ca": "Son Costa - Son Fortesa",
        "public_transport": "station",
        "railway": "station",
        "station": "light_rail",
        "train": "yes",
        "wikidata": "Q3825429",
        "wikipedia": "es:Estación de Son Costa-Son Fortesa",
        "id": "node/8048727321"
      },
      "geometry": {
        "type": "Point",
        "coordinates": [
          2.6657937,
          39.58417
        ]
      }
    },
    {
      "type": "Feature",
      "id": "node/8048740478",
      "properties": {
        "light_rail": "yes",
        "name": "Son Fuster",
        "name:ca": "Son Fuster",
        "public_transport": "station",
        "railway": "station",
        "station": "light_rail",
        "train": "yes",
        "wikidata": "Q8841973",
        "wikipedia": "ca:Estació de Son Fuster",
        "id": "node/8048740478"
      },
      "geometry": {
        "type": "Point",
        "coordinates": [
          2.6746056,
          39.5902008
        ]
      }
    },
    {
      "type": "Feature",
      "id": "node/8048743013",
      "properties": {
        "light_rail": "yes",
        "name": "Polígon de Marratxí",
        "name:ca": "Polígon de Marratxí",
        "public_transport": "station",
        "railway": "station",
        "station": "light_rail",
        "train": "yes",
        "wikidata": "Q10950205",
        "wikipedia": "ca:Estació de Polígon de Marratxí",
        "id": "node/8048743013"
      },
      "geometry": {
        "type": "Point",
        "coordinates": [
          2.716782,
          39.6155242
        ]
      }
    },
    {
      "type": "Feature",
      "id": "node/8048763086",
      "properties": {
        "name": "Binissalem",
        "name:ar": "بني سالم",
        "name:ca": "Binissalem",
        "public_transport": "station",
        "railway": "station",
        "train": "yes",
        "wikidata": "Q8779394",
        "wikipedia": "ca:Estació de Binissalem",
        "id": "node/8048763086"
      },
      "geometry": {
        "type": "Point",
        "coordinates": [
          2.8413836,
          39.692619
        ]
      }
    },
    {
      "type": "Feature",
      "id": "node/8075148246",
      "properties": {
        "name": "Ferreruela",
        "public_transport": "station",
        "railway": "station",
        "train": "yes",
        "id": "node/8075148246"
      },
      "geometry": {
        "type": "Point",
        "coordinates": [
          -1.2385943,
          41.063837
        ]
      }
    },
    {
      "type": "Feature",
      "id": "node/8092061362",
      "properties": {
        "name": "Estivella - Albalat dels Tarongers",
        "public_transport": "station",
        "railway": "station",
        "train": "yes",
        "wikidata": "Q8779746",
        "wikipedia": "ca:Estació d'Estivella-Albalat dels Tarongers",
        "id": "node/8092061362"
      },
      "geometry": {
        "type": "Point",
        "coordinates": [
          -0.3494798,
          39.7081869
        ]
      }
    },
    {
      "type": "Feature",
      "id": "node/8171114203",
      "properties": {
        "bicycle": "yes",
        "name": "Larratxo",
        "opening_hours": "Mo-Su 07:00-23:00",
        "operator": "Donostiako Udala/Ayuntamiento de San Sebastián",
        "public_transport": "station",
        "railway": "station",
        "train": "yes",
        "wheelchair": "yes",
        "id": "node/8171114203"
      },
      "geometry": {
        "type": "Point",
        "coordinates": [
          -1.9378936,
          43.313566
        ]
      }
    },
    {
      "type": "Feature",
      "id": "node/8171114204",
      "properties": {
        "bicycle": "yes",
        "name": "Larraundi",
        "opening_hours": "Mo-Su 07:00-23:00",
        "operator": "Donostiako Udala/Ayuntamiento de San Sebastian",
        "public_transport": "station",
        "railway": "station",
        "train": "yes",
        "wheelchair": "yes",
        "id": "node/8171114204"
      },
      "geometry": {
        "type": "Point",
        "coordinates": [
          -1.9367275,
          43.3137109
        ]
      }
    },
    {
      "type": "Feature",
      "id": "node/8406262403",
      "properties": {
        "name": "Tres Hermanos",
        "public_transport": "station",
        "train": "yes",
        "id": "node/8406262403"
      },
      "geometry": {
        "type": "Point",
        "coordinates": [
          -4.6921968,
          41.6779589
        ]
      }
    },
    {
      "type": "Feature",
      "id": "node/8416247678",
      "properties": {
        "disused:railway": "station",
        "name": "Antigua estación de Renfe",
        "public_transport": "station",
        "train": "yes",
        "id": "node/8416247678"
      },
      "geometry": {
        "type": "Point",
        "coordinates": [
          -2.1388662,
          37.3464337
        ]
      }
    },
    {
      "type": "Feature",
      "id": "node/8697630055",
      "properties": {
        "name": "Villarreal de Huerva",
        "network": "ADIF",
        "public_transport": "station",
        "railway": "station",
        "train": "yes",
        "id": "node/8697630055"
      },
      "geometry": {
        "type": "Point",
        "coordinates": [
          -1.2870959,
          41.1963082
        ]
      }
    },
    {
      "type": "Feature",
      "id": "node/8697676633",
      "properties": {
        "name": "Villahermosa",
        "network": "ADIF",
        "public_transport": "station",
        "railway": "station",
        "train": "yes",
        "wikidata": "Q5847478",
        "id": "node/8697676633"
      },
      "geometry": {
        "type": "Point",
        "coordinates": [
          -1.2398466,
          41.1085188
        ]
      }
    },
    {
      "type": "Feature",
      "id": "node/8698895690",
      "properties": {
        "name": "Cuarte de Huerva",
        "network": "ADIF",
        "public_transport": "station",
        "railway": "station",
        "train": "yes",
        "id": "node/8698895690"
      },
      "geometry": {
        "type": "Point",
        "coordinates": [
          -0.9479202,
          41.5918972
        ]
      }
    },
    {
      "type": "Feature",
      "id": "node/8714364057",
      "properties": {
        "name": "Vilar de Barrio",
        "network": "ADIF",
        "public_transport": "station",
        "railway": "station",
        "train": "yes",
        "id": "node/8714364057"
      },
      "geometry": {
        "type": "Point",
        "coordinates": [
          -7.5986586,
          42.1633354
        ]
      }
    },
    {
      "type": "Feature",
      "id": "node/8734265540",
      "properties": {
        "name": "Caspe",
        "public_transport": "station",
        "railway": "station",
        "train": "yes",
        "id": "node/8734265540"
      },
      "geometry": {
        "type": "Point",
        "coordinates": [
          -0.0427433,
          41.2399128
        ]
      }
    },
    {
      "type": "Feature",
      "id": "node/8738434083",
      "properties": {
        "name": "Liérganes",
        "public_transport": "station",
        "railway": "station",
        "ref": "01103",
        "train": "yes",
        "wheelchair": "yes",
        "wikidata": "Q87760487",
        "id": "node/8738434083"
      },
      "geometry": {
        "type": "Point",
        "coordinates": [
          -3.741805,
          43.3449902
        ]
      }
    },
    {
      "type": "Feature",
      "id": "node/8846802636",
      "properties": {
        "name": "El Pimpollar",
        "public_transport": "station",
        "railway": "station",
        "train": "yes",
        "id": "node/8846802636"
      },
      "geometry": {
        "type": "Point",
        "coordinates": [
          -4.2827692,
          40.5675995
        ]
      }
    },
    {
      "type": "Feature",
      "id": "node/8850355495",
      "properties": {
        "name": "Medellín",
        "network": "ADIF",
        "public_transport": "station",
        "railway": "station",
        "train": "yes",
        "id": "node/8850355495"
      },
      "geometry": {
        "type": "Point",
        "coordinates": [
          -5.9725312,
          38.9339781
        ]
      }
    },
    {
      "type": "Feature",
      "id": "node/9023491303",
      "properties": {
        "name": "Cercedilla",
        "network": "Cercanías Madrid",
        "operator": "Renfe",
        "public_transport": "station",
        "railway": "station",
        "train": "yes",
        "url": "http://www.citram.es/HORARIOS/info.aspx?estacion=5_16",
        "website": "https://www.crtm.es/tu-transporte-publico/cercanias-renfe/estaciones/5_16.aspx",
        "wikidata": "Q5846025",
        "wikipedia": "es:Estación de Cercedilla",
        "id": "node/9023491303"
      },
      "geometry": {
        "type": "Point",
        "coordinates": [
          -4.0658465,
          40.7376302
        ]
      }
    },
    {
      "type": "Feature",
      "id": "node/9044371961",
      "properties": {
        "fare_area": "A",
        "name": "Delicias",
        "network": "Cercanias",
        "operator": "RENFE",
        "public_transport": "station",
        "railway": "station",
        "train": "yes",
        "wikipedia": "es:Estación de Delicias (Cercanías Madrid)",
        "id": "node/9044371961"
      },
      "geometry": {
        "type": "Point",
        "coordinates": [
          -3.6922887,
          40.4001714
        ]
      }
    },
    {
      "type": "Feature",
      "id": "node/9053990498",
      "properties": {
        "name": "Tordera",
        "public_transport": "station",
        "railway": "station",
        "train": "yes",
        "id": "node/9053990498"
      },
      "geometry": {
        "type": "Point",
        "coordinates": [
          2.7194328,
          41.7070583
        ]
      }
    },
    {
      "type": "Feature",
      "id": "node/9088943157",
      "properties": {
        "name": "Toro",
        "public_transport": "station",
        "railway": "station",
        "train": "yes",
        "wikidata": "Q5847334",
        "id": "node/9088943157"
      },
      "geometry": {
        "type": "Point",
        "coordinates": [
          -5.3833601,
          41.5117159
        ]
      }
    },
    {
      "type": "Feature",
      "id": "node/9130558608",
      "properties": {
        "name": "Barrio de las Ollas",
        "public_transport": "station",
        "railway": "halt",
        "train": "yes",
        "id": "node/9130558608"
      },
      "geometry": {
        "type": "Point",
        "coordinates": [
          -5.3344961,
          42.8646308
        ]
      }
    },
    {
      "type": "Feature",
      "id": "node/9144790787",
      "properties": {
        "name": "Briviesca",
        "public_transport": "station",
        "railway": "station",
        "station": "train",
        "train": "yes",
        "wikidata": "Q5574099",
        "id": "node/9144790787"
      },
      "geometry": {
        "type": "Point",
        "coordinates": [
          -3.3190808,
          42.5427319
        ]
      }
    },
    {
      "type": "Feature",
      "id": "node/9175580427",
      "properties": {
        "name": "Valladolid - Campo Grande",
        "network": "Adif",
        "public_transport": "station",
        "railway": "station",
        "station": "train",
        "train": "yes",
        "website": "http://www.adif.es/es_ES/index.shtml",
        "wikidata": "Q3327085",
        "wikipedia": "es:Estación de Valladolid-Campo Grande",
        "id": "node/9175580427"
      },
      "geometry": {
        "type": "Point",
        "coordinates": [
          -4.7269435,
          41.6420552
        ]
      }
    },
    {
      "type": "Feature",
      "id": "node/9218144258",
      "properties": {
        "barrier": "gate",
        "bicycle": "yes",
        "foot": "yes",
        "horse": "no",
        "motor_vehicle": "no",
        "name": "Mollet - Sant Fost",
        "name:ca": "Mollet - Sant Fost",
        "opening_hours": "Mo-Su 05:00-22:00",
        "public_transport": "station",
        "railway": "station",
        "train": "yes",
        "wheelchair": "yes",
        "wikidata": "Q8841064",
        "wikipedia": "ca:Estació de Mollet - Sant Fost",
        "id": "node/9218144258"
      },
      "geometry": {
        "type": "Point",
        "coordinates": [
          2.2175419,
          41.5334748
        ]
      }
    },
    {
      "type": "Feature",
      "id": "node/9256006949",
      "properties": {
        "name": "Grañen",
        "network": "ADIF",
        "operator": "ADIF",
        "public_transport": "station",
        "railway": "station",
        "train": "yes",
        "id": "node/9256006949"
      },
      "geometry": {
        "type": "Point",
        "coordinates": [
          -0.3693109,
          41.9379548
        ]
      }
    }
  ]
}