{
  "type": "FeatureCollection",
  "features": [
    {
      "type": "Feature",
      "id": "node/21577622",
      "properties": {
        "name": "Seinäjoki",
        "name:fi": "Seinäjoki",
        "network": "FI:national",
        "public_transport": "station",
        "railway": "station",
        "railway:name": "Seinäjoki asema",
        "railway:ref": "Sk",
        "train": "yes",
        "wheelchair": "yes",
        "wikidata": "Q4349917",
        "wikipedia": "fi:Seinäjoen rautatieasema",
        "id": "node/21577622"
      },
      "geometry": {
        "type": "Point",
        "coordinates": [
          22.8438297,
          62.792281
        ]
      }
    },
    {
      "type": "Feature",
      "id": "node/25474663",
      "properties": {
        "addr:city": "Helsinki",
        "addr:housenumber": "1",
        "addr:postcode": "00100",
        "addr:street": "Kaivokatu",
        "gauge": "1524",
        "loc_name": "Steissi;asema;station",
        "name": "Helsinki",
        "name:fi": "Helsinki",
        "name:sv": "Helsingfors",
        "name:zh": "赫尔辛基站",
        "network": "FI:national",
        "public_transport": "station",
        "railway": "station",
        "railway:name": "Helsinki asema",
        "railway:ref": "Hki",
        "train": "yes",
        "website": "https://www.vrgroup.fi/fi/kivimiehet-100-vuotta/kivimiesten-historia/",
        "wheelchair": "yes",
        "wikidata": "Q1044613",
        "wikipedia": "fi:Helsingin päärautatieasema",
        "id": "node/25474663"
      },
      "geometry": {
        "type": "Point",
        "coordinates": [
          24.9413548,
          60.1717794
        ]
      }
    },
    {
      "type": "Feature",
      "id": "node/26110406",
      "properties": {
        "addr:city": "Turku",
        "addr:housenumber": "6",
        "addr:postcode": "20520",
        "addr:street": "Joukahaisenkatu",
        "name": "Kupittaa",
        "name:fi": "Kupittaa",
        "name:sv": "Kuppis",
        "network": "FI:local",
        "old_name": "Turku Itäinen",
        "operator": "VR",
        "public_transport": "station",
        "railway": "station",
        "railway:position:exact": "196.372",
        "railway:ref": "Kut",
        "source:name": "survey",
        "train": "yes",
        "website": "https://www.vr.fi/cs/vr/fi/kupittaa_fi",
        "wheelchair": "yes",
        "wikidata": "Q3735887",
        "wikipedia": "fi:Kupittaan rautatieasema",
        "id": "node/26110406"
      },
      "geometry": {
        "type": "Point",
        "coordinates": [
          22.2965688,
          60.4507878
        ]
      }
    },
    {
      "type": "Feature",
      "id": "node/26430225",
      "properties": {
        "addr:housenumber": "2",
        "addr:postcode": "02750",
        "addr:street": "Ullanmäentie",
        "name": "Koivuhovi",
        "name:fi": "Koivuhovi",
        "name:sv": "Björkgård",
        "network": "FI:local",
        "public_transport": "station",
        "railway": "station",
        "railway:ref": "Kvh",
        "train": "yes",
        "wheelchair": "yes",
        "wikidata": "Q3359681",
        "wikipedia": "fi:Koivuhovin rautatieasema",
        "id": "node/26430225"
      },
      "geometry": {
        "type": "Point",
        "coordinates": [
          24.7022998,
          60.2070123
        ]
      }
    },
    {
      "type": "Feature",
      "id": "node/26432517",
      "properties": {
        "name": "Kauniainen",
        "name:fi": "Kauniainen",
        "name:sv": "Grankulla",
        "network": "FI:regional",
        "public_transport": "station",
        "railway": "station",
        "railway:ref": "Kni",
        "train": "yes",
        "website": "https://www.vr.fi/cs/vr/fi/kauniainen_fi",
        "wheelchair": "no",
        "wheelchair:description:fi": "Matalat laiturit",
        "wikidata": "Q4412145",
        "wikipedia": "fi:Kauniaisten rautatieasema",
        "id": "node/26432517"
      },
      "geometry": {
        "type": "Point",
        "coordinates": [
          24.7306099,
          60.2118923
        ]
      }
    },
    {
      "type": "Feature",
      "id": "node/34034698",
      "properties": {
        "addr:city": "Kokkola",
        "addr:housenumber": "1",
        "addr:postcode": "67100",
        "addr:street": "Rautatienkatu",
        "name": "Kokkola",
        "name:fi": "Kokkola",
        "name:sv": "Karleby",
        "network": "FI:national",
        "public_transport": "station",
        "railway": "station",
        "railway:position:exact": "551.441",
        "railway:ref": "Kok",
        "train": "yes",
        "website": "https://www.vr.fi/cs/vr/fi/kokkola_fi",
        "wikidata": "Q4348741",
        "wikipedia": "fi:Kokkolan rautatieasema",
        "id": "node/34034698"
      },
      "geometry": {
        "type": "Point",
        "coordinates": [
          23.1322585,
          63.8346943
        ]
      }
    },
    {
      "type": "Feature",
      "id": "node/34943548",
      "properties": {
        "addr:city": "Tampere",
        "addr:country": "FI",
        "addr:housenumber": "25",
        "addr:postcode": "33100",
        "addr:street": "Rautatienkatu",
        "layer": "1",
        "name": "Tampere",
        "name:fi": "Tampere",
        "name:ru": "Тампере",
        "name:sv": "Tammerfors",
        "network": "FI:national",
        "public_transport": "station",
        "railway": "station",
        "railway:name": "Tampere asema",
        "railway:position:exact": "187.389",
        "railway:ref": "Tpe",
        "shelter": "yes",
        "start_date": "1876-01-13",
        "toilets:wheelchair": "yes",
        "train": "yes",
        "url": "http://www.vr.fi/",
        "wheelchair": "yes",
        "wikidata": "Q801513",
        "wikipedia": "fi:Tampereen rautatieasema",
        "id": "node/34943548"
      },
      "geometry": {
        "type": "Point",
        "coordinates": [
          23.7738291,
          61.498726
        ]
      }
    },
    {
      "type": "Feature",
      "id": "node/91925127",
      "properties": {
        "name": "Vaasa",
        "name:fi": "Vaasa",
        "name:sv": "Vasa",
        "network": "FI:national",
        "public_transport": "station",
        "railway": "station",
        "railway:position:exact": "492.588",
        "railway:ref": "Vs",
        "ref": "Vsa",
        "train": "yes",
        "wheelchair": "yes",
        "wikidata": "Q4356598",
        "wikipedia": "fi:Vaasan rautatieasema",
        "id": "node/91925127"
      },
      "geometry": {
        "type": "Point",
        "coordinates": [
          21.6219678,
          63.097777
        ]
      }
    },
    {
      "type": "Feature",
      "id": "node/157056783",
      "properties": {
        "addr:city": "Hämeenlinna",
        "addr:housenumber": "16",
        "addr:postcode": "13200",
        "addr:street": "Hämeentie",
        "internet_access": "no",
        "name": "Hämeenlinna",
        "name:fi": "Hämeenlinna",
        "name:sv": "Tavastehus",
        "network": "FI:regional",
        "public_transport": "station",
        "railway": "station",
        "railway:ref": "Hl",
        "train": "yes",
        "website": "https://www.vr.fi/cs/vr/fi/hameenlinna_fi",
        "wheelchair": "yes",
        "wikidata": "Q3268786",
        "wikipedia": "fi:Hämeenlinnan rautatieasema",
        "id": "node/157056783"
      },
      "geometry": {
        "type": "Point",
        "coordinates": [
          24.4787659,
          61.002483
        ]
      }
    },
    {
      "type": "Feature",
      "id": "node/166747734",
      "properties": {
        "addr:city": "Kolari",
        "addr:country": "FI",
        "addr:housenumber": "7",
        "addr:postcode": "95900",
        "addr:street": "Asematie",
        "name": "Kolari",
        "network": "FI:regional",
        "operator": "VR",
        "public_transport": "station",
        "railway": "station",
        "railway:position:exact": "1067.206",
        "railway:ref": "Kli",
        "train": "yes",
        "id": "node/166747734"
      },
      "geometry": {
        "type": "Point",
        "coordinates": [
          23.836009,
          67.3488191
        ]
      }
    },
    {
      "type": "Feature",
      "id": "node/178300028",
      "properties": {
        "addr:city": "Vantaa",
        "addr:housenumber": "2",
        "addr:postcode": "01450",
        "addr:street": "Metsolantie",
        "covered": "yes",
        "loc_ref": "V8101;V8151",
        "name": "Korso",
        "name:fi": "Korso",
        "name:sv": "Korso",
        "network": "FI:local",
        "note": "location of the ticketing car stop sign",
        "public_transport": "station",
        "railway": "station",
        "railway:position:exact": "22.669",
        "railway:ref": "Krs",
        "source": "survey",
        "train": "yes",
        "wheelchair": "yes",
        "wikidata": "Q3735979",
        "wikipedia": "fi:Korson rautatieasema",
        "id": "node/178300028"
      },
      "geometry": {
        "type": "Point",
        "coordinates": [
          25.0787965,
          60.3514804
        ]
      }
    },
    {
      "type": "Feature",
      "id": "node/201698443",
      "properties": {
        "name": "Ylivieska",
        "name:fi": "Ylivieska",
        "network": "FI:national",
        "public_transport": "station",
        "railway": "station",
        "railway:position:exact": "630.343",
        "railway:ref": "Yv",
        "train": "yes",
        "wikidata": "Q8054015",
        "wikipedia": "fi:Ylivieskan rautatieasema",
        "id": "node/201698443"
      },
      "geometry": {
        "type": "Point",
        "coordinates": [
          24.5406515,
          64.0719538
        ]
      }
    },
    {
      "type": "Feature",
      "id": "node/201792230",
      "properties": {
        "name": "Nivala",
        "network": "FI:regional",
        "public_transport": "station",
        "railway": "station",
        "railway:position:exact": "676.878",
        "railway:ref": "Nvl",
        "train": "yes",
        "wikipedia": "fi:Nivalan rautatieasema",
        "id": "node/201792230"
      },
      "geometry": {
        "type": "Point",
        "coordinates": [
          24.9604474,
          63.936503
        ]
      }
    },
    {
      "type": "Feature",
      "id": "node/201795585",
      "properties": {
        "name": "Pyhäsalmi",
        "network": "FI:regional",
        "public_transport": "station",
        "railway": "station",
        "railway:position:exact": "615.934",
        "railway:ref": "Phä",
        "train": "yes",
        "wikipedia": "fi:Pyhäsalmen rautatieasema",
        "id": "node/201795585"
      },
      "geometry": {
        "type": "Point",
        "coordinates": [
          25.9828762,
          63.6828823
        ]
      }
    },
    {
      "type": "Feature",
      "id": "node/203617586",
      "properties": {
        "addr:city": "Kannus",
        "addr:housenumber": "6",
        "addr:postcode": "69100",
        "addr:street": "Asematie",
        "name": "Kannus",
        "name:fi": "Kannus",
        "name:ru": "Каннус",
        "name:sv": "Kannus",
        "network": "FI:regional",
        "public_transport": "station",
        "railway": "station",
        "railway:position:exact": "591.582",
        "railway:ref": "Kns",
        "train": "yes",
        "website": "https://www.vr.fi/cs/vr/fi/kannus_fi",
        "wikidata": "Q11869636",
        "wikipedia": "fi:Kannuksen rautatieasema",
        "id": "node/203617586"
      },
      "geometry": {
        "type": "Point",
        "coordinates": [
          23.9150569,
          63.898362
        ]
      }
    },
    {
      "type": "Feature",
      "id": "node/205329095",
      "properties": {
        "addr:city": "Oulu",
        "addr:housenumber": "11a",
        "addr:postcode": "90100",
        "addr:street": "Rautatienkatu",
        "name": "Oulu",
        "name:fi": "Oulu",
        "name:sv": "Uleåborg",
        "network": "FI:national",
        "public_transport": "station",
        "railway": "station",
        "railway:name": "Oulu asema",
        "railway:position:exact": "752.778",
        "railway:ref": "Ol",
        "train": "yes",
        "website": "https://www.vr.fi/cs/vr/fi/oulu_fi",
        "wheelchair": "no",
        "wikidata": "Q3270598",
        "wikipedia": "fi:Oulun rautatieasema",
        "id": "node/205329095"
      },
      "geometry": {
        "type": "Point",
        "coordinates": [
          25.4843355,
          65.0113317
        ]
      }
    },
    {
      "type": "Feature",
      "id": "node/205364181",
      "properties": {
        "name": "Vihanti",
        "name:fi": "Vihanti",
        "network": "FI:regional",
        "public_transport": "station",
        "railway": "station",
        "railway:position:exact": "684.573",
        "railway:ref": "Vti",
        "train": "yes",
        "website": "https://www.vr.fi/cs/vr/fi/vihanti_fi",
        "wheelchair": "yes",
        "wikidata": "Q7929040",
        "wikipedia": "fi:Vihannin rautatieasema",
        "id": "node/205364181"
      },
      "geometry": {
        "type": "Point",
        "coordinates": [
          24.9933991,
          64.484193
        ]
      }
    },
    {
      "type": "Feature",
      "id": "node/214674242",
      "properties": {
        "addr:city": "Jokela",
        "addr:postcode": "05400",
        "addr:street": "Asemanraitti",
        "name": "Jokela",
        "name:fi": "Jokela",
        "network": "FI:local",
        "public_transport": "station",
        "railway": "station",
        "railway:ref": "Jk",
        "train": "yes",
        "wheelchair": "yes",
        "wikidata": "Q6269699",
        "wikipedia": "fi:Jokelan rautatieasema",
        "id": "node/214674242"
      },
      "geometry": {
        "type": "Point",
        "coordinates": [
          24.9713028,
          60.5526514
        ]
      }
    },
    {
      "type": "Feature",
      "id": "node/239962129",
      "properties": {
        "addr:city": "Kerava",
        "addr:country": "FI",
        "addr:postcode": "04200",
        "addr:street": "Asemanaukio",
        "gauge": "1524",
        "lit": "yes",
        "name": "Kerava",
        "name:fi": "Kerava",
        "name:sv": "Kervo",
        "network": "FI:regional",
        "public_transport": "station",
        "railway": "station",
        "railway:name": "Kerava asema",
        "railway:position:exact": "28.869",
        "railway:ref": "Ke",
        "shelter": "yes",
        "train": "yes",
        "wheelchair": "yes",
        "wikidata": "Q3544574",
        "wikipedia": "fi:Keravan rautatieasema",
        "id": "node/239962129"
      },
      "geometry": {
        "type": "Point",
        "coordinates": [
          25.1061729,
          60.4043738
        ]
      }
    },
    {
      "type": "Feature",
      "id": "node/242767521",
      "properties": {
        "addr:city": "Bennäs",
        "addr:housenumber": "9",
        "addr:postcode": "68910",
        "addr:street": "Stationsvägen",
        "name": "Jakobstad-Pedersöre",
        "name:fi": "Pietarsaari-Pedersöre",
        "name:sv": "Jakobstad-Pedersöre",
        "network": "FI:regional",
        "public_transport": "station",
        "railway": "station",
        "railway:name": "Bennäs",
        "railway:name:fi": "Pännäinen",
        "railway:name:sv": "Bennäs",
        "railway:position:exact": "518.604",
        "railway:ref": "Pnä",
        "train": "yes",
        "wheelchair": "yes",
        "wikidata": "Q3359711",
        "wikipedia": "sv:Jakobstad-Pedersöre järnvägsstation",
        "id": "node/242767521"
      },
      "geometry": {
        "type": "Point",
        "coordinates": [
          22.7907495,
          63.5955906
        ]
      }
    },
    {
      "type": "Feature",
      "id": "node/244494454",
      "properties": {
        "alt_name": "Siilinjärven rautatieasema;Juna-asema",
        "name": "Siilinjärvi",
        "name:fi": "Siilinjärvi",
        "network": "FI:regional",
        "public_transport": "station",
        "railway": "station",
        "railway:position:exact": "489.718",
        "railway:ref": "Sij",
        "train": "yes",
        "wikidata": "Q11893401",
        "wikipedia": "fi:Siilinjärven rautatieasema",
        "id": "node/244494454"
      },
      "geometry": {
        "type": "Point",
        "coordinates": [
          27.6666464,
          63.0752924
        ]
      }
    },
    {
      "type": "Feature",
      "id": "node/251738389",
      "properties": {
        "addr:city": "Kemi",
        "addr:housenumber": "3",
        "addr:postcode": "94100",
        "addr:street": "Rautatiekatu",
        "name": "Kemi",
        "name:fi": "Kemi",
        "network": "FI:regional",
        "public_transport": "station",
        "railway": "station",
        "railway:position:exact": "858.300",
        "railway:ref": "Kem",
        "train": "yes",
        "website": "https://www.vr.fi/cs/vr/fi/kemi_fi",
        "wikidata": "Q3493928",
        "wikipedia": "fi:Kemin rautatieasema",
        "id": "node/251738389"
      },
      "geometry": {
        "type": "Point",
        "coordinates": [
          24.5743024,
          65.7367256
        ]
      }
    },
    {
      "type": "Feature",
      "id": "node/258873383",
      "properties": {
        "addr:city": "Karis",
        "addr:housenumber": "37",
        "addr:postcode": "10300",
        "addr:street": "Alingsåsgatan",
        "name": "Karis",
        "name:fi": "Karjaa",
        "name:sv": "Karis",
        "network": "FI:national",
        "public_transport": "station",
        "railway": "station",
        "railway:ref": "Kr",
        "train": "yes",
        "website": "https://www.vr.fi/cs/vr/fi/karjaa_fi",
        "wheelchair": "yes",
        "wikidata": "Q3359719",
        "wikipedia": "fi:Karjaan rautatieasema",
        "id": "node/258873383"
      },
      "geometry": {
        "type": "Point",
        "coordinates": [
          23.661123,
          60.0687154
        ]
      }
    },
    {
      "type": "Feature",
      "id": "node/259004650",
      "properties": {
        "addr:city": "Jyväskylä",
        "addr:country": "FI",
        "name": "Jyväskylä",
        "name:fi": "Jyväskylä",
        "network": "FI:national",
        "public_transport": "station",
        "railway": "station",
        "railway:position:exact": "377.435",
        "railway:ref": "Jy",
        "train": "yes",
        "wheelchair": "yes",
        "wikidata": "Q2582463",
        "wikipedia": "fi:Jyväskylän rautatieasema",
        "id": "node/259004650"
      },
      "geometry": {
        "type": "Point",
        "coordinates": [
          25.7559984,
          62.2419189
        ]
      }
    },
    {
      "type": "Feature",
      "id": "node/263871701",
      "properties": {
        "addr:city": "Nokia",
        "addr:housenumber": "3",
        "addr:postcode": "37100",
        "addr:street": "Rautatienkatu",
        "alt_name": "Nokian rautatieasema",
        "name": "Nokia",
        "name:fi": "Nokia",
        "network": "FI:regional",
        "public_transport": "station",
        "railway": "station",
        "railway:position:exact": "204.004",
        "railway:ref": "Noa",
        "train": "yes",
        "website": "https://www.vr.fi/cs/vr/fi/nokia_fi",
        "wikidata": "Q4357803",
        "wikipedia": "fi:Nokian rautatieasema",
        "id": "node/263871701"
      },
      "geometry": {
        "type": "Point",
        "coordinates": [
          23.4994049,
          61.4811881
        ]
      }
    },
    {
      "type": "Feature",
      "id": "node/275032200",
      "properties": {
        "addr:city": "Harjavalta",
        "addr:housenumber": "3",
        "addr:postcode": "29200",
        "addr:street": "Asema-aukio",
        "name": "Harjavalta",
        "network": "FI:regional",
        "public_transport": "station",
        "railway": "station",
        "railway:position:exact": "295.542",
        "railway:ref": "Hva",
        "train": "yes",
        "website": "https://www.vr.fi/cs/vr/fi/harjavalta_fi",
        "wikidata": "Q11861540",
        "wikipedia": "fi:Harjavallan rautatieasema",
        "id": "node/275032200"
      },
      "geometry": {
        "type": "Point",
        "coordinates": [
          22.1305787,
          61.3109909
        ]
      }
    },
    {
      "type": "Feature",
      "id": "node/281197096",
      "properties": {
        "addr:city": "Lempäälä",
        "addr:housenumber": "1",
        "addr:postcode": "37500",
        "addr:street": "Asematie",
        "alt_name": "Lempäälän rautatieasema",
        "name": "Lempäälä",
        "name:fi": "Lempäälä",
        "network": "FI:regional",
        "public_transport": "station",
        "railway": "station",
        "railway:position:exact": "165.928",
        "railway:ref": "Lpä",
        "ref": "Lpä",
        "train": "yes",
        "website": "https://www.vr.fi/cs/vr/fi/lempaala_fi",
        "wikidata": "Q11754096",
        "wikipedia": "fi:Lempäälän rautatieasema",
        "id": "node/281197096"
      },
      "geometry": {
        "type": "Point",
        "coordinates": [
          23.7550695,
          61.3144095
        ]
      }
    },
    {
      "type": "Feature",
      "id": "node/282919829",
      "properties": {
        "addr:city": "Pori",
        "addr:housenumber": "3",
        "addr:postcode": "28130",
        "addr:street": "Asema-aukio",
        "name": "Pori",
        "name:fi": "Pori",
        "name:sv": "Björneborg",
        "network": "FI:national",
        "public_transport": "station",
        "railway": "station",
        "railway:position:exact": "322.278",
        "railway:ref": "Pri",
        "train": "yes",
        "website": "https://www.vr.fi/cs/vr/fi/pori_fi",
        "wikidata": "Q11824071",
        "wikipedia": "fi:Porin rautatieasema",
        "id": "node/282919829"
      },
      "geometry": {
        "type": "Point",
        "coordinates": [
          21.7873623,
          61.4772448
        ]
      }
    },
    {
      "type": "Feature",
      "id": "node/294868841",
      "properties": {
        "addr:city": "Vantaa",
        "addr:postcode": "01360",
        "addr:street": "Koivukylän puistotie",
        "name": "Koivukylä",
        "name:fi": "Koivukylä",
        "name:sv": "Björkby",
        "network": "FI:local",
        "public_transport": "station",
        "railway": "station",
        "railway:position:exact": "19.440",
        "railway:ref": "Kvy",
        "shelter": "yes",
        "train": "yes",
        "website": "https://www.vr.fi/cs/vr/fi/koivukyla_fi",
        "wikidata": "Q4348669",
        "wikipedia": "fi:Koivukylän rautatieasema",
        "id": "node/294868841"
      },
      "geometry": {
        "type": "Point",
        "coordinates": [
          25.0603776,
          60.3236073
        ]
      }
    },
    {
      "type": "Feature",
      "id": "node/299643789",
      "properties": {
        "addr:city": "Parola",
        "addr:postcode": "13720",
        "addr:street": "Asemantie",
        "name": "Parola",
        "name:fi": "Parola",
        "network": "FI:local",
        "public_transport": "station",
        "railway": "station",
        "railway:position:exact": "115.764",
        "railway:ref": "Prl",
        "train": "yes",
        "website": "https://www.vr.fi/cs/vr/fi/parola_fi",
        "wikidata": "Q18682401",
        "wikipedia": "fi:Parolan rautatieasema",
        "id": "node/299643789"
      },
      "geometry": {
        "type": "Point",
        "coordinates": [
          24.3662419,
          61.0501203
        ]
      }
    },
    {
      "type": "Feature",
      "id": "node/316233521",
      "properties": {
        "addr:housenumber": "8",
        "addr:postcode": "32810",
        "addr:street": "Asemakuja",
        "name": "Kokemäki",
        "network": "FI:regional",
        "public_transport": "station",
        "railway": "station",
        "railway:position:exact": "284.442",
        "railway:ref": "Kki",
        "train": "yes",
        "website": "https://www.vr.fi/cs/vr/fi/kokemaki_fi",
        "wikidata": "Q11872137",
        "wikipedia": "fi:Kokemäen rautatieasema",
        "id": "node/316233521"
      },
      "geometry": {
        "type": "Point",
        "coordinates": [
          22.3034158,
          61.2541688
        ]
      }
    },
    {
      "type": "Feature",
      "id": "node/330900494",
      "properties": {
        "alt_name": "Salo",
        "name": "Salo",
        "name:fi": "Salo",
        "network": "FI:national",
        "public_transport": "station",
        "railway": "station",
        "railway:position:exact": "143.979",
        "railway:ref": "Slo",
        "ref": "Slo",
        "train": "yes",
        "wikidata": "Q4410948",
        "wikipedia": "fi:Salon rautatieasema",
        "id": "node/330900494"
      },
      "geometry": {
        "type": "Point",
        "coordinates": [
          23.1215709,
          60.3847671
        ]
      }
    },
    {
      "type": "Feature",
      "id": "node/339848672",
      "properties": {
        "addr:city": "Helsinki",
        "addr:housenumber": "40",
        "addr:postcode": "00370",
        "addr:street": "Pitäjänmäentie",
        "name": "Pitäjänmäki",
        "name:fi": "Pitäjänmäki",
        "name:sv": "Sockenbacka",
        "network": "FI:local",
        "public_transport": "station",
        "railway": "station",
        "railway:ref": "Pjm",
        "ref": "H0081",
        "shelter": "yes",
        "train": "yes",
        "website": "https://www.vr.fi/cs/vr/fi/pitajanmaki_fi",
        "wheelchair": "yes",
        "wikidata": "Q3359037",
        "wikipedia": "fi:Pitäjänmäen rautatieasema",
        "id": "node/339848672"
      },
      "geometry": {
        "type": "Point",
        "coordinates": [
          24.8605808,
          60.2232138
        ]
      }
    },
    {
      "type": "Feature",
      "id": "node/339850922",
      "properties": {
        "addr:city": "Helsinki",
        "addr:housenumber": "12",
        "addr:postcode": "00370",
        "addr:street": "Turuntie",
        "name": "Mäkkylä",
        "name:fi": "Mäkkylä",
        "network": "FI:local",
        "public_transport": "station",
        "railway": "station",
        "railway:ref": "Mäk",
        "train": "yes",
        "website": "https://www.vr.fi/cs/vr/fi/makkyla_fi",
        "wheelchair": "yes",
        "wikidata": "Q3359029",
        "wikipedia": "fi:Mäkkylän rautatieasema",
        "id": "node/339850922"
      },
      "geometry": {
        "type": "Point",
        "coordinates": [
          24.8432726,
          60.2212907
        ]
      }
    },
    {
      "type": "Feature",
      "id": "node/339856183",
      "properties": {
        "addr:city": "Espoo",
        "addr:housenumber": "1",
        "addr:postcode": "02600",
        "addr:street": "Leppävaaranaukio",
        "name": "Leppävaara",
        "name:fi": "Leppävaara",
        "name:sv": "Alberga",
        "network": "FI:national",
        "public_transport": "station",
        "railway": "station",
        "railway:ref": "Lpv",
        "train": "yes",
        "website": "https://www.vr.fi/cs/vr/fi/leppavaara_fi",
        "wheelchair": "yes",
        "wikidata": "Q3735079",
        "wikipedia": "fi:Leppävaaran rautatieasema",
        "id": "node/339856183"
      },
      "geometry": {
        "type": "Point",
        "coordinates": [
          24.813451,
          60.2193624
        ]
      }
    },
    {
      "type": "Feature",
      "id": "node/373163129",
      "properties": {
        "addr:city": "Sastamala",
        "addr:housenumber": "17",
        "addr:postcode": "38100",
        "addr:street": "Asemantie",
        "name": "Karkku",
        "network": "FI:regional",
        "public_transport": "station",
        "railway": "station",
        "railway:position:exact": "230.733",
        "railway:ref": "Kru",
        "train": "yes",
        "website": "https://www.vr.fi/cs/vr/fi/karkku_fi",
        "wikidata": "Q6371337",
        "wikipedia": "fi:Karkun rautatieasema",
        "id": "node/373163129"
      },
      "geometry": {
        "type": "Point",
        "coordinates": [
          23.049491,
          61.4434932
        ]
      }
    },
    {
      "type": "Feature",
      "id": "node/441347933",
      "properties": {
        "name": "Iisalmi",
        "name:fi": "Iisalmi",
        "name:sv": "Idensalmi",
        "network": "FI:national",
        "public_transport": "station",
        "railway": "station",
        "railway:ref": "Ilm",
        "train": "yes",
        "id": "node/441347933"
      },
      "geometry": {
        "type": "Point",
        "coordinates": [
          27.2010223,
          63.5602061
        ]
      }
    },
    {
      "type": "Feature",
      "id": "node/492886125",
      "properties": {
        "addr:city": "Turku",
        "addr:housenumber": "1",
        "addr:postcode": "20100",
        "addr:street": "Satamakatu",
        "name": "Turku satama",
        "name:fi": "Turku satama",
        "name:sv": "Åbo hamn",
        "network": "FI:local",
        "public_transport": "station",
        "railway": "station",
        "railway:position:exact": "202.510",
        "railway:ref": "Tus",
        "train": "yes",
        "website": "https://www.vr.fi/cs/vr/fi/turku_satama_fi",
        "wheelchair": "yes",
        "wikidata": "Q9362807",
        "wikipedia": "fi:Turun sataman rautatieasema",
        "id": "node/492886125"
      },
      "geometry": {
        "type": "Point",
        "coordinates": [
          22.2232842,
          60.4347352
        ]
      }
    },
    {
      "type": "Feature",
      "id": "node/493618730",
      "properties": {
        "addr:city": "Siuntio",
        "addr:postcode": "02580",
        "addr:street": "Ratapihantie",
        "name": "Siuntio",
        "name:fi": "Siuntio",
        "name:sv": "Sjundeå",
        "network": "FI:regional",
        "public_transport": "station",
        "railway": "station",
        "railway:ref": "Sti",
        "train": "yes",
        "website": "https://www.vr.fi/cs/vr/fi/siuntio_fi",
        "wheelchair": "yes",
        "wikidata": "Q4412000",
        "wikipedia": "fi:Siuntion rautatieasema",
        "id": "node/493618730"
      },
      "geometry": {
        "type": "Point",
        "coordinates": [
          24.2214558,
          60.140595
        ]
      }
    },
    {
      "type": "Feature",
      "id": "node/512546104",
      "properties": {
        "name": "Petäjävesi",
        "name:fi": "Petäjävesi",
        "network": "FI:regional",
        "public_transport": "station",
        "railway": "station",
        "railway:position:exact": "343.357",
        "railway:ref": "Pvi",
        "source": "gps track",
        "train": "yes",
        "wikidata": "Q16909090",
        "wikipedia": "fi:Petäjäveden rautatieasema",
        "id": "node/512546104"
      },
      "geometry": {
        "type": "Point",
        "coordinates": [
          25.1898556,
          62.2570368
        ]
      }
    },
    {
      "type": "Feature",
      "id": "node/515041815",
      "properties": {
        "alt_name": "Keuruun rautatieasema",
        "name": "Keuruu",
        "name:fi": "Keuruu",
        "network": "FI:regional",
        "public_transport": "station",
        "railway": "station",
        "railway:ref": "Keu",
        "toilets:wheelchair": "no",
        "train": "yes",
        "wheelchair": "yes",
        "wikidata": "Q11871225",
        "wikipedia": "fi:Keuruun rautatieasema",
        "id": "node/515041815"
      },
      "geometry": {
        "type": "Point",
        "coordinates": [
          24.707068,
          62.2552709
        ]
      }
    },
    {
      "type": "Feature",
      "id": "node/537913195",
      "properties": {
        "addr:city": "Lahti",
        "addr:housenumber": "15",
        "addr:postcode": "15100",
        "addr:street": "Mannerheiminkatu",
        "gauge": "1524",
        "name": "Lahti",
        "name:fi": "Lahti",
        "name:sv": "Lahtis",
        "network": "FI:national",
        "public_transport": "station",
        "railway": "station",
        "railway:position:exact": "130.170",
        "railway:ref": "Lh",
        "ref": "La0253",
        "train": "yes",
        "website": "https://www.vr.fi/cs/vr/fi/lahti_fi",
        "wheelchair": "yes",
        "wikidata": "Q801058",
        "wikipedia": "fi:Lahden rautatieasema",
        "id": "node/537913195"
      },
      "geometry": {
        "type": "Point",
        "coordinates": [
          25.6574954,
          60.9764425
        ]
      }
    },
    {
      "type": "Feature",
      "id": "node/603526417",
      "properties": {
        "name": "Lapinlahti",
        "name:fi": "Lapinlahti",
        "network": "FI:regional",
        "public_transport": "station",
        "railway": "station",
        "railway:ref": "Lna",
        "train": "yes",
        "wikidata": "Q5407064",
        "wikipedia": "fi:Lapinlahden rautatieasema",
        "id": "node/603526417"
      },
      "geometry": {
        "type": "Point",
        "coordinates": [
          27.3938625,
          63.3607299
        ]
      }
    },
    {
      "type": "Feature",
      "id": "node/612493471",
      "properties": {
        "addr:city": "Turku",
        "addr:housenumber": "37",
        "addr:postcode": "20100",
        "addr:street": "Ratapihankatu",
        "name": "Turku",
        "name:fi": "Turku",
        "name:sv": "Åbo",
        "network": "FI:national",
        "operator": "VR",
        "public_transport": "station",
        "railway": "station",
        "railway:name": "Turku asema",
        "railway:position:exact": "199.674",
        "railway:ref": "Tku",
        "ref": "Tku",
        "train": "yes",
        "website": "https://www.vr.fi/cs/vr/fi/turku_fi",
        "wheelchair": "yes",
        "wikidata": "Q765376",
        "wikipedia": "fi:Turun päärautatieasema",
        "id": "node/612493471"
      },
      "geometry": {
        "type": "Point",
        "coordinates": [
          22.2537886,
          60.4543997
        ]
      }
    },
    {
      "type": "Feature",
      "id": "node/614492093",
      "properties": {
        "name": "Oulainen",
        "name:fi": "Oulainen",
        "network": "FI:regional",
        "public_transport": "station",
        "railway": "station",
        "railway:position:exact": "657.850",
        "railway:ref": "Ou",
        "train": "yes",
        "wheelchair": "yes",
        "wikidata": "Q7110436",
        "wikipedia": "fi:Oulaisten rautatieasema",
        "id": "node/614492093"
      },
      "geometry": {
        "type": "Point",
        "coordinates": [
          24.8212077,
          64.2693713
        ]
      }
    },
    {
      "type": "Feature",
      "id": "node/663024854",
      "properties": {
        "addr:city": "Ekenäs",
        "addr:postcode": "10600",
        "addr:street": "Järnvägsgatan",
        "name": "Ekenäs",
        "name:fi": "Tammisaari",
        "name:sv": "Ekenäs",
        "network": "FI:regional",
        "public_transport": "station",
        "railway": "station",
        "railway:ref": "Tms",
        "train": "yes",
        "website": "https://www.vr.fi/cs/vr/fi/tammisaari_fi",
        "wikidata": "Q18662240",
        "wikipedia": "fi:Tammisaaren rautatieasema",
        "id": "node/663024854"
      },
      "geometry": {
        "type": "Point",
        "coordinates": [
          23.4438866,
          59.9795569
        ]
      }
    },
    {
      "type": "Feature",
      "id": "node/766709903",
      "properties": {
        "addr:city": "Lappohja",
        "addr:postcode": "10820",
        "addr:street": "Koverharintie",
        "alt_name": "Lappvik",
        "name": "Lappohja",
        "name:fi": "Lappohja",
        "name:sv": "Lappvik",
        "network": "FI:regional",
        "public_transport": "station",
        "railway": "station",
        "railway:ref": "Lpo",
        "train": "yes",
        "website": "https://www.vr.fi/cs/vr/fi/lappohja_fi",
        "wikidata": "Q10554301",
        "wikipedia": "fi:Lappohjan rautatieasema",
        "id": "node/766709903"
      },
      "geometry": {
        "type": "Point",
        "coordinates": [
          23.235735,
          59.9040047
        ]
      }
    },
    {
      "type": "Feature",
      "id": "node/769385829",
      "properties": {
        "addr:city": "Sastamala",
        "addr:country": "FI",
        "addr:housenumber": "25 B",
        "addr:postcode": "38210",
        "addr:street": "Asemakatu",
        "entrance": "yes",
        "name": "Vammala",
        "name:fi": "Vammala",
        "network": "FI:regional",
        "public_transport": "station",
        "railway": "station",
        "railway:position:exact": "245.885",
        "railway:ref": "Vma",
        "train": "yes",
        "website": "https://www.vr.fi/rautatieasemat-ja-reitit/vammala",
        "wheelchair": "limited",
        "wikidata": "Q11900328",
        "wikipedia": "fi:Vammalan rautatieasema",
        "id": "node/769385829"
      },
      "geometry": {
        "type": "Point",
        "coordinates": [
          22.8877014,
          61.3494943
        ]
      }
    },
    {
      "type": "Feature",
      "id": "node/813645384",
      "properties": {
        "name": "Humppila",
        "name:fi": "Humppila",
        "network": "FI:regional",
        "public_transport": "station",
        "railway": "station",
        "railway:position:exact": "188.778",
        "railway:ref": "Hp",
        "start_date": "1876",
        "train": "yes",
        "website": "https://www.vr.fi/cs/vr/fi/humppila_fi",
        "wheelchair": "yes",
        "wikidata": "Q5941810",
        "wikipedia": "fi:Humppilan rautatieasema",
        "id": "node/813645384"
      },
      "geometry": {
        "type": "Point",
        "coordinates": [
          23.3621437,
          60.9194753
        ]
      }
    },
    {
      "type": "Feature",
      "id": "node/834024552",
      "properties": {
        "addr:city": "Hanko",
        "addr:postcode": "10900",
        "addr:street": "Asematori",
        "name": "Hanko",
        "name:fi": "Hanko",
        "name:sv": "Hangö",
        "network": "FI:regional",
        "public_transport": "station",
        "railway": "station",
        "railway:name": "Hanko asema",
        "railway:ref": "Hnk",
        "train": "yes",
        "website": "https://www.vr.fi/cs/vr/fi/hanko_fi",
        "wikidata": "Q3359009",
        "wikipedia": "fi:Hangon rautatieasema",
        "id": "node/834024552"
      },
      "geometry": {
        "type": "Point",
        "coordinates": [
          22.9684756,
          59.8270675
        ]
      }
    },
    {
      "type": "Feature",
      "id": "node/1102387364",
      "properties": {
        "addr:city": "Vantaa",
        "addr:housenumber": "10",
        "addr:postcode": "01400",
        "addr:street": "Kasperinpolku",
        "covered": "yes",
        "name": "Rekola",
        "name:fi": "Rekola",
        "name:sv": "Räckhals",
        "network": "FI:local",
        "public_transport": "station",
        "railway": "station",
        "railway:position:exact": "20.615",
        "railway:ref": "Rkl",
        "train": "yes",
        "website": "https://www.vr.fi/cs/vr/fi/rekola_fi",
        "wheelchair": "yes",
        "wikidata": "Q4411507",
        "wikipedia": "fi:Rekolan rautatieasema",
        "id": "node/1102387364"
      },
      "geometry": {
        "type": "Point",
        "coordinates": [
          25.068333,
          60.332297
        ]
      }
    },
    {
      "type": "Feature",
      "id": "node/1213782042",
      "properties": {
        "name": "Ähtäri",
        "name:fi": "Ähtäri",
        "name:sv": "Etseri",
        "network": "FI:regional",
        "public_transport": "station",
        "railway": "station",
        "railway:ref": "Äht",
        "train": "yes",
        "wheelchair": "limited",
        "wikidata": "Q11903215",
        "wikipedia": "fi:Ähtärin rautatieasema",
        "id": "node/1213782042"
      },
      "geometry": {
        "type": "Point",
        "coordinates": [
          24.0636125,
          62.5533776
        ]
      }
    },
    {
      "type": "Feature",
      "id": "node/1213782168",
      "properties": {
        "name": "Eläinpuisto-Zoo",
        "name:fi": "Eläinpuisto-Zoo",
        "network": "FI:regional",
        "public_transport": "station",
        "railway": "halt",
        "railway:ref": "Epz",
        "train": "yes",
        "wikidata": "Q11857637",
        "wikipedia": "fi:Eläinpuisto-Zoo",
        "id": "node/1213782168"
      },
      "geometry": {
        "type": "Point",
        "coordinates": [
          24.1909229,
          62.5407909
        ]
      }
    },
    {
      "type": "Feature",
      "id": "node/1213782267",
      "properties": {
        "name": "Pihlajavesi",
        "name:fi": "Pihlajavesi",
        "network": "FI:regional",
        "public_transport": "station",
        "railway": "station",
        "railway:ref": "Ph",
        "train": "yes",
        "wikidata": "Q5484371",
        "wikipedia": "fi:Pihlajaveden rautatieasema",
        "id": "node/1213782267"
      },
      "geometry": {
        "type": "Point",
        "coordinates": [
          24.3956045,
          62.3462473
        ]
      }
    },
    {
      "type": "Feature",
      "id": "node/1333268325",
      "properties": {
        "addr:city": "Viiala",
        "addr:postcode": "37830",
        "addr:street": "Rautatienkatu",
        "name": "Viiala",
        "name:fi": "Viiala",
        "network": "FI:regional",
        "public_transport": "station",
        "railway": "station",
        "railway:ref": "Via",
        "ref": "Via",
        "train": "yes",
        "website": "https://www.vr.fi/cs/vr/fi/viiala_fi",
        "wikidata": "Q11901292",
        "wikipedia": "fi:Viialan rautatieasema",
        "id": "node/1333268325"
      },
      "geometry": {
        "type": "Point",
        "coordinates": [
          23.7699354,
          61.2128176
        ]
      }
    },
    {
      "type": "Feature",
      "id": "node/1347314881",
      "properties": {
        "name": "Ruukki",
        "name:fi": "Ruukki",
        "network": "FI:regional",
        "operator": "VR",
        "platforms": "1",
        "public_transport": "station",
        "railway": "station",
        "railway:position:exact": "705.228",
        "railway:ref": "Rki",
        "train": "yes",
        "wikidata": "Q11891502",
        "wikipedia": "fi:Ruukin rautatieasema",
        "id": "node/1347314881"
      },
      "geometry": {
        "type": "Point",
        "coordinates": [
          25.0982164,
          64.6602359
        ]
      }
    },
    {
      "type": "Feature",
      "id": "node/1373545539",
      "properties": {
        "addr:city": "Alavus",
        "addr:housenumber": "13",
        "addr:postcode": "63400",
        "addr:street": "Asematie",
        "alt_name": "Alavus",
        "int_name": "Alavus",
        "name": "Alavus",
        "name:fi": "Alavus",
        "name:sv": "Alavo",
        "network": "FI:regional",
        "old_name": "Alavus",
        "operator": "VR",
        "public_transport": "station",
        "railway": "station",
        "railway:ref": "Alv",
        "ref": "Alv",
        "train": "yes",
        "wheelchair": "limited",
        "wikidata": "Q2162575",
        "wikipedia": "fi:Alavuden rautatieasema",
        "id": "node/1373545539"
      },
      "geometry": {
        "type": "Point",
        "coordinates": [
          23.6004898,
          62.6176808
        ]
      }
    },
    {
      "type": "Feature",
      "id": "node/1394213168",
      "properties": {
        "alt_name": "Vaala",
        "name": "Vaala",
        "name:fi": "Vaala",
        "name:sv": "Vaala",
        "network": "FI:regional",
        "public_transport": "station",
        "railway": "station",
        "railway:position:exact": "844.671",
        "railway:ref": "Vaa",
        "train": "yes",
        "wikidata": "Q11899934",
        "wikipedia": "fi:Vaalan rautatieasema",
        "id": "node/1394213168"
      },
      "geometry": {
        "type": "Point",
        "coordinates": [
          26.8426926,
          64.5580812
        ]
      }
    },
    {
      "type": "Feature",
      "id": "node/1667960600",
      "properties": {
        "addr:city": "Nastola",
        "addr:housenumber": "519",
        "addr:postcode": "15550",
        "addr:street": "Kouvolantie",
        "internet_access": "no",
        "name": "Uusikylä",
        "network": "FI:regional",
        "operator": "Liikennevirasto",
        "platforms": "2",
        "public_transport": "station",
        "railway": "station",
        "railway:position:exact": "149.485",
        "railway:ref": "Ukä",
        "train": "yes",
        "wheelchair": "yes",
        "wikidata": "Q11899766",
        "wikipedia": "fi:Uudenkylän rautatieasema",
        "id": "node/1667960600"
      },
      "geometry": {
        "type": "Point",
        "coordinates": [
          25.9944329,
          60.9277123
        ]
      }
    },
    {
      "type": "Feature",
      "id": "node/1668779663",
      "properties": {
        "addr:city": "Parkano",
        "addr:housenumber": "360",
        "addr:postcode": "39700",
        "addr:street": "Uudenasemantie",
        "is_in": "Finland",
        "name": "Parkano",
        "name:fi": "Parkano",
        "name:sv": "Parkano",
        "network": "FI:regional",
        "public_transport": "station",
        "railway": "station",
        "railway:position:exact": "262.483",
        "railway:ref": "Pko",
        "train": "yes",
        "website": "https://www.vr.fi/cs/vr/fi/parkano_fi",
        "wikidata": "Q6303823",
        "wikipedia": "fi:Parkanon rautatieasema",
        "id": "node/1668779663"
      },
      "geometry": {
        "type": "Point",
        "coordinates": [
          23.0782816,
          62.0520047
        ]
      }
    },
    {
      "type": "Feature",
      "id": "node/1672605309",
      "properties": {
        "addr:city": "Kausala",
        "addr:housenumber": "12",
        "addr:postcode": "47400",
        "addr:street": "Asemantie",
        "internet_access": "no",
        "name": "Kausala",
        "network": "FI:regional",
        "operator": "VR",
        "public_transport": "station",
        "railway": "station",
        "railway:position:exact": "169.425",
        "railway:ref": "Ka",
        "train": "yes",
        "wheelchair": "yes",
        "wikidata": "Q11870655",
        "wikipedia": "fi:Kausalan rautatieasema",
        "id": "node/1672605309"
      },
      "geometry": {
        "type": "Point",
        "coordinates": [
          26.3301046,
          60.8852751
        ]
      }
    },
    {
      "type": "Feature",
      "id": "node/1683826704",
      "properties": {
        "addr:city": "Ryttylä",
        "addr:housenumber": "4",
        "addr:postcode": "12310",
        "addr:street": "Mäkitie",
        "name": "Ryttylä",
        "name:fi": "Ryttylä",
        "network": "FI:local",
        "public_transport": "station",
        "railway": "station",
        "railway:position:exact": "80.770",
        "railway:ref": "Ry",
        "train": "yes",
        "website": "https://www.vr.fi/cs/vr/fi/ryttyla_fi",
        "wheelchair": "yes",
        "wikidata": "Q11891564",
        "wikipedia": "fi:Ryttylän rautatieasema",
        "id": "node/1683826704"
      },
      "geometry": {
        "type": "Point",
        "coordinates": [
          24.7579208,
          60.8188025
        ]
      }
    },
    {
      "type": "Feature",
      "id": "node/1701675403",
      "properties": {
        "addr:city": "Kauhava",
        "addr:housenumber": "6",
        "addr:postcode": "62300",
        "addr:street": "Piirtoolantie",
        "name": "Härmä",
        "name:fi": "Härmä",
        "name:sv": "Härmä",
        "network": "FI:regional",
        "operator": "VR",
        "public_transport": "station",
        "railway": "station",
        "railway:position:exact": "472.940",
        "railway:ref": "Hm",
        "start_date": "2017-06-19",
        "train": "yes",
        "website": "https://www.vr.fi/cs/vr/fi/harma_fi",
        "wikidata": "Q5485084",
        "wikipedia": "fi:Härmän rautatieasema",
        "id": "node/1701675403"
      },
      "geometry": {
        "type": "Point",
        "coordinates": [
          22.8765871,
          63.2344537
        ]
      }
    },
    {
      "type": "Feature",
      "id": "node/1772841523",
      "properties": {
        "addr:city": "Tuuri",
        "addr:postcode": "63610",
        "addr:street": "Asematie",
        "description": "Tuurin seisake",
        "name": "Tuuri",
        "name:fi": "Tuuri",
        "network": "FI:regional",
        "platforms": "1",
        "public_transport": "station",
        "railway": "halt",
        "railway:ref": "Tuu",
        "train": "yes",
        "wheelchair": "limited",
        "wikidata": "Q5411294",
        "wikipedia": "fi:Tuurin rautatieasema",
        "id": "node/1772841523"
      },
      "geometry": {
        "type": "Point",
        "coordinates": [
          23.7224407,
          62.6053209
        ]
      }
    },
    {
      "type": "Feature",
      "id": "node/1791332481",
      "properties": {
        "alt_name": "Paltamon rautatieasema",
        "name": "Paltamo",
        "name:fi": "Paltamo",
        "network": "FI:regional",
        "platforms": "1",
        "public_transport": "station",
        "railway": "station",
        "railway:position:exact": "901.579",
        "railway:ref": "Pto",
        "train": "yes",
        "wikidata": "Q11886565",
        "wikipedia": "fi:Paltamon rautatieasema",
        "id": "node/1791332481"
      },
      "geometry": {
        "type": "Point",
        "coordinates": [
          27.8225055,
          64.4006996
        ]
      }
    },
    {
      "type": "Feature",
      "id": "node/1798662032",
      "properties": {
        "addr:city": "Utajärvi",
        "name": "Utajärvi",
        "network": "FI:regional",
        "operator": "VR",
        "platforms": "2",
        "public_transport": "station",
        "railway": "station",
        "railway:position:exact": "810.502",
        "railway:ref": "Utj",
        "train": "yes",
        "wikidata": "Q18682779",
        "wikipedia": "fi:Utajärven rautatieasema",
        "id": "node/1798662032"
      },
      "geometry": {
        "type": "Point",
        "coordinates": [
          26.4136953,
          64.7589407
        ]
      }
    },
    {
      "type": "Feature",
      "id": "node/1798845568",
      "properties": {
        "addr:city": "Kempele",
        "addr:housenumber": "27",
        "addr:postcode": "90440",
        "addr:street": "Rautiontie",
        "name": "Kempele",
        "name:fi": "Kempele",
        "network": "FI:regional",
        "operator": "Liikennevirasto",
        "public_transport": "station",
        "railway": "station",
        "railway:position:exact": "741.075",
        "railway:ref": "Kml",
        "train": "yes",
        "website": "https://www.vr.fi/cs/vr/fi/kempele_fi",
        "wheelchair": "yes",
        "wikidata": "Q11870896",
        "wikipedia": "fi:Kempeleen rautatieasema",
        "id": "node/1798845568"
      },
      "geometry": {
        "type": "Point",
        "coordinates": [
          25.5143119,
          64.9120022
        ]
      }
    },
    {
      "type": "Feature",
      "id": "node/1907038875",
      "properties": {
        "addr:city": "Imatra",
        "addr:housename": "Keskusasema",
        "addr:housenumber": "1",
        "addr:postcode": "55120",
        "addr:street": "Koskikatu",
        "alt_name": "Imatra",
        "amenity": "bus_station",
        "bus": "yes",
        "name": "Mansikkala (Keskusasema)",
        "old_name": "Mansikkala (Keskusasema)",
        "public_transport": "station",
        "train": "yes",
        "id": "node/1907038875"
      },
      "geometry": {
        "type": "Point",
        "coordinates": [
          28.776854,
          61.1959964
        ]
      }
    },
    {
      "type": "Feature",
      "id": "node/2102990341",
      "properties": {
        "addr:city": "Turenki",
        "addr:housenumber": "3",
        "addr:postcode": "14200",
        "addr:street": "Kuumolantie",
        "name": "Turenki",
        "name:fi": "Turenki",
        "network": "FI:local",
        "public_transport": "station",
        "railway": "station",
        "railway:position:exact": "93.771",
        "railway:ref": "Tu",
        "train": "yes",
        "website": "https://www.vr.fi/cs/vr/fi/turenki_fi",
        "wikidata": "Q11898727",
        "wikipedia": "fi:Turengin rautatieasema",
        "id": "node/2102990341"
      },
      "geometry": {
        "type": "Point",
        "coordinates": [
          24.6385783,
          60.918298
        ]
      }
    },
    {
      "type": "Feature",
      "id": "node/2178688186",
      "properties": {
        "addr:city": "Villähde",
        "addr:housenumber": "7",
        "addr:postcode": "15540",
        "addr:street": "Lastaustie",
        "name": "Villähde",
        "network": "FI:regional",
        "operator": "Liikennevirasto",
        "platforms": "2",
        "public_transport": "station",
        "railway": "station",
        "railway:position:exact": "140.442",
        "railway:ref": "Vlh",
        "train": "yes",
        "wheelchair": "yes",
        "wikidata": "Q11901611",
        "wikipedia": "fi:Villähteen rautatieasema",
        "id": "node/2178688186"
      },
      "geometry": {
        "type": "Point",
        "coordinates": [
          25.8256133,
          60.9466016
        ]
      }
    },
    {
      "type": "Feature",
      "id": "node/2178693766",
      "properties": {
        "addr:city": "Nastola",
        "addr:housenumber": "10",
        "addr:postcode": "15560",
        "addr:street": "Pysäkinkuja",
        "name": "Nastola",
        "network": "FI:regional",
        "platforms": "2",
        "public_transport": "station",
        "railway": "station",
        "railway:position:exact": "146.169",
        "railway:ref": "Nsl",
        "train": "yes",
        "wheelchair": "yes",
        "wikidata": "Q6967719",
        "wikipedia": "fi:Nastolan rautatieasema",
        "id": "node/2178693766"
      },
      "geometry": {
        "type": "Point",
        "coordinates": [
          25.9353759,
          60.9356107
        ]
      }
    },
    {
      "type": "Feature",
      "id": "node/2284733344",
      "properties": {
        "addr:city": "Vantaa",
        "addr:postcode": "01530",
        "name": "Lentoasema",
        "name:en": "Airport",
        "name:fi": "Lentoasema",
        "name:sv": "Flygplatsen",
        "network": "FI:regional",
        "public_transport": "station",
        "railway": "station",
        "railway:position:exact": "26.575",
        "railway:ref": "Len",
        "start_date": "2015-07-10",
        "train": "yes",
        "website": "https://www.vr.fi/cs/vr/fi/helsinki_lentoasema",
        "wheelchair": "yes",
        "wikidata": "Q11875457",
        "wikipedia": "fi:Lentoaseman rautatieasema",
        "id": "node/2284733344"
      },
      "geometry": {
        "type": "Point",
        "coordinates": [
          24.9685572,
          60.315753
        ]
      }
    },
    {
      "type": "Feature",
      "id": "node/2722947570",
      "properties": {
        "addr:city": "Hämeenlinna",
        "addr:housenumber": "1",
        "addr:postcode": "14500",
        "addr:street": "Kotkajärventie",
        "name": "Iittala",
        "name:fi": "Iittala",
        "network": "FI:local",
        "public_transport": "station",
        "railway": "halt",
        "railway:position:exact": "129.286",
        "railway:ref": "Ita",
        "shelter": "yes",
        "shelter_type": "public_transport",
        "train": "yes",
        "website": "https://www.vr.fi/cs/vr/fi/iittala_fi",
        "wikidata": "Q5486890",
        "wikipedia": "fi:Iittalan rautatieasema",
        "id": "node/2722947570"
      },
      "geometry": {
        "type": "Point",
        "coordinates": [
          24.140832,
          61.0906198
        ]
      }
    },
    {
      "type": "Feature",
      "id": "node/3275586015",
      "properties": {
        "addr:city": "Riihimäki",
        "addr:postcode": "11130",
        "addr:street": "Asema-aukio",
        "name": "Riihimäki",
        "name:fi": "Riihimäki",
        "network": "FI:national",
        "public_transport": "station",
        "railway": "station",
        "railway:name": "Riihimäki asema",
        "railway:position:exact": "71.410",
        "railway:ref": "Ri",
        "ref": "Ri0106",
        "train": "yes",
        "website": "https://www.vr.fi/cs/vr/fi/riihimaki_fi",
        "wheelchair": "no",
        "wikidata": "Q3493838",
        "wikipedia": "fi:Riihimäen rautatieasema",
        "id": "node/3275586015"
      },
      "geometry": {
        "type": "Point",
        "coordinates": [
          24.7818896,
          60.7352077
        ]
      }
    },
    {
      "type": "Feature",
      "id": "node/3785437266",
      "properties": {
        "addr:city": "Koria",
        "addr:housenumber": "2",
        "addr:postcode": "45610",
        "addr:street": "Elimäentie",
        "internet_access": "no",
        "name": "Koria",
        "network": "FI:regional",
        "operator": "VR",
        "public_transport": "station",
        "railway": "station",
        "railway:position:exact": "185.374",
        "railway:ref": "Kra",
        "ref": "Kra",
        "train": "yes",
        "website": "https://www.vr.fi/cs/vr/fi/koria_fi",
        "wheelchair": "yes",
        "wikidata": "Q18660156",
        "wikipedia": "fi:Korian rautatieasema",
        "id": "node/3785437266"
      },
      "geometry": {
        "type": "Point",
        "coordinates": [
          26.6011939,
          60.8470589
        ]
      }
    },
    {
      "type": "Feature",
      "id": "node/3811477349",
      "properties": {
        "addr:city": "Kotka",
        "addr:housenumber": "1",
        "addr:postcode": "48100",
        "addr:street": "Kotkantie",
        "name": "Kotka",
        "name:fi": "Kotka",
        "network": "FI:national",
        "public_transport": "station",
        "railway": "station",
        "railway:ref": "Kta",
        "train": "yes",
        "uic_ref": "1000028",
        "website": "https://www.vr.fi/cs/vr/fi/kotka_fi",
        "wikidata": "Q4357798",
        "wikipedia": "fi:Kotkan rautatieasema",
        "id": "node/3811477349"
      },
      "geometry": {
        "type": "Point",
        "coordinates": [
          26.927431,
          60.4646759
        ]
      }
    },
    {
      "type": "Feature",
      "id": "node/3824772478",
      "properties": {
        "addr:city": "Kirkkonummi",
        "addr:postcode": "02420",
        "addr:street": "Jorvaksen myllytie",
        "name": "Jorvas",
        "name:fi": "Jorvas",
        "name:sv": "Jorvas",
        "network": "FI:local",
        "public_transport": "station",
        "railway": "station",
        "railway:ref": "Jrs",
        "train": "yes",
        "website": "https://www.vr.fi/cs/vr/fi/jorvas_fi",
        "wheelchair": "yes",
        "wikidata": "Q4412088",
        "wikipedia": "fi:Jorvaksen rautatieasema",
        "id": "node/3824772478"
      },
      "geometry": {
        "type": "Point",
        "coordinates": [
          24.5105935,
          60.1369616
        ]
      }
    },
    {
      "type": "Feature",
      "id": "node/4575281541",
      "properties": {
        "addr:city": "Vantaa",
        "addr:housenumber": "5",
        "addr:postcode": "01530",
        "addr:street": "Karhumäentie",
        "location": "underground",
        "name": "Aviapolis",
        "name:fi": "Aviapolis",
        "name:sv": "Aviapolis",
        "network": "FI:local",
        "public_transport": "station",
        "railway": "station",
        "railway:position": "25.135",
        "railway:ref": "Avp",
        "start_date": "2019-11-15",
        "train": "yes",
        "wikidata": "Q11853661",
        "wikipedia": "fi:Aviapoliksen rautatieasema",
        "id": "node/4575281541"
      },
      "geometry": {
        "type": "Point",
        "coordinates": [
          24.9567402,
          60.3044758
        ]
      }
    },
    {
      "type": "Feature",
      "id": "node/4583321226",
      "properties": {
        "addr:city": "Loimaa",
        "addr:postcode": "32200",
        "addr:street": "Asemakatu",
        "name": "Loimaa",
        "name:fi": "Loimaa",
        "network": "FI:regional",
        "public_transport": "station",
        "railway": "station",
        "railway:position:exact": "208.870",
        "railway:ref": "Lm",
        "train": "yes",
        "website": "https://www.vr.fi/cs/vr/fi/loimaa_fi",
        "wheelchair": "yes",
        "wikidata": "Q6668115",
        "wikipedia": "fi:Loimaan rautatieasema",
        "id": "node/4583321226"
      },
      "geometry": {
        "type": "Point",
        "coordinates": [
          23.0603204,
          60.8473685
        ]
      }
    },
    {
      "type": "Feature",
      "id": "node/5177726243",
      "properties": {
        "addr:city": "Akaa",
        "addr:housenumber": "4",
        "addr:postcode": "37800",
        "addr:street": "Pätsiniementie",
        "alt_name": "Toijalan rautatieasema",
        "name": "Toijala",
        "name:fi": "Toijala",
        "network": "FI:regional",
        "public_transport": "station",
        "railway": "station",
        "railway:position:exact": "147.339",
        "railway:ref": "Tl",
        "train": "yes",
        "website": "https://www.vr.fi/cs/vr/fi/toijala_fi",
        "wheelchair": "yes",
        "wikidata": "Q4357805",
        "wikipedia": "fi:Toijalan rautatieasema",
        "id": "node/5177726243"
      },
      "geometry": {
        "type": "Point",
        "coordinates": [
          23.8608554,
          61.1706738
        ]
      }
    },
    {
      "type": "Feature",
      "id": "node/5275467757",
      "properties": {
        "addr:city": "Luhtikylä",
        "addr:housenumber": "1",
        "addr:postcode": "16510",
        "addr:street": "Asemanrinne",
        "is_in": "Orimattila, Finland",
        "name": "Henna",
        "name:fi": "Henna",
        "network": "FI:regional",
        "old_name": "Lähdemäki",
        "operator": "Liikennevirasto",
        "public_transport": "station",
        "railway": "station",
        "railway:ref": "Hnn",
        "ref": "Hnn",
        "train": "yes",
        "wheelchair": "yes",
        "wikidata": "Q18660668",
        "wikipedia": "fi:Hennan rautatieasema",
        "id": "node/5275467757"
      },
      "geometry": {
        "type": "Point",
        "coordinates": [
          25.4951353,
          60.799882
        ]
      }
    },
    {
      "type": "Feature",
      "id": "node/7033564460",
      "properties": {
        "addr:city": "Oitti",
        "addr:postcode": "12100",
        "addr:street": "Kisällintie",
        "name": "Oitti",
        "name:fi": "Oitti",
        "network": "FI:regional",
        "public_transport": "station",
        "railway": "halt",
        "railway:ref": "Oi",
        "train": "yes",
        "wikidata": "Q7081564",
        "wikipedia": "fi:Oitin rautatieasema",
        "id": "node/7033564460"
      },
      "geometry": {
        "type": "Point",
        "coordinates": [
          25.0214966,
          60.7899861
        ]
      }
    },
    {
      "type": "Feature",
      "id": "node/7035551562",
      "properties": {
        "addr:city": "Lappila",
        "addr:housenumber": "3",
        "addr:postcode": "16670",
        "addr:street": "Lappilanraitti",
        "name": "Lappila",
        "name:fi": "Lappila",
        "network": "FI:regional",
        "public_transport": "station",
        "railway": "halt",
        "railway:ref": "Laa",
        "train": "yes",
        "wikidata": "Q11874694",
        "wikipedia": "fi:Lappilan rautatieasema",
        "id": "node/7035551562"
      },
      "geometry": {
        "type": "Point",
        "coordinates": [
          25.1742138,
          60.8489685
        ]
      }
    },
    {
      "type": "Feature",
      "id": "node/7035551573",
      "properties": {
        "addr:city": "Järvelä",
        "addr:housenumber": "4",
        "addr:postcode": "16600",
        "addr:street": "Hähkäniementie",
        "name": "Järvelä",
        "name:fi": "Järvelä",
        "network": "FI:regional",
        "public_transport": "station",
        "railway": "station",
        "railway:ref": "Jr",
        "train": "yes",
        "wikidata": "Q11868360",
        "wikipedia": "fi:Järvelän rautatieasema",
        "id": "node/7035551573"
      },
      "geometry": {
        "type": "Point",
        "coordinates": [
          25.2749243,
          60.8674025
        ]
      }
    },
    {
      "type": "Feature",
      "id": "node/7035551584",
      "properties": {
        "addr:city": "Herrala",
        "addr:housenumber": "33",
        "addr:postcode": "16500",
        "addr:street": "Ratatie",
        "name": "Herrala",
        "name:fi": "Herrala",
        "network": "FI:regional",
        "public_transport": "station",
        "railway": "halt",
        "railway:ref": "Hr",
        "train": "yes",
        "wikidata": "Q11862444",
        "wikipedia": "fi:Herralan rautatieasema",
        "id": "node/7035551584"
      },
      "geometry": {
        "type": "Point",
        "coordinates": [
          25.4736004,
          60.8961303
        ]
      }
    },
    {
      "type": "Feature",
      "id": "node/7035584429",
      "properties": {
        "addr:city": "Mommila",
        "addr:housenumber": "41",
        "addr:postcode": "12130",
        "addr:street": "Mommilanraitti",
        "name": "Mommila",
        "name:fi": "Mommila",
        "network": "FI:regional",
        "public_transport": "station",
        "railway": "halt",
        "railway:ref": "Mla",
        "train": "yes",
        "wikidata": "Q11883143",
        "wikipedia": "fi:Mommilan rautatieasema",
        "id": "node/7035584429"
      },
      "geometry": {
        "type": "Point",
        "coordinates": [
          25.0800302,
          60.8229932
        ]
      }
    },
    {
      "type": "Feature",
      "id": "node/7035599996",
      "properties": {
        "addr:city": "Hikiä",
        "addr:housenumber": "331",
        "addr:postcode": "12240",
        "addr:street": "Hikiäntie",
        "name": "Hikiä",
        "name:fi": "Hikiä",
        "network": "FI:regional",
        "public_transport": "station",
        "railway": "halt",
        "railway:position:exact": "79.743",
        "railway:ref": "Hk",
        "train": "yes",
        "wikidata": "Q11862591",
        "wikipedia": "fi:Hikiän rautatieasema",
        "id": "node/7035599996"
      },
      "geometry": {
        "type": "Point",
        "coordinates": [
          24.9232848,
          60.7537835
        ]
      }
    }
  ]
}