{
  "type": "FeatureCollection",
  "features": [
    {
      "type": "Feature",
      "id": "node/218896160",
      "properties": {
        "name": "არმაზი",
        "name:en": "Armazi",
        "name:ka": "არმაზი",
        "name:ru": "Армази",
        "public_transport": "station",
        "railway": "halt",
        "train": "yes",
        "id": "node/218896160"
      },
      "geometry": {
        "type": "Point",
        "coordinates": [
          44.6631291,
          41.8392177
        ]
      }
    },
    {
      "type": "Feature",
      "id": "node/900946845",
      "properties": {
        "esr:user": "571301",
        "int_name": "Chakvi",
        "name": "ჩაქვი",
        "name:de": "Tschakwi",
        "name:en": "Chakvi",
        "name:ka": "ჩაქვი",
        "name:ru": "Чакви",
        "public_transport": "station",
        "railway": "station",
        "train": "yes",
        "uic_ref": "2800367",
        "id": "node/900946845"
      },
      "geometry": {
        "type": "Point",
        "coordinates": [
          41.7324893,
          41.7337699
        ]
      }
    },
    {
      "type": "Feature",
      "id": "node/958416455",
      "properties": {
        "esr:user": "573805",
        "int_name": "Dranda",
        "is_in:country": "Abkhazia;Georgia",
        "name": "Дранда",
        "name:ab": "Дранда",
        "name:en": "Dranda",
        "name:ka": "დრანდა",
        "name:ru": "Дранда",
        "public_transport": "station",
        "railway": "station",
        "train": "yes",
        "uic_ref": "2800389",
        "wikidata": "Q4167692",
        "wikipedia": "ru:Дранда (станция)",
        "id": "node/958416455"
      },
      "geometry": {
        "type": "Point",
        "coordinates": [
          41.1410427,
          42.8737219
        ]
      }
    },
    {
      "type": "Feature",
      "id": "node/977466425",
      "properties": {
        "alt_name:ru": "Ткварчели",
        "esr:user": "573400",
        "name": "Тҟәарчал - Ткуарчал",
        "name:ab": "Тҟәарчал",
        "name:en": "Tkvarcheli",
        "name:ka": "ტყვარჩლი",
        "name:ru": "Ткуарчал",
        "public_transport": "station",
        "railway": "station",
        "train": "yes",
        "uic_ref": "2800430",
        "wikidata": "Q270535",
        "wikipedia": "en:Tkvarcheli",
        "id": "node/977466425"
      },
      "geometry": {
        "type": "Point",
        "coordinates": [
          41.674282,
          42.8446631
        ]
      }
    },
    {
      "type": "Feature",
      "id": "node/1112006914",
      "properties": {
        "int_name": "Tsalka",
        "name": "წალკა",
        "name:el": "Τσάλκα",
        "name:en": "Tsalka",
        "name:hy": "Ծալկա",
        "name:ka": "წალკა",
        "name:ru": "Цалка",
        "public_transport": "station",
        "railway": "yard",
        "train": "yes",
        "id": "node/1112006914"
      },
      "geometry": {
        "type": "Point",
        "coordinates": [
          44.052495,
          41.5887158
        ]
      }
    },
    {
      "type": "Feature",
      "id": "node/1643941766",
      "properties": {
        "disused:railway": "station",
        "name": "სურამი",
        "name:en": "Surami",
        "name:ka": "სურამი",
        "public_transport": "station",
        "railway": "station",
        "train": "yes",
        "id": "node/1643941766"
      },
      "geometry": {
        "type": "Point",
        "coordinates": [
          43.561127,
          42.0167338
        ]
      }
    },
    {
      "type": "Feature",
      "id": "node/2477151890",
      "properties": {
        "name": "კარწახი (Kartsakhi);კარწახი",
        "name:en": "Kartsakhi",
        "name:ka": "კარწახი",
        "public_transport": "station",
        "railway": "yard",
        "train": "yes",
        "id": "node/2477151890"
      },
      "geometry": {
        "type": "Point",
        "coordinates": [
          43.3076837,
          41.2165643
        ]
      }
    },
    {
      "type": "Feature",
      "id": "node/3065946736",
      "properties": {
        "name": "ფოთი",
        "name:en": "Poti",
        "name:ru": "Поти",
        "public_transport": "station",
        "railway": "station",
        "train": "yes",
        "uic_ref": "2800610",
        "id": "node/3065946736"
      },
      "geometry": {
        "type": "Point",
        "coordinates": [
          41.6791541,
          42.1507613
        ]
      }
    },
    {
      "type": "Feature",
      "id": "node/3067086830",
      "properties": {
        "name": "წიფა",
        "name:en": "Tsipa",
        "name:ka": "წიფა",
        "name:ru": "Ципа",
        "network": "Georgian Railway",
        "public_transport": "station",
        "railway": "station",
        "train": "yes",
        "uic_ref": "2800429",
        "id": "node/3067086830"
      },
      "geometry": {
        "type": "Point",
        "coordinates": [
          43.4385014,
          41.999107
        ]
      }
    },
    {
      "type": "Feature",
      "id": "node/3075553558",
      "properties": {
        "internet_access": "no",
        "name": "სატვირთო რკინიგზის სადგური",
        "name:en": "Gori - Freight",
        "name:ru": "Гори-Товарная",
        "operator": "Georgian Railway",
        "public_transport": "station",
        "railway": "station",
        "train": "yes",
        "id": "node/3075553558"
      },
      "geometry": {
        "type": "Point",
        "coordinates": [
          44.0857665,
          42.006161
        ]
      }
    },
    {
      "type": "Feature",
      "id": "node/6715694455",
      "properties": {
        "description": "temporary halt, in use when event in Black Sea Arena",
        "public_transport": "station",
        "railway": "halt",
        "train": "yes",
        "id": "node/6715694455"
      },
      "geometry": {
        "type": "Point",
        "coordinates": [
          41.7851902,
          41.9433006
        ]
      }
    },
    {
      "type": "Feature",
      "id": "node/7285245527",
      "properties": {
        "addr:city": "თბილისი",
        "name": "ვარკეთილი",
        "name:en": "Varketili",
        "name:ka": "ვარკეთილი",
        "name:ru": "Варкетили",
        "network": "Tbilisi Metro",
        "opening_hours": "Mo-Su 06:00-23:59",
        "public_transport": "station",
        "railway": "station",
        "station": "subway",
        "train": "yes",
        "transport": "subway",
        "id": "node/7285245527"
      },
      "geometry": {
        "type": "Point",
        "coordinates": [
          44.8699238,
          41.6916207
        ]
      }
    },
    {
      "type": "Feature",
      "id": "node/7996564301",
      "properties": {
        "name": "თეთრიწყარო",
        "name:en": "Tetritskaro",
        "name:ka": "თეთრიწყარო",
        "public_transport": "station",
        "railway": "yard",
        "train": "yes",
        "id": "node/7996564301"
      },
      "geometry": {
        "type": "Point",
        "coordinates": [
          44.4952993,
          41.5318101
        ]
      }
    },
    {
      "type": "Feature",
      "id": "node/8478377703",
      "properties": {
        "public_transport": "station",
        "railway": "station",
        "train": "yes",
        "id": "node/8478377703"
      },
      "geometry": {
        "type": "Point",
        "coordinates": [
          44.5153993,
          41.8824827
        ]
      }
    }
  ]
}