{
  "type": "FeatureCollection",
  "features": [
    {
      "type": "Feature",
      "id": "node/63116799",
      "properties": {
        "int_name": "Kastelokampos",
        "name": "Καστελόκαμπος",
        "public_transport": "station",
        "railway": "halt",
        "source": "Bing;guessed",
        "train": "yes",
        "id": "node/63116799"
      },
      "geometry": {
        "type": "Point",
        "coordinates": [
          21.771217,
          38.2911695
        ]
      }
    },
    {
      "type": "Feature",
      "id": "node/63116844",
      "properties": {
        "int_name": "Rio",
        "name": "Ρίο",
        "name:de": "Rio",
        "name:el": "Ρίο",
        "name:en": "Rio",
        "name:fr": "Rio",
        "public_transport": "station",
        "railway": "station",
        "train": "yes",
        "id": "node/63116844"
      },
      "geometry": {
        "type": "Point",
        "coordinates": [
          21.7775486,
          38.2981797
        ]
      }
    },
    {
      "type": "Feature",
      "id": "node/287450434",
      "properties": {
        "country": "GR - E",
        "int_name": "Kalambaka",
        "name": "Kalambaka",
        "name:de": "Kalambaka",
        "name:el": "Καλαμπάκα",
        "name:en": "Kalambaka",
        "name:fr": "Kalambaka",
        "public_transport": "station",
        "railway": "station",
        "train": "yes",
        "id": "node/287450434"
      },
      "geometry": {
        "type": "Point",
        "coordinates": [
          21.6254549,
          39.7027916
        ]
      }
    },
    {
      "type": "Feature",
      "id": "node/296339021",
      "properties": {
        "int_name": "Kato Achaia",
        "name": "Κάτω Αχαΐα",
        "name:de": "Kato Achea",
        "name:el": "Κάτω Αχαΐα",
        "name:en": "Kato Achea",
        "name:fr": "Kato Achea",
        "name:ru": "Като-Ахая",
        "public_transport": "station",
        "railway": "halt",
        "train": "yes",
        "id": "node/296339021"
      },
      "geometry": {
        "type": "Point",
        "coordinates": [
          21.5611535,
          38.1460692
        ]
      }
    },
    {
      "type": "Feature",
      "id": "node/300806334",
      "properties": {
        "addr:country": "GR",
        "addr:place": "Βεύη",
        "addr:postcode": "53074",
        "alt_name:mk": "Долна Баница",
        "name": "Σταθμός Βεύης",
        "name:de": "Stathmos (Kato) Vevis",
        "name:el": "Σταθμός Βεύης",
        "name:mk": "Станица Баница",
        "old_name": "Kato Vevi",
        "population": "118",
        "public_transport": "station",
        "railway": "station",
        "train": "yes",
        "id": "node/300806334"
      },
      "geometry": {
        "type": "Point",
        "coordinates": [
          21.5707371,
          40.7733037
        ]
      }
    },
    {
      "type": "Feature",
      "id": "node/361456404",
      "properties": {
        "name": "Αεροδρόμιο",
        "name:en": "Airport",
        "name:fr": "Aéroport",
        "network": "Προαστιακός Αθήνας;Μετρό Αθήνας",
        "operator": "Διεθνής Αερολιμένας Αθηνών",
        "public_transport": "station",
        "railway": "station",
        "station": "subway",
        "subway": "yes",
        "train": "yes",
        "id": "node/361456404"
      },
      "geometry": {
        "type": "Point",
        "coordinates": [
          23.9448074,
          37.9369769
        ]
      }
    },
    {
      "type": "Feature",
      "id": "node/457129115",
      "properties": {
        "name": "Πάτρα",
        "name:ar": "باتراس",
        "name:en": "Patras",
        "name:it": "Patrasso",
        "operator": "ΟΣΕ",
        "public_transport": "station",
        "railway": "station",
        "train": "yes",
        "id": "node/457129115"
      },
      "geometry": {
        "type": "Point",
        "coordinates": [
          21.7350176,
          38.2499135
        ]
      }
    },
    {
      "type": "Feature",
      "id": "node/957178322",
      "properties": {
        "name": "Περισσός",
        "name:de": "Perissos",
        "name:el": "Περισσός",
        "name:en": "Perissos",
        "name:fr": "Perissos",
        "name:ru": "Пэриссос",
        "network": "Μετρό Αθήνας",
        "operator": "Σταθερές Συγκοινωνίες",
        "public_transport": "station",
        "railway": "station",
        "station": "subway",
        "subway": "yes",
        "train": "yes",
        "wheelchair": "yes",
        "wikidata": "Q1993594",
        "wikipedia": "el:Σταθμός Περισσού (Μετρό Αθήνας)",
        "id": "node/957178322"
      },
      "geometry": {
        "type": "Point",
        "coordinates": [
          23.7447123,
          38.0328448
        ]
      }
    },
    {
      "type": "Feature",
      "id": "node/1195836230",
      "properties": {
        "name": "Άγιος Ανδρέας",
        "name:en": "Agios Andreas",
        "operator": "ΟΣΕ",
        "public_transport": "station",
        "railway": "halt",
        "train": "yes",
        "id": "node/1195836230"
      },
      "geometry": {
        "type": "Point",
        "coordinates": [
          21.7274306,
          38.239495
        ]
      }
    },
    {
      "type": "Feature",
      "id": "node/1307050441",
      "properties": {
        "int_name": "Dikea",
        "name": "Δίκαια",
        "name:de": "Dikea",
        "name:el": "Δίκαια",
        "name:en": "Dikea",
        "name:fr": "Dikea",
        "public_transport": "station",
        "railway": "station",
        "train": "yes",
        "id": "node/1307050441"
      },
      "geometry": {
        "type": "Point",
        "coordinates": [
          26.2973673,
          41.7061339
        ]
      }
    },
    {
      "type": "Feature",
      "id": "node/2146096817",
      "properties": {
        "name": "Λεύκα",
        "name:en": "Lefka",
        "name:int": "Lefka",
        "network": "Προαστιακός Αθήνας",
        "old_name": "Παράρτημα",
        "operator": "ΟΣΕ",
        "public_transport": "station",
        "railway": "halt",
        "train": "yes",
        "id": "node/2146096817"
      },
      "geometry": {
        "type": "Point",
        "coordinates": [
          23.6539589,
          37.95542
        ]
      }
    },
    {
      "type": "Feature",
      "id": "node/2541827616",
      "properties": {
        "name": "Κορωπί",
        "name:el": "Κορωπί",
        "name:en": "Koropi",
        "name:fr": "Koropi",
        "name:int": "Koropi",
        "network": "Προαστιακός Αθήνας;Μετρό Αθήνας",
        "operator": "ΟΣΕ",
        "public_transport": "station",
        "railway": "station",
        "station": "subway",
        "subway": "yes",
        "train": "yes",
        "wheelchair": "yes",
        "id": "node/2541827616"
      },
      "geometry": {
        "type": "Point",
        "coordinates": [
          23.8958108,
          37.9130116
        ]
      }
    },
    {
      "type": "Feature",
      "id": "node/2786690723",
      "properties": {
        "name": "Δουκίσσης Πλακεντίας",
        "name:el": "Δουκίσσης Πλακεντίας",
        "name:en": "Doukissis Plakentias",
        "public_transport": "station",
        "railway": "station",
        "train": "yes",
        "id": "node/2786690723"
      },
      "geometry": {
        "type": "Point",
        "coordinates": [
          23.8342692,
          38.0246124
        ]
      }
    },
    {
      "type": "Feature",
      "id": "node/3308286101",
      "properties": {
        "disused:railway": "station",
        "name": "Αγριά",
        "public_transport": "station",
        "railway": "station",
        "train": "yes",
        "id": "node/3308286101"
      },
      "geometry": {
        "type": "Point",
        "coordinates": [
          23.0137715,
          39.3389126
        ]
      }
    },
    {
      "type": "Feature",
      "id": "node/3670330796",
      "properties": {
        "name": "Αμύνταιο",
        "name:de": "Amyndeo",
        "name:en": "Amyntaio",
        "public_transport": "station",
        "railway": "station",
        "train": "yes",
        "id": "node/3670330796"
      },
      "geometry": {
        "type": "Point",
        "coordinates": [
          21.6854184,
          40.691024
        ]
      }
    },
    {
      "type": "Feature",
      "id": "node/4683331994",
      "properties": {
        "int_name": "Afidnes",
        "name": "Αφίδνες",
        "name:fr": "Afidnes",
        "name:sq": "Qurka",
        "network": "ΤραινΟΣΕ",
        "operator": "ΟΣΕ",
        "public_transport": "station",
        "railway": "station",
        "train": "yes",
        "wikidata": "Q4689236",
        "wikipedia": "el:Σιδηροδρομικός Σταθμός Αφιδνών",
        "id": "node/4683331994"
      },
      "geometry": {
        "type": "Point",
        "coordinates": [
          23.8446369,
          38.1873782
        ]
      }
    },
    {
      "type": "Feature",
      "id": "node/4942009785",
      "properties": {
        "name": "Μπράλος",
        "name:de": "Bralos",
        "name:el": "Μπράλος",
        "name:en": "Bralos",
        "name:fr": "Bralos",
        "public_transport": "station",
        "railway": "station",
        "train": "yes",
        "id": "node/4942009785"
      },
      "geometry": {
        "type": "Point",
        "coordinates": [
          22.4578303,
          38.7019951
        ]
      }
    },
    {
      "type": "Feature",
      "id": "node/4942009787",
      "properties": {
        "disused:railway": "station",
        "name": "Αμφίκλεια",
        "name:de": "Amfiklia",
        "name:el": "Αμφίκλεια",
        "name:en": "Amfiklia",
        "name:fr": "Amfiklia",
        "public_transport": "station",
        "railway": "station",
        "train": "yes",
        "id": "node/4942009787"
      },
      "geometry": {
        "type": "Point",
        "coordinates": [
          22.5947678,
          38.6584164
        ]
      }
    },
    {
      "type": "Feature",
      "id": "node/4942135705",
      "properties": {
        "disused:railway": "station",
        "name": "Λιλαία",
        "name:de": "Lilea",
        "name:el": "Λιλαία",
        "name:en": "Lilea",
        "name:fr": "Lilea",
        "public_transport": "station",
        "railway": "station",
        "train": "yes",
        "id": "node/4942135705"
      },
      "geometry": {
        "type": "Point",
        "coordinates": [
          22.5446387,
          38.6698576
        ]
      }
    },
    {
      "type": "Feature",
      "id": "node/5353144074",
      "properties": {
        "name": "Βασιλική",
        "name:en": "Vasiliki",
        "public_transport": "station",
        "railway": "halt",
        "train": "yes",
        "id": "node/5353144074"
      },
      "geometry": {
        "type": "Point",
        "coordinates": [
          22.6013161,
          38.9089614
        ]
      }
    },
    {
      "type": "Feature",
      "id": "node/5461338879",
      "properties": {
        "disused:railway": "station",
        "internet_access": "no",
        "name": "Λυγαριά",
        "network": "Ο.Σ.Ε.",
        "operator": "Ο.Σ.Ε.",
        "public_transport": "station",
        "train": "yes",
        "id": "node/5461338879"
      },
      "geometry": {
        "type": "Point",
        "coordinates": [
          22.342531,
          38.9407884
        ]
      }
    },
    {
      "type": "Feature",
      "id": "node/5461368243",
      "properties": {
        "internet_access": "no",
        "name": "Σταμνά",
        "network": "Κρυονερίου - Αγρινίου",
        "operator": "Ο.Σ.Ε.",
        "public_transport": "station",
        "railway": "station",
        "train": "yes",
        "id": "node/5461368243"
      },
      "geometry": {
        "type": "Point",
        "coordinates": [
          21.2985615,
          38.5122543
        ]
      }
    },
    {
      "type": "Feature",
      "id": "node/5461375138",
      "properties": {
        "disused:railway": "station",
        "internet_access": "no",
        "name": "Μεσολόγγι",
        "network": "Κρυονερίου - Αγρινίου",
        "operator": "ΟΣΕ",
        "public_transport": "station",
        "railway": "disused",
        "train": "yes",
        "id": "node/5461375138"
      },
      "geometry": {
        "type": "Point",
        "coordinates": [
          21.4349552,
          38.3723581
        ]
      }
    },
    {
      "type": "Feature",
      "id": "node/6222934811",
      "properties": {
        "int_name": "Zefiri",
        "name": "Ζεφύρι",
        "name:en": "Zefiri",
        "operator": "ΟΣΕ",
        "public_transport": "station",
        "railway": "station",
        "train": "yes",
        "id": "node/6222934811"
      },
      "geometry": {
        "type": "Point",
        "coordinates": [
          23.7168389,
          38.0698218
        ]
      }
    },
    {
      "type": "Feature",
      "id": "node/6241176547",
      "properties": {
        "int_name": "Pallini",
        "name": "Παλλήνη",
        "name:en": "Pallini",
        "network": "Προαστιακός Αθήνας;Μετρό Αθήνας",
        "operator": "ΟΣΕ;Σταθερές Συγκοινωνίες",
        "public_transport": "station",
        "railway": "station",
        "station": "subway",
        "subway": "yes",
        "train": "yes",
        "wikidata": "Q12884460",
        "id": "node/6241176547"
      },
      "geometry": {
        "type": "Point",
        "coordinates": [
          23.8696043,
          38.0057615
        ]
      }
    },
    {
      "type": "Feature",
      "id": "node/6245525848",
      "properties": {
        "int_name": "Pirgos Vasilisis",
        "name": "Πύργος Βασιλίσσης",
        "name:en": "Pirgos Vasilisis",
        "network": "Προαστιακός Αθήνας",
        "operator": "ΟΣΕ",
        "public_transport": "station",
        "railway": "station",
        "train": "yes",
        "id": "node/6245525848"
      },
      "geometry": {
        "type": "Point",
        "coordinates": [
          23.727456,
          38.0397137
        ]
      }
    },
    {
      "type": "Feature",
      "id": "node/6245525849",
      "properties": {
        "int_name": "Kato Acharnai",
        "name": "Κάτω Αχαρναί",
        "name:en": "Kato Acharnai",
        "network": "Προαστιακός Αθήνας",
        "operator": "ΟΣΕ",
        "public_transport": "station",
        "railway": "station",
        "train": "yes",
        "id": "node/6245525849"
      },
      "geometry": {
        "type": "Point",
        "coordinates": [
          23.7326454,
          38.054188
        ]
      }
    },
    {
      "type": "Feature",
      "id": "node/6245547243",
      "properties": {
        "int_name": "Agii Anargyri",
        "name": "Άγιοι Ανάργυροι",
        "name:en": "Agii Anargyri",
        "network": "Προαστιακός Αθήνας",
        "operator": "ΟΣΕ",
        "public_transport": "station",
        "railway": "station",
        "train": "yes",
        "id": "node/6245547243"
      },
      "geometry": {
        "type": "Point",
        "coordinates": [
          23.7184204,
          38.0218581
        ]
      }
    },
    {
      "type": "Feature",
      "id": "node/6268675384",
      "properties": {
        "int_name": "Acharnes Railway Center (SKA) Airport Line",
        "name": "Σιδηροδρομικό Κέντρο Αχαρνών (ΣΚΑ) γραμμή ΑΕΡ",
        "name:en": "Acharnes Railway Center (SKA) Airport Line",
        "network": "Προαστιακός Αθήνας",
        "operator": "ΟΣΕ",
        "public_transport": "station",
        "railway": "station",
        "train": "yes",
        "id": "node/6268675384"
      },
      "geometry": {
        "type": "Point",
        "coordinates": [
          23.7377663,
          38.0656513
        ]
      }
    },
    {
      "type": "Feature",
      "id": "node/6326277737",
      "properties": {
        "int_name": "Tavmako",
        "name": "Θαυμακό",
        "public_transport": "station",
        "railway": "station",
        "train": "yes",
        "id": "node/6326277737"
      },
      "geometry": {
        "type": "Point",
        "coordinates": [
          22.2835354,
          39.156926
        ]
      }
    },
    {
      "type": "Feature",
      "id": "node/6409104299",
      "properties": {
        "name": "Αίγιο",
        "name:fr": "Aigion",
        "operator": "ΟΣΕ",
        "public_transport": "station",
        "railway": "station",
        "source": "DigitalGlobe Standard (2019-04-16)",
        "train": "yes",
        "id": "node/6409104299"
      },
      "geometry": {
        "type": "Point",
        "coordinates": [
          22.1035047,
          38.2397557
        ]
      }
    },
    {
      "type": "Feature",
      "id": "node/6409735388",
      "properties": {
        "name": "Διμηνιό",
        "name:fr": "Diminio",
        "operator": "ΟΣΕ",
        "public_transport": "station",
        "railway": "station",
        "source": "Bing (2019-04-16)",
        "train": "yes",
        "id": "node/6409735388"
      },
      "geometry": {
        "type": "Point",
        "coordinates": [
          22.7151815,
          38.0355096
        ]
      }
    },
    {
      "type": "Feature",
      "id": "node/7270702923",
      "properties": {
        "int_name": "Paralia Patron",
        "name": "Παραλία Πατρών",
        "public_transport": "station",
        "railway": "halt",
        "train": "yes",
        "id": "node/7270702923"
      },
      "geometry": {
        "type": "Point",
        "coordinates": [
          21.7054815,
          38.2023929
        ]
      }
    },
    {
      "type": "Feature",
      "id": "node/7270702924",
      "properties": {
        "int_name": "Tsaousi Mindilogli",
        "name": "Τσαούση Μινδιλόγλι",
        "public_transport": "station",
        "railway": "halt",
        "train": "yes",
        "id": "node/7270702924"
      },
      "geometry": {
        "type": "Point",
        "coordinates": [
          21.6902153,
          38.1885057
        ]
      }
    },
    {
      "type": "Feature",
      "id": "node/7270702925",
      "properties": {
        "int_name": "Vrachneika",
        "name": "Βραχνέικα",
        "public_transport": "station",
        "railway": "halt",
        "train": "yes",
        "id": "node/7270702925"
      },
      "geometry": {
        "type": "Point",
        "coordinates": [
          21.6721234,
          38.1657834
        ]
      }
    },
    {
      "type": "Feature",
      "id": "node/7270702926",
      "properties": {
        "int_name": "Tsoukaleika",
        "name": "Τσουκαλέικα",
        "public_transport": "station",
        "railway": "halt",
        "train": "yes",
        "id": "node/7270702926"
      },
      "geometry": {
        "type": "Point",
        "coordinates": [
          21.6467873,
          38.156342
        ]
      }
    },
    {
      "type": "Feature",
      "id": "node/7270702927",
      "properties": {
        "int_name": "Kaminia",
        "name": "Καμίνια",
        "public_transport": "station",
        "railway": "halt",
        "train": "yes",
        "id": "node/7270702927"
      },
      "geometry": {
        "type": "Point",
        "coordinates": [
          21.6211864,
          38.1477861
        ]
      }
    },
    {
      "type": "Feature",
      "id": "node/7270702928",
      "properties": {
        "int_name": "Alyssos",
        "name": "Αλυσσός",
        "public_transport": "station",
        "railway": "halt",
        "train": "yes",
        "id": "node/7270702928"
      },
      "geometry": {
        "type": "Point",
        "coordinates": [
          21.5901448,
          38.1430603
        ]
      }
    },
    {
      "type": "Feature",
      "id": "node/7271325944",
      "properties": {
        "int_name": "Bozaïtika",
        "name": "Μποζαΐτικα",
        "public_transport": "station",
        "railway": "halt",
        "train": "yes",
        "id": "node/7271325944"
      },
      "geometry": {
        "type": "Point",
        "coordinates": [
          21.7644766,
          38.2813794
        ]
      }
    },
    {
      "type": "Feature",
      "id": "node/7271325945",
      "properties": {
        "int_name": "Agia",
        "name": "Αγυιά",
        "public_transport": "station",
        "railway": "halt",
        "train": "yes",
        "id": "node/7271325945"
      },
      "geometry": {
        "type": "Point",
        "coordinates": [
          21.7472193,
          38.2710376
        ]
      }
    },
    {
      "type": "Feature",
      "id": "node/7271325946",
      "properties": {
        "int_name": "Panachaïki",
        "name": "Παναχαϊκή",
        "public_transport": "station",
        "railway": "halt",
        "train": "yes",
        "id": "node/7271325946"
      },
      "geometry": {
        "type": "Point",
        "coordinates": [
          21.7423591,
          38.2623845
        ]
      }
    },
    {
      "type": "Feature",
      "id": "node/7271325947",
      "properties": {
        "int_name": "Antheias",
        "name": "Ανθείας",
        "public_transport": "station",
        "railway": "halt",
        "train": "yes",
        "wikidata": "Q87482024",
        "wikipedia": "el:Σιδηροδρομικός Σταθμός Ανθείας",
        "id": "node/7271325947"
      },
      "geometry": {
        "type": "Point",
        "coordinates": [
          21.7239652,
          38.2245681
        ]
      }
    },
    {
      "type": "Feature",
      "id": "node/7271325948",
      "properties": {
        "int_name": "Ities",
        "name": "Ιτιές",
        "public_transport": "station",
        "railway": "halt",
        "train": "yes",
        "id": "node/7271325948"
      },
      "geometry": {
        "type": "Point",
        "coordinates": [
          21.7184209,
          38.2117706
        ]
      }
    },
    {
      "type": "Feature",
      "id": "node/7664024173",
      "properties": {
        "name": "Κρωμνικό",
        "public_transport": "station",
        "railway": "halt",
        "train": "yes",
        "id": "node/7664024173"
      },
      "geometry": {
        "type": "Point",
        "coordinates": [
          24.7288401,
          41.1064886
        ]
      }
    },
    {
      "type": "Feature",
      "id": "node/7785744802",
      "properties": {
        "name": "Κιάτο",
        "name:fr": "Kiato",
        "public_transport": "station",
        "railway": "station",
        "train": "yes",
        "id": "node/7785744802"
      },
      "geometry": {
        "type": "Point",
        "coordinates": [
          22.7349625,
          38.0140056
        ]
      }
    },
    {
      "type": "Feature",
      "id": "node/7785756627",
      "properties": {
        "name": "Αυλώνας",
        "name:de": "Avlona",
        "name:el": "Αυλώνας",
        "name:en": "Avlona",
        "name:fr": "Avlona",
        "public_transport": "station",
        "railway": "station",
        "train": "yes",
        "id": "node/7785756627"
      },
      "geometry": {
        "type": "Point",
        "coordinates": [
          23.6956085,
          38.2505529
        ]
      }
    },
    {
      "type": "Feature",
      "id": "node/7785759853",
      "properties": {
        "name": "Αυλίδα",
        "name:de": "Avlida",
        "name:en": "Avlida",
        "name:fr": "Avlida",
        "public_transport": "station",
        "railway": "halt",
        "ref": "Χαλκίδα",
        "train": "yes",
        "wikidata": "Q12884437",
        "wikipedia": "el:Σιδηροδρομικός σταθμός Αυλίδας",
        "id": "node/7785759853"
      },
      "geometry": {
        "type": "Point",
        "coordinates": [
          23.603365,
          38.4044651
        ]
      }
    },
    {
      "type": "Feature",
      "id": "node/7785784493",
      "properties": {
        "name": "Χαλκίδα",
        "name:fr": "Chalcis",
        "public_transport": "station",
        "railway": "station",
        "train": "yes",
        "id": "node/7785784493"
      },
      "geometry": {
        "type": "Point",
        "coordinates": [
          23.5861282,
          38.462568
        ]
      }
    },
    {
      "type": "Feature",
      "id": "node/7804802206",
      "properties": {
        "name": "Οινόφυτα",
        "name:en": "Inofyta",
        "name:fr": "Inofyta",
        "public_transport": "station",
        "railway": "halt",
        "train": "yes",
        "id": "node/7804802206"
      },
      "geometry": {
        "type": "Point",
        "coordinates": [
          23.6338169,
          38.3070312
        ]
      }
    },
    {
      "type": "Feature",
      "id": "node/7804804209",
      "properties": {
        "name": "Αγ. Θωμάς",
        "name:en": "Ag. Tomas",
        "name:fr": "Saint Thomas",
        "public_transport": "station",
        "railway": "halt",
        "train": "yes",
        "id": "node/7804804209"
      },
      "geometry": {
        "type": "Point",
        "coordinates": [
          23.6670916,
          38.2816489
        ]
      }
    },
    {
      "type": "Feature",
      "id": "node/9069698762",
      "properties": {
        "addr:street": "Αγίου Γεωργίου",
        "name": "Διόνυσος",
        "name:en": "Dionysos",
        "network": "Εγκαταλελειμμένη Σιδηροδρομική Γραμμή Κηφισιάς - Στροφυλίου - Διονύσου",
        "public_transport": "station",
        "railway": "station",
        "train": "yes",
        "id": "node/9069698762"
      },
      "geometry": {
        "type": "Point",
        "coordinates": [
          23.8819803,
          38.1004091
        ]
      }
    },
    {
      "type": "Feature",
      "id": "node/9072357792",
      "properties": {
        "name": "Αγία Τριάδα",
        "name:en": "Agia Triada",
        "network": "Τρενάκι Πηλίου (Μουτζούρης)",
        "operator": "Ο.Σ.Ε.",
        "public_transport": "station",
        "railway": "station",
        "train": "yes",
        "id": "node/9072357792"
      },
      "geometry": {
        "type": "Point",
        "coordinates": [
          23.1071811,
          39.3173737
        ]
      }
    },
    {
      "type": "Feature",
      "id": "node/9072357797",
      "properties": {
        "name": "Πινακάτες",
        "name:en": "Pinakates",
        "network": "Τρενάκι Πηλίου (μουτζούρης)",
        "operator": "Ο.Σ.Ε.",
        "public_transport": "station",
        "railway": "station",
        "train": "yes",
        "id": "node/9072357797"
      },
      "geometry": {
        "type": "Point",
        "coordinates": [
          23.1246431,
          39.3158362
        ]
      }
    },
    {
      "type": "Feature",
      "id": "node/9072357802",
      "properties": {
        "name": "Μηλιές",
        "name:en": "Milies",
        "network": "Τρενάκι Πηλίου (Μουτζούρης)",
        "operator": "Ο.Σ.Ε.",
        "public_transport": "station",
        "railway": "station",
        "train": "yes",
        "id": "node/9072357802"
      },
      "geometry": {
        "type": "Point",
        "coordinates": [
          23.1435862,
          39.3276342
        ]
      }
    },
    {
      "type": "Feature",
      "id": "node/9092786683",
      "properties": {
        "name": "Γέρακας",
        "name:en": "Gerakas",
        "network": "Εγκαταλελειμμένη γραμμή Λαυρίου - Αγίων Αναργύρων",
        "public_transport": "station",
        "railway": "station",
        "train": "yes",
        "id": "node/9092786683"
      },
      "geometry": {
        "type": "Point",
        "coordinates": [
          23.8585152,
          38.0088737
        ]
      }
    },
    {
      "type": "Feature",
      "id": "node/9099394308",
      "properties": {
        "name": "Κάντζα / Λεοντάριο",
        "name:en": "Kantza / Leontario",
        "network": "Εγκαταλελειμμένη γραμμή Λαυρίου - Αγίων Αναργύρων",
        "public_transport": "station",
        "railway": "station",
        "train": "yes",
        "id": "node/9099394308"
      },
      "geometry": {
        "type": "Point",
        "coordinates": [
          23.8661254,
          37.9871271
        ]
      }
    },
    {
      "type": "Feature",
      "id": "node/9099511403",
      "properties": {
        "name": "Λιόπεσι",
        "name:en": "Liopessi",
        "network": "Εγκαταλελειμμένη γραμμή Λαυρίου - Αγίων Αναργύρων",
        "public_transport": "station",
        "railway": "station",
        "train": "yes",
        "id": "node/9099511403"
      },
      "geometry": {
        "type": "Point",
        "coordinates": [
          23.8600779,
          37.9526379
        ]
      }
    },
    {
      "type": "Feature",
      "id": "node/9099756186",
      "properties": {
        "name": "Κορωπί",
        "name:en": "Koropi",
        "network": "Εγκαταλελειμμένη γραμμή Λαυρίου - Αγίων Αναργύρων",
        "public_transport": "station",
        "railway": "station",
        "train": "yes",
        "id": "node/9099756186"
      },
      "geometry": {
        "type": "Point",
        "coordinates": [
          23.8748811,
          37.9088527
        ]
      }
    },
    {
      "type": "Feature",
      "id": "node/9102480584",
      "properties": {
        "description": "Τμήμα παραχωρημένο στην Α.Μ.Κ.Ε. «Εταιρεία Μουσειακών Σιδηροδρόμων Αττικής» / Part ceded to Civil Non-Profit Company “Attica Museum Railways Company” (https://attica-railway.blogspot.com/)",
        "name": "Μαρκόπουλο",
        "name:en": "Markopoulo",
        "network": "Εγκαταλελειμμένη γραμμή Λαυρίου - Αγίων Αναργύρων",
        "public_transport": "station",
        "railway": "station",
        "train": "yes",
        "id": "node/9102480584"
      },
      "geometry": {
        "type": "Point",
        "coordinates": [
          23.926896,
          37.8834895
        ]
      }
    },
    {
      "type": "Feature",
      "id": "node/9104546451",
      "properties": {
        "description": "Τμήμα παραχωρημένο στην Α.Μ.Κ.Ε. «Εταιρεία Μουσειακών Σιδηροδρόμων Αττικής» / Part ceded to Civil Non-Profit Company “Attica Museum Railways Company” (https://attica-railway.blogspot.com/)",
        "name": "Καλύβια",
        "name:en": "Kalivia",
        "network": "Εγκαταλελειμμένη γραμμή Λαυρίου - Αγίων Αναργύρων",
        "public_transport": "station",
        "railway": "station",
        "train": "yes",
        "id": "node/9104546451"
      },
      "geometry": {
        "type": "Point",
        "coordinates": [
          23.9293101,
          37.8430686
        ]
      }
    },
    {
      "type": "Feature",
      "id": "node/9106950637",
      "properties": {
        "description": "Τμήμα παραχωρημένο στην Α.Μ.Κ.Ε. «Εταιρεία Μουσειακών Σιδηροδρόμων Αττικής» / Part ceded to Civil Non-Profit Company “Attica Museum Railways Company” (https://attica-railway.blogspot.com/)",
        "name": "Κουβαράς",
        "name:en": "Kouvaras",
        "network": "Εγκαταλελειμμένη γραμμή Λαυρίου - Αγίων Αναργύρων",
        "public_transport": "station",
        "railway": "station",
        "train": "yes",
        "id": "node/9106950637"
      },
      "geometry": {
        "type": "Point",
        "coordinates": [
          23.959857,
          37.8211175
        ]
      }
    },
    {
      "type": "Feature",
      "id": "node/9116064129",
      "properties": {
        "description": "Τμήμα παραχωρημένο στην Α.Μ.Κ.Ε. «Εταιρεία Μουσειακών Σιδηροδρόμων Αττικής» / Part ceded to Civil Non-Profit Company “Attica Museum Railways Company” (https://attica-railway.blogspot.com/)",
        "name": "Κερατέα",
        "name:en": "Keratea",
        "network": "Εγκαταλελειμμένη γραμμή Λαυρίου - Αγίων Αναργύρων",
        "public_transport": "station",
        "railway": "station",
        "train": "yes",
        "id": "node/9116064129"
      },
      "geometry": {
        "type": "Point",
        "coordinates": [
          23.9788444,
          37.8104774
        ]
      }
    },
    {
      "type": "Feature",
      "id": "node/9121621603",
      "properties": {
        "description": "Τμήμα παραχωρημένο στην Α.Μ.Κ.Ε. «Εταιρεία Μουσειακών Σιδηροδρόμων Αττικής» / Part ceded to Civil Non-Profit Company “Attica Museum Railways Company” (https://attica-railway.blogspot.com/)",
        "name": "Δασκαλειό",
        "name:en": "Daskalio",
        "network": "Εγκαταλελειμμένη γραμμή Λαυρίου - Αγίων Αναργύρων",
        "public_transport": "station",
        "railway": "station",
        "train": "yes",
        "id": "node/9121621603"
      },
      "geometry": {
        "type": "Point",
        "coordinates": [
          24.0480023,
          37.8010877
        ]
      }
    },
    {
      "type": "Feature",
      "id": "node/9133731600",
      "properties": {
        "name": "Θορικό",
        "name:en": "Thoriko",
        "network": "Εγκαταλελειμμένη γραμμή Λαυρίου - Αγίων Αναργύρων",
        "public_transport": "station",
        "railway": "station",
        "train": "yes",
        "id": "node/9133731600"
      },
      "geometry": {
        "type": "Point",
        "coordinates": [
          24.0531215,
          37.7310067
        ]
      }
    },
    {
      "type": "Feature",
      "id": "node/9136754921",
      "properties": {
        "name": "Λαύριο",
        "name:en": "Laurion",
        "network": "Εγκαταλελειμμένη γραμμή Λαυρίου - Αγίων Αναργύρων",
        "public_transport": "station",
        "railway": "station",
        "train": "yes",
        "id": "node/9136754921"
      },
      "geometry": {
        "type": "Point",
        "coordinates": [
          24.0570052,
          37.7141739
        ]
      }
    },
    {
      "type": "Feature",
      "id": "node/9144054972",
      "properties": {
        "name": "Ηράκλειο",
        "name:en": "Heraklion",
        "network": "Εγκαταλελειμμένη γραμμή Λαυρίου - Αγίων Αναργύρων",
        "public_transport": "station",
        "railway": "station",
        "train": "yes",
        "id": "node/9144054972"
      },
      "geometry": {
        "type": "Point",
        "coordinates": [
          23.765644,
          38.04661
        ]
      }
    },
    {
      "type": "Feature",
      "id": "node/9387309860",
      "properties": {
        "name": "Μουργκάνι",
        "name:en": "Mourgani",
        "network": "Σισηροσρομική γραμμή Καλαμπάκας - Κοζάνης - Βέροιας",
        "note": "Εγκαταλελειμμένη ημιτελής σιδηροδρομική γραμμή / Abandoned unfinished railway",
        "public_transport": "station",
        "railway": "razed",
        "train": "yes",
        "id": "node/9387309860"
      },
      "geometry": {
        "type": "Point",
        "coordinates": [
          21.5453141,
          39.7388227
        ]
      }
    },
    {
      "type": "Feature",
      "id": "node/9391045525",
      "properties": {
        "name": "Οξύνεια",
        "name:en": "Oxinia",
        "network": "Σισηροσρομική γραμμή Καλαμπάκας - Κοζάνης - Βέροιας",
        "note": "Εγκαταλελειμμένη ημιτελής σιδηροδρομική γραμμή / Abandoned unfinished railway",
        "public_transport": "station",
        "railway": "abandoned",
        "train": "yes",
        "id": "node/9391045525"
      },
      "geometry": {
        "type": "Point",
        "coordinates": [
          21.5093201,
          39.8033673
        ]
      }
    },
    {
      "type": "Feature",
      "id": "node/9393544362",
      "properties": {
        "name": "Ξηροπόταμος",
        "name:en": "Xiropotamos",
        "network": "Σισηροσρομική γραμμή Καλαμπάκας - Κοζάνης - Βέροιας",
        "note": "Εγκαταλελειμμένη ημιτελής σιδηροδρομική γραμμή / Abandoned unfinished railway",
        "public_transport": "station",
        "railway": "razed",
        "train": "yes",
        "id": "node/9393544362"
      },
      "geometry": {
        "type": "Point",
        "coordinates": [
          21.5222335,
          39.84384
        ]
      }
    },
    {
      "type": "Feature",
      "id": "node/9398012363",
      "properties": {
        "name": "Αγιόφυλλο",
        "name:en": "Agiofyllo",
        "network": "Σισηροσρομική γραμμή Καλαμπάκας - Κοζάνης - Βέροιας",
        "public_transport": "station",
        "railway": "razed",
        "train": "yes",
        "id": "node/9398012363"
      },
      "geometry": {
        "type": "Point",
        "coordinates": [
          21.5692079,
          39.8713316
        ]
      }
    },
    {
      "type": "Feature",
      "id": "node/9401295641",
      "properties": {
        "name": "Καρπερό",
        "name:en": "Karpero",
        "network": "Σισηροσρομική γραμμή Καλαμπάκας - Κοζάνης - Βέροιας",
        "note": "Εγκαταλελειμμένη ημιτελής σιδηροδρομική γραμμή / Abandoned unfinished railway",
        "public_transport": "station",
        "railway": "abandoned",
        "train": "yes",
        "id": "node/9401295641"
      },
      "geometry": {
        "type": "Point",
        "coordinates": [
          21.6114383,
          39.946054
        ]
      }
    },
    {
      "type": "Feature",
      "id": "node/9419725480",
      "properties": {
        "name": "Καρβούνης",
        "name:en": "Karvounis",
        "network": "Σισηροσρομική γραμμή Καλαμπάκας - Κοζάνης - Βέροιας",
        "note": "Εγκαταλελειμμένη ημιτελής σιδηροδρομική γραμμή / Abandoned unfinished railway",
        "public_transport": "station",
        "railway": "razed",
        "train": "yes",
        "id": "node/9419725480"
      },
      "geometry": {
        "type": "Point",
        "coordinates": [
          21.6225599,
          39.9749195
        ]
      }
    },
    {
      "type": "Feature",
      "id": "node/9421928758",
      "properties": {
        "name": "Μικρό",
        "name:en": "Mikro",
        "network": "Σισηροσρομική γραμμή Καλαμπάκας - Κοζάνης - Βέροιας",
        "note": "Εγκαταλελειμμένη ημιτελής σιδηροδρομική γραμμή / Abandoned unfinished railway",
        "public_transport": "station",
        "railway": "abandoned",
        "train": "yes",
        "id": "node/9421928758"
      },
      "geometry": {
        "type": "Point",
        "coordinates": [
          21.5901946,
          39.9941836
        ]
      }
    },
    {
      "type": "Feature",
      "id": "node/9443988893",
      "properties": {
        "name": "Πόρος",
        "name:en": "Poros",
        "network": "Σισηροσρομική γραμμή Καλαμπάκας - Κοζάνης - Βέροιας",
        "note": "Εγκαταλελειμμένη ημιτελής σιδηροδρομική γραμμή / Abandoned unfinished railway",
        "public_transport": "station",
        "railway": "razed",
        "train": "yes",
        "id": "node/9443988893"
      },
      "geometry": {
        "type": "Point",
        "coordinates": [
          21.5078077,
          40.1169339
        ]
      }
    },
    {
      "type": "Feature",
      "id": "node/9485546233",
      "properties": {
        "name": "Μικροκλεισούρα",
        "name:en": "Mikroklisoura",
        "network": "Σισηροσρομική γραμμή Καλαμπάκας - Κοζάνης - Βέροιας",
        "note": "Εγκαταλελειμμένη ημιτελής σιδηροδρομική γραμμή / Abandoned unfinished railway",
        "public_transport": "station",
        "railway": "abandoned",
        "train": "yes",
        "id": "node/9485546233"
      },
      "geometry": {
        "type": "Point",
        "coordinates": [
          21.5558831,
          40.1552683
        ]
      }
    }
  ]
}