{
  "type": "FeatureCollection",
  "features": [
    {
      "type": "Feature",
      "id": "node/33123162",
      "properties": {
        "addr:city": "Fonyód",
        "addr:housenumber": "2",
        "addr:postcode": "8640",
        "addr:street": "Ady Endre utca",
        "name": "Fonyód",
        "name:de": "Fonjod",
        "operator": "MÁV",
        "public_transport": "station",
        "railway": "station",
        "ref:mav": "3610",
        "train": "yes",
        "id": "node/33123162"
      },
      "geometry": {
        "type": "Point",
        "coordinates": [
          17.5578146,
          46.7500962
        ]
      }
    },
    {
      "type": "Feature",
      "id": "node/60498455",
      "properties": {
        "name": "Nagylók",
        "operator": "MÁV",
        "public_transport": "station",
        "railway": "station",
        "ref:mav": "251",
        "train": "yes",
        "wikidata": "Q22002142",
        "id": "node/60498455"
      },
      "geometry": {
        "type": "Point",
        "coordinates": [
          18.6356753,
          46.9791152
        ]
      }
    },
    {
      "type": "Feature",
      "id": "node/71481036",
      "properties": {
        "name": "Várpalota",
        "name:de": "Burgschloß",
        "operator": "MÁV",
        "public_transport": "station",
        "railway": "station",
        "railway:name:MÁV": "Várpalota",
        "ref:mav": "1635",
        "train": "yes",
        "uic_ref": "5503871",
        "id": "node/71481036"
      },
      "geometry": {
        "type": "Point",
        "coordinates": [
          18.1488689,
          47.1946346
        ]
      }
    },
    {
      "type": "Feature",
      "id": "node/71481373",
      "properties": {
        "name": "Veszprém",
        "name:de": "Wesprim",
        "name:ru": "Веспрем",
        "name:sr": "Веспрем",
        "old_name:de": "Weißbrunn",
        "operator": "MÁV",
        "public_transport": "station",
        "railway": "station",
        "railway:name:MÁV": "Veszprém",
        "railway:ref": "J",
        "ref:mav": "1638",
        "train": "yes",
        "uic_ref": "5503947",
        "id": "node/71481373"
      },
      "geometry": {
        "type": "Point",
        "coordinates": [
          17.9110155,
          47.1188724
        ]
      }
    },
    {
      "type": "Feature",
      "id": "node/73838428",
      "properties": {
        "name": "Boba",
        "operator": "MÁV",
        "public_transport": "station",
        "railway": "station",
        "railway:name:MÁV": "Boba",
        "ref:mav": "1651",
        "train": "yes",
        "uic_ref": "5504093",
        "id": "node/73838428"
      },
      "geometry": {
        "type": "Point",
        "coordinates": [
          17.1911812,
          47.1829415
        ]
      }
    },
    {
      "type": "Feature",
      "id": "node/80221174",
      "properties": {
        "addr:city": "Balatonfüred",
        "addr:housenumber": "1",
        "addr:postcode": "8230",
        "addr:street": "Castricum tér",
        "name": "Balatonfüred",
        "name:de": "Bad Plattensee",
        "name:fa": "بالاتنفورد",
        "name:hr": "Balatonfured",
        "name:lt": "Balatonfiuredas",
        "name:ru": "Балатонфюред",
        "name:sr": "Балатонфиред",
        "name:zh": "巴拉頓菲賴德",
        "network": "MÁV-START",
        "operator": "MÁV",
        "platforms": "5",
        "public_transport": "station",
        "railway": "station",
        "railway:ref": "BF",
        "ref:mav": "1680",
        "train": "yes",
        "uic_ref": "5504416",
        "website": "https://www.mavcsoport.hu/mav-start/belfoldi-utazas/vasutallomas/balatonfured",
        "wheelchair": "yes",
        "wikidata": "Q22091782",
        "wikipedia": "hu:Balatonfüred vasútállomás",
        "id": "node/80221174"
      },
      "geometry": {
        "type": "Point",
        "coordinates": [
          17.8828755,
          46.9563276
        ]
      }
    },
    {
      "type": "Feature",
      "id": "node/80221206",
      "properties": {
        "name": "Balatonkenese",
        "operator": "MÁV",
        "public_transport": "station",
        "railway": "station",
        "ref:mav": "1673",
        "toilets:wheelchair": "yes",
        "train": "yes",
        "wheelchair": "limited",
        "id": "node/80221206"
      },
      "geometry": {
        "type": "Point",
        "coordinates": [
          18.1060228,
          47.0323802
        ]
      }
    },
    {
      "type": "Feature",
      "id": "node/80231925",
      "properties": {
        "name": "Pétfürdő",
        "operator": "MÁV",
        "public_transport": "station",
        "railway": "station",
        "railway:name:MÁV": "Pétfürdő",
        "ref:mav": "1636",
        "train": "yes",
        "uic_ref": "5503921",
        "id": "node/80231925"
      },
      "geometry": {
        "type": "Point",
        "coordinates": [
          18.1222266,
          47.1671614
        ]
      }
    },
    {
      "type": "Feature",
      "id": "node/91711461",
      "properties": {
        "name": "Hegyeshalom",
        "name:de": "Straß-Sommerein",
        "name:hr": "Štruos",
        "operator": "MÁV",
        "public_transport": "station",
        "railway": "station",
        "railway:name:VPE": "Hegyeshalom",
        "railway:position": "187.8",
        "railway:position:exact": "187.845",
        "railway:ref": "HH",
        "railway:ref:ÖBB": "He",
        "ref:mav": "3667",
        "train": "yes",
        "uic_name": "Hegyeshalom",
        "uic_ref": "5501362",
        "id": "node/91711461"
      },
      "geometry": {
        "type": "Point",
        "coordinates": [
          17.1461667,
          47.9136219
        ]
      }
    },
    {
      "type": "Feature",
      "id": "node/91711594",
      "properties": {
        "name": "Kimle-Károlyháza",
        "operator": "MÁV",
        "public_transport": "station",
        "railway": "station",
        "railway:name:VPE": "Kimle-Károlyháza",
        "ref:mav": "3664",
        "train": "yes",
        "uic_ref": "5501339",
        "id": "node/91711594"
      },
      "geometry": {
        "type": "Point",
        "coordinates": [
          17.342088,
          47.8042972
        ]
      }
    },
    {
      "type": "Feature",
      "id": "node/92752136",
      "properties": {
        "name": "Keszthely",
        "name:de": "Kesthell",
        "operator": "MÁV",
        "public_transport": "station",
        "railway": "station",
        "ref:mav": "2493",
        "train": "yes",
        "id": "node/92752136"
      },
      "geometry": {
        "type": "Point",
        "coordinates": [
          17.2474489,
          46.7578511
        ]
      }
    },
    {
      "type": "Feature",
      "id": "node/92829746",
      "properties": {
        "name": "Sásd",
        "name:de": "Schaschd",
        "name:hr": "Šaš",
        "old_name:de": "Ried",
        "operator": "MÁV",
        "public_transport": "station",
        "railway": "station",
        "ref:mav": "4944",
        "train": "yes",
        "id": "node/92829746"
      },
      "geometry": {
        "type": "Point",
        "coordinates": [
          18.1044834,
          46.2572582
        ]
      }
    },
    {
      "type": "Feature",
      "id": "node/93800925",
      "properties": {
        "name": "Csorna",
        "public_transport": "station",
        "railway": "stop",
        "train": "yes",
        "id": "node/93800925"
      },
      "geometry": {
        "type": "Point",
        "coordinates": [
          17.2489794,
          47.6018602
        ]
      }
    },
    {
      "type": "Feature",
      "id": "node/94290630",
      "properties": {
        "addr:city": "Nagykanizsa",
        "addr:housenumber": "67",
        "addr:postcode": "8800",
        "addr:street": "Ady Endre utca",
        "name": "Nagykanizsa",
        "operator": "MÁV",
        "public_transport": "station",
        "railway": "station",
        "railway:name:MÁV": "Nagykanizsa",
        "ref:mav": "3622",
        "train": "yes",
        "uic_ref": "5503624",
        "website": "http://www.vasutallomasok.hu/allomas.php?az=ngkn",
        "id": "node/94290630"
      },
      "geometry": {
        "type": "Point",
        "coordinates": [
          16.987217,
          46.4406865
        ]
      }
    },
    {
      "type": "Feature",
      "id": "node/94290634",
      "properties": {
        "name": "Újudvar",
        "operator": "MÁV",
        "public_transport": "station",
        "railway": "station",
        "railway:name:MÁV": "Újudvar",
        "ref:mav": "213",
        "train": "yes",
        "uic_ref": "5505488",
        "id": "node/94290634"
      },
      "geometry": {
        "type": "Point",
        "coordinates": [
          16.9799562,
          46.5193303
        ]
      }
    },
    {
      "type": "Feature",
      "id": "node/94528727",
      "properties": {
        "alt_name:de": "Ruppertsberg;Ruppertsburg",
        "name": "Kaposvár",
        "name:de": "Kopisch",
        "name:ru": "Капошвар",
        "name:sr": "Капошвар",
        "operator": "MÁV",
        "public_transport": "station",
        "railway": "station",
        "railway:ref": "KA",
        "ref:mav": "3821",
        "train": "yes",
        "wikidata": "Q12814852",
        "id": "node/94528727"
      },
      "geometry": {
        "type": "Point",
        "coordinates": [
          17.7948725,
          46.3526409
        ]
      }
    },
    {
      "type": "Feature",
      "id": "node/243750414",
      "properties": {
        "addr:city": "Hatvan",
        "addr:housenumber": "2",
        "addr:postcode": "3000",
        "addr:street": "Boldogi út",
        "name": "Hatvan",
        "name:de": "Hottwan",
        "operator": "MÁV",
        "public_transport": "station",
        "railway": "station",
        "railway:ref": "HN",
        "ref:mav": "928",
        "train": "yes",
        "uic_ref": "5511205",
        "website": "https://www.mavcsoport.hu/mav-start/belfoldi-utazas/vasutallomas/hatvan",
        "wikidata": "Q5191800",
        "wikipedia": "hu:Hatvan vasútállomás",
        "id": "node/243750414"
      },
      "geometry": {
        "type": "Point",
        "coordinates": [
          19.6712326,
          47.6631262
        ]
      }
    },
    {
      "type": "Feature",
      "id": "node/245485226",
      "properties": {
        "addr:city": "Veresegyház",
        "addr:housenumber": "2",
        "addr:postcode": "2112",
        "addr:street": "Állomás utca",
        "name": "Veresegyház",
        "network": "MÁV-START",
        "operator": "MÁV",
        "public_transport": "station",
        "railway": "station",
        "railway:ref": "VE",
        "ref:mav": "306",
        "train": "yes",
        "uic_ref": "5510561",
        "website": "https://www.mavcsoport.hu/mav-start/belfoldi-utazas/vasutallomas/veresegyhaz",
        "wheelchair": "no",
        "wikidata": "Q21869585",
        "wikipedia": "hu:Veresegyház vasútállomás",
        "id": "node/245485226"
      },
      "geometry": {
        "type": "Point",
        "coordinates": [
          19.2888104,
          47.6490822
        ]
      }
    },
    {
      "type": "Feature",
      "id": "node/268202972",
      "properties": {
        "name": "Püspökladány",
        "name:ru": "Пюшпёкладань",
        "operator": "MÁV",
        "public_transport": "station",
        "railway": "station",
        "ref:mav": "1697",
        "train": "yes",
        "uic_ref": "5500055",
        "id": "node/268202972"
      },
      "geometry": {
        "type": "Point",
        "coordinates": [
          21.1285016,
          47.3279072
        ]
      }
    },
    {
      "type": "Feature",
      "id": "node/268213797",
      "properties": {
        "addr:city": "Miskolc",
        "addr:housenumber": "1-3",
        "addr:postcode": "3527",
        "addr:street": "Kandó Kálmán tér",
        "name": "Miskolc-Tiszai",
        "network": "MÁV-START",
        "operator": "MÁV",
        "public_transport": "station",
        "railway": "station",
        "railway:ref": "MS",
        "ref:mav": "945",
        "train": "yes",
        "uic_ref": "5511387",
        "website": "https://www.mavcsoport.hu/mav-start/belfoldi-utazas/vasutallomas/miskolc-tiszai",
        "wheelchair": "limited",
        "wikidata": "Q854118",
        "wikipedia": "hu:Tiszai pályaudvar",
        "id": "node/268213797"
      },
      "geometry": {
        "type": "Point",
        "coordinates": [
          20.8109398,
          48.0987059
        ]
      }
    },
    {
      "type": "Feature",
      "id": "node/268598665",
      "properties": {
        "addr:city": "Bátonyterenye",
        "addr:postcode": "3070",
        "addr:street": "Orgona út",
        "name": "Nagybátony",
        "network": "MÁV-START",
        "operator": "MÁV",
        "public_transport": "station",
        "railway": "station",
        "railway:ref": "BA",
        "ref:mav": "982",
        "train": "yes",
        "uic_ref": "5511841",
        "website": "https://www.mavcsoport.hu/mav-start/belfoldi-utazas/vasutallomas/nagybatony",
        "wheelchair": "no",
        "wikidata": "Q22071286",
        "wikipedia": "hu:Nagybátony vasútállomás",
        "id": "node/268598665"
      },
      "geometry": {
        "type": "Point",
        "coordinates": [
          19.8194559,
          47.979832
        ]
      }
    },
    {
      "type": "Feature",
      "id": "node/269706716",
      "properties": {
        "name": "Dunaújváros",
        "name:de": "Neustadt an der Donau",
        "old_name": "Dunapentele; Sztálinváros",
        "operator": "MÁV",
        "public_transport": "station",
        "railway": "station",
        "ref:mav": "3841",
        "train": "yes",
        "id": "node/269706716"
      },
      "geometry": {
        "type": "Point",
        "coordinates": [
          18.9143329,
          46.9606625
        ]
      }
    },
    {
      "type": "Feature",
      "id": "node/275275246",
      "properties": {
        "name": "Zalaegerszeg",
        "operator": "MÁV",
        "public_transport": "station",
        "railway": "station",
        "railway:ref": "ZE",
        "ref:mav": "2507",
        "train": "yes",
        "id": "node/275275246"
      },
      "geometry": {
        "type": "Point",
        "coordinates": [
          16.8483156,
          46.8332444
        ]
      }
    },
    {
      "type": "Feature",
      "id": "node/287638744",
      "properties": {
        "name": "Szokolya",
        "network": "MÁV-Start",
        "operator": "MÁV",
        "public_transport": "station",
        "railway": "station",
        "railway:ref": "SK",
        "ref:mav": "311",
        "train": "yes",
        "uic_ref": "5510611",
        "website": "https://www.mavcsoport.hu/mav-start/belfoldi-utazas/vasutallomas/szokolya",
        "wheelchair": "no",
        "wikidata": "Q22023363",
        "wikipedia": "hu:Szokolya vasútállomás",
        "id": "node/287638744"
      },
      "geometry": {
        "type": "Point",
        "coordinates": [
          19.0306788,
          47.8710406
        ]
      }
    },
    {
      "type": "Feature",
      "id": "node/289404886",
      "properties": {
        "addr:city": "Fülöpszállás",
        "addr:housenumber": "26",
        "addr:postcode": "6085",
        "addr:street": "Bajcsy-Zsilinszky Endre utca",
        "name": "Fülöpszállás",
        "network": "MÁV-START",
        "operator": "MÁV",
        "public_transport": "station",
        "railway": "station",
        "railway:ref": "FU",
        "ref:mav": "463",
        "train": "yes",
        "uic_ref": "5516238",
        "website": "https://www.mavcsoport.hu/mav-start/belfoldi-utazas/vasutallomas/fulopszallas",
        "wikidata": "Q22031502",
        "wikipedia": "hu:Fülöpszállás vasútállomás",
        "id": "node/289404886"
      },
      "geometry": {
        "type": "Point",
        "coordinates": [
          19.2469621,
          46.8209958
        ]
      }
    },
    {
      "type": "Feature",
      "id": "node/292816809",
      "properties": {
        "addr:city": "Röszke",
        "addr:postcode": "6758",
        "name": "Röszke",
        "operator": "MÁV",
        "public_transport": "station",
        "railway": "station",
        "railway:ref": "R",
        "train": "yes",
        "uic_ref": "5517673",
        "website": "https://www.mavcsoport.hu/mav-start/belfoldi-utazas/vasutallomas/roszke",
        "wikidata": "Q22056332",
        "wikipedia": "hu:Röszke vasútállomás",
        "id": "node/292816809"
      },
      "geometry": {
        "type": "Point",
        "coordinates": [
          20.0328966,
          46.194012
        ]
      }
    },
    {
      "type": "Feature",
      "id": "node/295489366",
      "properties": {
        "addr:city": "Kiskunhalas",
        "addr:housenumber": "49",
        "addr:postcode": "6400",
        "addr:street": "Kossuth utca",
        "name": "Kiskunhalas",
        "name:de": "Hallasch",
        "name:hr": "Olaš",
        "network": "MÁV-START",
        "operator": "MÁV",
        "public_transport": "station",
        "railway": "station",
        "railway:ref": "HL",
        "ref:mav": "471",
        "train": "yes",
        "uic_ref": "5516311",
        "website": "https://www.mavcsoport.hu/mav-start/belfoldi-utazas/vasutallomas/kiskunhalas",
        "wikidata": "Q21877053",
        "wikipedia": "hu:Kiskunhalas vasútállomás",
        "id": "node/295489366"
      },
      "geometry": {
        "type": "Point",
        "coordinates": [
          19.4940388,
          46.4335494
        ]
      }
    },
    {
      "type": "Feature",
      "id": "node/309591993",
      "properties": {
        "name": "Simontornya",
        "operator": "MÁV",
        "public_transport": "station",
        "railway": "station",
        "railway:ref": "SN",
        "ref:mav": "1748",
        "train": "yes",
        "id": "node/309591993"
      },
      "geometry": {
        "type": "Point",
        "coordinates": [
          18.5407311,
          46.7565642
        ]
      }
    },
    {
      "type": "Feature",
      "id": "node/321885953",
      "properties": {
        "name": "Tarjánpuszta",
        "operator": "MÁV",
        "public_transport": "station",
        "railway": "station",
        "railway:name:MÁV": "Tarjánpuszta",
        "ref:mav": "812",
        "train": "yes",
        "uic_ref": "5502949",
        "id": "node/321885953"
      },
      "geometry": {
        "type": "Point",
        "coordinates": [
          17.7888751,
          47.5045271
        ]
      }
    },
    {
      "type": "Feature",
      "id": "node/321886026",
      "properties": {
        "name": "Pannonhalma",
        "operator": "MÁV",
        "public_transport": "station",
        "railway": "station",
        "railway:name:MÁV": "Pannonhalma",
        "ref:mav": "811",
        "train": "yes",
        "uic_ref": "5502931",
        "id": "node/321886026"
      },
      "geometry": {
        "type": "Point",
        "coordinates": [
          17.7405893,
          47.5475047
        ]
      }
    },
    {
      "type": "Feature",
      "id": "node/321886673",
      "properties": {
        "name": "Bakonyszentlászló",
        "operator": "MÁV",
        "public_transport": "station",
        "railway": "station",
        "railway:name:MÁV": "Bakonyszentlászló",
        "ref:mav": "815",
        "train": "yes",
        "uic_ref": "5502972",
        "id": "node/321886673"
      },
      "geometry": {
        "type": "Point",
        "coordinates": [
          17.8177933,
          47.3959898
        ]
      }
    },
    {
      "type": "Feature",
      "id": "node/337738743",
      "properties": {
        "internet_access": "no",
        "name": "Szentes",
        "network": "MÁV",
        "operator": "MÁV",
        "public_transport": "station",
        "railway": "station",
        "ref:mav": "7230",
        "train": "yes",
        "id": "node/337738743"
      },
      "geometry": {
        "type": "Point",
        "coordinates": [
          20.2725832,
          46.6576302
        ]
      }
    },
    {
      "type": "Feature",
      "id": "node/344928639",
      "properties": {
        "name": "Medgyesegyháza",
        "public_transport": "station",
        "railway": "station",
        "ref:mav": "3922",
        "train": "yes",
        "id": "node/344928639"
      },
      "geometry": {
        "type": "Point",
        "coordinates": [
          21.030361,
          46.4958854
        ]
      }
    },
    {
      "type": "Feature",
      "id": "node/344999320",
      "properties": {
        "addr:city": "Somoskőújfalu",
        "addr:housenumber": "60",
        "addr:postcode": "3121",
        "addr:street": "Somosi út",
        "name": "Somoskőújfalu",
        "network": "MÁV-START",
        "operator": "MÁV",
        "public_transport": "station",
        "railway": "station",
        "railway:ref": "SO",
        "ref:mav": "1765",
        "train": "yes",
        "uic_ref": "5511924",
        "website": "https://www.mavcsoport.hu/mav-start/belfoldi-utazas/vasutallomas/somoskoujfalu",
        "wheelchair": "no",
        "wikidata": "Q22071275",
        "wikipedia": "hu:Somoskőújfalu vasútállomás",
        "id": "node/344999320"
      },
      "geometry": {
        "type": "Point",
        "coordinates": [
          19.8157076,
          48.1551893
        ]
      }
    },
    {
      "type": "Feature",
      "id": "node/355209315",
      "properties": {
        "name": "Vásárosdombó",
        "public_transport": "station",
        "railway": "station",
        "ref:mav": "4731",
        "train": "yes",
        "id": "node/355209315"
      },
      "geometry": {
        "type": "Point",
        "coordinates": [
          18.138684,
          46.3102244
        ]
      }
    },
    {
      "type": "Feature",
      "id": "node/370613835",
      "properties": {
        "name": "Szendrő",
        "operator": "MÁV",
        "public_transport": "station",
        "railway": "station",
        "ref:mav": "854",
        "train": "yes",
        "id": "node/370613835"
      },
      "geometry": {
        "type": "Point",
        "coordinates": [
          20.7213315,
          48.4008152
        ]
      }
    },
    {
      "type": "Feature",
      "id": "node/408870015",
      "properties": {
        "name": "Baja",
        "name:de": "Frankenstadt",
        "operator": "MÁV",
        "public_transport": "station",
        "railway": "station",
        "ref:mav": "1136",
        "train": "yes",
        "id": "node/408870015"
      },
      "geometry": {
        "type": "Point",
        "coordinates": [
          18.9574444,
          46.1870051
        ]
      }
    },
    {
      "type": "Feature",
      "id": "node/411322676",
      "properties": {
        "name": "Pincehely",
        "name:ru": "Пинцехей",
        "operator": "MÁV",
        "public_transport": "station",
        "railway": "station",
        "ref:mav": "1750",
        "train": "yes",
        "id": "node/411322676"
      },
      "geometry": {
        "type": "Point",
        "coordinates": [
          18.4300492,
          46.6812687
        ]
      }
    },
    {
      "type": "Feature",
      "id": "node/411751991",
      "properties": {
        "addr:city": "Kiskőrös",
        "addr:postcode": "6200",
        "name": "Kiskőrös",
        "name:de": "Körösch",
        "name:hr": "Kireš",
        "name:sk": "Malý Kereš",
        "network": "MÁV-START",
        "operator": "MÁV",
        "public_transport": "station",
        "railway": "station",
        "railway:ref": "KB",
        "ref:mav": "466",
        "train": "yes",
        "uic_ref": "5516261",
        "website": "https://www.mavcsoport.hu/mav-start/belfoldi-utazas/vasutallomas/kiskoros",
        "wikidata": "Q22031528",
        "wikipedia": "hu:Kiskőrös vasútállomás",
        "id": "node/411751991"
      },
      "geometry": {
        "type": "Point",
        "coordinates": [
          19.2974708,
          46.6261483
        ]
      }
    },
    {
      "type": "Feature",
      "id": "node/411752399",
      "properties": {
        "name": "Kalocsa",
        "name:de": "Kollotschau",
        "name:hr": "Kaloča",
        "name:sr": "Калоча",
        "name:sr-Latn": "Kaloča",
        "note": "Out of public use.",
        "operator": "MÁV",
        "public_transport": "station",
        "railway": "station",
        "railway:name:MÁV": "Kalocsa",
        "train": "yes",
        "uic_ref": "5516568",
        "id": "node/411752399"
      },
      "geometry": {
        "type": "Point",
        "coordinates": [
          18.9947391,
          46.5348238
        ]
      }
    },
    {
      "type": "Feature",
      "id": "node/412453433",
      "properties": {
        "addr:city": "Lengyeltóti",
        "addr:housenumber": "138",
        "addr:postcode": "8693",
        "addr:street": "Bajcsy-Zsilinszky utca",
        "name": "Lengyeltóti",
        "old_name": "Lengyeltóti (Buzsák)",
        "operator": "MÁV",
        "public_transport": "station",
        "railway": "station",
        "ref:mav": "6084",
        "train": "yes",
        "id": "node/412453433"
      },
      "geometry": {
        "type": "Point",
        "coordinates": [
          17.6132993,
          46.6606777
        ]
      }
    },
    {
      "type": "Feature",
      "id": "node/412453655",
      "properties": {
        "name": "Öreglak",
        "operator": "MÁV",
        "public_transport": "station",
        "railway": "station",
        "ref:mav": "6082",
        "train": "yes",
        "id": "node/412453655"
      },
      "geometry": {
        "type": "Point",
        "coordinates": [
          17.6325572,
          46.6088798
        ]
      }
    },
    {
      "type": "Feature",
      "id": "node/412453954",
      "properties": {
        "name": "Somogyvár",
        "operator": "MÁV",
        "public_transport": "station",
        "railway": "station",
        "ref:mav": "6081",
        "train": "yes",
        "id": "node/412453954"
      },
      "geometry": {
        "type": "Point",
        "coordinates": [
          17.6347518,
          46.5805088
        ]
      }
    },
    {
      "type": "Feature",
      "id": "node/412453997",
      "properties": {
        "name": "Osztopán",
        "operator": "MÁV",
        "public_transport": "station",
        "railway": "station",
        "ref:mav": "6079",
        "train": "yes",
        "id": "node/412453997"
      },
      "geometry": {
        "type": "Point",
        "coordinates": [
          17.6570512,
          46.5144855
        ]
      }
    },
    {
      "type": "Feature",
      "id": "node/412454417",
      "properties": {
        "name": "Somogyjád",
        "operator": "MÁV",
        "public_transport": "station",
        "railway": "station",
        "ref:mav": "6078",
        "train": "yes",
        "id": "node/412454417"
      },
      "geometry": {
        "type": "Point",
        "coordinates": [
          17.6944844,
          46.4916095
        ]
      }
    },
    {
      "type": "Feature",
      "id": "node/412454445",
      "properties": {
        "name": "Kaposfüred",
        "operator": "MÁV",
        "public_transport": "station",
        "railway": "station",
        "ref:mav": "6076",
        "train": "yes",
        "wikidata": "Q22132184",
        "id": "node/412454445"
      },
      "geometry": {
        "type": "Point",
        "coordinates": [
          17.7591273,
          46.4145855
        ]
      }
    },
    {
      "type": "Feature",
      "id": "node/415485997",
      "properties": {
        "name": "Tiszafüred",
        "operator": "MÁV",
        "public_transport": "station",
        "railway": "station",
        "railway:ref": "T",
        "ref:mav": "2756",
        "train": "yes",
        "wheelchair": "no",
        "id": "node/415485997"
      },
      "geometry": {
        "type": "Point",
        "coordinates": [
          20.7559833,
          47.6278719
        ]
      }
    },
    {
      "type": "Feature",
      "id": "node/445818141",
      "properties": {
        "name": "Győrszabadhegy",
        "operator": "MÁV",
        "public_transport": "station",
        "railway": "station",
        "ref:mav": "2868",
        "train": "yes",
        "id": "node/445818141"
      },
      "geometry": {
        "type": "Point",
        "coordinates": [
          17.6479427,
          47.6631766
        ]
      }
    },
    {
      "type": "Feature",
      "id": "node/445818143",
      "properties": {
        "name": "Zirc",
        "operator": "MÁV",
        "public_transport": "station",
        "railway": "station",
        "railway:name:MÁV": "Zirc",
        "ref:mav": "817",
        "train": "yes",
        "uic_ref": "5502998",
        "id": "node/445818143"
      },
      "geometry": {
        "type": "Point",
        "coordinates": [
          17.8780849,
          47.2667256
        ]
      }
    },
    {
      "type": "Feature",
      "id": "node/457353120",
      "properties": {
        "addr:city": "Drégelypalánk",
        "addr:postcode": "2646",
        "internet_access": "no",
        "name": "Drégelypalánk",
        "network": "MÁV-Start",
        "operator": "MÁV",
        "public_transport": "station",
        "railway": "station",
        "railway:ref": "PAL",
        "ref:mav": "319",
        "train": "yes",
        "uic_ref": "5510694",
        "website": "https://www.mavcsoport.hu/mav-start/belfoldi-utazas/vasutallomas/dregelypalank",
        "wheelchair": "no",
        "wikidata": "Q22023390",
        "wikipedia": "hu:Drégelypalánk vasútállomás",
        "id": "node/457353120"
      },
      "geometry": {
        "type": "Point",
        "coordinates": [
          19.0472416,
          48.0547614
        ]
      }
    },
    {
      "type": "Feature",
      "id": "node/477828393",
      "properties": {
        "addr:city": "Balatonfenyves",
        "addr:housenumber": "9",
        "addr:postcode": "8646",
        "addr:street": "Kölcsey Ferenc utca",
        "alt_name": "Balatonfenyves",
        "name": "Balatonfenyves GV",
        "operator": "MÁV",
        "public_transport": "station",
        "railway": "station",
        "ref:mav": "988",
        "train": "yes",
        "id": "node/477828393"
      },
      "geometry": {
        "type": "Point",
        "coordinates": [
          17.4793088,
          46.7124572
        ]
      }
    },
    {
      "type": "Feature",
      "id": "node/497138625",
      "properties": {
        "name": "Csenger",
        "operator": "MÁV",
        "public_transport": "station",
        "railway": "station",
        "ref:mav": "2614",
        "train": "yes",
        "id": "node/497138625"
      },
      "geometry": {
        "type": "Point",
        "coordinates": [
          22.6662092,
          47.8261582
        ]
      }
    },
    {
      "type": "Feature",
      "id": "node/499510894",
      "properties": {
        "name": "Kazincbarcika",
        "operator": "MÁV",
        "public_transport": "station",
        "railway": "station",
        "ref:mav": "1829",
        "train": "yes",
        "id": "node/499510894"
      },
      "geometry": {
        "type": "Point",
        "coordinates": [
          20.6285505,
          48.2642774
        ]
      }
    },
    {
      "type": "Feature",
      "id": "node/499510998",
      "properties": {
        "addr:city": "Mád",
        "addr:postcode": "3909",
        "internet_access": "no",
        "name": "Mád",
        "network": "MÁV-START",
        "operator": "MÁV",
        "public_transport": "station",
        "railway": "station",
        "railway:ref": "D",
        "ref:mav": "881",
        "train": "yes",
        "uic_ref": "5513268",
        "website": "https://www.mavcsoport.hu/mav-start/belfoldi-utazas/vasutallomas/mad",
        "wikidata": "Q22075330",
        "wikipedia": "hu:Mád vasútállomás",
        "id": "node/499510998"
      },
      "geometry": {
        "type": "Point",
        "coordinates": [
          21.2686378,
          48.1899122
        ]
      }
    },
    {
      "type": "Feature",
      "id": "node/501797815",
      "properties": {
        "addr:city": "Sarkad",
        "addr:housenumber": "1",
        "addr:postcode": "5720",
        "addr:street": "MÁV állomás",
        "internet_access": "no",
        "name": "Sarkad",
        "name:de": "Scharkad",
        "name:ro": "Șărcad",
        "network": "128-as Vasútvonal",
        "operator": "MÁV",
        "public_transport": "station",
        "railway": "station",
        "ref:mav": "3901",
        "train": "yes",
        "id": "node/501797815"
      },
      "geometry": {
        "type": "Point",
        "coordinates": [
          21.4023624,
          46.7366606
        ]
      }
    },
    {
      "type": "Feature",
      "id": "node/501797876",
      "properties": {
        "name": "Vésztő",
        "operator": "MÁV",
        "public_transport": "station",
        "railway": "station",
        "railway:name:MÁV": "Vésztő",
        "ref:mav": "7251",
        "source": "guess",
        "train": "yes",
        "uic_ref": "5518465",
        "id": "node/501797876"
      },
      "geometry": {
        "type": "Point",
        "coordinates": [
          21.2632453,
          46.9389281
        ]
      }
    },
    {
      "type": "Feature",
      "id": "node/501798016",
      "properties": {
        "name": "Körösszakál",
        "operator": "MÁV",
        "public_transport": "station",
        "railway": "station",
        "railway:name:MÁV": "Körösszakál",
        "train": "yes",
        "uic_ref": "5518515",
        "id": "node/501798016"
      },
      "geometry": {
        "type": "Point",
        "coordinates": [
          21.6062864,
          47.008135
        ]
      }
    },
    {
      "type": "Feature",
      "id": "node/506539951",
      "properties": {
        "addr:city": "Dejtár",
        "addr:postcode": "2649",
        "addr:street": "Vasút utca",
        "internet_access": "no",
        "name": "Dejtár",
        "name:ru": "Дейтар",
        "network": "MÁV-Start",
        "operator": "MÁV",
        "public_transport": "station",
        "railway": "station",
        "railway:ref": "X",
        "ref:mav": "321",
        "train": "yes",
        "uic_ref": "5510710",
        "website": "https://www.mavcsoport.hu/mav-start/belfoldi-utazas/vasutallomas/dejtar",
        "wheelchair": "no",
        "wikidata": "Q22023391",
        "wikipedia": "hu:Dejtár vasútállomás",
        "id": "node/506539951"
      },
      "geometry": {
        "type": "Point",
        "coordinates": [
          19.1967038,
          48.0456131
        ]
      }
    },
    {
      "type": "Feature",
      "id": "node/551213844",
      "properties": {
        "name": "Keszőhidegkút-Gyönk",
        "operator": "MÁV",
        "public_transport": "station",
        "railway": "station",
        "ref:mav": "1751",
        "train": "yes",
        "id": "node/551213844"
      },
      "geometry": {
        "type": "Point",
        "coordinates": [
          18.4263014,
          46.5973877
        ]
      }
    },
    {
      "type": "Feature",
      "id": "node/576266210",
      "properties": {
        "addr:city": "Nógrádszakál",
        "addr:postcode": "3187",
        "air_conditioning": "no",
        "internet_access": "no",
        "name": "Nógrádszakál",
        "operator": "MÁV",
        "public_transport": "station",
        "railway": "station",
        "railway:ref": "NS",
        "ref:mav": "345",
        "train": "yes",
        "uic_ref": "5511023",
        "wheelchair": "no",
        "wikidata": "Q22025115",
        "wikipedia": "hu:Nógrádszakál vasútállomás",
        "id": "node/576266210"
      },
      "geometry": {
        "type": "Point",
        "coordinates": [
          19.5217842,
          48.1779177
        ]
      }
    },
    {
      "type": "Feature",
      "id": "node/576266406",
      "properties": {
        "addr:city": "Ipolytarnóc",
        "addr:postcode": "3138",
        "internet_access": "no",
        "name": "Ipolytarnóc",
        "network": "MÁV-START",
        "operator": "MÁV",
        "public_transport": "station",
        "railway": "station",
        "railway:ref": "IC",
        "ref:mav": "772",
        "train": "yes",
        "uic_ref": "5511056",
        "website": "https://www.mavcsoport.hu/mav-start/belfoldi-utazas/vasutallomas/ipolytarnoc",
        "wheelchair": "no",
        "wikidata": "Q22025306",
        "wikipedia": "hu:Ipolytarnóc vasútállomás",
        "id": "node/576266406"
      },
      "geometry": {
        "type": "Point",
        "coordinates": [
          19.6291661,
          48.2366662
        ]
      }
    },
    {
      "type": "Feature",
      "id": "node/619127249",
      "properties": {
        "name": "Döbrököz",
        "operator": "MÁV",
        "public_transport": "station",
        "railway": "station",
        "ref:mav": "1758",
        "train": "yes",
        "id": "node/619127249"
      },
      "geometry": {
        "type": "Point",
        "coordinates": [
          18.2527873,
          46.4158798
        ]
      }
    },
    {
      "type": "Feature",
      "id": "node/619127253",
      "properties": {
        "name": "Kurd",
        "operator": "MÁV",
        "public_transport": "station",
        "railway": "station",
        "ref:mav": "1757",
        "train": "yes",
        "id": "node/619127253"
      },
      "geometry": {
        "type": "Point",
        "coordinates": [
          18.3188205,
          46.4497138
        ]
      }
    },
    {
      "type": "Feature",
      "id": "node/619127259",
      "properties": {
        "name": "Szakály-Hőgyész",
        "operator": "MÁV",
        "public_transport": "station",
        "railway": "station",
        "railway:ref": "HO",
        "ref:mav": "1754",
        "train": "yes",
        "id": "node/619127259"
      },
      "geometry": {
        "type": "Point",
        "coordinates": [
          18.3891931,
          46.5238718
        ]
      }
    },
    {
      "type": "Feature",
      "id": "node/619127268",
      "properties": {
        "name": "Tolnanémedi",
        "operator": "MÁV",
        "public_transport": "station",
        "railway": "station",
        "ref:mav": "1749",
        "train": "yes",
        "id": "node/619127268"
      },
      "geometry": {
        "type": "Point",
        "coordinates": [
          18.4759858,
          46.7278674
        ]
      }
    },
    {
      "type": "Feature",
      "id": "node/619723825",
      "properties": {
        "name": "Moha-Rakodó",
        "operator": "MÁV",
        "public_transport": "station",
        "railway": "station",
        "railway:name:MÁV": "Moha-Rakodó",
        "train": "yes",
        "uic_ref": "5503681",
        "id": "node/619723825"
      },
      "geometry": {
        "type": "Point",
        "coordinates": [
          18.3063285,
          47.2741113
        ]
      }
    },
    {
      "type": "Feature",
      "id": "node/619723827",
      "properties": {
        "name": "Moha",
        "operator": "MÁV",
        "public_transport": "station",
        "railway": "station",
        "railway:name:MÁV": "Moha",
        "train": "yes",
        "uic_ref": "5503673",
        "id": "node/619723827"
      },
      "geometry": {
        "type": "Point",
        "coordinates": [
          18.339622,
          47.2470985
        ]
      }
    },
    {
      "type": "Feature",
      "id": "node/628589426",
      "properties": {
        "bus": "yes",
        "name": "Biharkeresztes",
        "network": "101 line",
        "operator": "MÁV",
        "public_transport": "station",
        "railway": "station",
        "ref:mav": "1743",
        "train": "yes",
        "id": "node/628589426"
      },
      "geometry": {
        "type": "Point",
        "coordinates": [
          21.7221641,
          47.1355499
        ]
      }
    },
    {
      "type": "Feature",
      "id": "node/673213132",
      "properties": {
        "addr:city": "Pirtó",
        "addr:housenumber": "106",
        "addr:postcode": "6414",
        "addr:street": "Csősztelek dűlő",
        "name": "Pirtó",
        "network": "MÁV-START",
        "operator": "MÁV",
        "public_transport": "station",
        "railway": "station",
        "railway:ref": "P",
        "ref:mav": "470",
        "train": "yes",
        "uic_ref": "5516303",
        "website": "https://www.mavcsoport.hu/mav-start/belfoldi-utazas/vasutallomas/pirto",
        "wikidata": "Q22031547",
        "wikipedia": "hu:Pirtó vasútállomás",
        "id": "node/673213132"
      },
      "geometry": {
        "type": "Point",
        "coordinates": [
          19.4500896,
          46.4989053
        ]
      }
    },
    {
      "type": "Feature",
      "id": "node/842695866",
      "properties": {
        "name": "Mindszent",
        "operator": "MÁV",
        "public_transport": "station",
        "railway": "station",
        "ref:mav": "7232",
        "train": "yes",
        "wikidata": "Q22043856",
        "wikipedia": "hu:Mindszent vasútállomás",
        "id": "node/842695866"
      },
      "geometry": {
        "type": "Point",
        "coordinates": [
          20.1940385,
          46.5242178
        ]
      }
    },
    {
      "type": "Feature",
      "id": "node/918475941",
      "properties": {
        "name": "Verőce",
        "name:sk": "Verovce",
        "public_transport": "station",
        "railway": "station",
        "ref:mav": "296",
        "train": "yes",
        "wikidata": "Q21866915",
        "wikipedia": "hu:Verőce vasútállomás",
        "id": "node/918475941"
      },
      "geometry": {
        "type": "Point",
        "coordinates": [
          19.0311394,
          47.8238695
        ]
      }
    },
    {
      "type": "Feature",
      "id": "node/1037090348",
      "properties": {
        "name": "Martfű",
        "public_transport": "station",
        "railway": "station",
        "ref:mav": "7222",
        "train": "yes",
        "id": "node/1037090348"
      },
      "geometry": {
        "type": "Point",
        "coordinates": [
          20.2918946,
          47.020587
        ]
      }
    },
    {
      "type": "Feature",
      "id": "node/1061100151",
      "properties": {
        "addr:city": "Szabadszállás",
        "addr:housenumber": "21",
        "addr:place": "II. kerület",
        "addr:postcode": "6080",
        "name": "Szabadszállás",
        "network": "MÁV-START",
        "operator": "MÁV",
        "public_transport": "station",
        "railway": "station",
        "railway:ref": "SZ",
        "ref:mav": "462",
        "train": "yes",
        "uic_ref": "5516220",
        "website": "https://www.mavcsoport.hu/mav-start/belfoldi-utazas/vasutallomas/szabadszallas",
        "wikidata": "Q22031393",
        "wikipedia": "hu:Szabadszállás vasútállomás",
        "id": "node/1061100151"
      },
      "geometry": {
        "type": "Point",
        "coordinates": [
          19.210203,
          46.8704709
        ]
      }
    },
    {
      "type": "Feature",
      "id": "node/1061100159",
      "properties": {
        "addr:city": "Soltvadkert",
        "addr:housenumber": "27",
        "addr:postcode": "6230",
        "addr:street": "Erkel Ferenc utca",
        "name": "Soltvadkert",
        "network": "MÁV-START",
        "operator": "MÁV",
        "public_transport": "station",
        "railway": "station",
        "railway:ref": "SO",
        "ref:mav": "468",
        "train": "yes",
        "uic_ref": "5516287",
        "website": "https://www.mavcsoport.hu/mav-start/belfoldi-utazas/vasutallomas/soltvadkert",
        "wikidata": "Q22031517",
        "wikipedia": "hu:Soltvadkert vasútállomás",
        "id": "node/1061100159"
      },
      "geometry": {
        "type": "Point",
        "coordinates": [
          19.3954199,
          46.569708
        ]
      }
    },
    {
      "type": "Feature",
      "id": "node/1065129354",
      "properties": {
        "name": "Kiskunmajsa",
        "operator": "MÁV",
        "public_transport": "station",
        "railway": "station",
        "railway:name:MÁV": "Kiskunmajsa",
        "ref:mav": "1139",
        "train": "yes",
        "uic_ref": "5516758",
        "id": "node/1065129354"
      },
      "geometry": {
        "type": "Point",
        "coordinates": [
          19.727735,
          46.5018709
        ]
      }
    },
    {
      "type": "Feature",
      "id": "node/1065129364",
      "properties": {
        "name": "Szentgál",
        "operator": "MÁV",
        "public_transport": "station",
        "railway": "station",
        "railway:name:MÁV": "Szentgál",
        "ref:mav": "1640",
        "train": "yes",
        "uic_ref": "5503962",
        "id": "node/1065129364"
      },
      "geometry": {
        "type": "Point",
        "coordinates": [
          17.707357,
          47.1363631
        ]
      }
    },
    {
      "type": "Feature",
      "id": "node/1065129572",
      "properties": {
        "name": "Gyömöre",
        "operator": "MÁV",
        "public_transport": "station",
        "railway": "station",
        "railway:ref": "GY",
        "ref:mav": "2874",
        "train": "yes",
        "uic_ref": "5502089",
        "id": "node/1065129572"
      },
      "geometry": {
        "type": "Point",
        "coordinates": [
          17.5589005,
          47.4852708
        ]
      }
    },
    {
      "type": "Feature",
      "id": "node/1065130099",
      "properties": {
        "name": "Csisztafürdő",
        "operator": "MÁV",
        "public_transport": "station",
        "railway": "station",
        "railway:name:MÁV": "Csisztagyógyfürdő",
        "train": "yes",
        "uic_ref": "5549338",
        "id": "node/1065130099"
      },
      "geometry": {
        "type": "Point",
        "coordinates": [
          17.5614219,
          46.682207
        ]
      }
    },
    {
      "type": "Feature",
      "id": "node/1065130592",
      "properties": {
        "name": "Bicere",
        "network": "128-as Vasútvonal",
        "operator": "MÁV",
        "public_transport": "station",
        "railway": "station",
        "ref:mav": "3897",
        "train": "yes",
        "wheelchair": "no",
        "id": "node/1065130592"
      },
      "geometry": {
        "type": "Point",
        "coordinates": [
          21.1794804,
          46.6597334
        ]
      }
    },
    {
      "type": "Feature",
      "id": "node/1065130735",
      "properties": {
        "name": "Nagyigmánd-Bábolna",
        "operator": "MÁV",
        "public_transport": "station",
        "railway": "station",
        "railway:name:MÁV": "Nagyigmánd-Bábolna",
        "ref:mav": "3637",
        "train": "yes",
        "uic_ref": "5503798",
        "id": "node/1065130735"
      },
      "geometry": {
        "type": "Point",
        "coordinates": [
          18.0507159,
          47.6308578
        ]
      }
    },
    {
      "type": "Feature",
      "id": "node/1065130899",
      "properties": {
        "name": "Békéscsaba",
        "operator": "MÁV",
        "public_transport": "station",
        "railway": "station",
        "railway:ref": "C",
        "ref:mav": "7216",
        "train": "yes",
        "wheelchair": "yes",
        "wheelchair:description": "A vasútállomáson mobil emelő szerkezet van",
        "id": "node/1065130899"
      },
      "geometry": {
        "type": "Point",
        "coordinates": [
          21.0811376,
          46.6698315
        ]
      }
    },
    {
      "type": "Feature",
      "id": "node/1080336875",
      "properties": {
        "name": "Szob",
        "name:de": "Zopp an der Donau",
        "name:sk": "Soba",
        "network": "Bezina-völgyi Erdei Vasút",
        "operator": "Ipoly Erdő Zrt",
        "public_transport": "station",
        "railway": "station",
        "train": "yes",
        "url:menetrend": "http://borzsony-kisvasut.webnode.hu/menetrend/",
        "url:menetrend2": "http://www.kisvasut.hu/view_cikk.php?id=3174",
        "website": "https://borzsony-kisvasut.webnode.hu/",
        "id": "node/1080336875"
      },
      "geometry": {
        "type": "Point",
        "coordinates": [
          18.8606379,
          47.8217073
        ]
      }
    },
    {
      "type": "Feature",
      "id": "node/1167814183",
      "properties": {
        "name": "Bugac",
        "name:ru": "Бугац",
        "operator": "MÁV",
        "public_transport": "station",
        "railway": "station",
        "railway:name:MÁV": "Bugac",
        "train": "yes",
        "uic_ref": "5517558",
        "id": "node/1167814183"
      },
      "geometry": {
        "type": "Point",
        "coordinates": [
          19.6770566,
          46.6844401
        ]
      }
    },
    {
      "type": "Feature",
      "id": "node/1212434089",
      "properties": {
        "bus": "yes",
        "name": "Mezőpeterd",
        "network": "101 line",
        "operator": "MÁV",
        "public_transport": "station",
        "railway": "station",
        "ref:mav": "1742",
        "train": "yes",
        "id": "node/1212434089"
      },
      "geometry": {
        "type": "Point",
        "coordinates": [
          21.6259296,
          47.1761079
        ]
      }
    },
    {
      "type": "Feature",
      "id": "node/1212434485",
      "properties": {
        "name": "Tiszaföldvár",
        "public_transport": "station",
        "railway": "station",
        "ref:mav": "7223",
        "train": "yes",
        "id": "node/1212434485"
      },
      "geometry": {
        "type": "Point",
        "coordinates": [
          20.2766232,
          46.9755253
        ]
      }
    },
    {
      "type": "Feature",
      "id": "node/1212434507",
      "properties": {
        "name": "Tiborszállás",
        "operator": "MÁV",
        "public_transport": "station",
        "railway": "station",
        "railway:name:MÁV": "Tiborszállás mrh.",
        "ref:mav": "452",
        "train": "yes",
        "uic_ref": "5515990",
        "id": "node/1212434507"
      },
      "geometry": {
        "type": "Point",
        "coordinates": [
          22.4029255,
          47.8152754
        ]
      }
    },
    {
      "type": "Feature",
      "id": "node/1212434956",
      "properties": {
        "addr:city": "Nagyoroszi",
        "addr:postcode": "2645",
        "internet_access": "no",
        "name": "Nagyoroszi",
        "network": "MÁV-START",
        "operator": "MÁV",
        "public_transport": "station",
        "railway": "station",
        "railway:ref": "NO",
        "ref:mav": "316",
        "train": "yes",
        "website": "https://www.mavcsoport.hu/mav-start/belfoldi-utazas/vasutallomas/nagyoroszi",
        "wheelchair": "no",
        "wikidata": "Q22023394",
        "wikipedia": "hu:Nagyoroszi vasútállomás",
        "id": "node/1212434956"
      },
      "geometry": {
        "type": "Point",
        "coordinates": [
          19.1008183,
          47.9938258
        ]
      }
    },
    {
      "type": "Feature",
      "id": "node/1212435030",
      "properties": {
        "name": "Nyársapát",
        "public_transport": "station",
        "railway": "station",
        "ref:mav": "6098",
        "train": "yes",
        "id": "node/1212435030"
      },
      "geometry": {
        "type": "Point",
        "coordinates": [
          19.7924438,
          47.1004231
        ]
      }
    },
    {
      "type": "Feature",
      "id": "node/1212435167",
      "properties": {
        "name": "Sajószentpéter",
        "name:de": "Sankt Peter",
        "operator": "MÁV",
        "public_transport": "station",
        "railway": "station",
        "ref:mav": "1827",
        "train": "yes",
        "id": "node/1212435167"
      },
      "geometry": {
        "type": "Point",
        "coordinates": [
          20.7083843,
          48.2221464
        ]
      }
    },
    {
      "type": "Feature",
      "id": "node/1328628173",
      "properties": {
        "ele": "421",
        "name": "Nagyirtáspuszta",
        "network": "Bezina-völgyi Erdei Vasút: Nagybörzsöny - Nagyirtás",
        "operator": "Ipoly Erdő Zrt",
        "public_transport": "station",
        "railway": "station",
        "source": "survey",
        "survey:date": "2020-11-01",
        "train": "yes",
        "url:menetrend": "http://borzsony-kisvasut.webnode.hu/menetrend/",
        "url:menetrend2": "http://www.kisvasut.hu/view_cikk.php?id=3174",
        "id": "node/1328628173"
      },
      "geometry": {
        "type": "Point",
        "coordinates": [
          18.8767918,
          47.9013344
        ]
      }
    },
    {
      "type": "Feature",
      "id": "node/1476118690",
      "properties": {
        "alt_name": "Gyöngyös felső",
        "name": "Felsőújváros",
        "operator": "Egererdő Zrt.",
        "public_transport": "station",
        "railway": "halt",
        "train": "yes",
        "id": "node/1476118690"
      },
      "geometry": {
        "type": "Point",
        "coordinates": [
          19.9375592,
          47.7894615
        ]
      }
    },
    {
      "type": "Feature",
      "id": "node/1476118694",
      "properties": {
        "name": "Nyúlmály",
        "operator": "Egererdő Zrt.",
        "public_transport": "station",
        "railway": "halt",
        "start_date": "1995",
        "train": "yes",
        "id": "node/1476118694"
      },
      "geometry": {
        "type": "Point",
        "coordinates": [
          19.9449708,
          47.7978477
        ]
      }
    },
    {
      "type": "Feature",
      "id": "node/1547493571",
      "properties": {
        "name": "Budaörs",
        "name:ru": "Будаэрш",
        "operator": "MÁV",
        "public_transport": "station",
        "railway": "station",
        "railway:name:VPE": "Budaörs",
        "ref:mav": "3641",
        "train": "yes",
        "uic_ref": "5501032",
        "id": "node/1547493571"
      },
      "geometry": {
        "type": "Point",
        "coordinates": [
          18.9664495,
          47.4474399
        ]
      }
    },
    {
      "type": "Feature",
      "id": "node/1587550615",
      "properties": {
        "name": "Marcali",
        "name:de": "Martzal",
        "name:hr": "Marcalin",
        "operator": "MÁV",
        "public_transport": "station",
        "railway": "station",
        "train": "yes",
        "id": "node/1587550615"
      },
      "geometry": {
        "type": "Point",
        "coordinates": [
          17.4208253,
          46.5811769
        ]
      }
    },
    {
      "type": "Feature",
      "id": "node/1684065427",
      "properties": {
        "name": "Szob",
        "name:de": "Zopp an der Donau",
        "name:sk": "Soba",
        "operator": "MÁV",
        "public_transport": "station",
        "railway": "station",
        "ref:mav": "301",
        "train": "yes",
        "id": "node/1684065427"
      },
      "geometry": {
        "type": "Point",
        "coordinates": [
          18.861973,
          47.8210817
        ]
      }
    },
    {
      "type": "Feature",
      "id": "node/1687607528",
      "properties": {
        "addr:city": "Vác",
        "addr:housenumber": "42",
        "addr:postcode": "2600",
        "addr:street": "Széchenyi utca",
        "name": "Vác",
        "name:de": "Waitzen",
        "name:sk": "Vacov",
        "name:sr": "Вац",
        "network": "MÁV-Start",
        "operator": "MÁV",
        "public_transport": "station",
        "railway": "station",
        "ref:mav": "295",
        "train": "yes",
        "website": "https://www.mavcsoport.hu/mav-start/belfoldi-utazas/vasutallomas/vac",
        "wheelchair": "yes",
        "wikidata": "Q21850265",
        "wikipedia": "hu:Vác vasútállomás",
        "id": "node/1687607528"
      },
      "geometry": {
        "type": "Point",
        "coordinates": [
          19.1330097,
          47.7827191
        ]
      }
    },
    {
      "type": "Feature",
      "id": "node/1687607534",
      "properties": {
        "addr:city": "Vácrátót",
        "addr:postcode": "2163",
        "internet_access": "no",
        "name": "Vácrátót",
        "network": "MÁV-START",
        "operator": "MÁV",
        "public_transport": "station",
        "railway": "station",
        "railway:ref": "R",
        "ref:mav": "330",
        "train": "yes",
        "uic_ref": "5510835",
        "website": "https://www.mavcsoport.hu/mav-start/belfoldi-utazas/vasutallomas/vacratot",
        "wheelchair": "no",
        "wikidata": "Q21869607",
        "wikipedia": "hu:Vácrátót vasútállomás",
        "id": "node/1687607534"
      },
      "geometry": {
        "type": "Point",
        "coordinates": [
          19.2176722,
          47.7329365
        ]
      }
    },
    {
      "type": "Feature",
      "id": "node/1796135496",
      "properties": {
        "name": "Jánoska",
        "operator": "Egererdő Zrt.",
        "public_transport": "station",
        "railway": "station",
        "train": "yes",
        "id": "node/1796135496"
      },
      "geometry": {
        "type": "Point",
        "coordinates": [
          19.933384,
          47.8086078
        ]
      }
    },
    {
      "type": "Feature",
      "id": "node/1992935198",
      "properties": {
        "name": "Mátramindszent",
        "operator": "MÁV",
        "public_transport": "station",
        "railway": "station",
        "railway:name:MÁV": "Mátramindszent mrh.",
        "train": "yes",
        "uic_ref": "5512120",
        "id": "node/1992935198"
      },
      "geometry": {
        "type": "Point",
        "coordinates": [
          19.9389567,
          47.9973978
        ]
      }
    },
    {
      "type": "Feature",
      "id": "node/2386604512",
      "properties": {
        "name": "Kéthely",
        "operator": "MÁV",
        "public_transport": "station",
        "railway": "station",
        "train": "yes",
        "id": "node/2386604512"
      },
      "geometry": {
        "type": "Point",
        "coordinates": [
          17.4116528,
          46.6454141
        ]
      }
    },
    {
      "type": "Feature",
      "id": "node/2894347408",
      "properties": {
        "image": "https://image.ibb.co/mc1r8y/2018_05_12.jpg",
        "level": "0",
        "name": "Budapest-Kelenföld",
        "old_name": "Újbuda",
        "old_name:-2010": "Budapest-Kelenföld",
        "old_name:2010-2019": "Kelenföld",
        "operator": "MÁV",
        "public_transport": "station",
        "railway": "station",
        "railway:name:VPE": "Budapest-Kelenföld",
        "railway:ref": "KL",
        "railway:ref:DB": "XMBL",
        "ref:mav": "3640",
        "toilets:wheelchair": "no",
        "train": "yes",
        "uic_name": "Budapest-Kelenföld",
        "uic_ref": "5501024",
        "wheelchair": "yes",
        "wikidata": "Q800998",
        "wikipedia": "en:Kelenföld railway station",
        "id": "node/2894347408"
      },
      "geometry": {
        "type": "Point",
        "coordinates": [
          19.0206155,
          47.4642992
        ]
      }
    },
    {
      "type": "Feature",
      "id": "node/3010560233",
      "properties": {
        "alt_name": "Budapest-Nyugati pályaudvar",
        "alt_name:zh": "西站",
        "internet_access": "wlan",
        "loc_name": "Nyugati pályaudvar",
        "name": "Budapest-Nyugati",
        "operator": "MÁV",
        "platforms": "17",
        "public_transport": "station",
        "railway": "station",
        "railway:name:VPE": "Budapest-Nyugati",
        "railway:ref": "PV",
        "railway:ref:DB": "XMBN",
        "ref:mav": "269",
        "train": "yes",
        "uic_ref": "5510033",
        "website": "http://www.mav-start.hu",
        "wheelchair": "yes",
        "wikidata": "Q522868",
        "wikipedia": "hu:Nyugati pályaudvar",
        "id": "node/3010560233"
      },
      "geometry": {
        "type": "Point",
        "coordinates": [
          19.0574804,
          47.5107203
        ]
      }
    },
    {
      "type": "Feature",
      "id": "node/3141610637",
      "properties": {
        "checkpoint": "hiking",
        "checkpoint:type": "stamp",
        "course": "Hollókőtől Vöröskőig",
        "name": "Nagymaros-Visegrád",
        "name:sk": "Veľká Maruša-Vyšehrad",
        "public_transport": "station",
        "railway": "halt",
        "ref:mav": "298",
        "train": "yes",
        "id": "node/3141610637"
      },
      "geometry": {
        "type": "Point",
        "coordinates": [
          18.9588872,
          47.7910806
        ]
      }
    },
    {
      "type": "Feature",
      "id": "node/3159360767",
      "properties": {
        "alt_name": "Északi kitérő",
        "name": "Nyíregyháza-Északi kitérő",
        "public_transport": "station",
        "railway": "station",
        "short_name": "Nyíregyháza-Északi kit.",
        "train": "yes",
        "id": "node/3159360767"
      },
      "geometry": {
        "type": "Point",
        "coordinates": [
          21.6860291,
          47.9661624
        ]
      }
    },
    {
      "type": "Feature",
      "id": "node/3260071767",
      "properties": {
        "name": "Bugac felső",
        "operator": "MÁV",
        "public_transport": "station",
        "railway": "station",
        "railway:name:MÁV": "Bugac felső",
        "train": "yes",
        "uic_ref": "5517566",
        "id": "node/3260071767"
      },
      "geometry": {
        "type": "Point",
        "coordinates": [
          19.6591773,
          46.6609637
        ]
      }
    },
    {
      "type": "Feature",
      "id": "node/3350644827",
      "properties": {
        "name": "Porva-Csesznek",
        "operator": "MÁV",
        "public_transport": "station",
        "railway": "station",
        "railway:name:MÁV": "Porva-Csesznek",
        "ref:mav": "816",
        "train": "yes",
        "uic_ref": "5502980",
        "id": "node/3350644827"
      },
      "geometry": {
        "type": "Point",
        "coordinates": [
          17.8414031,
          47.3269663
        ]
      }
    },
    {
      "type": "Feature",
      "id": "node/3412605384",
      "properties": {
        "name": "Kaba",
        "public_transport": "station",
        "railway": "station",
        "ref:mav": "1698",
        "train": "yes",
        "id": "node/3412605384"
      },
      "geometry": {
        "type": "Point",
        "coordinates": [
          21.2594828,
          47.3689663
        ]
      }
    },
    {
      "type": "Feature",
      "id": "node/3609842991",
      "properties": {
        "addr:city": "Diósjenő",
        "addr:housenumber": "1",
        "addr:postcode": "2643",
        "addr:street": "Szabadság út",
        "air_conditioning": "no",
        "internet_access": "no",
        "mapillary": "AZSLCzaiPeXqf3YCHvQvFA",
        "name": "Diósjenő",
        "network": "MÁV-START",
        "operator": "MÁV",
        "public_transport": "station",
        "railway": "station",
        "railway:ref": "D",
        "ref:mav": "314",
        "train": "yes",
        "uic_ref": "5510645",
        "website": "https://www.mavcsoport.hu/mav-start/belfoldi-utazas/vasutallomas/diosjeno",
        "wheelchair": "no",
        "wikidata": "Q21877021",
        "wikipedia": "hu:Diósjenő vasútállomás",
        "id": "node/3609842991"
      },
      "geometry": {
        "type": "Point",
        "coordinates": [
          19.0494616,
          47.9400265
        ]
      }
    },
    {
      "type": "Feature",
      "id": "node/3730862340",
      "properties": {
        "name": "Eplény",
        "operator": "MÁV",
        "public_transport": "station",
        "railway": "station",
        "railway:name:MÁV": "Eplény",
        "ref:mav": "818",
        "train": "yes",
        "uic_ref": "5503038",
        "id": "node/3730862340"
      },
      "geometry": {
        "type": "Point",
        "coordinates": [
          17.9215709,
          47.1926474
        ]
      }
    },
    {
      "type": "Feature",
      "id": "node/3992699089",
      "properties": {
        "name": "Nagybörzsöny",
        "operator": "Nagybörzsönyi Erdei Vasút Nkft.",
        "public_transport": "station",
        "railway": "station",
        "train": "yes",
        "url:menetrend": "http://borzsony-kisvasut.webnode.hu/menetrend/",
        "url:menetrend2": "http://www.kisvasut.hu/view_cikk.php?id=3174",
        "website": "https://borzsony-kisvasut.webnode.hu/",
        "id": "node/3992699089"
      },
      "geometry": {
        "type": "Point",
        "coordinates": [
          18.8378352,
          47.9313046
        ]
      }
    },
    {
      "type": "Feature",
      "id": "node/4057764613",
      "properties": {
        "name": "Tata",
        "name:de": "Totis",
        "name:la": "Dotis",
        "operator": "MÁV",
        "public_transport": "station",
        "railway": "station",
        "railway:name:VPE": "Tata",
        "ref:mav": "3652",
        "train": "yes",
        "uic_ref": "5501164",
        "id": "node/4057764613"
      },
      "geometry": {
        "type": "Point",
        "coordinates": [
          18.3278757,
          47.6639527
        ]
      }
    },
    {
      "type": "Feature",
      "id": "node/4223433116",
      "properties": {
        "name": "Szurdokpüspöki",
        "name:ru": "Сурдокпюшпёки",
        "public_transport": "station",
        "railway": "station",
        "railway:ref": "SZP",
        "ref:mav": "973",
        "train": "yes",
        "uic_ref": "5511700",
        "id": "node/4223433116"
      },
      "geometry": {
        "type": "Point",
        "coordinates": [
          19.6903455,
          47.8516922
        ]
      }
    },
    {
      "type": "Feature",
      "id": "node/4223465273",
      "properties": {
        "name": "Tar",
        "public_transport": "station",
        "railway": "station",
        "railway:ref": "TR",
        "ref:mav": "980",
        "train": "yes",
        "uic_ref": "5511825",
        "id": "node/4223465273"
      },
      "geometry": {
        "type": "Point",
        "coordinates": [
          19.7460181,
          47.9559372
        ]
      }
    },
    {
      "type": "Feature",
      "id": "node/4327586850",
      "properties": {
        "name": "Csorna",
        "public_transport": "station",
        "railway": "stop",
        "train": "yes",
        "id": "node/4327586850"
      },
      "geometry": {
        "type": "Point",
        "coordinates": [
          17.2490403,
          47.6017802
        ]
      }
    },
    {
      "type": "Feature",
      "id": "node/4696599905",
      "properties": {
        "name": "Celldömölk",
        "name:de": "Kleinmariazell",
        "name:hr": "Demlak",
        "operator": "MÁV",
        "public_transport": "station",
        "railway": "station",
        "railway:name:MÁV": "Celldömölk",
        "ref:mav": "2883",
        "train": "yes",
        "uic_ref": "5502170",
        "id": "node/4696599905"
      },
      "geometry": {
        "type": "Point",
        "coordinates": [
          17.1522018,
          47.2614241
        ]
      }
    },
    {
      "type": "Feature",
      "id": "node/4858619659",
      "properties": {
        "name": "Sajóecseg",
        "operator": "MÁV",
        "public_transport": "station",
        "railway": "station",
        "ref:mav": "1825",
        "source": "guess",
        "train": "yes",
        "id": "node/4858619659"
      },
      "geometry": {
        "type": "Point",
        "coordinates": [
          20.7666091,
          48.185299
        ]
      }
    },
    {
      "type": "Feature",
      "id": "node/4955574766",
      "properties": {
        "name": "Révfülöp",
        "operator": "MÁV",
        "public_transport": "station",
        "railway": "station",
        "train": "yes",
        "id": "node/4955574766"
      },
      "geometry": {
        "type": "Point",
        "coordinates": [
          17.6324456,
          46.8291068
        ]
      }
    },
    {
      "type": "Feature",
      "id": "node/5008124072",
      "properties": {
        "name": "Kőszeg",
        "name:de": "Güns",
        "name:hr": "Kiseg",
        "name:sk": "Kysek",
        "old_name": "Kiseg",
        "operator": "GySEV",
        "public_transport": "station",
        "railway": "station",
        "ref:mav": "65399",
        "source": "guess",
        "train": "yes",
        "id": "node/5008124072"
      },
      "geometry": {
        "type": "Point",
        "coordinates": [
          16.5568574,
          47.3817964
        ]
      }
    },
    {
      "type": "Feature",
      "id": "node/5050446210",
      "properties": {
        "alt_name": "Sopron-GYSEV pu.",
        "name": "Sopron",
        "name:cs": "Šoproň",
        "name:de": "Ödenburg",
        "name:he": "שופרון",
        "name:hr": "Šopron",
        "name:it": "Odenburgo",
        "name:ja": "ショプロン",
        "name:la": "Scarbantia",
        "name:ru": "Шопрон",
        "name:sk": "Šopron",
        "name:sr": "Шопрон",
        "operator": "GySEV",
        "public_transport": "station",
        "railway": "station",
        "railway:ref": "SP",
        "railway:ref:ÖBB": "Sop",
        "ref:mav": "804",
        "train": "yes",
        "uic_ref": "5501494",
        "wheelchair": "no",
        "id": "node/5050446210"
      },
      "geometry": {
        "type": "Point",
        "coordinates": [
          16.5868738,
          47.6776464
        ]
      }
    },
    {
      "type": "Feature",
      "id": "node/5217774784",
      "properties": {
        "addr:city": "Budapest",
        "architect": "Gelesz András;Herczeg Tamás;Balázs László;Rohr Anita;Szendrői Júlia;Steiner Balázs Miklós;Gyulai Attila;Holló Eszter;Molnár S. Gergely;Safranka Péter;Janesch László;Dr. Reith András;Gelesz Adrienn;Tarjáni Andrea",
        "layer": "-3",
        "name": "Móricz Zsigmond körtér",
        "operator": "BKV",
        "public_transport": "station",
        "railway": "station",
        "railway:ref": "M",
        "ref:bkk": "056222",
        "station": "subway",
        "subway": "yes",
        "train": "yes",
        "url": "http://mek.hu/?link=Epitesz_Kozlony___Muhely__2014_szeptember",
        "wheelchair": "yes",
        "wikidata": "Q930433",
        "id": "node/5217774784"
      },
      "geometry": {
        "type": "Point",
        "coordinates": [
          19.0474068,
          47.4769307
        ]
      }
    },
    {
      "type": "Feature",
      "id": "node/5237888497",
      "properties": {
        "addr:city": "Salgótarján",
        "addr:housenumber": "5",
        "addr:postcode": "3100",
        "addr:street": "Állomás út",
        "air_conditioning": "no",
        "internet_access": "no",
        "name": "Salgótarján külső",
        "network": "MÁV-START",
        "operator": "MÁV",
        "public_transport": "station",
        "railway": "station",
        "railway:ref": "SA",
        "ref:mav": "985",
        "train": "yes",
        "uic_ref": "5511874",
        "website": "https://www.mavcsoport.hu/mav-start/belfoldi-utazas/vasutallomas/salgotarjan-kulso",
        "wheelchair": "no",
        "wikidata": "Q22071260",
        "wikipedia": "hu:Salgótarján külső vasútállomás",
        "id": "node/5237888497"
      },
      "geometry": {
        "type": "Point",
        "coordinates": [
          19.791061,
          48.0895142
        ]
      }
    },
    {
      "type": "Feature",
      "id": "node/5435407497",
      "properties": {
        "name": "Alcsútdoboz Arborétum",
        "public_transport": "station",
        "railway": "station",
        "toilets:wheelchair": "no",
        "train": "yes",
        "wheelchair": "yes",
        "id": "node/5435407497"
      },
      "geometry": {
        "type": "Point",
        "coordinates": [
          18.5834868,
          47.4239502
        ]
      }
    },
    {
      "type": "Feature",
      "id": "node/5435526474",
      "properties": {
        "name": "Puskás Akadémia",
        "public_transport": "station",
        "railway": "station",
        "train": "yes",
        "wheelchair": "yes",
        "id": "node/5435526474"
      },
      "geometry": {
        "type": "Point",
        "coordinates": [
          18.5946506,
          47.4664351
        ]
      }
    },
    {
      "type": "Feature",
      "id": "node/5435542749",
      "properties": {
        "name": "Felcsút",
        "network": "Vál-völgyi kisvasút",
        "operator": "Vál-völgyi kisvasút",
        "public_transport": "station",
        "railway": "station",
        "train": "yes",
        "wheelchair": "yes",
        "id": "node/5435542749"
      },
      "geometry": {
        "type": "Point",
        "coordinates": [
          18.5878984,
          47.4409712
        ]
      }
    },
    {
      "type": "Feature",
      "id": "node/5535569567",
      "properties": {
        "image": "https://image.ibb.co/jeGSCH/2018_04_05_1.jpg",
        "internet_access": "no",
        "name": "Komárom",
        "operator": "MÁV",
        "public_transport": "station",
        "railway": "station",
        "railway:name:VPE": "Komárom",
        "railway:ref": "KM",
        "train": "yes",
        "uic_ref": "5501222",
        "id": "node/5535569567"
      },
      "geometry": {
        "type": "Point",
        "coordinates": [
          18.1138895,
          47.7495823
        ]
      }
    },
    {
      "type": "Feature",
      "id": "node/5566790333",
      "properties": {
        "addr:city": "Isaszeg",
        "addr:housenumber": "1",
        "addr:postcode": "2117",
        "addr:street": "Rózsa utca",
        "internet_access": "no",
        "name": "Isaszeg",
        "network": "MÁV-Start",
        "operator": "MÁV",
        "public_transport": "station",
        "railway": "station",
        "railway:ref": "IG",
        "ref:mav": "920",
        "train": "yes",
        "uic_ref": "5511122",
        "website": "https://www.mavcsoport.hu/mav-start/belfoldi-utazas/vasutallomas/isaszeg",
        "wheelchair": "no",
        "wikidata": "Q21876981",
        "wikipedia": "hu:Isaszeg vasútállomás",
        "id": "node/5566790333"
      },
      "geometry": {
        "type": "Point",
        "coordinates": [
          19.3890045,
          47.5374207
        ]
      }
    },
    {
      "type": "Feature",
      "id": "node/5599738752",
      "properties": {
        "name": "Mezőtúr",
        "name:de": "Thur",
        "name:ru": "Мезётур",
        "operator": "MÁV",
        "public_transport": "station",
        "railway": "station",
        "railway:name:MÁV": "Mezőtúr",
        "ref:mav": "7209",
        "source": "guess",
        "train": "yes",
        "uic_ref": "5517848",
        "wheelchair": "yes",
        "id": "node/5599738752"
      },
      "geometry": {
        "type": "Point",
        "coordinates": [
          20.6191706,
          47.0133062
        ]
      }
    },
    {
      "type": "Feature",
      "id": "node/5625986025",
      "properties": {
        "abandoned:railway": "station",
        "name": "Törökfái",
        "public_transport": "station",
        "railway": "station",
        "train": "yes",
        "id": "node/5625986025"
      },
      "geometry": {
        "type": "Point",
        "coordinates": [
          19.6483676,
          46.8333083
        ]
      }
    },
    {
      "type": "Feature",
      "id": "node/5910582291",
      "properties": {
        "name": "Solymár",
        "operator": "MÁV",
        "public_transport": "station",
        "railway": "station",
        "railway:name:VPE": "Solymár",
        "ref:mav": "3670",
        "train": "yes",
        "uic_ref": "5501420",
        "wheelchair": "yes",
        "id": "node/5910582291"
      },
      "geometry": {
        "type": "Point",
        "coordinates": [
          18.9494722,
          47.5963712
        ]
      }
    },
    {
      "type": "Feature",
      "id": "node/6137205675",
      "properties": {
        "name": "Óbuda",
        "operator": "MÁV",
        "public_transport": "station",
        "railway": "station",
        "railway:name:VPE": "Óbuda",
        "railway:ref": "O",
        "railway:ref:MÁV-HÉV": "Ob",
        "ref:mav": "3668",
        "train": "yes",
        "uic_ref": "5501404",
        "wikidata": "Q3095884",
        "wikipedia": "hu:Óbuda vasútállomás",
        "id": "node/6137205675"
      },
      "geometry": {
        "type": "Point",
        "coordinates": [
          19.0327128,
          47.5691195
        ]
      }
    },
    {
      "type": "Feature",
      "id": "node/6164717204",
      "properties": {
        "name": "Szeghalom",
        "operator": "MÁV",
        "public_transport": "station",
        "railway": "station",
        "railway:name:MÁV": "Szeghalom",
        "ref:mav": "7250",
        "source": "guess",
        "train": "yes",
        "uic_ref": "5518457",
        "id": "node/6164717204"
      },
      "geometry": {
        "type": "Point",
        "coordinates": [
          21.1483366,
          47.0151073
        ]
      }
    },
    {
      "type": "Feature",
      "id": "node/6299375649",
      "properties": {
        "name": "Csemete - Rét",
        "operator": "Erdei Vasútért Egyesület",
        "public_transport": "station",
        "railway": "station",
        "train": "yes",
        "website": "http://www.godollokisvasut.hu",
        "id": "node/6299375649"
      },
      "geometry": {
        "type": "Point",
        "coordinates": [
          19.3783897,
          47.5725501
        ]
      }
    },
    {
      "type": "Feature",
      "id": "node/6354701370",
      "properties": {
        "internet_access": "no",
        "name": "Széchenyihegy",
        "operator": "MÁV",
        "passenger_information_display": "no",
        "public_transport": "station",
        "railway": "station",
        "railway:ref": "A",
        "start_date": "1948",
        "train": "yes",
        "wheelchair": "no",
        "id": "node/6354701370"
      },
      "geometry": {
        "type": "Point",
        "coordinates": [
          18.976704,
          47.4941227
        ]
      }
    },
    {
      "type": "Feature",
      "id": "node/6355384676",
      "properties": {
        "name": "Pilisvörösvár",
        "operator": "MÁV",
        "public_transport": "station",
        "railway": "station",
        "railway:name:VPE": "Pilisvörösvár",
        "ref:mav": "3671",
        "train": "yes",
        "uic_ref": "5501438",
        "wheelchair": "limited",
        "id": "node/6355384676"
      },
      "geometry": {
        "type": "Point",
        "coordinates": [
          18.9012593,
          47.6147344
        ]
      }
    },
    {
      "type": "Feature",
      "id": "node/6361294640",
      "properties": {
        "name": "Újpest",
        "name:hu": "Újpest",
        "operator": "MÁV",
        "public_transport": "station",
        "railway": "halt",
        "railway:name:VPE": "Újpest mh. (Angyalföld)",
        "ref:mav": "284",
        "train": "yes",
        "uic_ref": "5510207",
        "website": "https://www.mavcsoport.hu/mav-start/belfoldi-utazas/vasutallomas/ujpest",
        "wheelchair": "yes",
        "wikidata": "Q3095885",
        "wikimedia_commons": "Category:Újpest railway station",
        "wikipedia": "hu:Újpest megállóhely",
        "id": "node/6361294640"
      },
      "geometry": {
        "type": "Point",
        "coordinates": [
          19.0796619,
          47.5586874
        ]
      }
    },
    {
      "type": "Feature",
      "id": "node/6383721768",
      "properties": {
        "access": "customers",
        "light_rail": "yes",
        "name": "Főbejárat",
        "public_transport": "station",
        "railway": "station",
        "station": "light_rail",
        "train": "yes",
        "wheelchair": "yes",
        "id": "node/6383721768"
      },
      "geometry": {
        "type": "Point",
        "coordinates": [
          19.0448306,
          47.6922076
        ]
      }
    },
    {
      "type": "Feature",
      "id": "node/6486121484",
      "properties": {
        "name": "Háros",
        "old_name": "Budafok-Háros",
        "operator": "MÁV",
        "public_transport": "station",
        "railway": "station",
        "train": "yes",
        "wikidata": "Q3096084",
        "wikipedia": "hu:Háros vasútállomás",
        "id": "node/6486121484"
      },
      "geometry": {
        "type": "Point",
        "coordinates": [
          19.0350444,
          47.4122883
        ]
      }
    },
    {
      "type": "Feature",
      "id": "node/6491117646",
      "properties": {
        "internet_access": "wlan",
        "name": "Albertfalva",
        "old_name": "Budafok-Albertfalva",
        "operator": "MÁV",
        "public_transport": "station",
        "railway": "halt",
        "ref:mav": "823",
        "train": "yes",
        "uic_ref": "5503111",
        "id": "node/6491117646"
      },
      "geometry": {
        "type": "Point",
        "coordinates": [
          19.0339592,
          47.4407924
        ]
      }
    },
    {
      "type": "Feature",
      "id": "node/6509753635",
      "properties": {
        "name": "Váckisújfalu",
        "public_transport": "station",
        "railway": "halt",
        "train": "yes",
        "wikidata": "Q23283208",
        "wikipedia": "hu:Váckisújfalu megállóhely",
        "id": "node/6509753635"
      },
      "geometry": {
        "type": "Point",
        "coordinates": [
          19.3404185,
          47.7051797
        ]
      }
    },
    {
      "type": "Feature",
      "id": "node/6509897963",
      "properties": {
        "addr:city": "Balassagyarmat",
        "addr:housenumber": "2",
        "addr:postcode": "2660",
        "addr:street": "Benczúr Gyula utca",
        "air_conditioning": "no",
        "internet_access": "no",
        "name": "Balassagyarmat",
        "operator": "MÁV",
        "phone": "+36 35 301 803",
        "public_transport": "station",
        "railway": "station",
        "railway:ref": "BG",
        "train": "yes",
        "uic_ref": "5510967",
        "website": "https://www.mavcsoport.hu/",
        "wheelchair": "limited",
        "wikidata": "Q17299303",
        "wikipedia": "hu:Balassagyarmat vasútállomás",
        "id": "node/6509897963"
      },
      "geometry": {
        "type": "Point",
        "coordinates": [
          19.2934232,
          48.0713427
        ]
      }
    },
    {
      "type": "Feature",
      "id": "node/6517110142",
      "properties": {
        "addr:city": "Aszód",
        "addr:housenumber": "1",
        "addr:postcode": "2170",
        "addr:street": "Baross tér",
        "air_conditioning": "no",
        "internet_access": "no",
        "name": "Aszód",
        "operator": "MÁV",
        "public_transport": "station",
        "railway": "station",
        "railway:ref": "AD",
        "train": "yes",
        "website": "https://www.mavcsoport.hu/mav-start/belfoldi-utazas/vasutallomas/aszod",
        "wheelchair": "yes",
        "wikidata": "Q21877015",
        "wikipedia": "hu:Aszód vasútállomás",
        "id": "node/6517110142"
      },
      "geometry": {
        "type": "Point",
        "coordinates": [
          19.4925279,
          47.6477528
        ]
      }
    },
    {
      "type": "Feature",
      "id": "node/6524784304",
      "properties": {
        "name": "Zugló",
        "operator": "MÁV",
        "public_transport": "station",
        "railway": "halt",
        "railway:name:MÁV": "Zugló mh.",
        "request_stop": "no",
        "train": "yes",
        "uic_ref": "5510090",
        "id": "node/6524784304"
      },
      "geometry": {
        "type": "Point",
        "coordinates": [
          19.1011713,
          47.5114437
        ]
      }
    },
    {
      "type": "Feature",
      "id": "node/6532463462",
      "properties": {
        "addr:city": "Pécel",
        "addr:housenumber": "1",
        "addr:postcode": "2119",
        "addr:street": "Állomás utca",
        "air_conditioning": "no",
        "internet_access": "no",
        "name": "Pécel",
        "operator": "MÁV",
        "public_transport": "station",
        "railway": "station",
        "railway:ref": "PZ",
        "train": "yes",
        "uic_ref": "5511114",
        "website": "https://www.mavcsoport.hu/mav-start/belfoldi-utazas/vasutallomas/pecel",
        "wheelchair": "limited",
        "wikidata": "Q21876979",
        "wikipedia": "hu:Pécel vasútállomás",
        "id": "node/6532463462"
      },
      "geometry": {
        "type": "Point",
        "coordinates": [
          19.3383052,
          47.4937604
        ]
      }
    },
    {
      "type": "Feature",
      "id": "node/6694680311",
      "properties": {
        "addr:city": "Budapest",
        "addr:housenumber": "2-4",
        "addr:postcode": "1102",
        "addr:street": "Kolozsvári utca",
        "air_conditioning": "no",
        "internet_access": "no",
        "name": "Kőbánya felső",
        "operator": "MÁV",
        "public_transport": "station",
        "railway": "station",
        "railway:ref": "KO",
        "train": "yes",
        "website": "https://www.mavcsoport.hu/mav-start/belfoldi-utazas/vasutallomas/kobanya-felso",
        "wheelchair": "no",
        "wikidata": "Q18005405",
        "wikipedia": "hu:Kőbánya felső vasútállomás",
        "id": "node/6694680311"
      },
      "geometry": {
        "type": "Point",
        "coordinates": [
          19.1335407,
          47.491767
        ]
      }
    },
    {
      "type": "Feature",
      "id": "node/6712170720",
      "properties": {
        "addr:city": "Budapest",
        "addr:housenumber": "90-92",
        "addr:postcode": "1106",
        "addr:street": "Jászberényi út",
        "air_conditioning": "no",
        "internet_access": "no",
        "name": "Rákos",
        "operator": "MÁV",
        "public_transport": "station",
        "railway": "station",
        "railway:name:MÁV": "Rákos",
        "railway:ref": "RK",
        "train": "yes",
        "uic_ref": "5510074",
        "website": "https://www.mavcsoport.hu/mav-start/belfoldi-utazas/vasutallomas/rakos",
        "wheelchair": "no",
        "wikidata": "Q12815863",
        "wikipedia": "hu:Rákos vasútállomás",
        "id": "node/6712170720"
      },
      "geometry": {
        "type": "Point",
        "coordinates": [
          19.1737415,
          47.4887859
        ]
      }
    },
    {
      "type": "Feature",
      "id": "node/6736760614",
      "properties": {
        "addr:city": "Gödöllő",
        "addr:housenumber": "50",
        "addr:postcode": "2100",
        "addr:street": "Besnyői út",
        "air_conditioning": "no",
        "internet_access": "no",
        "name": "Máriabesnyő",
        "note": "Már szerint ez a vasútállomás címe, de mem tudom mennyire jó. Besnyői út nincs. A Besnyő utca meg túl távol van ráadásul csak 1-11 között van számozva, páros oldal nincs is, az 50-es szám elég fura.",
        "operator": "MÁV",
        "public_transport": "station",
        "railway": "station",
        "ref:mav": "922",
        "train": "yes",
        "website": "https://www.mavcsoport.hu/mav-start/belfoldi-utazas/vasutallomas/mariabesnyo",
        "wheelchair": "yes",
        "wikidata": "Q21877010",
        "wikipedia": "hu:Máriabesnyő megállóhely",
        "id": "node/6736760614"
      },
      "geometry": {
        "type": "Point",
        "coordinates": [
          19.3890813,
          47.5958954
        ]
      }
    },
    {
      "type": "Feature",
      "id": "node/6854286842",
      "properties": {
        "name": "Érd alsó",
        "public_transport": "station",
        "railway": "halt",
        "railway:ref": "EA",
        "ref:mav": "827",
        "train": "yes",
        "uic_ref": "5503152",
        "id": "node/6854286842"
      },
      "geometry": {
        "type": "Point",
        "coordinates": [
          18.9257332,
          47.3801855
        ]
      }
    },
    {
      "type": "Feature",
      "id": "node/7011625957",
      "properties": {
        "name": "Nagyszentjános",
        "operator": "MÁV",
        "public_transport": "station",
        "railway": "station",
        "railway:name:VPE": "Nagyszentjános",
        "ref:mav": "3658",
        "train": "yes",
        "uic_ref": "5501248",
        "id": "node/7011625957"
      },
      "geometry": {
        "type": "Point",
        "coordinates": [
          17.8720198,
          47.7055438
        ]
      }
    },
    {
      "type": "Feature",
      "id": "node/7016692192",
      "properties": {
        "name": "Ferencváros",
        "old_name": "Budapest Ferencváros",
        "operator": "MÁV",
        "public_transport": "station",
        "railway": "station",
        "railway:name:VPE": "Ferencváros",
        "train": "yes",
        "uic_ref": "5510025",
        "wheelchair": "no",
        "wikidata": "Q1000474",
        "wikipedia": "hu:Ferencváros pályaudvar",
        "id": "node/7016692192"
      },
      "geometry": {
        "type": "Point",
        "coordinates": [
          19.0908755,
          47.4688675
        ]
      }
    },
    {
      "type": "Feature",
      "id": "node/7070334610",
      "properties": {
        "name": "Vecsés",
        "public_transport": "station",
        "railway": "station",
        "ref:mav": "902",
        "toilets:wheelchair": "no",
        "train": "yes",
        "wheelchair": "yes",
        "wheelchair:description": "Az állomás karfás liftel van el látva amitt sajnos megrongáltak. Forgalmi átjáró lehet külön engedéllyel átmenni.",
        "id": "node/7070334610"
      },
      "geometry": {
        "type": "Point",
        "coordinates": [
          19.2560738,
          47.4086572
        ]
      }
    },
    {
      "type": "Feature",
      "id": "node/7084525024",
      "properties": {
        "name": "Soroksár",
        "operator": "MÁV",
        "public_transport": "station",
        "railway": "station",
        "ref:mav": "287",
        "train": "yes",
        "uic_ref": "5510322",
        "id": "node/7084525024"
      },
      "geometry": {
        "type": "Point",
        "coordinates": [
          19.1233965,
          47.4022924
        ]
      }
    },
    {
      "type": "Feature",
      "id": "node/7084553530",
      "properties": {
        "name": "Rákoshegy",
        "operator": "MÁV",
        "public_transport": "station",
        "railway": "station",
        "ref:mav": "958",
        "train": "yes",
        "wikidata": "Q19570002",
        "wikipedia": "hu:Rákoshegy vasútállomás",
        "id": "node/7084553530"
      },
      "geometry": {
        "type": "Point",
        "coordinates": [
          19.2443241,
          47.4689527
        ]
      }
    },
    {
      "type": "Feature",
      "id": "node/7167426889",
      "properties": {
        "building": "yes",
        "name": "Magyarnándor",
        "operator": "MÁV",
        "public_transport": "station",
        "railway": "station",
        "railway:ref": "ND",
        "ref:mav": "337",
        "train": "yes",
        "uic_ref": "5510934",
        "wikidata": "Q22025892",
        "wikipedia": "hu:Magyarnándor vasútállomás",
        "id": "node/7167426889"
      },
      "geometry": {
        "type": "Point",
        "coordinates": [
          19.3569062,
          47.9707897
        ]
      }
    },
    {
      "type": "Feature",
      "id": "node/7167426890",
      "properties": {
        "addr:city": "Nógrádkövesd",
        "addr:housenumber": "69",
        "addr:postcode": "2691",
        "addr:street": "Kossuth utca",
        "air_conditioning": "no",
        "building": "yes",
        "internet_access": "no",
        "name": "Nógrádkövesd",
        "network": "MÁV-START",
        "operator": "MÁV",
        "public_transport": "station",
        "railway": "station",
        "railway:ref": "NK",
        "ref:mav": "336",
        "train": "yes",
        "uic_ref": "5510918",
        "website": "https://www.mavcsoport.hu/mav-start/belfoldi-utazas/vasutallomas/nogradkovesd",
        "wheelchair": "no",
        "wikidata": "Q22025891",
        "wikipedia": "hu:Nógrádkövesd vasútállomás",
        "id": "node/7167426890"
      },
      "geometry": {
        "type": "Point",
        "coordinates": [
          19.3713028,
          47.8796086
        ]
      }
    },
    {
      "type": "Feature",
      "id": "node/7167426891",
      "properties": {
        "addr:city": "Acsa",
        "addr:postcode": "2683",
        "building": "yes",
        "internet_access": "no",
        "name": "Acsa-Erdőkürt",
        "network": "MÁV-START",
        "operator": "MÁV",
        "public_transport": "station",
        "railway": "station",
        "railway:ref": "AE",
        "ref:mav": "334",
        "train": "yes",
        "uic_ref": "5510884",
        "wikidata": "Q22025882",
        "wikipedia": "hu:Acsa-Erdőkürt vasútállomás",
        "id": "node/7167426891"
      },
      "geometry": {
        "type": "Point",
        "coordinates": [
          19.3860374,
          47.8010229
        ]
      }
    },
    {
      "type": "Feature",
      "id": "node/7167426892",
      "properties": {
        "addr:city": "Galgamácsa",
        "addr:housenumber": "7",
        "addr:postcode": "2183",
        "addr:street": "Vasút utca",
        "building": "yes",
        "internet_access": "no",
        "name": "Galgamácsa",
        "network": "MÁV-START",
        "operator": "MÁV",
        "phone": "+36 40 494 949",
        "public_transport": "station",
        "railway": "station",
        "railway:ref": "GM",
        "ref:mav": "329",
        "train": "yes",
        "uic_ref": "5510827",
        "website": "https://www.mavcsoport.hu/mav-start/belfoldi-utazas/vasutallomas/galgamacsa",
        "wikidata": "Q22025880",
        "wikipedia": "hu:Galgamácsa vasútállomás",
        "id": "node/7167426892"
      },
      "geometry": {
        "type": "Point",
        "coordinates": [
          19.392589,
          47.6938706
        ]
      }
    },
    {
      "type": "Feature",
      "id": "node/7203890765",
      "properties": {
        "internet_access": "no",
        "name": "Újpalota",
        "operator": "MÁV",
        "public_transport": "station",
        "railway": "halt",
        "start_date": "2020-10-25",
        "train": "yes",
        "uic_ref": "5510233",
        "wheelchair": "yes",
        "wikidata": "Q84844308",
        "wikipedia": "hu:Újpalota megállóhely",
        "id": "node/7203890765"
      },
      "geometry": {
        "type": "Point",
        "coordinates": [
          19.1261305,
          47.5316329
        ]
      }
    },
    {
      "type": "Feature",
      "id": "node/7208885506",
      "properties": {
        "name": "Herceghalom",
        "operator": "MÁV",
        "public_transport": "station",
        "railway": "station",
        "railway:name:VPE": "Herceghalom",
        "railway:ref": "HE",
        "train": "yes",
        "uic_ref": "5501065",
        "id": "node/7208885506"
      },
      "geometry": {
        "type": "Point",
        "coordinates": [
          18.7457929,
          47.493681
        ]
      }
    },
    {
      "type": "Feature",
      "id": "node/7214776436",
      "properties": {
        "name": "Angyalföld",
        "old_name": "Budapest-Angyalföld",
        "operator": "MÁV",
        "public_transport": "station",
        "railway": "station",
        "railway:name:VPE": "Angyalföld",
        "railway:ref": "AF",
        "ref:mav": "140",
        "train": "yes",
        "uic_ref": "5510124",
        "website": "https://www.mavcsoport.hu/mav-start/belfoldi-utazas/vasutallomas/angyalfold",
        "wheelchair": "yes",
        "wikidata": "Q3095635",
        "wikimedia_commons": "Category:Angyalföld railway station",
        "wikipedia": "hu:Angyalföld vasútállomás",
        "id": "node/7214776436"
      },
      "geometry": {
        "type": "Point",
        "coordinates": [
          19.0895103,
          47.5502218
        ]
      }
    },
    {
      "type": "Feature",
      "id": "node/7272331460",
      "properties": {
        "addr:city": "Gödöllő",
        "addr:housenumber": "1-3",
        "addr:postcode": "2100",
        "addr:street": "Állomás tér",
        "name": "Gödöllő",
        "operator": "MÁV",
        "public_transport": "station",
        "railway": "station",
        "railway:ref": "GD",
        "ref:mav": "921",
        "train": "yes",
        "uic_ref": "5511130",
        "website": "https://www.mavcsoport.hu/mav-start/belfoldi-utazas/vasutallomas/godollo",
        "wheelchair": "yes",
        "wikidata": "Q11703145",
        "wikimedia_commons": "Category:Gödöllő railway station",
        "wikipedia": "hu:Gödöllő vasútállomás",
        "id": "node/7272331460"
      },
      "geometry": {
        "type": "Point",
        "coordinates": [
          19.3586173,
          47.5927222
        ]
      }
    },
    {
      "type": "Feature",
      "id": "node/7332758945",
      "properties": {
        "access": "customers",
        "light_rail": "yes",
        "name": "Vízimalom",
        "public_transport": "station",
        "railway": "halt",
        "station": "light_rail",
        "train": "yes",
        "wheelchair": "yes",
        "id": "node/7332758945"
      },
      "geometry": {
        "type": "Point",
        "coordinates": [
          19.0486032,
          47.6944481
        ]
      }
    },
    {
      "type": "Feature",
      "id": "node/7332758946",
      "properties": {
        "access": "customers",
        "light_rail": "yes",
        "name": "Kovácsműhely",
        "public_transport": "station",
        "railway": "halt",
        "station": "light_rail",
        "train": "yes",
        "wheelchair": "yes",
        "id": "node/7332758946"
      },
      "geometry": {
        "type": "Point",
        "coordinates": [
          19.0434302,
          47.6956721
        ]
      }
    },
    {
      "type": "Feature",
      "id": "node/7332758947",
      "properties": {
        "access": "customers",
        "light_rail": "yes",
        "name": "Sztaravoda-patak",
        "public_transport": "station",
        "railway": "halt",
        "station": "light_rail",
        "train": "yes",
        "wheelchair": "yes",
        "id": "node/7332758947"
      },
      "geometry": {
        "type": "Point",
        "coordinates": [
          19.0464517,
          47.697439
        ]
      }
    },
    {
      "type": "Feature",
      "id": "node/7332758948",
      "properties": {
        "access": "customers",
        "light_rail": "yes",
        "name": "Harangláb",
        "public_transport": "station",
        "railway": "halt",
        "station": "light_rail",
        "train": "yes",
        "wheelchair": "yes",
        "id": "node/7332758948"
      },
      "geometry": {
        "type": "Point",
        "coordinates": [
          19.051393,
          47.6913019
        ]
      }
    },
    {
      "type": "Feature",
      "id": "node/7332758949",
      "properties": {
        "access": "customers",
        "light_rail": "yes",
        "name": "Néprajzi látványtár",
        "public_transport": "station",
        "railway": "halt",
        "station": "light_rail",
        "train": "yes",
        "wheelchair": "yes",
        "id": "node/7332758949"
      },
      "geometry": {
        "type": "Point",
        "coordinates": [
          19.0546989,
          47.6890046
        ]
      }
    },
    {
      "type": "Feature",
      "id": "node/7512248964",
      "properties": {
        "name": "Zalaegerszeg-Ola",
        "operator": "MÁV",
        "public_transport": "station",
        "railway": "halt",
        "ref:mav": "2520",
        "train": "yes",
        "id": "node/7512248964"
      },
      "geometry": {
        "type": "Point",
        "coordinates": [
          16.8355883,
          46.8515919
        ]
      }
    },
    {
      "type": "Feature",
      "id": "node/7517717216",
      "properties": {
        "name": "Becske",
        "public_transport": "station",
        "railway": "razed",
        "razed:railway": "station",
        "train": "yes",
        "wikidata": "Q63301802",
        "wikipedia": "hu:Becske vasútállomás",
        "id": "node/7517717216"
      },
      "geometry": {
        "type": "Point",
        "coordinates": [
          19.3477335,
          47.9255812
        ]
      }
    },
    {
      "type": "Feature",
      "id": "node/7562147853",
      "properties": {
        "addr:city": "Nógrád",
        "addr:postcode": "2642",
        "air_conditioning": "no",
        "baby_feeding": "no",
        "internet_access": "no",
        "name": "Nógrád",
        "name:de": "Neuburg",
        "network": "MÁV-Start",
        "operator": "MÁV",
        "public_transport": "station",
        "railway": "station",
        "railway:ref": "N",
        "ref:mav": "313",
        "train": "yes",
        "website": "https://www.mavcsoport.hu/mav-start/belfoldi-utazas/vasutallomas/nograd",
        "wheelchair": "no",
        "wikidata": "Q22023372",
        "wikimedia_commons": "Category:Nógrád railway station",
        "wikipedia": "hu:Nógrád vasútállomás",
        "id": "node/7562147853"
      },
      "geometry": {
        "type": "Point",
        "coordinates": [
          19.0471806,
          47.9022175
        ]
      }
    },
    {
      "type": "Feature",
      "id": "node/7575662350",
      "properties": {
        "name": "Székesfehérvár",
        "name:cs": "Stoličný Bělehrad",
        "name:de": "Stuhlweißenburg",
        "name:la": "Alba Regia Regina",
        "name:ru": "Секешфехервар",
        "name:sk": "Stoličný Belehrad",
        "name:sr": "Столни Београд",
        "name:uk": "Секешфегервар",
        "operator": "MÁV",
        "public_transport": "station",
        "railway": "station",
        "railway:name:MÁV": "Székesfehérvár",
        "railway:ref": "SV",
        "ref:mav": "838",
        "train": "yes",
        "uic_ref": "5503269",
        "wheelchair": "yes",
        "id": "node/7575662350"
      },
      "geometry": {
        "type": "Point",
        "coordinates": [
          18.4250081,
          47.1829992
        ]
      }
    },
    {
      "type": "Feature",
      "id": "node/7792439506",
      "properties": {
        "name": "Aquincum",
        "operator": "MÁV",
        "passenger_information_display": "yes",
        "public_transport": "station",
        "railway": "halt",
        "railway:name:VPE": "Aquincum mh. (Óbuda)",
        "train": "yes",
        "uic_ref": "5540253",
        "wheelchair": "yes",
        "id": "node/7792439506"
      },
      "geometry": {
        "type": "Point",
        "coordinates": [
          19.0472659,
          47.5662925
        ]
      }
    },
    {
      "type": "Feature",
      "id": "node/7862504631",
      "properties": {
        "name": "Százhalombatta",
        "operator": "MÁV",
        "public_transport": "station",
        "railway": "station",
        "railway:ref": "BA",
        "train": "yes",
        "uic_ref": "5505835",
        "wheelchair": "no",
        "id": "node/7862504631"
      },
      "geometry": {
        "type": "Point",
        "coordinates": [
          18.8985576,
          47.3231824
        ]
      }
    },
    {
      "type": "Feature",
      "id": "node/8100077739",
      "properties": {
        "name": "Báránd",
        "operator": "MÁV",
        "public_transport": "station",
        "railway": "station",
        "train": "yes",
        "uic_ref": "5514407",
        "id": "node/8100077739"
      },
      "geometry": {
        "type": "Point",
        "coordinates": [
          21.2353122,
          47.2997414
        ]
      }
    },
    {
      "type": "Feature",
      "id": "node/8197311166",
      "properties": {
        "name": "Körmend",
        "name:de": "Kirment",
        "name:hr": "Kirmied",
        "name:sl": "Kermendin",
        "old_name:de": "Pinkamünd",
        "operator": "GySEV",
        "public_transport": "station",
        "railway": "station",
        "train": "yes",
        "id": "node/8197311166"
      },
      "geometry": {
        "type": "Point",
        "coordinates": [
          16.5973455,
          47.0160941
        ]
      }
    },
    {
      "type": "Feature",
      "id": "node/8197311167",
      "properties": {
        "name": "Szombathely",
        "public_transport": "station",
        "railway": "stop",
        "train": "yes",
        "id": "node/8197311167"
      },
      "geometry": {
        "type": "Point",
        "coordinates": [
          16.6324384,
          47.2377552
        ]
      }
    },
    {
      "type": "Feature",
      "id": "node/8243785548",
      "properties": {
        "name": "Kopáncs",
        "operator": "MÁV",
        "public_transport": "station",
        "railway": "station",
        "railway:ref": "K",
        "source": "VPE",
        "train": "yes",
        "uic_ref": "5518556",
        "id": "node/8243785548"
      },
      "geometry": {
        "type": "Point",
        "coordinates": [
          20.2520292,
          46.3809666
        ]
      }
    },
    {
      "type": "Feature",
      "id": "node/8353555770",
      "properties": {
        "addr:city": "Szécsény",
        "addr:postcode": "3170",
        "addr:street": "Vasútállomás",
        "internet_access": "no",
        "name": "Szécsény",
        "operator": "MÁV",
        "public_transport": "station",
        "railway": "station",
        "railway:ref": "K",
        "ref:mav": "343",
        "train": "yes",
        "uic_ref": "5510991",
        "website": "https://www.mavcsoport.hu/mav-start/belfoldi-utazas/vasutallomas/szecseny",
        "wheelchair": "no",
        "wikidata": "Q22025112",
        "wikipedia": "hu:Szécsény vasútállomás",
        "id": "node/8353555770"
      },
      "geometry": {
        "type": "Point",
        "coordinates": [
          19.521206,
          48.0926749
        ]
      }
    },
    {
      "type": "Feature",
      "id": "node/8359012136",
      "properties": {
        "name": "Esztergom",
        "network": "regional",
        "operator": "MÁV",
        "public_transport": "station",
        "railway": "station",
        "railway:name:VPE": "Esztergom",
        "railway:ref": "EZ",
        "ref:mav": "2837",
        "train": "yes",
        "uic_ref": "5501511",
        "wheelchair": "yes",
        "id": "node/8359012136"
      },
      "geometry": {
        "type": "Point",
        "coordinates": [
          18.7432699,
          47.7781762
        ]
      }
    },
    {
      "type": "Feature",
      "id": "node/8359012137",
      "properties": {
        "name": "Dorog",
        "operator": "MÁV",
        "public_transport": "station",
        "railway": "station",
        "railway:name:VPE": "Dorog",
        "train": "yes",
        "uic_ref": "5501495",
        "id": "node/8359012137"
      },
      "geometry": {
        "type": "Point",
        "coordinates": [
          18.7329246,
          47.7235693
        ]
      }
    },
    {
      "type": "Feature",
      "id": "node/8371157147",
      "properties": {
        "addr:city": "Balatonmáriafürdő",
        "addr:housenumber": "1",
        "addr:postcode": "8647",
        "addr:street": "Vasút tér",
        "name": "Balatonmáriafürdő",
        "operator": "MÁV",
        "public_transport": "station",
        "railway": "station",
        "train": "yes",
        "uic_ref": "5503541",
        "id": "node/8371157147"
      },
      "geometry": {
        "type": "Point",
        "coordinates": [
          17.3747327,
          46.7042665
        ]
      }
    },
    {
      "type": "Feature",
      "id": "node/8371157148",
      "properties": {
        "name": "Balatonaliga",
        "operator": "MÁV",
        "public_transport": "station",
        "railway": "station",
        "train": "yes",
        "id": "node/8371157148"
      },
      "geometry": {
        "type": "Point",
        "coordinates": [
          18.1706918,
          46.9843079
        ]
      }
    },
    {
      "type": "Feature",
      "id": "node/8371157150",
      "properties": {
        "addr:city": "Kelebia",
        "addr:housenumber": "25",
        "addr:postcode": "6423",
        "addr:street": "Ady Endre utca",
        "name": "Kelebia",
        "network": "MÁV-START",
        "operator": "MÁV",
        "public_transport": "station",
        "railway": "station",
        "railway:ref": "KE",
        "train": "yes",
        "uic_ref": "5516352",
        "website": "https://www.mavcsoport.hu/mav-start/belfoldi-utazas/vasutallomas/kelebia",
        "wikidata": "Q21877054",
        "wikipedia": "hu:Kelebia vasútállomás",
        "id": "node/8371157150"
      },
      "geometry": {
        "type": "Point",
        "coordinates": [
          19.6102501,
          46.194754
        ]
      }
    },
    {
      "type": "Feature",
      "id": "node/8371157153",
      "properties": {
        "internet_access": "no",
        "name": "Sátoraljaújhely",
        "name:de": "Neustadt am Zeltberg",
        "name:sk": "Nové Mesto pod Šiatrom",
        "operator": "MÁV",
        "public_transport": "station",
        "railway": "station",
        "railway:ref": "SV",
        "ref:mav": "901",
        "train": "yes",
        "uic_ref": "5513482",
        "wikidata": "Q22074891",
        "wikipedia": "hu:Sátoraljaújhely vasútállomás",
        "id": "node/8371157153"
      },
      "geometry": {
        "type": "Point",
        "coordinates": [
          21.6575431,
          48.3858556
        ]
      }
    },
    {
      "type": "Feature",
      "id": "node/8388835004",
      "properties": {
        "name": "Kőbánya alsó",
        "operator": "MÁV",
        "public_transport": "station",
        "railway": "halt",
        "ref:mav": "280",
        "train": "yes",
        "id": "node/8388835004"
      },
      "geometry": {
        "type": "Point",
        "coordinates": [
          19.1275587,
          47.4824609
        ]
      }
    },
    {
      "type": "Feature",
      "id": "node/8388835005",
      "properties": {
        "name": "Kispest",
        "operator": "MÁV",
        "public_transport": "station",
        "railway": "station",
        "railway:ref": "KP",
        "ref:mav": "283",
        "train": "yes",
        "wikidata": "Q3096689",
        "wikipedia": "hu:Kispest vasútállomás",
        "id": "node/8388835005"
      },
      "geometry": {
        "type": "Point",
        "coordinates": [
          19.1569765,
          47.4475166
        ]
      }
    },
    {
      "type": "Feature",
      "id": "node/8388835011",
      "properties": {
        "name": "Pestszentimre",
        "public_transport": "station",
        "railway": "station",
        "ref:mav": "1142",
        "train": "yes",
        "wheelchair": "no",
        "wikidata": "Q18005412",
        "id": "node/8388835011"
      },
      "geometry": {
        "type": "Point",
        "coordinates": [
          19.1874556,
          47.4031139
        ]
      }
    },
    {
      "type": "Feature",
      "id": "node/8398445191",
      "properties": {
        "name": "Kecskemét alsó",
        "public_transport": "station",
        "railway": "station",
        "ref:mav": "490",
        "train": "yes",
        "id": "node/8398445191"
      },
      "geometry": {
        "type": "Point",
        "coordinates": [
          19.6914773,
          46.8954299
        ]
      }
    },
    {
      "type": "Feature",
      "id": "node/8399367686",
      "properties": {
        "name": "Macs",
        "public_transport": "station",
        "railway": "station",
        "train": "yes",
        "id": "node/8399367686"
      },
      "geometry": {
        "type": "Point",
        "coordinates": [
          21.4806892,
          47.5686129
        ]
      }
    },
    {
      "type": "Feature",
      "id": "node/8403327556",
      "properties": {
        "addr:city": "Balatonfenyves",
        "addr:housenumber": "11",
        "addr:postcode": "8646",
        "addr:street": "Kölcsey Ferenc utca",
        "name": "Balatonfenyves",
        "operator": "MÁV",
        "public_transport": "station",
        "railway": "station",
        "ref:mav": "3613",
        "train": "yes",
        "id": "node/8403327556"
      },
      "geometry": {
        "type": "Point",
        "coordinates": [
          17.4829012,
          46.7134804
        ]
      }
    },
    {
      "type": "Feature",
      "id": "node/8410326621",
      "properties": {
        "name": "Siófok",
        "operator": "MÁV",
        "platforms": "3",
        "public_transport": "station",
        "railway": "station",
        "railway:ref": "SI",
        "ref:mav": "1624",
        "train": "yes",
        "wheelchair": "no",
        "id": "node/8410326621"
      },
      "geometry": {
        "type": "Point",
        "coordinates": [
          18.05406,
          46.9078188
        ]
      }
    },
    {
      "type": "Feature",
      "id": "node/8420221585",
      "properties": {
        "name": "Klotildliget",
        "operator": "MÁV",
        "public_transport": "station",
        "railway": "halt",
        "railway:name:VPE": "Klotildliget mh.",
        "train": "yes",
        "uic_ref": "5501446",
        "id": "node/8420221585"
      },
      "geometry": {
        "type": "Point",
        "coordinates": [
          18.8474375,
          47.6377744
        ]
      }
    },
    {
      "type": "Feature",
      "id": "node/8420247193",
      "properties": {
        "name": "Pilisjászfalu",
        "operator": "MÁV",
        "public_transport": "station",
        "railway": "halt",
        "railway:name:VPE": "Pilisjászfalu mh.",
        "train": "yes",
        "uic_ref": "5501461",
        "id": "node/8420247193"
      },
      "geometry": {
        "type": "Point",
        "coordinates": [
          18.7974563,
          47.6561256
        ]
      }
    },
    {
      "type": "Feature",
      "id": "node/8420247258",
      "properties": {
        "name": "Szabadságliget",
        "operator": "MÁV",
        "public_transport": "station",
        "railway": "halt",
        "railway:name:VPE": "Szabadságliget mh.",
        "train": "yes",
        "uic_ref": "5546052",
        "id": "node/8420247258"
      },
      "geometry": {
        "type": "Point",
        "coordinates": [
          18.893929,
          47.6259032
        ]
      }
    },
    {
      "type": "Feature",
      "id": "node/8420248870",
      "properties": {
        "name": "Magdolnavölgy",
        "operator": "MÁV",
        "public_transport": "station",
        "railway": "halt",
        "railway:name:VPE": "Magdolnavölgy mh.",
        "train": "yes",
        "uic_ref": "5501457",
        "id": "node/8420248870"
      },
      "geometry": {
        "type": "Point",
        "coordinates": [
          18.8188586,
          47.6475045
        ]
      }
    },
    {
      "type": "Feature",
      "id": "node/8420249894",
      "properties": {
        "name": "Piliscsév",
        "operator": "MÁV",
        "public_transport": "station",
        "railway": "halt",
        "railway:name:VPE": "Piliscsév mh.",
        "train": "yes",
        "uic_ref": "5540261",
        "id": "node/8420249894"
      },
      "geometry": {
        "type": "Point",
        "coordinates": [
          18.7906404,
          47.6748599
        ]
      }
    },
    {
      "type": "Feature",
      "id": "node/8420278688",
      "properties": {
        "name": "Rákosrendező",
        "operator": "MÁV",
        "public_transport": "station",
        "railway": "station",
        "railway:name:VPE": "Rákosrendező",
        "railway:ref": "RS",
        "train": "yes",
        "uic_ref": "5510082",
        "wheelchair": "limited",
        "id": "node/8420278688"
      },
      "geometry": {
        "type": "Point",
        "coordinates": [
          19.0908557,
          47.5269017
        ]
      }
    },
    {
      "type": "Feature",
      "id": "node/8431960205",
      "properties": {
        "name": "Balatonkeresztúr",
        "operator": "MÁV",
        "public_transport": "station",
        "railway": "station",
        "train": "yes",
        "uic_ref": "5508615",
        "id": "node/8431960205"
      },
      "geometry": {
        "type": "Point",
        "coordinates": [
          17.3684776,
          46.7038009
        ]
      }
    },
    {
      "type": "Feature",
      "id": "node/8431961831",
      "properties": {
        "addr:city": "Csorna",
        "addr:housenumber": "1",
        "addr:postcode": "9300",
        "addr:street": "Aradi utca",
        "internet_access": "wlan",
        "name": "Csorna",
        "name:de": "Gschirnau",
        "operator": "GySEV",
        "public_transport": "station",
        "railway": "station",
        "railway:ref": "CS",
        "ref:mav": "1905",
        "train": "yes",
        "uic_ref": "5502576",
        "website": "https://www2.gysev.hu/gysev-szolgaltatasok/allomasok-penztarak/csorna-vasutallomas",
        "wheelchair": "limited",
        "wikidata": "Q21876823",
        "wikipedia": "hu:Csorna vasútállomás",
        "id": "node/8431961831"
      },
      "geometry": {
        "type": "Point",
        "coordinates": [
          17.248911,
          47.6019587
        ]
      }
    },
    {
      "type": "Feature",
      "id": "node/8434994836",
      "properties": {
        "name": "Biatorbágy",
        "operator": "MÁV",
        "public_transport": "station",
        "railway": "station",
        "railway:name:VPE": "Biatorbágy",
        "train": "yes",
        "uic_ref": "5501057",
        "id": "node/8434994836"
      },
      "geometry": {
        "type": "Point",
        "coordinates": [
          18.8345425,
          47.4802329
        ]
      }
    },
    {
      "type": "Feature",
      "id": "node/8434997975",
      "properties": {
        "name": "Almásfüzitő",
        "operator": "MÁV",
        "public_transport": "station",
        "railway": "station",
        "railway:name:VPE": "Almásfüzitő",
        "train": "yes",
        "uic_ref": "5501172",
        "id": "node/8434997975"
      },
      "geometry": {
        "type": "Point",
        "coordinates": [
          18.2618412,
          47.7252161
        ]
      }
    },
    {
      "type": "Feature",
      "id": "node/8434997976",
      "properties": {
        "addr:city": "Almásfüzitő",
        "addr:postcode": "2931",
        "internet_access": "no",
        "name": "Almásfüzitő felső",
        "operator": "MÁV",
        "public_transport": "station",
        "railway": "station",
        "railway:name:VPE": "Almásfüzitő felső",
        "railway:ref": "FI",
        "train": "yes",
        "uic_ref": "5501180",
        "website": "https://www.mavcsoport.hu/mav-start/belfoldi-utazas/vasutallomas/almasfuzito-felso",
        "wikidata": "Q21876919",
        "wikipedia": "hu:Almásfüzitő felső vasútállomás",
        "id": "node/8434997976"
      },
      "geometry": {
        "type": "Point",
        "coordinates": [
          18.2165567,
          47.7313272
        ]
      }
    },
    {
      "type": "Feature",
      "id": "node/8437402358",
      "properties": {
        "name": "Tokod",
        "operator": "MÁV",
        "public_transport": "station",
        "railway": "station",
        "railway:name:MÁV": "Tokod",
        "railway:ref": "TD",
        "ref:mav": "2847",
        "train": "yes",
        "uic_ref": "5501628",
        "id": "node/8437402358"
      },
      "geometry": {
        "type": "Point",
        "coordinates": [
          18.6747248,
          47.7347485
        ]
      }
    },
    {
      "type": "Feature",
      "id": "node/8437402360",
      "properties": {
        "name": "Nyergesújfalu",
        "operator": "MÁV",
        "public_transport": "station",
        "railway": "station",
        "railway:name:MÁV": "Nyergesújfalu",
        "train": "yes",
        "uic_ref": "5501602",
        "id": "node/8437402360"
      },
      "geometry": {
        "type": "Point",
        "coordinates": [
          18.5615595,
          47.7611354
        ]
      }
    },
    {
      "type": "Feature",
      "id": "node/8437402363",
      "properties": {
        "name": "Lábatlan",
        "operator": "MÁV",
        "public_transport": "station",
        "railway": "station",
        "railway:name:MÁV": "Lábatlan",
        "train": "yes",
        "uic_ref": "5501578",
        "id": "node/8437402363"
      },
      "geometry": {
        "type": "Point",
        "coordinates": [
          18.5148825,
          47.7520934
        ]
      }
    },
    {
      "type": "Feature",
      "id": "node/8437402366",
      "properties": {
        "addr:city": "Süttő",
        "addr:postcode": "2543",
        "air_conditioning": "no",
        "internet_access": "no",
        "name": "Süttő",
        "operator": "MÁV",
        "public_transport": "station",
        "railway": "station",
        "railway:name:MÁV": "Süttő",
        "railway:ref": "UT",
        "train": "yes",
        "uic_ref": "5501552",
        "website": "https://www.mavcsoport.hu/mav-start/belfoldi-utazas/vasutallomas/sutto",
        "wikidata": "Q21996779",
        "wikipedia": "hu:Süttő vasútállomás",
        "id": "node/8437402366"
      },
      "geometry": {
        "type": "Point",
        "coordinates": [
          18.4548961,
          47.7612852
        ]
      }
    },
    {
      "type": "Feature",
      "id": "node/8437402369",
      "properties": {
        "name": "Neszmély",
        "operator": "MÁV",
        "public_transport": "station",
        "railway": "station",
        "railway:name:MÁV": "Neszmély",
        "train": "yes",
        "uic_ref": "5501545",
        "id": "node/8437402369"
      },
      "geometry": {
        "type": "Point",
        "coordinates": [
          18.3452734,
          47.7343712
        ]
      }
    },
    {
      "type": "Feature",
      "id": "node/8437526248",
      "properties": {
        "name": "Bodajk",
        "operator": "MÁV",
        "public_transport": "station",
        "railway": "station",
        "railway:name:MÁV": "Bodajk",
        "train": "yes",
        "uic_ref": "5503707",
        "id": "node/8437526248"
      },
      "geometry": {
        "type": "Point",
        "coordinates": [
          18.2520467,
          47.3180555
        ]
      }
    },
    {
      "type": "Feature",
      "id": "node/8437526250",
      "properties": {
        "name": "Mór",
        "operator": "MÁV",
        "public_transport": "station",
        "railway": "station",
        "railway:name:MÁV": "Mór",
        "train": "yes",
        "uic_ref": "5503731",
        "id": "node/8437526250"
      },
      "geometry": {
        "type": "Point",
        "coordinates": [
          18.1888111,
          47.3695041
        ]
      }
    },
    {
      "type": "Feature",
      "id": "node/8437526251",
      "properties": {
        "name": "Bakonysárkány",
        "operator": "MÁV",
        "public_transport": "station",
        "railway": "station",
        "railway:name:MÁV": "Bakonysárkány",
        "train": "yes",
        "uic_ref": "5503756",
        "id": "node/8437526251"
      },
      "geometry": {
        "type": "Point",
        "coordinates": [
          18.1033732,
          47.443835
        ]
      }
    },
    {
      "type": "Feature",
      "id": "node/8437526260",
      "properties": {
        "name": "Kisbér",
        "operator": "MÁV",
        "public_transport": "station",
        "railway": "station",
        "railway:name:MÁV": "Kisbér",
        "train": "yes",
        "uic_ref": "5503764",
        "id": "node/8437526260"
      },
      "geometry": {
        "type": "Point",
        "coordinates": [
          18.0249355,
          47.4942543
        ]
      }
    },
    {
      "type": "Feature",
      "id": "node/8440432942",
      "properties": {
        "name": "Környe",
        "operator": "MÁV",
        "public_transport": "station",
        "railway": "station",
        "railway:name:MÁV": "Környe",
        "train": "yes",
        "uic_ref": "5501743",
        "id": "node/8440432942"
      },
      "geometry": {
        "type": "Point",
        "coordinates": [
          18.3333604,
          47.5428823
        ]
      }
    },
    {
      "type": "Feature",
      "id": "node/8440432956",
      "properties": {
        "name": "Oroszlány",
        "operator": "MÁV",
        "public_transport": "station",
        "railway": "station",
        "railway:name:MÁV": "Oroszlány",
        "train": "yes",
        "uic_ref": "5501768",
        "id": "node/8440432956"
      },
      "geometry": {
        "type": "Point",
        "coordinates": [
          18.309,
          47.4869491
        ]
      }
    },
    {
      "type": "Feature",
      "id": "node/8446032161",
      "properties": {
        "disused:railway": "station",
        "name": "Csór-Nádasdladány",
        "operator": "MÁV",
        "public_transport": "station",
        "railway": "station",
        "railway:name:MÁV": "Csór-Nádasdladány",
        "train": "yes",
        "uic_ref": "5503855",
        "id": "node/8446032161"
      },
      "geometry": {
        "type": "Point",
        "coordinates": [
          18.2204145,
          47.1740082
        ]
      }
    },
    {
      "type": "Feature",
      "id": "node/8458031544",
      "properties": {
        "name": "Balatonvilágos",
        "operator": "MÁV",
        "public_transport": "station",
        "railway": "halt",
        "ref:mav": "843",
        "train": "yes",
        "uic_ref": "5503327",
        "wheelchair": "yes",
        "id": "node/8458031544"
      },
      "geometry": {
        "type": "Point",
        "coordinates": [
          18.1585922,
          46.9650867
        ]
      }
    },
    {
      "type": "Feature",
      "id": "node/8458031557",
      "properties": {
        "name": "Bicske",
        "operator": "MÁV",
        "public_transport": "station",
        "railway": "station",
        "railway:name:VPE": "Bicske",
        "railway:ref": "BI",
        "ref:mav": "3644",
        "train": "yes",
        "uic_ref": "5501081",
        "id": "node/8458031557"
      },
      "geometry": {
        "type": "Point",
        "coordinates": [
          18.6152776,
          47.4842459
        ]
      }
    },
    {
      "type": "Feature",
      "id": "node/8458047132",
      "properties": {
        "name": "Balatonföldvár",
        "operator": "MÁV",
        "public_transport": "station",
        "railway": "halt",
        "ref:mav": "3393",
        "train": "yes",
        "uic_ref": "5503418",
        "id": "node/8458047132"
      },
      "geometry": {
        "type": "Point",
        "coordinates": [
          17.8799338,
          46.8533616
        ]
      }
    },
    {
      "type": "Feature",
      "id": "node/8458047285",
      "properties": {
        "name": "Balatonlelle felső",
        "operator": "MÁV",
        "public_transport": "station",
        "railway": "station",
        "railway:ref": "LF",
        "ref:mav": "3605",
        "train": "yes",
        "uic_ref": "5503442",
        "wheelchair": "limited",
        "id": "node/8458047285"
      },
      "geometry": {
        "type": "Point",
        "coordinates": [
          17.7201725,
          46.7947331
        ]
      }
    },
    {
      "type": "Feature",
      "id": "node/8458047286",
      "properties": {
        "name": "Balatonlelle",
        "operator": "MÁV",
        "public_transport": "station",
        "railway": "halt",
        "ref:mav": "3606",
        "train": "yes",
        "uic_ref": "5503459",
        "wheelchair": "yes",
        "id": "node/8458047286"
      },
      "geometry": {
        "type": "Point",
        "coordinates": [
          17.694007,
          46.7873414
        ]
      }
    },
    {
      "type": "Feature",
      "id": "node/8458075882",
      "properties": {
        "name": "Balatonboglár",
        "operator": "MÁV",
        "public_transport": "station",
        "railway": "station",
        "railway:ref": "BG",
        "train": "yes",
        "uic_ref": "5503475",
        "id": "node/8458075882"
      },
      "geometry": {
        "type": "Point",
        "coordinates": [
          17.6469638,
          46.7760578
        ]
      }
    },
    {
      "type": "Feature",
      "id": "node/8518689658",
      "properties": {
        "name": "Üllő",
        "operator": "MÁV",
        "public_transport": "station",
        "railway": "station",
        "railway:name:MÁV": "Üllő",
        "train": "yes",
        "uic_ref": "5513649",
        "id": "node/8518689658"
      },
      "geometry": {
        "type": "Point",
        "coordinates": [
          19.3507546,
          47.3907859
        ]
      }
    },
    {
      "type": "Feature",
      "id": "node/8518689659",
      "properties": {
        "name": "Pilis",
        "operator": "MÁV",
        "public_transport": "station",
        "railway": "station",
        "railway:name:MÁV": "Pilis",
        "train": "yes",
        "uic_ref": "5513680",
        "id": "node/8518689659"
      },
      "geometry": {
        "type": "Point",
        "coordinates": [
          19.5370538,
          47.2795799
        ]
      }
    },
    {
      "type": "Feature",
      "id": "node/8518689660",
      "properties": {
        "name": "Albertirsa",
        "operator": "MÁV",
        "public_transport": "station",
        "railway": "station",
        "railway:name:MÁV": "Albertirsa",
        "train": "yes",
        "uic_ref": "5513698",
        "id": "node/8518689660"
      },
      "geometry": {
        "type": "Point",
        "coordinates": [
          19.6066508,
          47.2403404
        ]
      }
    },
    {
      "type": "Feature",
      "id": "node/8529977510",
      "properties": {
        "name": "Érd felső",
        "operator": "MÁV",
        "public_transport": "station",
        "railway": "halt",
        "ref:mav": "242",
        "train": "yes",
        "uic_ref": "5505819",
        "id": "node/8529977510"
      },
      "geometry": {
        "type": "Point",
        "coordinates": [
          18.9211844,
          47.3810139
        ]
      }
    },
    {
      "type": "Feature",
      "id": "node/8530031030",
      "properties": {
        "name": "Barosstelep",
        "operator": "MÁV",
        "public_transport": "station",
        "railway": "halt",
        "train": "yes",
        "uic_ref": "5547399",
        "id": "node/8530031030"
      },
      "geometry": {
        "type": "Point",
        "coordinates": [
          18.9882412,
          47.3987073
        ]
      }
    },
    {
      "type": "Feature",
      "id": "node/8530038203",
      "properties": {
        "name": "Nagytétény-Diósd",
        "operator": "MÁV",
        "public_transport": "station",
        "railway": "station",
        "ref:mav": "240",
        "train": "yes",
        "uic_ref": "5505793",
        "wikidata": "Q3097159",
        "wikipedia": "hu:Nagytétény-Diósd vasútállomás",
        "id": "node/8530038203"
      },
      "geometry": {
        "type": "Point",
        "coordinates": [
          18.9735127,
          47.398272
        ]
      }
    },
    {
      "type": "Feature",
      "id": "node/8530053325",
      "properties": {
        "name": "Budatétény",
        "operator": "MÁV",
        "public_transport": "station",
        "railway": "halt",
        "train": "yes",
        "uic_ref": "5540543",
        "id": "node/8530053325"
      },
      "geometry": {
        "type": "Point",
        "coordinates": [
          19.0178141,
          47.4055659
        ]
      }
    },
    {
      "type": "Feature",
      "id": "node/8560083768",
      "properties": {
        "name": "Érdliget",
        "operator": "MÁV",
        "public_transport": "station",
        "railway": "station",
        "ref:mav": "241",
        "train": "yes",
        "uic_ref": "5505801",
        "id": "node/8560083768"
      },
      "geometry": {
        "type": "Point",
        "coordinates": [
          18.9385495,
          47.3905981
        ]
      }
    },
    {
      "type": "Feature",
      "id": "node/8606740448",
      "properties": {
        "addr:city": "Palotabozsok",
        "addr:postcode": "7727",
        "addr:street": "Rákóczi utca",
        "name": "Palotabozsok",
        "network": "Palotabozsok Múzeumvasút",
        "operator": "Palotabozsok Hagyományőrző Egyesület",
        "public_transport": "station",
        "railway": "station",
        "train": "yes",
        "id": "node/8606740448"
      },
      "geometry": {
        "type": "Point",
        "coordinates": [
          18.6453453,
          46.1320256
        ]
      }
    },
    {
      "type": "Feature",
      "id": "node/8722424756",
      "properties": {
        "alt_name:ru": "Тёрёкбалинт",
        "name": "Törökbálint",
        "operator": "MÁV",
        "public_transport": "station",
        "railway": "halt",
        "railway:name:VPE": "Törökbálint mh.",
        "ref:mav": "189",
        "train": "yes",
        "uic_ref": "5540139",
        "wheelchair": "limited",
        "id": "node/8722424756"
      },
      "geometry": {
        "type": "Point",
        "coordinates": [
          18.9082523,
          47.4500004
        ]
      }
    },
    {
      "type": "Feature",
      "id": "node/8835744772",
      "properties": {
        "name": "Szekszárd",
        "operator": "MÁV",
        "public_transport": "station",
        "railway": "station",
        "ref:mav": "3863",
        "train": "yes",
        "id": "node/8835744772"
      },
      "geometry": {
        "type": "Point",
        "coordinates": [
          18.7127426,
          46.3496086
        ]
      }
    },
    {
      "type": "Feature",
      "id": "node/8862293373",
      "properties": {
        "name": "Kistolmácsi-tó",
        "operator": "Csömödéri ÁEV",
        "public_transport": "station",
        "railway": "station",
        "train": "yes",
        "id": "node/8862293373"
      },
      "geometry": {
        "type": "Point",
        "coordinates": [
          16.7427988,
          46.4952277
        ]
      }
    },
    {
      "type": "Feature",
      "id": "node/8880588086",
      "properties": {
        "name": "Dinnyés",
        "operator": "MÁV",
        "public_transport": "station",
        "railway": "halt",
        "ref:mav": "837",
        "train": "yes",
        "uic_ref": "5503103",
        "wheelchair": "yes",
        "id": "node/8880588086"
      },
      "geometry": {
        "type": "Point",
        "coordinates": [
          18.5635706,
          47.1807095
        ]
      }
    },
    {
      "type": "Feature",
      "id": "node/8880619122",
      "properties": {
        "name": "Agárd",
        "operator": "MÁV",
        "public_transport": "station",
        "railway": "halt",
        "ref:mav": "836",
        "train": "yes",
        "uic_ref": "5503244",
        "wheelchair": "yes",
        "id": "node/8880619122"
      },
      "geometry": {
        "type": "Point",
        "coordinates": [
          18.6045497,
          47.1974573
        ]
      }
    },
    {
      "type": "Feature",
      "id": "node/8880621971",
      "properties": {
        "name": "Velencefürdő",
        "operator": "MÁV",
        "public_transport": "station",
        "railway": "halt",
        "ref:mav": "834",
        "train": "yes",
        "uic_ref": "5503228",
        "wheelchair": "yes",
        "id": "node/8880621971"
      },
      "geometry": {
        "type": "Point",
        "coordinates": [
          18.6479768,
          47.2184283
        ]
      }
    },
    {
      "type": "Feature",
      "id": "node/8880625559",
      "properties": {
        "name": "Gárdony",
        "operator": "MÁV",
        "public_transport": "station",
        "railway": "station",
        "railway:ref": "GA",
        "ref:mav": "835",
        "train": "yes",
        "uic_ref": "5503236",
        "wheelchair": "yes",
        "id": "node/8880625559"
      },
      "geometry": {
        "type": "Point",
        "coordinates": [
          18.6247351,
          47.2060681
        ]
      }
    },
    {
      "type": "Feature",
      "id": "node/8880631989",
      "properties": {
        "name": "Velence",
        "operator": "MÁV",
        "public_transport": "station",
        "railway": "halt",
        "ref:mav": "833",
        "train": "yes",
        "uic_ref": "5503210",
        "wheelchair": "yes",
        "id": "node/8880631989"
      },
      "geometry": {
        "type": "Point",
        "coordinates": [
          18.6626791,
          47.2262056
        ]
      }
    },
    {
      "type": "Feature",
      "id": "node/8889601937",
      "properties": {
        "name": "Pettend",
        "operator": "MÁV",
        "public_transport": "station",
        "railway": "halt",
        "ref:mav": "831",
        "train": "yes",
        "uic_ref": "5503194",
        "id": "node/8889601937"
      },
      "geometry": {
        "type": "Point",
        "coordinates": [
          18.713411,
          47.2629599
        ]
      }
    },
    {
      "type": "Feature",
      "id": "node/8893458883",
      "properties": {
        "name": "Bezenye",
        "operator": "GySEV",
        "public_transport": "station",
        "railway": "halt",
        "ref:mav": "65436",
        "train": "yes",
        "uic_ref": "5547431",
        "id": "node/8893458883"
      },
      "geometry": {
        "type": "Point",
        "coordinates": [
          17.2077422,
          47.9733802
        ]
      }
    },
    {
      "type": "Feature",
      "id": "node/8893472524",
      "properties": {
        "name": "Baracska",
        "operator": "MÁV",
        "public_transport": "station",
        "railway": "halt",
        "ref:mav": "830",
        "train": "yes",
        "uic_ref": "5503186",
        "id": "node/8893472524"
      },
      "geometry": {
        "type": "Point",
        "coordinates": [
          18.7548852,
          47.2983476
        ]
      }
    },
    {
      "type": "Feature",
      "id": "node/8893475090",
      "properties": {
        "name": "Alsógalla",
        "operator": "MÁV",
        "public_transport": "station",
        "railway": "halt",
        "railway:name:VPE": "Alsógalla mh.",
        "ref:mav": "3648",
        "train": "yes",
        "uic_ref": "5501123",
        "id": "node/8893475090"
      },
      "geometry": {
        "type": "Point",
        "coordinates": [
          18.4253355,
          47.563413
        ]
      }
    },
    {
      "type": "Feature",
      "id": "node/8925624383",
      "properties": {
        "fixme": "Forgalmi kitérő, nincs személyforgalom, a vonatok menetrend szerint áthaladnak, ha van jobb jelölés, azt kellene itt alkalmazni...",
        "internet_access": "no",
        "name": "Táska forgalmi kitérő",
        "network": "Balatonfenyvesi Gazdasági vasút",
        "operator": "MÁV",
        "public_transport": "station",
        "railway": "station",
        "start_date": "2021.07.01",
        "train": "yes",
        "id": "node/8925624383"
      },
      "geometry": {
        "type": "Point",
        "coordinates": [
          17.5169307,
          46.6640415
        ]
      }
    },
    {
      "type": "Feature",
      "id": "node/8960203485",
      "properties": {
        "addr:city": "Balatonszentgyörgy",
        "addr:housenumber": "9",
        "addr:postcode": "8710",
        "addr:street": "Vasút utca",
        "name": "Balatonszentgyörgy",
        "operator": "MÁV",
        "public_transport": "station",
        "railway": "station",
        "ref:mav": "3617",
        "train": "yes",
        "id": "node/8960203485"
      },
      "geometry": {
        "type": "Point",
        "coordinates": [
          17.2888824,
          46.6925583
        ]
      }
    },
    {
      "type": "Feature",
      "id": "node/8968041611",
      "properties": {
        "name": "Tárnok",
        "operator": "MÁV",
        "public_transport": "station",
        "railway": "station",
        "railway:ref": "TA",
        "ref:mav": "828",
        "train": "yes",
        "uic_ref": "5503160",
        "id": "node/8968041611"
      },
      "geometry": {
        "type": "Point",
        "coordinates": [
          18.8735221,
          47.3652962
        ]
      }
    },
    {
      "type": "Feature",
      "id": "node/8988992937",
      "properties": {
        "addr:city": "Vámosgyörk",
        "addr:housenumber": "6",
        "addr:postcode": "3291",
        "addr:street": "József Attila utca",
        "name": "Vámosgyörk",
        "network": "MÁV-START",
        "operator": "MÁV",
        "public_transport": "station",
        "railway": "station",
        "railway:ref": "GY",
        "ref:mav": "930",
        "train": "yes",
        "uic_ref": "5511239",
        "website": "https://www.mavcsoport.hu/mav-start/belfoldi-utazas/vasutallomas/vamosgyork",
        "wikidata": "Q22039314",
        "wikipedia": "hu:Vámosgyörk vasútállomás",
        "id": "node/8988992937"
      },
      "geometry": {
        "type": "Point",
        "coordinates": [
          19.9277785,
          47.6861124
        ]
      }
    },
    {
      "type": "Feature",
      "id": "node/9010326331",
      "properties": {
        "addr:city": "Füzesabony",
        "addr:housenumber": "1",
        "addr:postcode": "3390",
        "addr:street": "Baross Gábor út",
        "name": "Füzesabony",
        "name:de": "Wabing",
        "name:hu": "Füzesabony",
        "network": "MÁV-START",
        "operator": "MÁV",
        "public_transport": "station",
        "railway": "station",
        "railway:ref": "FA",
        "ref:mav": "936",
        "train": "yes",
        "uic_ref": "5511296",
        "website": "https://www.mavcsoport.hu/mav-start/belfoldi-utazas/vasutallomas/fuzesabony",
        "wheelchair": "no",
        "wikidata": "Q21877063",
        "wikipedia": "hu:Füzesabony vasútállomás",
        "id": "node/9010326331"
      },
      "geometry": {
        "type": "Point",
        "coordinates": [
          20.4144571,
          47.7512151
        ]
      }
    },
    {
      "type": "Feature",
      "id": "node/9023154312",
      "properties": {
        "name": "Balatonalmádi",
        "operator": "MÁV",
        "public_transport": "station",
        "railway": "station",
        "railway:ref": "FD",
        "ref:mav": "1675",
        "train": "yes",
        "uic_ref": "5504366",
        "wheelchair": "no",
        "id": "node/9023154312"
      },
      "geometry": {
        "type": "Point",
        "coordinates": [
          18.0154241,
          47.0283061
        ]
      }
    },
    {
      "type": "Feature",
      "id": "node/9197583657",
      "properties": {
        "name": "Találkozások háza",
        "operator": "Tiszakécske város önkormányzata",
        "public_transport": "station",
        "railway": "station",
        "train": "yes",
        "id": "node/9197583657"
      },
      "geometry": {
        "type": "Point",
        "coordinates": [
          20.1040299,
          46.9403714
        ]
      }
    },
    {
      "type": "Feature",
      "id": "node/9212469725",
      "properties": {
        "name": "Ercsi",
        "operator": "MÁV",
        "public_transport": "station",
        "railway": "station",
        "ref:mav": "246",
        "train": "yes",
        "id": "node/9212469725"
      },
      "geometry": {
        "type": "Point",
        "coordinates": [
          18.8753784,
          47.2470261
        ]
      }
    },
    {
      "type": "Feature",
      "id": "node/9213648927",
      "properties": {
        "name": "Pörböly",
        "operator": "MÁV",
        "public_transport": "station",
        "railway": "station",
        "ref:mav": "3885",
        "train": "yes",
        "id": "node/9213648927"
      },
      "geometry": {
        "type": "Point",
        "coordinates": [
          18.8283127,
          46.1991844
        ]
      }
    },
    {
      "type": "Feature",
      "id": "node/9216425257",
      "properties": {
        "addr:city": "Dombóvár",
        "addr:housenumber": "35",
        "addr:postcode": "7200",
        "addr:street": "Földvár utca",
        "name": "Dombóvár",
        "name:de": "Dombowa",
        "operator": "MÁV",
        "public_transport": "station",
        "railway": "station",
        "railway:ref": "UD",
        "ref:mav": "1759",
        "train": "yes",
        "id": "node/9216425257"
      },
      "geometry": {
        "type": "Point",
        "coordinates": [
          18.1496008,
          46.3699371
        ]
      }
    },
    {
      "type": "Feature",
      "id": "node/9241199503",
      "properties": {
        "name": "Mátrafüred",
        "operator": "Egererdő Zrt.",
        "public_transport": "station",
        "railway": "station",
        "train": "yes",
        "id": "node/9241199503"
      },
      "geometry": {
        "type": "Point",
        "coordinates": [
          19.9707329,
          47.8306403
        ]
      }
    },
    {
      "type": "Feature",
      "id": "node/9322082555",
      "properties": {
        "name": "Börgönd",
        "operator": "MÁV",
        "public_transport": "station",
        "railway": "station",
        "railway:ref": "BOR",
        "ref:mav": "1652",
        "train": "yes",
        "id": "node/9322082555"
      },
      "geometry": {
        "type": "Point",
        "coordinates": [
          18.5149952,
          47.139983
        ]
      }
    },
    {
      "type": "Feature",
      "id": "node/9334329079",
      "properties": {
        "name": "Ludas",
        "name:ru": "Лудаш",
        "operator": "MÁV",
        "public_transport": "station",
        "railway": "station",
        "ref:mav": "933",
        "train": "yes",
        "id": "node/9334329079"
      },
      "geometry": {
        "type": "Point",
        "coordinates": [
          20.0956679,
          47.7239883
        ]
      }
    },
    {
      "type": "Feature",
      "id": "node/9334329080",
      "properties": {
        "name": "Nagyút",
        "operator": "MÁV",
        "public_transport": "station",
        "railway": "station",
        "ref:mav": "934",
        "train": "yes",
        "id": "node/9334329080"
      },
      "geometry": {
        "type": "Point",
        "coordinates": [
          20.1619565,
          47.7266539
        ]
      }
    },
    {
      "type": "Feature",
      "id": "node/9334329081",
      "properties": {
        "addr:city": "Kál",
        "name": "Kál-Kápolna",
        "operator": "MÁV",
        "public_transport": "station",
        "railway": "station",
        "ref:mav": "935",
        "source": "guess",
        "train": "yes",
        "id": "node/9334329081"
      },
      "geometry": {
        "type": "Point",
        "coordinates": [
          20.2538953,
          47.7339429
        ]
      }
    },
    {
      "type": "Feature",
      "id": "node/9334329082",
      "properties": {
        "name": "Maklár",
        "operator": "MÁV",
        "public_transport": "station",
        "railway": "station",
        "ref:mav": "1803",
        "train": "yes",
        "id": "node/9334329082"
      },
      "geometry": {
        "type": "Point",
        "coordinates": [
          20.4047597,
          47.8078366
        ]
      }
    },
    {
      "type": "Feature",
      "id": "node/9347554506",
      "properties": {
        "name": "Hévízgyörk",
        "operator": "MÁV",
        "public_transport": "station",
        "railway": "halt",
        "ref:mav": "925",
        "train": "yes",
        "uic_ref": "5511171",
        "wheelchair": "yes",
        "wikidata": "Q22022562",
        "wikipedia": "hu:Hévízgyörk megállóhely",
        "id": "node/9347554506"
      },
      "geometry": {
        "type": "Point",
        "coordinates": [
          19.5276593,
          47.6385199
        ]
      }
    },
    {
      "type": "Feature",
      "id": "node/9347555925",
      "properties": {
        "name": "Galgahévíz",
        "operator": "MÁV",
        "public_transport": "station",
        "railway": "halt",
        "ref:mav": "926",
        "train": "yes",
        "uic_ref": "5511189",
        "wheelchair": "yes",
        "wikidata": "Q21877019",
        "wikipedia": "hu:Galgahévíz megállóhely",
        "id": "node/9347555925"
      },
      "geometry": {
        "type": "Point",
        "coordinates": [
          19.5598409,
          47.6321201
        ]
      }
    },
    {
      "type": "Feature",
      "id": "node/9355942020",
      "properties": {
        "addr:city": "Újszász",
        "addr:housenumber": "2",
        "addr:postcode": "5052",
        "addr:street": "Baross utca",
        "air_conditioning": "no",
        "internet_access": "no",
        "name": "Újszász",
        "operator": "MÁV",
        "public_transport": "station",
        "railway": "station",
        "railway:ref": "UA",
        "ref:mav": "972",
        "train": "yes",
        "uic_ref": "5511692",
        "website": "https://www.mavcsoport.hu/mav-start/belfoldi-utazas/vasutallomas/ujszasz",
        "wikidata": "Q21877061",
        "wikipedia": "hu:Újszász vasútállomás",
        "id": "node/9355942020"
      },
      "geometry": {
        "type": "Point",
        "coordinates": [
          20.0668376,
          47.2856798
        ]
      }
    },
    {
      "type": "Feature",
      "id": "node/9448488925",
      "properties": {
        "name": "Tiszafüred-Gyártelep",
        "operator": "MÁV",
        "public_transport": "station",
        "railway": "halt",
        "ref:mav": "1840",
        "train": "yes",
        "wikidata": "Q22047645",
        "wikipedia": "hu:Tiszafüred-Gyártelep megállóhely",
        "id": "node/9448488925"
      },
      "geometry": {
        "type": "Point",
        "coordinates": [
          20.7371141,
          47.6160053
        ]
      }
    },
    {
      "type": "Feature",
      "id": "node/9480323206",
      "properties": {
        "name": "Papkeszi",
        "operator": "MÁV",
        "public_transport": "station",
        "railway": "station",
        "railway:name:MÁV": "Papkeszi rh.",
        "train": "yes",
        "uic_ref": "5504192",
        "id": "node/9480323206"
      },
      "geometry": {
        "type": "Point",
        "coordinates": [
          18.0895509,
          47.0983478
        ]
      }
    },
    {
      "type": "Feature",
      "id": "node/9480323207",
      "properties": {
        "name": "Nagytétény",
        "operator": "MÁV",
        "public_transport": "station",
        "railway": "station",
        "railway:name:MÁV": "Nagytétény",
        "train": "yes",
        "uic_ref": "5503137",
        "id": "node/9480323207"
      },
      "geometry": {
        "type": "Point",
        "coordinates": [
          18.974353,
          47.3879999
        ]
      }
    },
    {
      "type": "Feature",
      "id": "node/9480413771",
      "properties": {
        "name": "Siklós",
        "operator": "MÁV",
        "public_transport": "station",
        "railway": "station",
        "railway:name:MÁV": "Siklós",
        "train": "yes",
        "uic_ref": "5508177",
        "id": "node/9480413771"
      },
      "geometry": {
        "type": "Point",
        "coordinates": [
          18.3056534,
          45.8591449
        ]
      }
    },
    {
      "type": "Feature",
      "id": "node/9480413772",
      "properties": {
        "name": "Harkány",
        "operator": "MÁV",
        "public_transport": "station",
        "railway": "station",
        "railway:name:MÁV": "Harkány",
        "train": "yes",
        "uic_ref": "5508144",
        "id": "node/9480413772"
      },
      "geometry": {
        "type": "Point",
        "coordinates": [
          18.2246508,
          45.8549062
        ]
      }
    },
    {
      "type": "Feature",
      "id": "node/9480413773",
      "properties": {
        "name": "Pécs felső",
        "operator": "MÁV",
        "public_transport": "station",
        "railway": "station",
        "railway:name:MÁV": "Pécs felső",
        "train": "yes",
        "uic_ref": "5507633",
        "id": "node/9480413773"
      },
      "geometry": {
        "type": "Point",
        "coordinates": [
          18.2875277,
          46.0905248
        ]
      }
    },
    {
      "type": "Feature",
      "id": "node/9480413774",
      "properties": {
        "name": "Dunakeszi",
        "operator": "MÁV",
        "public_transport": "station",
        "railway": "station",
        "railway:name:MÁV": "Dunakeszi",
        "train": "yes",
        "uic_ref": "5510371",
        "id": "node/9480413774"
      },
      "geometry": {
        "type": "Point",
        "coordinates": [
          19.1363467,
          47.6258558
        ]
      }
    },
    {
      "type": "Feature",
      "id": "node/9480413775",
      "properties": {
        "name": "Göd",
        "operator": "MÁV",
        "public_transport": "station",
        "railway": "station",
        "railway:name:MÁV": "Göd",
        "train": "yes",
        "uic_ref": "5510413",
        "id": "node/9480413775"
      },
      "geometry": {
        "type": "Point",
        "coordinates": [
          19.1375119,
          47.6879182
        ]
      }
    },
    {
      "type": "Feature",
      "id": "node/9480413778",
      "properties": {
        "name": "Recsk-Kőrakodó",
        "operator": "MÁV",
        "public_transport": "station",
        "railway": "station",
        "railway:name:MÁV": "Recsk-Kőrakodó rh.",
        "train": "yes",
        "uic_ref": "5541657",
        "id": "node/9480413778"
      },
      "geometry": {
        "type": "Point",
        "coordinates": [
          20.1290102,
          47.926862
        ]
      }
    },
    {
      "type": "Feature",
      "id": "node/9480413782",
      "properties": {
        "name": "Verpelét",
        "operator": "MÁV",
        "public_transport": "station",
        "railway": "station",
        "railway:name:MÁV": "Verpelét mrh.",
        "train": "yes",
        "uic_ref": "5512187",
        "id": "node/9480413782"
      },
      "geometry": {
        "type": "Point",
        "coordinates": [
          20.2119606,
          47.8555415
        ]
      }
    },
    {
      "type": "Feature",
      "id": "node/9480413788",
      "properties": {
        "name": "Recsk-Parádfürdő",
        "operator": "MÁV",
        "public_transport": "station",
        "railway": "station",
        "railway:name:MÁV": "Recsk-Parádfürdő",
        "train": "yes",
        "uic_ref": "5512153",
        "id": "node/9480413788"
      },
      "geometry": {
        "type": "Point",
        "coordinates": [
          20.1065599,
          47.9316639
        ]
      }
    },
    {
      "type": "Feature",
      "id": "node/9480929156",
      "properties": {
        "name": "Miskolc-Repülőtér",
        "operator": "MÁV",
        "public_transport": "station",
        "railway": "station",
        "railway:name:MÁV": "Miskolc-Repülőtér",
        "train": "yes",
        "uic_ref": "5512682",
        "id": "node/9480929156"
      },
      "geometry": {
        "type": "Point",
        "coordinates": [
          20.7888976,
          48.1338995
        ]
      }
    },
    {
      "type": "Feature",
      "id": "node/9480929159",
      "properties": {
        "name": "Rudabánya-Teher",
        "operator": "MÁV",
        "public_transport": "station",
        "railway": "station",
        "railway:name:MÁV": "Rudabánya-Teher rh.",
        "train": "yes",
        "uic_ref": "5513094",
        "id": "node/9480929159"
      },
      "geometry": {
        "type": "Point",
        "coordinates": [
          20.631236,
          48.3652029
        ]
      }
    },
    {
      "type": "Feature",
      "id": "node/9481003162",
      "properties": {
        "name": "Békés",
        "operator": "MÁV",
        "public_transport": "station",
        "railway": "station",
        "railway:name:MÁV": "Békés",
        "train": "yes",
        "uic_ref": "5518010",
        "id": "node/9481003162"
      },
      "geometry": {
        "type": "Point",
        "coordinates": [
          21.1222175,
          46.7726987
        ]
      }
    },
    {
      "type": "Feature",
      "id": "node/9481003163",
      "properties": {
        "name": "Tószeg",
        "operator": "MÁV",
        "public_transport": "station",
        "railway": "station",
        "railway:name:MÁV": "Tószeg",
        "train": "yes",
        "uic_ref": "5517707",
        "id": "node/9481003163"
      },
      "geometry": {
        "type": "Point",
        "coordinates": [
          20.1386505,
          47.0979971
        ]
      }
    },
    {
      "type": "Feature",
      "id": "node/9481003164",
      "properties": {
        "name": "Bösztör",
        "operator": "MÁV",
        "public_transport": "station",
        "railway": "station",
        "railway:name:MÁV": "Bösztör",
        "train": "yes",
        "uic_ref": "5516212",
        "id": "node/9481003164"
      },
      "geometry": {
        "type": "Point",
        "coordinates": [
          19.1595948,
          46.9382232
        ]
      }
    },
    {
      "type": "Feature",
      "id": "node/9481003165",
      "properties": {
        "name": "Csengőd",
        "operator": "MÁV",
        "public_transport": "station",
        "railway": "station",
        "railway:name:MÁV": "Csengőd",
        "train": "yes",
        "uic_ref": "5516253",
        "id": "node/9481003165"
      },
      "geometry": {
        "type": "Point",
        "coordinates": [
          19.2741021,
          46.7175273
        ]
      }
    },
    {
      "type": "Feature",
      "id": "node/9481003166",
      "properties": {
        "name": "Balotaszállás",
        "operator": "MÁV",
        "public_transport": "station",
        "railway": "station",
        "railway:name:MÁV": "Balotaszállás",
        "train": "yes",
        "uic_ref": "5516329",
        "id": "node/9481003166"
      },
      "geometry": {
        "type": "Point",
        "coordinates": [
          19.5330918,
          46.3493364
        ]
      }
    },
    {
      "type": "Feature",
      "id": "node/9481003167",
      "properties": {
        "name": "Kisszállás",
        "operator": "MÁV",
        "public_transport": "station",
        "railway": "station",
        "railway:name:MÁV": "Kisszállás",
        "train": "yes",
        "uic_ref": "5516337",
        "id": "node/9481003167"
      },
      "geometry": {
        "type": "Point",
        "coordinates": [
          19.5386357,
          46.2785654
        ]
      }
    },
    {
      "type": "Feature",
      "id": "node/9481003168",
      "properties": {
        "name": "Dunavecse",
        "operator": "MÁV",
        "public_transport": "station",
        "railway": "station",
        "railway:name:MÁV": "Dunavecse",
        "train": "yes",
        "uic_ref": "5516386",
        "id": "node/9481003168"
      },
      "geometry": {
        "type": "Point",
        "coordinates": [
          18.9801836,
          46.9200237
        ]
      }
    },
    {
      "type": "Feature",
      "id": "node/9481003170",
      "properties": {
        "name": "Piroska-Gyártelep",
        "operator": "MÁV",
        "public_transport": "station",
        "railway": "station",
        "railway:name:MÁV": "Piroska-Gyártelep",
        "train": "yes",
        "uic_ref": "5517699",
        "id": "node/9481003170"
      },
      "geometry": {
        "type": "Point",
        "coordinates": [
          20.1263858,
          47.1332988
        ]
      }
    },
    {
      "type": "Feature",
      "id": "node/9481003171",
      "properties": {
        "name": "Gyömrő",
        "operator": "MÁV",
        "public_transport": "station",
        "railway": "station",
        "railway:name:MÁV": "Gyömrő",
        "train": "yes",
        "uic_ref": "5511577",
        "id": "node/9481003171"
      },
      "geometry": {
        "type": "Point",
        "coordinates": [
          19.3934629,
          47.4294892
        ]
      }
    },
    {
      "type": "Feature",
      "id": "node/9481003172",
      "properties": {
        "name": "Mende",
        "operator": "MÁV",
        "public_transport": "station",
        "railway": "station",
        "railway:name:MÁV": "Mende",
        "train": "yes",
        "uic_ref": "5511585",
        "id": "node/9481003172"
      },
      "geometry": {
        "type": "Point",
        "coordinates": [
          19.4401953,
          47.4270656
        ]
      }
    },
    {
      "type": "Feature",
      "id": "node/9481003173",
      "properties": {
        "name": "Sülysáp",
        "operator": "MÁV",
        "public_transport": "station",
        "railway": "station",
        "railway:name:MÁV": "Sülysáp",
        "train": "yes",
        "uic_ref": "5511601",
        "id": "node/9481003173"
      },
      "geometry": {
        "type": "Point",
        "coordinates": [
          19.5271518,
          47.4518647
        ]
      }
    },
    {
      "type": "Feature",
      "id": "node/9481153345",
      "properties": {
        "historic": "building",
        "name": "Budapest-Józsefváros",
        "operator": "MÁV",
        "public_transport": "station",
        "railway": "station",
        "railway:name:MÁV": "Budapest-Józsefváros",
        "train": "yes",
        "uic_ref": "5510041",
        "id": "node/9481153345"
      },
      "geometry": {
        "type": "Point",
        "coordinates": [
          19.0906906,
          47.4908628
        ]
      }
    },
    {
      "type": "Feature",
      "id": "node/9481153346",
      "properties": {
        "name": "Földeák",
        "operator": "MÁV",
        "public_transport": "station",
        "railway": "station",
        "railway:name:MÁV": "Földeák",
        "train": "yes",
        "uic_ref": "5519364",
        "id": "node/9481153346"
      },
      "geometry": {
        "type": "Point",
        "coordinates": [
          20.4882224,
          46.3137373
        ]
      }
    },
    {
      "type": "Feature",
      "id": "node/9481153351",
      "properties": {
        "name": "Pestszentlőrinc-Kavicsbánya",
        "operator": "MÁV",
        "public_transport": "station",
        "railway": "station",
        "railway:name:MÁV": "Pestszentlőrinc-Kavicsbánya rh.",
        "train": "yes",
        "uic_ref": "5510330",
        "id": "node/9481153351"
      },
      "geometry": {
        "type": "Point",
        "coordinates": [
          19.2088422,
          47.443687
        ]
      }
    },
    {
      "type": "Feature",
      "id": "node/9481153354",
      "properties": {
        "name": "Kaskantyú",
        "operator": "MÁV",
        "public_transport": "station",
        "railway": "station",
        "railway:name:MÁV": "Kaskantyú",
        "train": "yes",
        "uic_ref": "5517657",
        "id": "node/9481153354"
      },
      "geometry": {
        "type": "Point",
        "coordinates": [
          19.3898668,
          46.6707767
        ]
      }
    },
    {
      "type": "Feature",
      "id": "node/9481153358",
      "properties": {
        "name": "Kiskőrös KK",
        "operator": "MÁV",
        "public_transport": "station",
        "railway": "station",
        "railway:name:MÁV": "Kiskőrös KK",
        "train": "yes",
        "uic_ref": "5545310",
        "id": "node/9481153358"
      },
      "geometry": {
        "type": "Point",
        "coordinates": [
          19.2983283,
          46.6225713
        ]
      }
    },
    {
      "type": "Feature",
      "id": "node/9481153359",
      "properties": {
        "name": "Kiskunmajsa KK",
        "operator": "MÁV",
        "public_transport": "station",
        "railway": "station",
        "railway:name:MÁV": "Kiskunmajsa KK",
        "train": "yes",
        "uic_ref": "5517608",
        "id": "node/9481153359"
      },
      "geometry": {
        "type": "Point",
        "coordinates": [
          19.7251969,
          46.5049234
        ]
      }
    },
    {
      "type": "Feature",
      "id": "node/9481153361",
      "properties": {
        "name": "Páhi",
        "operator": "MÁV",
        "public_transport": "station",
        "railway": "station",
        "railway:name:MÁV": "Páhi",
        "train": "yes",
        "uic_ref": "5517640",
        "id": "node/9481153361"
      },
      "geometry": {
        "type": "Point",
        "coordinates": [
          19.3866448,
          46.7110501
        ]
      }
    },
    {
      "type": "Feature",
      "id": "node/9481153362",
      "properties": {
        "name": "Orgovány",
        "operator": "MÁV",
        "public_transport": "station",
        "railway": "station",
        "railway:name:MÁV": "Orgovány",
        "train": "yes",
        "uic_ref": "5517632",
        "id": "node/9481153362"
      },
      "geometry": {
        "type": "Point",
        "coordinates": [
          19.4809659,
          46.750151
        ]
      }
    },
    {
      "type": "Feature",
      "id": "node/9481153363",
      "properties": {
        "name": "Ibrány",
        "operator": "MÁV",
        "public_transport": "station",
        "railway": "station",
        "railway:name:MÁV": "Ibrány mrh.",
        "train": "yes",
        "uic_ref": "5519877",
        "id": "node/9481153363"
      },
      "geometry": {
        "type": "Point",
        "coordinates": [
          21.7120093,
          48.1276254
        ]
      }
    },
    {
      "type": "Feature",
      "id": "node/9481153368",
      "properties": {
        "name": "Újszentmargita",
        "operator": "MÁV",
        "public_transport": "station",
        "railway": "station",
        "railway:name:MÁV": "Újszentmargita mrh.",
        "train": "yes",
        "uic_ref": "5514795",
        "id": "node/9481153368"
      },
      "geometry": {
        "type": "Point",
        "coordinates": [
          21.1138896,
          47.7438374
        ]
      }
    },
    {
      "type": "Feature",
      "id": "node/9481153370",
      "properties": {
        "name": "Ágerdőmajor",
        "operator": "MÁV",
        "public_transport": "station",
        "railway": "station",
        "railway:name:MÁV": "Ágerdőmajor mrh.",
        "train": "yes",
        "uic_ref": "5516105",
        "id": "node/9481153370"
      },
      "geometry": {
        "type": "Point",
        "coordinates": [
          22.4291434,
          47.7763788
        ]
      }
    },
    {
      "type": "Feature",
      "id": "node/9481428076",
      "properties": {
        "name": "Jakabszállás",
        "operator": "MÁV",
        "public_transport": "station",
        "railway": "station",
        "railway:name:MÁV": "Jakabszállás mrh.",
        "train": "yes",
        "uic_ref": "5517533",
        "id": "node/9481428076"
      },
      "geometry": {
        "type": "Point",
        "coordinates": [
          19.6043519,
          46.766117
        ]
      }
    },
    {
      "type": "Feature",
      "id": "node/9481731647",
      "properties": {
        "name": "Középrigóc",
        "operator": "MÁV",
        "public_transport": "station",
        "railway": "station",
        "railway:name:MÁV": "Középrigóc",
        "train": "yes",
        "uic_ref": "5505686",
        "id": "node/9481731647"
      },
      "geometry": {
        "type": "Point",
        "coordinates": [
          17.5249642,
          45.9704704
        ]
      }
    },
    {
      "type": "Feature",
      "id": "node/9481731663",
      "properties": {
        "name": "Sellye",
        "operator": "MÁV",
        "public_transport": "station",
        "railway": "station",
        "railway:name:MÁV": "Sellye",
        "train": "yes",
        "uic_ref": "5508078",
        "id": "node/9481731663"
      },
      "geometry": {
        "type": "Point",
        "coordinates": [
          17.8589897,
          45.8730985
        ]
      }
    },
    {
      "type": "Feature",
      "id": "node/9481803762",
      "properties": {
        "name": "Sopron",
        "operator": "GySEV",
        "public_transport": "station",
        "railway": "station",
        "railway:name:MÁV": "Sopron",
        "train": "yes",
        "uic_ref": "5502725",
        "id": "node/9481803762"
      },
      "geometry": {
        "type": "Point",
        "coordinates": [
          16.5867337,
          47.6776039
        ]
      }
    },
    {
      "type": "Feature",
      "id": "node/9483069313",
      "properties": {
        "name": "Kőbánya-Kispest",
        "operator": "MÁV",
        "public_transport": "station",
        "railway": "station",
        "railway:name:MÁV": "Kőbánya-Kispest",
        "train": "yes",
        "uic_ref": "5510173",
        "id": "node/9483069313"
      },
      "geometry": {
        "type": "Point",
        "coordinates": [
          19.149674,
          47.4636585
        ]
      }
    },
    {
      "type": "Feature",
      "id": "node/9483130737",
      "properties": {
        "name": "Soroksári út",
        "operator": "MÁV",
        "public_transport": "station",
        "railway": "station",
        "railway:name:MÁV": "Soroksári út",
        "train": "yes",
        "uic_ref": "5510116",
        "id": "node/9483130737"
      },
      "geometry": {
        "type": "Point",
        "coordinates": [
          19.0833972,
          47.4577614
        ]
      }
    }
  ]
}