{
  "type": "FeatureCollection",
  "features": [
    {
      "type": "Feature",
      "id": "node/661291",
      "properties": {
        "name": "Sutton",
        "name:en": "Sutton",
        "name:ga": "Cill Fhionntain",
        "network": "DART",
        "operator": "Irish Rail",
        "public_transport": "stop_position",
        "railway": "stop",
        "train": "yes",
        "wikidata": "Q3971065",
        "wikipedia": "en:Sutton railway station (Ireland)",
        "id": "node/661291"
      },
      "geometry": {
        "type": "Point",
        "coordinates": [
          -6.1160842,
          53.3920249
        ]
      }
    },
    {
      "type": "Feature",
      "id": "node/661448",
      "properties": {
        "name": "Killester",
        "name:en": "Killester",
        "name:ga": "Cill Easra",
        "network": "DART",
        "operator": "Irish Rail",
        "public_transport": "stop_position",
        "railway": "stop",
        "train": "yes",
        "id": "node/661448"
      },
      "geometry": {
        "type": "Point",
        "coordinates": [
          -6.2049888,
          53.3727894
        ]
      }
    },
    {
      "type": "Feature",
      "id": "node/661999",
      "properties": {
        "name": "Glenageary",
        "name:en": "Glenageary",
        "name:ga": "Gleann na Caorach",
        "network": "DART",
        "operator": "Irish Rail",
        "public_transport": "stop_position",
        "railway": "stop",
        "train": "yes",
        "id": "node/661999"
      },
      "geometry": {
        "type": "Point",
        "coordinates": [
          -6.1231165,
          53.2812258
        ]
      }
    },
    {
      "type": "Feature",
      "id": "node/662088",
      "properties": {
        "name": "Booterstown",
        "name:en": "Booterstown",
        "name:ga": "Baile an Bhóthair",
        "network": "DART",
        "operator": "Irish Rail",
        "public_transport": "stop_position",
        "railway": "stop",
        "train": "yes",
        "id": "node/662088"
      },
      "geometry": {
        "type": "Point",
        "coordinates": [
          -6.1952305,
          53.3099803
        ]
      }
    },
    {
      "type": "Feature",
      "id": "node/4222105",
      "properties": {
        "name": "Leixlip Louisa Bridge",
        "name:ga": "Droichead Louisa, Léim an Bhradáin",
        "network": "Dublin Commuter",
        "operator": "Irish Rail",
        "public_transport": "stop_position",
        "railway": "stop",
        "train": "yes",
        "id": "node/4222105"
      },
      "geometry": {
        "type": "Point",
        "coordinates": [
          -6.5058634,
          53.370631
        ]
      }
    },
    {
      "type": "Feature",
      "id": "node/21522430",
      "properties": {
        "name": "Banteer",
        "network": "InterCity",
        "operator": "Irish Rail",
        "phone": "+353-29-56004",
        "public_transport": "station",
        "railway": "station",
        "website": "http://www.irishrail.ie/travel-information/banteer",
        "wheelchair": "limited",
        "wikidata": "Q3968971",
        "wikipedia": "en:Banteer railway station",
        "id": "node/21522430"
      },
      "geometry": {
        "type": "Point",
        "coordinates": [
          -8.8990112,
          52.1288167
        ]
      }
    },
    {
      "type": "Feature",
      "id": "node/21522841",
      "properties": {
        "addr:county": "Cork",
        "name": "Millstreet",
        "name:ru": "Милстрит",
        "network": "InterCity",
        "operator": "Irish Rail",
        "phone": "003532970096",
        "public_transport": "station",
        "railway": "station",
        "website": "http://www.irishrail.ie/travel-information/millstreet",
        "wikidata": "Q6860056",
        "wikipedia": "en:Millstreet railway station",
        "id": "node/21522841"
      },
      "geometry": {
        "type": "Point",
        "coordinates": [
          -9.0704257,
          52.0774058
        ]
      }
    },
    {
      "type": "Feature",
      "id": "node/21540238",
      "properties": {
        "addr:city": "Sallins",
        "name": "Sallins and Naas",
        "name:ga": "Na Solláin agus An Nás",
        "network": "Dublin Commuter",
        "operator": "Irish Rail",
        "public_transport": "station",
        "railway": "station",
        "wikidata": "Q3970772",
        "id": "node/21540238"
      },
      "geometry": {
        "type": "Point",
        "coordinates": [
          -6.664641,
          53.2469372
        ]
      }
    },
    {
      "type": "Feature",
      "id": "node/26191224",
      "properties": {
        "name": "Connolly Station",
        "network": "Dublin Commuter;DART",
        "operator": "Irish Rail",
        "public_transport": "stop_position",
        "railway": "stop",
        "train": "yes",
        "id": "node/26191224"
      },
      "geometry": {
        "type": "Point",
        "coordinates": [
          -6.2475985,
          53.3526804
        ]
      }
    },
    {
      "type": "Feature",
      "id": "node/52824210",
      "properties": {
        "name": "Seapoint",
        "name:en": "Seapoint",
        "name:ga": "Rinn Na Mara",
        "network": "DART",
        "operator": "Irish Rail",
        "public_transport": "stop_position",
        "railway": "stop",
        "train": "yes",
        "id": "node/52824210"
      },
      "geometry": {
        "type": "Point",
        "coordinates": [
          -6.1652434,
          53.2991567
        ]
      }
    },
    {
      "type": "Feature",
      "id": "node/52839540",
      "properties": {
        "name": "Blackrock",
        "name:en": "Blackrock",
        "name:ga": "An Charraig Dhubh",
        "network": "Dublin Commuter;DART",
        "operator": "Irish Rail",
        "public_transport": "stop_position",
        "railway": "stop",
        "train": "yes",
        "id": "node/52839540"
      },
      "geometry": {
        "type": "Point",
        "coordinates": [
          -6.1787191,
          53.3028343
        ]
      }
    },
    {
      "type": "Feature",
      "id": "node/97230010",
      "properties": {
        "name": "Sydney Parade",
        "name:en": "Sydney Parade",
        "name:ga": "Paráid Sydney",
        "network": "DART",
        "operator": "Irish Rail",
        "public_transport": "stop_position",
        "railway": "stop",
        "train": "yes",
        "id": "node/97230010"
      },
      "geometry": {
        "type": "Point",
        "coordinates": [
          -6.2115806,
          53.3207843
        ]
      }
    },
    {
      "type": "Feature",
      "id": "node/126190360",
      "properties": {
        "name": "Tullamore",
        "name:en": "Tullamore",
        "name:ga": "Tulach Mhór",
        "network": "InterCity",
        "operator": "Irish Rail",
        "public_transport": "stop_position",
        "railway": "stop",
        "ref": "2",
        "train": "yes",
        "id": "node/126190360"
      },
      "geometry": {
        "type": "Point",
        "coordinates": [
          -7.5001319,
          53.2704139
        ]
      }
    },
    {
      "type": "Feature",
      "id": "node/126217380",
      "properties": {
        "addr:city": "Athlone",
        "addr:street": "Southern Station Road",
        "name": "Athlone",
        "name:ga": "Baile Átha Luain",
        "network": "InterCity",
        "operator": "Irish Rail",
        "phone": "+353 90 6473300",
        "platforms": "3",
        "public_transport": "station",
        "railway": "station",
        "start_date": "1859",
        "website": "http://www.irishrail.ie/travel-information/athlone",
        "wheelchair": "yes",
        "wikidata": "Q3968929",
        "wikipedia": "en:Athlone railway station",
        "id": "node/126217380"
      },
      "geometry": {
        "type": "Point",
        "coordinates": [
          -7.9359608,
          53.4271316
        ]
      }
    },
    {
      "type": "Feature",
      "id": "node/126229314",
      "properties": {
        "addr:city": "Roscommon",
        "name": "Roscommon",
        "network": "InterCity",
        "operator": "Irish Rail",
        "public_transport": "station",
        "railway": "station",
        "wheelchair": "yes",
        "wikidata": "Q3970723",
        "wikipedia": "en:Roscommon railway station",
        "id": "node/126229314"
      },
      "geometry": {
        "type": "Point",
        "coordinates": [
          -8.1962285,
          53.6238379
        ]
      }
    },
    {
      "type": "Feature",
      "id": "node/126237800",
      "properties": {
        "addr:city": "Castlerea",
        "addr:street": "Saint Patrick Street",
        "name": "Castlerea",
        "network": "InterCity",
        "operator": "Irish Rail",
        "phone": "+353 94 9620031",
        "public_transport": "station",
        "railway": "station",
        "website": "http://www.irishrail.ie/travel-information/castlerea",
        "wheelchair": "yes",
        "wikidata": "Q3969331",
        "id": "node/126237800"
      },
      "geometry": {
        "type": "Point",
        "coordinates": [
          -8.4856622,
          53.7614093
        ]
      }
    },
    {
      "type": "Feature",
      "id": "node/129992785",
      "properties": {
        "addr:city": "Portmarnock",
        "addr:street": "Station Road",
        "name": "Portmarnock",
        "name:en": "Portmarnock",
        "name:ga": "Port Mearnóg",
        "network": "Dublin Commuter;DART",
        "operator": "Irish Rail",
        "public_transport": "stop_position",
        "railway": "stop",
        "train": "yes",
        "wikipedia": "en:Portmarnock railway station",
        "id": "node/129992785"
      },
      "geometry": {
        "type": "Point",
        "coordinates": [
          -6.1513456,
          53.4176779
        ]
      }
    },
    {
      "type": "Feature",
      "id": "node/131997845",
      "properties": {
        "name": "Hazelhatch and Celbridge",
        "name:en": "Hazelhatch and Celbridge",
        "name:ga": "Collchoill agus Cill Droichid",
        "network": "Dublin Commuter",
        "operator": "Irish Rail",
        "public_transport": "stop_position",
        "railway": "stop",
        "train": "yes",
        "id": "node/131997845"
      },
      "geometry": {
        "type": "Point",
        "coordinates": [
          -6.5235686,
          53.3223027
        ]
      }
    },
    {
      "type": "Feature",
      "id": "node/147353992",
      "properties": {
        "name": "Rush & Lusk",
        "name:ga": "An Ros & Lusca",
        "network": "Dublin Commuter",
        "operator": "Irish Rail",
        "public_transport": "stop_position",
        "railway": "stop",
        "train": "yes",
        "id": "node/147353992"
      },
      "geometry": {
        "type": "Point",
        "coordinates": [
          -6.1439702,
          53.5202201
        ]
      }
    },
    {
      "type": "Feature",
      "id": "node/223440758",
      "properties": {
        "name": "Greystones",
        "name:en": "Greystones",
        "name:ga": "Na Clocha Liatha",
        "network": "InterCity;Dublin Commuter;DART",
        "operator": "Irish Rail",
        "public_transport": "stop_position",
        "railway": "stop",
        "train": "yes",
        "id": "node/223440758"
      },
      "geometry": {
        "type": "Point",
        "coordinates": [
          -6.0608137,
          53.1440529
        ]
      }
    },
    {
      "type": "Feature",
      "id": "node/223924041",
      "properties": {
        "name": "Dalkey",
        "name:en": "Dalkey",
        "name:ga": "Deilginis",
        "network": "DART",
        "operator": "Irish Rail",
        "public_transport": "stop_position",
        "railway": "stop",
        "train": "yes",
        "id": "node/223924041"
      },
      "geometry": {
        "type": "Point",
        "coordinates": [
          -6.1031884,
          53.2756073
        ]
      }
    },
    {
      "type": "Feature",
      "id": "node/224005710",
      "properties": {
        "addr:city": "Dublin",
        "addr:street": "Clontarf Road",
        "name": "Clontarf Road",
        "name:en": "Clontarf Road",
        "name:ga": "Bóthar Chluain Tarbh",
        "network": "DART",
        "operator": "Irish Rail",
        "public_transport": "stop_position",
        "railway": "stop",
        "train": "yes",
        "id": "node/224005710"
      },
      "geometry": {
        "type": "Point",
        "coordinates": [
          -6.2273542,
          53.3629221
        ]
      }
    },
    {
      "type": "Feature",
      "id": "node/224005724",
      "properties": {
        "name": "Harmonstown",
        "name:en": "Harmonstown",
        "name:ga": "Baile Hearman",
        "network": "DART",
        "operator": "Irish Rail",
        "public_transport": "stop_position",
        "railway": "stop",
        "train": "yes",
        "id": "node/224005724"
      },
      "geometry": {
        "type": "Point",
        "coordinates": [
          -6.1925665,
          53.3783186
        ]
      }
    },
    {
      "type": "Feature",
      "id": "node/224005732",
      "properties": {
        "name": "Raheny",
        "name:en": "Raheny",
        "name:ga": "Ráth Eanaigh",
        "network": "DART",
        "operator": "Irish Rail",
        "public_transport": "stop_position",
        "railway": "stop",
        "train": "yes",
        "id": "node/224005732"
      },
      "geometry": {
        "type": "Point",
        "coordinates": [
          -6.1761822,
          53.3816141
        ]
      }
    },
    {
      "type": "Feature",
      "id": "node/224010522",
      "properties": {
        "name": "Kilbarrack",
        "name:en": "Kilbarrack",
        "name:ga": "Cill Bharrog",
        "network": "DART",
        "operator": "Irish Rail",
        "public_transport": "stop_position",
        "railway": "stop",
        "train": "yes",
        "wheelchair": "yes",
        "id": "node/224010522"
      },
      "geometry": {
        "type": "Point",
        "coordinates": [
          -6.1615145,
          53.3872721
        ]
      }
    },
    {
      "type": "Feature",
      "id": "node/224019237",
      "properties": {
        "name": "Howth",
        "name:en": "Howth",
        "name:ga": "Binn Éadair",
        "network": "DART",
        "operator": "Irish Rail",
        "public_transport": "stop_position",
        "railway": "stop",
        "train": "yes",
        "id": "node/224019237"
      },
      "geometry": {
        "type": "Point",
        "coordinates": [
          -6.074364,
          53.3891244
        ]
      }
    },
    {
      "type": "Feature",
      "id": "node/224031767",
      "properties": {
        "name": "Malahide",
        "name:en": "Malahide",
        "name:ga": "Mullach Íde",
        "network": "Dublin Commuter;DART",
        "operator": "Irish Rail",
        "public_transport": "stop_position",
        "railway": "stop",
        "train": "yes",
        "id": "node/224031767"
      },
      "geometry": {
        "type": "Point",
        "coordinates": [
          -6.1566155,
          53.4506946
        ]
      }
    },
    {
      "type": "Feature",
      "id": "node/224042472",
      "properties": {
        "name": "Donabate",
        "name:en": "Donabate",
        "name:ga": "Domhnach Bat",
        "network": "Dublin Commuter",
        "operator": "Irish Rail",
        "public_transport": "stop_position",
        "railway": "stop",
        "train": "yes",
        "id": "node/224042472"
      },
      "geometry": {
        "type": "Point",
        "coordinates": [
          -6.1513894,
          53.4862428
        ]
      }
    },
    {
      "type": "Feature",
      "id": "node/224048800",
      "properties": {
        "name": "Skerries",
        "name:ga": "Na Sceirí",
        "network": "Dublin Commuter",
        "operator": "Irish Rail",
        "public_transport": "stop_position",
        "railway": "stop",
        "train": "yes",
        "id": "node/224048800"
      },
      "geometry": {
        "type": "Point",
        "coordinates": [
          -6.1191988,
          53.573986
        ]
      }
    },
    {
      "type": "Feature",
      "id": "node/242368165",
      "properties": {
        "name": "Coolmine",
        "network": "Dublin Commuter",
        "operator": "Irish Rail",
        "public_transport": "stop_position",
        "railway": "stop",
        "train": "yes",
        "id": "node/242368165"
      },
      "geometry": {
        "type": "Point",
        "coordinates": [
          -6.3913385,
          53.377629
        ]
      }
    },
    {
      "type": "Feature",
      "id": "node/246001181",
      "properties": {
        "addr:city": "Dublin",
        "addr:street": "Sheriff Street Upper",
        "name": "Docklands",
        "name:en": "Docklands",
        "name:ga": "Dugthailte",
        "network": "Dublin Commuter",
        "operator": "Irish Rail",
        "public_transport": "stop_position",
        "railway": "stop",
        "train": "yes",
        "id": "node/246001181"
      },
      "geometry": {
        "type": "Point",
        "coordinates": [
          -6.2394505,
          53.3509333
        ]
      }
    },
    {
      "type": "Feature",
      "id": "node/252818550",
      "properties": {
        "name": "Athy",
        "name:ga": "Baile Átha Í",
        "network": "InterCity",
        "operator": "Irish Rail",
        "public_transport": "stop_position",
        "railway": "stop",
        "ref": "1",
        "train": "yes",
        "id": "node/252818550"
      },
      "geometry": {
        "type": "Point",
        "coordinates": [
          -6.9765716,
          52.9924407
        ]
      }
    },
    {
      "type": "Feature",
      "id": "node/252819378",
      "properties": {
        "addr:city": "Kildare",
        "addr:street": "Station Road",
        "name": "Kildare",
        "name:ga": "Cill Dara",
        "name:ru": "Килдэр",
        "network": "InterCity;Dublin Commuter",
        "operator": "Irish Rail",
        "public_transport": "station",
        "railway": "station",
        "website": "http://www.irishrail.ie/travel-information/Kildare",
        "wikidata": "Q3969864",
        "id": "node/252819378"
      },
      "geometry": {
        "type": "Point",
        "coordinates": [
          -6.909199,
          53.1627454
        ]
      }
    },
    {
      "type": "Feature",
      "id": "node/252821911",
      "properties": {
        "addr:city": "Adamstown",
        "addr:county": "Dublin",
        "addr:street": "Station Road",
        "name": "Adamstown",
        "name:ga": "Baile Adaim",
        "network": "Dublin Commuter",
        "operator": "Irish Rail",
        "public_transport": "station",
        "railway": "station",
        "train": "yes",
        "website": "http://www.irishrail.ie/travel-information/adamstown",
        "wikidata": "Q3968830",
        "wikipedia": "en:Adamstown railway station",
        "id": "node/252821911"
      },
      "geometry": {
        "type": "Point",
        "coordinates": [
          -6.4692321,
          53.3360017
        ]
      }
    },
    {
      "type": "Feature",
      "id": "node/254506816",
      "properties": {
        "addr:city": "Newbridge",
        "addr:street": "Station Road",
        "name": "Newbridge",
        "name:ga": "Droichead Nua",
        "network": "InterCity;Dublin Commuter",
        "operator": "Irish Rail",
        "public_transport": "station",
        "railway": "station",
        "wheelchair": "yes",
        "wikidata": "Q3970293",
        "id": "node/254506816"
      },
      "geometry": {
        "type": "Point",
        "coordinates": [
          -6.8087131,
          53.1853016
        ]
      }
    },
    {
      "type": "Feature",
      "id": "node/256522447",
      "properties": {
        "name": "Shankill",
        "network": "DART",
        "operator": "Irish Rail",
        "public_transport": "stop_position",
        "railway": "stop",
        "train": "yes",
        "id": "node/256522447"
      },
      "geometry": {
        "type": "Point",
        "coordinates": [
          -6.1170683,
          53.2366975
        ]
      }
    },
    {
      "type": "Feature",
      "id": "node/262318894",
      "properties": {
        "addr:city": "Monasterevin",
        "name": "Monasterevin",
        "name:en": "Monasterevin",
        "name:ga": "Mainistir Eimhín",
        "network": "Dublin Commuter",
        "operator": "Irish Rail",
        "platforms": "2",
        "public_transport": "station",
        "railway": "station",
        "start_date": "1847",
        "wikidata": "Q4301386",
        "wikipedia": "en:Monasterevin railway station",
        "id": "node/262318894"
      },
      "geometry": {
        "type": "Point",
        "coordinates": [
          -7.06302,
          53.1454887
        ]
      }
    },
    {
      "type": "Feature",
      "id": "node/263038001",
      "properties": {
        "addr:city": "Ballinasloe",
        "addr:county": "Galway",
        "addr:street": "Station Road",
        "name": "Ballinasloe",
        "name:ga": "Béal Átha na Sluaighe",
        "name:ru": "Баллинасло",
        "nat_ref": "BSG",
        "network": "InterCity",
        "operator": "Irish Rail",
        "platforms": "2",
        "public_transport": "station",
        "railway": "station",
        "railway:ref": "BSG",
        "source": "local_knowledge",
        "wikidata": "Q3968957",
        "wikipedia": "en:Ballinasloe railway station",
        "id": "node/263038001"
      },
      "geometry": {
        "type": "Point",
        "coordinates": [
          -8.2402629,
          53.3362881
        ]
      }
    },
    {
      "type": "Feature",
      "id": "node/268486769",
      "properties": {
        "addr:city": "Castlebar",
        "addr:street": "Station Road",
        "name": "Castlebar",
        "network": "InterCity",
        "operator": "Irish Rail",
        "public_transport": "station",
        "railway": "station",
        "wikidata": "Q2059129",
        "id": "node/268486769"
      },
      "geometry": {
        "type": "Point",
        "coordinates": [
          -9.2879285,
          53.8472417
        ]
      }
    },
    {
      "type": "Feature",
      "id": "node/268486847",
      "properties": {
        "name": "Manulla Junction",
        "network": "InterCity",
        "operator": "Irish Rail",
        "public_transport": "stop_position",
        "railway": "stop",
        "id": "node/268486847"
      },
      "geometry": {
        "type": "Point",
        "coordinates": [
          -9.1934816,
          53.8280395
        ]
      }
    },
    {
      "type": "Feature",
      "id": "node/277617459",
      "properties": {
        "addr:city": "Wexford",
        "addr:street": "Redmond Place",
        "name": "Wexford O'Hanrahan",
        "network": "InterCity",
        "operator": "Irish Rail",
        "phone": "+353 53 9122522",
        "public_transport": "station",
        "railway": "station",
        "train": "yes",
        "website": "http://www.irishrail.ie/travel-information/wexford-o-hanrahan",
        "wheelchair": "yes",
        "wikidata": "Q3971361",
        "wikipedia": "en:Wexford railway station",
        "id": "node/277617459"
      },
      "geometry": {
        "type": "Point",
        "coordinates": [
          -6.4642894,
          52.3433009
        ]
      }
    },
    {
      "type": "Feature",
      "id": "node/277617734",
      "properties": {
        "addr:city": "Rosslare Harbour",
        "name": "Rosslare Europort",
        "network": "InterCity",
        "operator": "Irish Rail",
        "phone": "+353 53 9122522",
        "public_transport": "station",
        "railway": "station",
        "website": "http://www.irishrail.ie/travel-information/rosslare-europort",
        "wheelchair": "yes",
        "wikidata": "Q3970729",
        "wikipedia": "en:Rosslare Europort railway station",
        "id": "node/277617734"
      },
      "geometry": {
        "type": "Point",
        "coordinates": [
          -6.3377699,
          52.2511887
        ]
      }
    },
    {
      "type": "Feature",
      "id": "node/280883969",
      "properties": {
        "addr:city": "Ennis",
        "addr:county": "Clare",
        "addr:street": "Quin Road",
        "name": "Ennis",
        "network": "InterCity",
        "operator": "Irish Rail",
        "public_transport": "station",
        "railway": "station",
        "website": "http://www.irishrail.ie/travel-information/ennis",
        "wheelchair": "limited",
        "wikidata": "Q3969565",
        "id": "node/280883969"
      },
      "geometry": {
        "type": "Point",
        "coordinates": [
          -8.9752567,
          52.8393222
        ]
      }
    },
    {
      "type": "Feature",
      "id": "node/281197288",
      "properties": {
        "addr:street": "Park West Avenue",
        "name": "Park West and Cherry Orchard",
        "name:ga": "Páirc an Iarthair agus Gort na Silíní",
        "network": "Dublin Commuter",
        "operator": "Irish Rail",
        "public_transport": "station",
        "railway": "station",
        "train": "yes",
        "id": "node/281197288"
      },
      "geometry": {
        "type": "Point",
        "coordinates": [
          -6.3785572,
          53.3339771
        ]
      }
    },
    {
      "type": "Feature",
      "id": "node/288908798",
      "properties": {
        "public_transport": "stop_position",
        "railway": "stop",
        "train": "yes",
        "id": "node/288908798"
      },
      "geometry": {
        "type": "Point",
        "coordinates": [
          -9.0453064,
          53.273152
        ]
      }
    },
    {
      "type": "Feature",
      "id": "node/289466169",
      "properties": {
        "name": "Mullingar",
        "name:en": "Mullingar",
        "name:ga": "An Muileann gCearr",
        "network": "InterCity;Dublin Commuter",
        "operator": "Irish Rail",
        "public_transport": "stop_position",
        "railway": "stop",
        "train": "yes",
        "id": "node/289466169"
      },
      "geometry": {
        "type": "Point",
        "coordinates": [
          -7.3456435,
          53.522917
        ]
      }
    },
    {
      "type": "Feature",
      "id": "node/290440267",
      "properties": {
        "addr:city": "Drogheda",
        "addr:street": "Dublin Road",
        "name": "Drogheda MacBride",
        "name:en": "Drogheda MacBride",
        "name:ga": "Droichead Átha Mac Giolla Bhríde",
        "network": "Enterprise;Dublin Commuter",
        "operator": "Irish Rail",
        "public_transport": "station",
        "railway": "station",
        "website": "http://www.irishrail.ie/travel-information/drogheda-macbride",
        "wikidata": "Q3969549",
        "wikipedia": "en:Drogheda railway station",
        "id": "node/290440267"
      },
      "geometry": {
        "type": "Point",
        "coordinates": [
          -6.3358013,
          53.7120981
        ]
      }
    },
    {
      "type": "Feature",
      "id": "node/290462764",
      "properties": {
        "name": "Laytown",
        "name:ga": "An Inse",
        "network": "Dublin Commuter",
        "operator": "Irish Rail",
        "public_transport": "stop_position",
        "railway": "stop",
        "train": "yes",
        "id": "node/290462764"
      },
      "geometry": {
        "type": "Point",
        "coordinates": [
          -6.2427491,
          53.6794917
        ]
      }
    },
    {
      "type": "Feature",
      "id": "node/306130653",
      "properties": {
        "name": "Kilkenny MacDonagh",
        "network": "InterCity",
        "operator": "Irish Rail",
        "public_transport": "stop_position",
        "railway": "stop",
        "ref": "1",
        "train": "yes",
        "id": "node/306130653"
      },
      "geometry": {
        "type": "Point",
        "coordinates": [
          -7.2435916,
          52.6544506
        ]
      }
    },
    {
      "type": "Feature",
      "id": "node/306202271",
      "properties": {
        "addr:city": "Enniscorthy",
        "addr:street": "Templeshannon",
        "internet_access": "wlan",
        "internet_access:fee": "no",
        "name": "Enniscorthy",
        "network": "InterCity",
        "operator": "Irish Rail",
        "phone": "+353 53 9233488",
        "public_transport": "station",
        "railway": "station",
        "website": "http://www.irishrail.ie/travel-information/enniscorthy",
        "wheelchair": "yes",
        "wikidata": "Q3969570",
        "id": "node/306202271"
      },
      "geometry": {
        "type": "Point",
        "coordinates": [
          -6.5664825,
          52.5043905
        ]
      }
    },
    {
      "type": "Feature",
      "id": "node/306211966",
      "properties": {
        "addr:city": "Rathdrum",
        "name": "Rathdrum",
        "network": "InterCity",
        "operator": "Irish Rail",
        "phone": "+353 402 32519 (Arklow)",
        "railway": "station",
        "website": "http://www.irishrail.ie/travel-information/rathdrum",
        "wheelchair": "no",
        "wikidata": "Q3970643",
        "id": "node/306211966"
      },
      "geometry": {
        "type": "Point",
        "coordinates": [
          -6.226126,
          52.9304895
        ]
      }
    },
    {
      "type": "Feature",
      "id": "node/306229332",
      "properties": {
        "addr:city": "Kilcoole",
        "addr:street": "Sea Road",
        "name": "Kilcoole",
        "name:en": "Kilcoole",
        "name:ga": "Cill Chomhghaill",
        "network": "InterCity",
        "operator": "Irish Rail",
        "phone": "1850 366 222 or +353 1 8366222",
        "public_transport": "station",
        "railway": "station",
        "website": "http://www.irishrail.ie/travel-information/kilcoole",
        "wheelchair": "no",
        "wikidata": "Q3969862",
        "id": "node/306229332"
      },
      "geometry": {
        "type": "Point",
        "coordinates": [
          -6.040974,
          53.1063282
        ]
      }
    },
    {
      "type": "Feature",
      "id": "node/306234311",
      "properties": {
        "addr:city": "Wicklow",
        "addr:street": "Station Road",
        "name": "Wicklow",
        "name:en": "Wicklow",
        "name:ga": "Cill Mhantáin",
        "network": "InterCity",
        "operator": "Irish Rail",
        "phone": "+353 404 67329",
        "public_transport": "station",
        "railway": "station",
        "website": "http://www.irishrail.ie/travel-information/wicklow",
        "wheelchair": "yes",
        "wikidata": "Q3971362",
        "id": "node/306234311"
      },
      "geometry": {
        "type": "Point",
        "coordinates": [
          -6.0525562,
          52.9881434
        ]
      }
    },
    {
      "type": "Feature",
      "id": "node/306234312",
      "properties": {
        "addr:city": "Arklow",
        "addr:street": "Station Road",
        "name": "Arklow",
        "network": "InterCity",
        "operator": "Irish Rail",
        "phone": "+353 402 32519",
        "public_transport": "station",
        "railway": "station",
        "website": "http://www.irishrail.ie/travel-information/arklow",
        "wheelchair": "limited",
        "wikidata": "Q3968908",
        "wikipedia": "en:Arklow railway station",
        "id": "node/306234312"
      },
      "geometry": {
        "type": "Point",
        "coordinates": [
          -6.1597676,
          52.7939388
        ]
      }
    },
    {
      "type": "Feature",
      "id": "node/306234776",
      "properties": {
        "addr:city": "Gorey",
        "addr:street": "Railway Road",
        "name": "Gorey",
        "network": "InterCity",
        "operator": "Irish Rail",
        "phone": "+353 53 9421105",
        "public_transport": "station",
        "railway": "station",
        "website": "http://www.irishrail.ie/travel-information/gorey",
        "wheelchair": "limited",
        "wikidata": "Q3969740",
        "id": "node/306234776"
      },
      "geometry": {
        "type": "Point",
        "coordinates": [
          -6.2920201,
          52.6712246
        ]
      }
    },
    {
      "type": "Feature",
      "id": "node/310182680",
      "properties": {
        "addr:city": "Clondalkin",
        "addr:street": "Fonthill Road",
        "name": "Clondalkin & Fonthill",
        "name:ga": "Cluain Dolcáin agus Cnoc an Fhuaráin",
        "network": "Dublin Commuter",
        "operator": "Irish Rail",
        "public_transport": "station",
        "railway": "station",
        "train": "yes",
        "wikidata": "Q3969438",
        "id": "node/310182680"
      },
      "geometry": {
        "type": "Point",
        "coordinates": [
          -6.4063997,
          53.3333505
        ]
      }
    },
    {
      "type": "Feature",
      "id": "node/327071137",
      "properties": {
        "name": "Kilcock",
        "network": "InterCity;Dublin Commuter",
        "operator": "Irish Rail",
        "public_transport": "stop_position",
        "railway": "stop",
        "train": "yes",
        "id": "node/327071137"
      },
      "geometry": {
        "type": "Point",
        "coordinates": [
          -6.6688401,
          53.3990486
        ]
      }
    },
    {
      "type": "Feature",
      "id": "node/333385901",
      "properties": {
        "addr:city": "Carrick-on-Shannon",
        "name": "Carrick-on-Shannon",
        "network": "InterCity",
        "operator": "Irish Rail",
        "public_transport": "station",
        "railway": "station",
        "website": "http://www.irishrail.ie/travel-information/carrickonshannon",
        "wikidata": "Q579503",
        "wikipedia": "en:Carrick-on-Shannon railway station",
        "id": "node/333385901"
      },
      "geometry": {
        "type": "Point",
        "coordinates": [
          -8.1067001,
          53.9383833
        ]
      }
    },
    {
      "type": "Feature",
      "id": "node/339007130",
      "properties": {
        "addr:city": "Fota Wildlife Park",
        "addr:county": "Cork",
        "name": "Fota",
        "name:ga": "Fóite",
        "network": "Cork Suburban",
        "operator": "Irish Rail",
        "public_transport": "station",
        "railway": "station",
        "website": "http://www.irishrail.ie/travel-information/Fota",
        "wheelchair": "limited",
        "wikidata": "Q3969651",
        "id": "node/339007130"
      },
      "geometry": {
        "type": "Point",
        "coordinates": [
          -8.3182623,
          51.896125
        ]
      }
    },
    {
      "type": "Feature",
      "id": "node/339010879",
      "properties": {
        "addr:city": "Rushbrooke",
        "name": "Rushbrooke",
        "name:ga": "Rinn an Chabaltaigh",
        "network": "Cork Suburban",
        "operator": "Irish Rail",
        "phone": "+353 1 8366222",
        "public_transport": "station",
        "railway": "station",
        "website": "http://www.irishrail.ie/travel-information/rushbrooke",
        "wheelchair": "limited \"From Cobh to Cork only\"",
        "wikidata": "Q3970751",
        "wikipedia": "en:Rushbrooke halt",
        "id": "node/339010879"
      },
      "geometry": {
        "type": "Point",
        "coordinates": [
          -8.3224718,
          51.8495669
        ]
      }
    },
    {
      "type": "Feature",
      "id": "node/339010895",
      "properties": {
        "addr:city": "Glounthaune",
        "addr:street": "Old Youghal Road",
        "name": "Glounthaune",
        "name:ga": "An Gleanntán",
        "network": "Cork Suburban",
        "operator": "Irish Rail",
        "phone": "+353 1 8366222",
        "public_transport": "station",
        "railway": "station",
        "train": "yes",
        "website": "http://www.irishrail.ie/travel-information/glounthaune",
        "wheelchair": "limited",
        "wikidata": "Q6679189",
        "id": "node/339010895"
      },
      "geometry": {
        "type": "Point",
        "coordinates": [
          -8.3246587,
          51.9111422
        ]
      }
    },
    {
      "type": "Feature",
      "id": "node/339010983",
      "properties": {
        "addr:city": "Little Island",
        "addr:street": "Old Youghal Road",
        "alt_name": "Littleisland",
        "name": "Little Island",
        "name:ga": "An tOileán Beag",
        "network": "Cork Suburban",
        "note": "Officially \"Littleisland\"",
        "operator": "Irish Rail",
        "public_transport": "station",
        "railway": "station",
        "train": "yes",
        "website": "http://www.irishrail.ie/travel-information/little-island",
        "wheelchair": "yes \" To Middleton/Cobh: ramp from the car park, to Cork: from N25 slip road\"",
        "wikidata": "Q3969972",
        "id": "node/339010983"
      },
      "geometry": {
        "type": "Point",
        "coordinates": [
          -8.3552817,
          51.9076312
        ]
      }
    },
    {
      "type": "Feature",
      "id": "node/354050180",
      "properties": {
        "addr:city": "Birdhill",
        "addr:street": "Coosane Road",
        "name": "Birdhill",
        "network": "InterCity",
        "operator": "Irish Rail",
        "phone": "+353 61 379118",
        "public_transport": "station",
        "railway": "station",
        "website": "http://www.irishrail.ie/travel-information/birdhill",
        "wheelchair": "yes",
        "wikidata": "Q3969048",
        "id": "node/354050180"
      },
      "geometry": {
        "type": "Point",
        "coordinates": [
          -8.4421381,
          52.7658609
        ]
      }
    },
    {
      "type": "Feature",
      "id": "node/419329807",
      "properties": {
        "name": "Sandycove and Glasthule",
        "name:en": "Sandycove and Glasthule",
        "name:ga": "Cuas an Ghainimh agus Glas Tuathail",
        "network": "DART",
        "operator": "Irish Rail",
        "public_transport": "stop_position",
        "railway": "stop",
        "train": "yes",
        "id": "node/419329807"
      },
      "geometry": {
        "type": "Point",
        "coordinates": [
          -6.1270489,
          53.2882555
        ]
      }
    },
    {
      "type": "Feature",
      "id": "node/441234698",
      "properties": {
        "name": "Broombridge",
        "name:en": "Broombridge",
        "name:ga": "Stáisiún Dhroichead Broome",
        "network": "Dublin Commuter",
        "operator": "Irish Rail",
        "public_transport": "stop_position",
        "railway": "stop",
        "train": "yes",
        "id": "node/441234698"
      },
      "geometry": {
        "type": "Point",
        "coordinates": [
          -6.2988324,
          53.3726406
        ]
      }
    },
    {
      "type": "Feature",
      "id": "node/448022197",
      "properties": {
        "name": "Edgeworthstown",
        "network": "InterCity;Dublin Commuter",
        "operator": "Irish Rail",
        "public_transport": "stop_position",
        "railway": "stop",
        "train": "yes",
        "id": "node/448022197"
      },
      "geometry": {
        "type": "Point",
        "coordinates": [
          -7.6031145,
          53.6887482
        ]
      }
    },
    {
      "type": "Feature",
      "id": "node/467765442",
      "properties": {
        "addr:city": "Carrigtwohill",
        "addr:street": "Station Road",
        "atm": "no",
        "name": "Carrigtwohill",
        "name:ga": "Carraig Thuathail",
        "network": "Cork Suburban",
        "opening_hours": "Mo-Sa 05:30-23:00; Su 08:00-21:15",
        "operator": "Irish Rail",
        "payment:credit_cards": "no",
        "public_transport": "station",
        "railway": "station",
        "toilets": "no",
        "website": "http://www.irishrail.ie/travel-information/carrigtwohill",
        "wheelchair": "yes",
        "wikidata": "Q3969250",
        "id": "node/467765442"
      },
      "geometry": {
        "type": "Point",
        "coordinates": [
          -8.2632643,
          51.9163256
        ]
      }
    },
    {
      "type": "Feature",
      "id": "node/568202594",
      "properties": {
        "name": "Howth Junction and Donaghmede",
        "name:en": "Howth Junction and Donaghmede",
        "name:ga": "Gabhal Bhinn Éadair agus Domhnach Míde",
        "network": "Dublin Commuter;DART",
        "old_name": "Howth Junction",
        "operator": "Irish Rail",
        "public_transport": "stop_position",
        "railway": "stop",
        "train": "yes",
        "wheelchair": "yes",
        "id": "node/568202594"
      },
      "geometry": {
        "type": "Point",
        "coordinates": [
          -6.1558735,
          53.3911989
        ]
      }
    },
    {
      "type": "Feature",
      "id": "node/568520848",
      "properties": {
        "name": "Balbriggan",
        "network": "Dublin Commuter",
        "operator": "Irish Rail",
        "public_transport": "stop_position",
        "railway": "stop",
        "train": "yes",
        "id": "node/568520848"
      },
      "geometry": {
        "type": "Point",
        "coordinates": [
          -6.1823499,
          53.6118691
        ]
      }
    },
    {
      "type": "Feature",
      "id": "node/604061102",
      "properties": {
        "name": "Connolly Station",
        "network": "Dublin Commuter;DART",
        "operator": "Irish Rail",
        "public_transport": "stop_position",
        "railway": "stop",
        "train": "yes",
        "id": "node/604061102"
      },
      "geometry": {
        "type": "Point",
        "coordinates": [
          -6.2478764,
          53.3527663
        ]
      }
    },
    {
      "type": "Feature",
      "id": "node/609315049",
      "properties": {
        "name": "Maynooth",
        "network": "InterCity;Dublin Commuter",
        "operator": "Irish Rail",
        "public_transport": "stop_position",
        "railway": "stop",
        "train": "yes",
        "id": "node/609315049"
      },
      "geometry": {
        "type": "Point",
        "coordinates": [
          -6.5905206,
          53.3779574
        ]
      }
    },
    {
      "type": "Feature",
      "id": "node/614228238",
      "properties": {
        "name": "Maynooth",
        "network": "InterCity;Dublin Commuter",
        "operator": "Irish Rail",
        "public_transport": "stop_position",
        "railway": "stop",
        "train": "yes",
        "id": "node/614228238"
      },
      "geometry": {
        "type": "Point",
        "coordinates": [
          -6.5905372,
          53.3779932
        ]
      }
    },
    {
      "type": "Feature",
      "id": "node/614241268",
      "properties": {
        "addr:city": "Hansfield",
        "name": "Hansfield",
        "name:ga": "Páirc Hans",
        "network": "Dublin Commuter",
        "operator": "Irish Rail",
        "public_transport": "station",
        "railway": "station",
        "train": "yes",
        "website": "http://www.irishrail.ie",
        "wheelchair": "yes",
        "wikidata": "Q3969773",
        "wikipedia": "en:Hansfield railway station",
        "id": "node/614241268"
      },
      "geometry": {
        "type": "Point",
        "coordinates": [
          -6.4420549,
          53.3870051
        ]
      }
    },
    {
      "type": "Feature",
      "id": "node/614242241",
      "properties": {
        "name": "Clonsilla",
        "network": "Dublin Commuter",
        "public_transport": "stop_position",
        "railway": "stop",
        "train": "yes",
        "id": "node/614242241"
      },
      "geometry": {
        "type": "Point",
        "coordinates": [
          -6.4232163,
          53.3829669
        ]
      }
    },
    {
      "type": "Feature",
      "id": "node/616201547",
      "properties": {
        "name": "Ashtown",
        "name:ga": "Baile an Áisigh",
        "network": "Dublin Commuter",
        "operator": "Irish Rail",
        "public_transport": "stop_position",
        "railway": "stop",
        "train": "yes",
        "id": "node/616201547"
      },
      "geometry": {
        "type": "Point",
        "coordinates": [
          -6.3323806,
          53.3753554
        ]
      }
    },
    {
      "type": "Feature",
      "id": "node/616212574",
      "properties": {
        "name": "Connolly Station",
        "network": "Dublin Commuter;DART",
        "operator": "Irish Rail",
        "public_transport": "stop_position",
        "railway": "stop",
        "train": "yes",
        "id": "node/616212574"
      },
      "geometry": {
        "type": "Point",
        "coordinates": [
          -6.2476779,
          53.3526922
        ]
      }
    },
    {
      "type": "Feature",
      "id": "node/627831419",
      "properties": {
        "name": "Enfield",
        "network": "InterCity;Dublin Commuter",
        "operator": "Irish Rail",
        "public_transport": "stop_position",
        "railway": "stop",
        "train": "yes",
        "id": "node/627831419"
      },
      "geometry": {
        "type": "Point",
        "coordinates": [
          -6.8341605,
          53.4161678
        ]
      }
    },
    {
      "type": "Feature",
      "id": "node/644710526",
      "properties": {
        "name": "Lansdowne Road",
        "name:en": "Lansdowne Road",
        "name:ga": "Bóthar Lansdún",
        "network": "Dublin Commuter;DART",
        "operator": "Irish Rail",
        "public_transport": "stop_position",
        "railway": "stop",
        "train": "yes",
        "id": "node/644710526"
      },
      "geometry": {
        "type": "Point",
        "coordinates": [
          -6.22897,
          53.3339473
        ]
      }
    },
    {
      "type": "Feature",
      "id": "node/663920250",
      "properties": {
        "addr:city": "Boyle",
        "addr:street": "Station Road",
        "name": "Boyle",
        "network": "InterCity",
        "operator": "Irish Rail",
        "phone": "+353 71 966 2027",
        "public_transport": "station",
        "railway": "station",
        "website": "http://www.irishrail.ie/travel-information/boyle",
        "wikidata": "Q3969113",
        "id": "node/663920250"
      },
      "geometry": {
        "type": "Point",
        "coordinates": [
          -8.3046203,
          53.9675191
        ]
      }
    },
    {
      "type": "Feature",
      "id": "node/667718433",
      "properties": {
        "addr:city": "Ballyhaunis",
        "addr:street": "Station Rise",
        "name": "Ballyhaunis",
        "network": "InterCity",
        "operator": "Irish Rail",
        "phone": "+353 94 9630009",
        "public_transport": "station",
        "railway": "station",
        "train": "yes",
        "wikidata": "Q3968961",
        "id": "node/667718433"
      },
      "geometry": {
        "type": "Point",
        "coordinates": [
          -8.758238,
          53.7616068
        ]
      }
    },
    {
      "type": "Feature",
      "id": "node/703147677",
      "properties": {
        "name": "Carlow",
        "network": "InterCity",
        "operator": "Irish Rail",
        "public_transport": "stop_position",
        "railway": "stop",
        "train": "yes",
        "id": "node/703147677"
      },
      "geometry": {
        "type": "Point",
        "coordinates": [
          -6.922273,
          52.8410497
        ]
      }
    },
    {
      "type": "Feature",
      "id": "node/728407301",
      "properties": {
        "addr:city": "Collooney",
        "name": "Collooney",
        "network": "InterCity",
        "operator": "Irish Rail",
        "public_transport": "station",
        "railway": "station",
        "website": "http://www.irishrail.ie/travel-information/collooney",
        "wikidata": "Q3969465",
        "wikipedia": "en:Collooney railway station",
        "id": "node/728407301"
      },
      "geometry": {
        "type": "Point",
        "coordinates": [
          -8.4947576,
          54.1864721
        ]
      }
    },
    {
      "type": "Feature",
      "id": "node/728439163",
      "properties": {
        "addr:city": "Ballymote",
        "addr:street": "Tubbercurry Road",
        "name": "Ballymote",
        "network": "InterCity",
        "operator": "Irish Rail",
        "phone": "+353 71 918 3311",
        "public_transport": "station",
        "railway": "station",
        "website": "http://www.irishrail.ie/travel-information/ballymote",
        "wikidata": "Q3968966",
        "id": "node/728439163"
      },
      "geometry": {
        "type": "Point",
        "coordinates": [
          -8.5208598,
          54.0880802
        ]
      }
    },
    {
      "type": "Feature",
      "id": "node/731104792",
      "properties": {
        "addr:city": "Dromod",
        "name": "Dromod",
        "network": "InterCity",
        "operator": "Irish Rail",
        "public_transport": "station",
        "railway": "station",
        "wikidata": "Q3969548",
        "id": "node/731104792"
      },
      "geometry": {
        "type": "Point",
        "coordinates": [
          -7.9165635,
          53.8590923
        ]
      }
    },
    {
      "type": "Feature",
      "id": "node/731151331",
      "properties": {
        "name": "Mullingar",
        "name:en": "Mullingar",
        "name:ga": "An Muileann gCearr",
        "network": "InterCity;Dublin Commuter",
        "operator": "Irish Rail",
        "public_transport": "stop_position",
        "railway": "stop",
        "train": "yes",
        "id": "node/731151331"
      },
      "geometry": {
        "type": "Point",
        "coordinates": [
          -7.345689,
          53.5228863
        ]
      }
    },
    {
      "type": "Feature",
      "id": "node/745762019",
      "properties": {
        "name": "Muine Bheag",
        "name:en": "Bagenalstown",
        "name:ga": "Muine Bheag",
        "network": "InterCity",
        "operator": "Irish Rail",
        "public_transport": "stop_position",
        "railway": "stop",
        "train": "yes",
        "id": "node/745762019"
      },
      "geometry": {
        "type": "Point",
        "coordinates": [
          -6.952458,
          52.6990072
        ]
      }
    },
    {
      "type": "Feature",
      "id": "node/906827276",
      "properties": {
        "name": "Castleknock",
        "name:ga": "Caisleán Cnucha",
        "network": "Dublin Commuter",
        "operator": "Irish Rail",
        "public_transport": "stop_position",
        "railway": "stop",
        "train": "yes",
        "id": "node/906827276"
      },
      "geometry": {
        "type": "Point",
        "coordinates": [
          -6.3714404,
          53.3815071
        ]
      }
    },
    {
      "type": "Feature",
      "id": "node/906847381",
      "properties": {
        "addr:city": "Dunboyne",
        "addr:street": "Station Road",
        "name": "Dunboyne",
        "name:en": "Dunboyne",
        "name:ga": "Dún Búinne",
        "network": "Dublin Commuter",
        "operator": "Irish Rail",
        "public_transport": "stop_position",
        "railway": "stop",
        "train": "yes",
        "id": "node/906847381"
      },
      "geometry": {
        "type": "Point",
        "coordinates": [
          -6.4647744,
          53.4173192
        ]
      }
    },
    {
      "type": "Feature",
      "id": "node/906847386",
      "properties": {
        "addr:city": "Dunboyne",
        "addr:street": "Station Road",
        "name": "Dunboyne",
        "name:en": "Dunboyne",
        "name:ga": "Dún Búinne",
        "network": "Dublin Commuter",
        "operator": "Irish Rail",
        "public_transport": "stop_position",
        "railway": "stop",
        "train": "yes",
        "id": "node/906847386"
      },
      "geometry": {
        "type": "Point",
        "coordinates": [
          -6.4648297,
          53.4173119
        ]
      }
    },
    {
      "type": "Feature",
      "id": "node/907116924",
      "properties": {
        "name": "Rathmore",
        "network": "InterCity",
        "operator": "Irish Rail",
        "phone": "+353-64-7758006",
        "public_transport": "station",
        "railway": "station",
        "website": "http://www.irishrail.ie/travel-information/rathmore",
        "wheelchair": "limited",
        "wikidata": "Q3970647",
        "id": "node/907116924"
      },
      "geometry": {
        "type": "Point",
        "coordinates": [
          -9.2179569,
          52.0853607
        ]
      }
    },
    {
      "type": "Feature",
      "id": "node/986843592",
      "properties": {
        "name": "Thomastown",
        "network": "InterCity",
        "operator": "Irish Rail",
        "public_transport": "stop_position",
        "railway": "stop",
        "train": "yes",
        "id": "node/986843592"
      },
      "geometry": {
        "type": "Point",
        "coordinates": [
          -7.1489118,
          52.5230472
        ]
      }
    },
    {
      "type": "Feature",
      "id": "node/1165425312",
      "properties": {
        "name": "Kilkenny MacDonagh",
        "network": "InterCity",
        "operator": "Irish Rail",
        "public_transport": "stop_position",
        "railway": "stop",
        "ref": "2",
        "train": "yes",
        "id": "node/1165425312"
      },
      "geometry": {
        "type": "Point",
        "coordinates": [
          -7.2435683,
          52.654471
        ]
      }
    },
    {
      "type": "Feature",
      "id": "node/1317135921",
      "properties": {
        "addr:city": "Westport",
        "addr:street": "Altamont Street",
        "name": "Westport",
        "network": "InterCity",
        "operator": "Irish Rail",
        "public_transport": "station",
        "railway": "station",
        "wikidata": "Q3971356",
        "id": "node/1317135921"
      },
      "geometry": {
        "type": "Point",
        "coordinates": [
          -9.5099218,
          53.7959979
        ]
      }
    },
    {
      "type": "Feature",
      "id": "node/1353952884",
      "properties": {
        "addr:city": "Ballina",
        "addr:street": "Station Road",
        "name": "Ballina",
        "network": "InterCity",
        "operator": "Irish Rail",
        "public_transport": "station",
        "railway": "station",
        "wikidata": "Q2060415",
        "id": "node/1353952884"
      },
      "geometry": {
        "type": "Point",
        "coordinates": [
          -9.160858,
          54.1090586
        ]
      }
    },
    {
      "type": "Feature",
      "id": "node/1353952886",
      "properties": {
        "addr:city": "Foxford",
        "name": "Foxford",
        "network": "InterCity",
        "operator": "Irish Rail",
        "public_transport": "station",
        "railway": "station",
        "website": "http://www.irishrail.ie/travel-information/foxford",
        "wheelchair": "limited",
        "wikidata": "Q3969652",
        "id": "node/1353952886"
      },
      "geometry": {
        "type": "Point",
        "coordinates": [
          -9.1364984,
          53.9828717
        ]
      }
    },
    {
      "type": "Feature",
      "id": "node/1411222285",
      "properties": {
        "name": "Killiney",
        "name:en": "Killiney",
        "name:ga": "Cill Iníon Léinin",
        "network": "DART",
        "operator": "Irish Rail",
        "public_transport": "stop_position",
        "railway": "stop",
        "train": "yes",
        "id": "node/1411222285"
      },
      "geometry": {
        "type": "Point",
        "coordinates": [
          -6.1130662,
          53.2553871
        ]
      }
    },
    {
      "type": "Feature",
      "id": "node/1415190101",
      "properties": {
        "addr:street": "Tralee Road",
        "name": "Farranfore",
        "network": "InterCity",
        "operator": "Irish Rail",
        "phone": "+353-66-9764101",
        "public_transport": "station",
        "railway": "station",
        "train": "yes",
        "website": "http://www.irishrail.ie/travel-information/farranfore",
        "wheelchair": "limited",
        "wikidata": "Q3969587",
        "id": "node/1415190101"
      },
      "geometry": {
        "type": "Point",
        "coordinates": [
          -9.552269,
          52.1737928
        ]
      }
    },
    {
      "type": "Feature",
      "id": "node/1415548181",
      "properties": {
        "addr:city": "Carrigaloe",
        "name": "Carrigaloe",
        "name:ga": "Carraig an Ló",
        "network": "Cork Suburban",
        "operator": "Irish Rail",
        "public_transport": "station",
        "railway": "station",
        "toilets:wheelchair": "no",
        "website": "http://www.irishrail.ie/travel-information/Carrigaloe",
        "wheelchair": "limited",
        "wikidata": "Q3969247",
        "id": "node/1415548181"
      },
      "geometry": {
        "type": "Point",
        "coordinates": [
          -8.3243712,
          51.8686785
        ]
      }
    },
    {
      "type": "Feature",
      "id": "node/1446941609",
      "properties": {
        "addr:city": "Roscrea",
        "addr:street": "Grove Street",
        "name": "Roscrea",
        "network": "InterCity",
        "operator": "Irish Rail",
        "phone": "+353 505 21823",
        "public_transport": "station",
        "railway": "station",
        "website": "http://www.irishrail.ie/travel-information/roscrea",
        "wheelchair": "limited",
        "wikidata": "Q3970722",
        "id": "node/1446941609"
      },
      "geometry": {
        "type": "Point",
        "coordinates": [
          -7.7943015,
          52.9607696
        ]
      }
    },
    {
      "type": "Feature",
      "id": "node/1498432272",
      "properties": {
        "addr:city": "Ardrahan",
        "name": "Ardrahan",
        "network": "InterCity",
        "operator": "Irish Rail",
        "public_transport": "station",
        "railway": "station",
        "website": "http://www.irishrail.ie/travel-information/Ardrahan",
        "wikidata": "Q3968900",
        "wikipedia": "en:Ardrahan railway station",
        "id": "node/1498432272"
      },
      "geometry": {
        "type": "Point",
        "coordinates": [
          -8.8146904,
          53.1572752
        ]
      }
    },
    {
      "type": "Feature",
      "id": "node/1524124078",
      "properties": {
        "addr:city": "Carrick-on-Suir",
        "name": "Carrick-on-Suir",
        "network": "InterCity",
        "operator": "Irish Rail",
        "phone": "+353 51 640044",
        "public_transport": "station",
        "railway": "station",
        "website": "http://www.irishrail.ie/travel-information/carrickonsuir",
        "wikidata": "Q3969246",
        "id": "node/1524124078"
      },
      "geometry": {
        "type": "Point",
        "coordinates": [
          -7.4045378,
          52.349069
        ]
      }
    },
    {
      "type": "Feature",
      "id": "node/1524148180",
      "properties": {
        "name": "Clonmel",
        "network": "InterCity",
        "operator": "Irish Rail",
        "operator:en": "Irish Rail",
        "operator:ga": "Iarnród Éireann",
        "public_transport": "stop_position",
        "railway": "stop",
        "train": "yes",
        "wikidata": "Q1124923",
        "id": "node/1524148180"
      },
      "geometry": {
        "type": "Point",
        "coordinates": [
          -7.6991779,
          52.3611009
        ]
      }
    },
    {
      "type": "Feature",
      "id": "node/1609105403",
      "properties": {
        "name": "Clara",
        "name:ga": "Clóirtheach",
        "network": "InterCity",
        "operator": "Irish Rail",
        "public_transport": "stop_position",
        "railway": "stop",
        "train": "yes",
        "id": "node/1609105403"
      },
      "geometry": {
        "type": "Point",
        "coordinates": [
          -7.6163948,
          53.3397066
        ]
      }
    },
    {
      "type": "Feature",
      "id": "node/1660892256",
      "properties": {
        "name": "Oranmore",
        "public_transport": "stop_position",
        "railway": "stop",
        "train": "yes",
        "id": "node/1660892256"
      },
      "geometry": {
        "type": "Point",
        "coordinates": [
          -8.9478926,
          53.2754519
        ]
      }
    },
    {
      "type": "Feature",
      "id": "node/1660966549",
      "properties": {
        "name": "Athenry",
        "name:ga": "Baile Átha an Rí",
        "network": "InterCity",
        "operator": "Irish Rail",
        "public_transport": "stop_position",
        "railway": "stop",
        "train": "yes",
        "id": "node/1660966549"
      },
      "geometry": {
        "type": "Point",
        "coordinates": [
          -8.7489503,
          53.3013643
        ]
      }
    },
    {
      "type": "Feature",
      "id": "node/1667780596",
      "properties": {
        "addr:city": "Dublin",
        "addr:postal_district": "D13",
        "addr:street": "Bayside Park",
        "name": "Bayside",
        "network": "DART",
        "operator": "Irish Rail",
        "public_transport": "stop_position",
        "railway": "stop",
        "train": "yes",
        "id": "node/1667780596"
      },
      "geometry": {
        "type": "Point",
        "coordinates": [
          -6.1368863,
          53.3915969
        ]
      }
    },
    {
      "type": "Feature",
      "id": "node/1777118650",
      "properties": {
        "addr:city": "Gort",
        "addr:street": "Station Road",
        "name": "Gort",
        "network": "InterCity",
        "operator": "Irish Rail",
        "public_transport": "station",
        "railway": "station",
        "wikidata": "Q3969741",
        "id": "node/1777118650"
      },
      "geometry": {
        "type": "Point",
        "coordinates": [
          -8.8139495,
          53.0672758
        ]
      }
    },
    {
      "type": "Feature",
      "id": "node/1946799281",
      "properties": {
        "name": "Coolmine",
        "network": "Dublin Commuter",
        "operator": "Irish Rail",
        "public_transport": "stop_position",
        "railway": "stop",
        "train": "yes",
        "id": "node/1946799281"
      },
      "geometry": {
        "type": "Point",
        "coordinates": [
          -6.3906881,
          53.377668
        ]
      }
    },
    {
      "type": "Feature",
      "id": "node/1965606288",
      "properties": {
        "addr:city": "Woodlawn",
        "addr:county": "Galway",
        "name": "Woodlawn",
        "name:ga": "Móta",
        "network": "InterCity",
        "operator": "Irish Rail",
        "platforms": "1",
        "public_transport": "station",
        "railway": "station",
        "start_date": "1858",
        "wikidata": "Q3971364",
        "wikipedia": "en:Woodlawn railway station",
        "id": "node/1965606288"
      },
      "geometry": {
        "type": "Point",
        "coordinates": [
          -8.471632,
          53.3430655
        ]
      }
    },
    {
      "type": "Feature",
      "id": "node/2133707505",
      "properties": {
        "name": "Clonmel",
        "network": "InterCity",
        "operator": "Irish Rail",
        "operator:en": "Irish Rail",
        "operator:ga": "Iarnród Éireann",
        "public_transport": "stop_position",
        "railway": "stop",
        "train": "yes",
        "id": "node/2133707505"
      },
      "geometry": {
        "type": "Point",
        "coordinates": [
          -7.6991816,
          52.3610689
        ]
      }
    },
    {
      "type": "Feature",
      "id": "node/2175298626",
      "properties": {
        "addr:city": "Moyasta",
        "addr:county": "Clare",
        "email": "info@westclarerailway.ie",
        "name": "Moyasta",
        "operator": "West Clare Railways",
        "phone": "+353 65 9051284",
        "railway": "station",
        "website": "http://www.westclarerailway.ie/",
        "id": "node/2175298626"
      },
      "geometry": {
        "type": "Point",
        "coordinates": [
          -9.5356973,
          52.6683276
        ]
      }
    },
    {
      "type": "Feature",
      "id": "node/2359046743",
      "properties": {
        "addr:city": "Sixmilebridge",
        "addr:county": "Clare",
        "name": "Sixmilebridge",
        "network": "InterCity",
        "operator": "Irish Rail",
        "public_transport": "station",
        "railway": "station",
        "wikidata": "Q3971009",
        "id": "node/2359046743"
      },
      "geometry": {
        "type": "Point",
        "coordinates": [
          -8.7857809,
          52.7380863
        ]
      }
    },
    {
      "type": "Feature",
      "id": "node/2420790215",
      "properties": {
        "addr:city": "Cloughjordan",
        "addr:street": "Templemore Road",
        "name": "Cloughjordan",
        "network": "InterCity",
        "operator": "Irish Rail",
        "phone": "+353 1 8366222 or 1850 366 222",
        "public_transport": "station",
        "railway": "station",
        "website": "http://www.irishrail.ie/travel-information/cloughjordan",
        "wheelchair": "yes",
        "wikidata": "Q3969445",
        "wikipedia": "en:Cloughjordan railway station",
        "id": "node/2420790215"
      },
      "geometry": {
        "type": "Point",
        "coordinates": [
          -8.024266,
          52.9364247
        ]
      }
    },
    {
      "type": "Feature",
      "id": "node/2561935263",
      "properties": {
        "name": "Hansfield",
        "network": "Dublin Commuter",
        "public_transport": "stop_position",
        "railway": "stop",
        "train": "yes",
        "id": "node/2561935263"
      },
      "geometry": {
        "type": "Point",
        "coordinates": [
          -6.4410952,
          53.3867415
        ]
      }
    },
    {
      "type": "Feature",
      "id": "node/2625393079",
      "properties": {
        "addr:city": "Portarlington",
        "addr:county": "Laois",
        "contact:website": "http://www.irishrail.ie/travel-information/portarlington",
        "name": "Portarlington",
        "name:en": "Portarlington",
        "name:ga": "Cúil an tSúdaire",
        "network": "InterCity",
        "operator": "Irish Rail",
        "platforms": "2",
        "public_transport": "station",
        "railway": "station",
        "wikidata": "Q3970565",
        "wikipedia": "en:Portarlington railway station",
        "id": "node/2625393079"
      },
      "geometry": {
        "type": "Point",
        "coordinates": [
          -7.1809606,
          53.1460237
        ]
      }
    },
    {
      "type": "Feature",
      "id": "node/2697052587",
      "properties": {
        "addr:city": "Cahir",
        "addr:street": "Church Street",
        "name": "Cahir",
        "network": "InterCity",
        "operator": "Irish Rail",
        "public_transport": "station",
        "railway": "station",
        "website": "http://www.irishrail.ie/travel-information/cahir",
        "wheelchair": "limited",
        "id": "node/2697052587"
      },
      "geometry": {
        "type": "Point",
        "coordinates": [
          -7.9225605,
          52.3779598
        ]
      }
    },
    {
      "type": "Feature",
      "id": "node/2721652053",
      "properties": {
        "name": "Bray Daly",
        "network": "InterCity;Dublin Commuter;DART",
        "operator": "Irish Rail",
        "public_transport": "stop_position",
        "railway": "stop",
        "train": "yes",
        "id": "node/2721652053"
      },
      "geometry": {
        "type": "Point",
        "coordinates": [
          -6.1004278,
          53.2043059
        ]
      }
    },
    {
      "type": "Feature",
      "id": "node/2733541983",
      "properties": {
        "name": "Kildare",
        "public_transport": "stop_position",
        "railway": "stop",
        "ref": "1",
        "train": "yes",
        "id": "node/2733541983"
      },
      "geometry": {
        "type": "Point",
        "coordinates": [
          -6.9095047,
          53.1626487
        ]
      }
    },
    {
      "type": "Feature",
      "id": "node/2733569826",
      "properties": {
        "name": "Kildare",
        "public_transport": "stop_position",
        "railway": "stop",
        "ref": "2",
        "train": "yes",
        "id": "node/2733569826"
      },
      "geometry": {
        "type": "Point",
        "coordinates": [
          -6.9080092,
          53.1629598
        ]
      }
    },
    {
      "type": "Feature",
      "id": "node/2755790985",
      "properties": {
        "name": "Howth Junction and Donaghmede",
        "name:en": "Howth Junction and Donaghmede",
        "name:ga": "Gabhal Bhinn Éadair agus Domhnach Míde",
        "network": "Dublin Commuter;DART",
        "old_name": "Howth Junction",
        "operator": "Irish Rail",
        "public_transport": "stop_position",
        "railway": "stop",
        "train": "yes",
        "wheelchair": "yes",
        "id": "node/2755790985"
      },
      "geometry": {
        "type": "Point",
        "coordinates": [
          -6.1559768,
          53.3913357
        ]
      }
    },
    {
      "type": "Feature",
      "id": "node/2756566300",
      "properties": {
        "name": "Killester",
        "name:en": "Killester",
        "name:ga": "Cill Easra",
        "network": "DART",
        "operator": "Irish Rail",
        "public_transport": "stop_position",
        "railway": "stop",
        "train": "yes",
        "id": "node/2756566300"
      },
      "geometry": {
        "type": "Point",
        "coordinates": [
          -6.2049686,
          53.3727669
        ]
      }
    },
    {
      "type": "Feature",
      "id": "node/2756844301",
      "properties": {
        "name": "Harmonstown",
        "name:en": "Harmonstown",
        "name:ga": "Baile Hearman",
        "network": "DART",
        "operator": "Irish Rail",
        "public_transport": "stop_position",
        "railway": "stop",
        "train": "yes",
        "id": "node/2756844301"
      },
      "geometry": {
        "type": "Point",
        "coordinates": [
          -6.1925416,
          53.3782875
        ]
      }
    },
    {
      "type": "Feature",
      "id": "node/2756844339",
      "properties": {
        "name": "Raheny",
        "name:en": "Raheny",
        "name:ga": "Ráth Eanaigh",
        "network": "DART",
        "operator": "Irish Rail",
        "public_transport": "stop_position",
        "railway": "stop",
        "train": "yes",
        "id": "node/2756844339"
      },
      "geometry": {
        "type": "Point",
        "coordinates": [
          -6.1761705,
          53.3815843
        ]
      }
    },
    {
      "type": "Feature",
      "id": "node/2756844387",
      "properties": {
        "name": "Kilbarrack",
        "name:en": "Kilbarrack",
        "name:ga": "Cill Bharrog",
        "network": "DART",
        "operator": "Irish Rail",
        "public_transport": "stop_position",
        "railway": "stop",
        "train": "yes",
        "wheelchair": "yes",
        "id": "node/2756844387"
      },
      "geometry": {
        "type": "Point",
        "coordinates": [
          -6.1614683,
          53.3872617
        ]
      }
    },
    {
      "type": "Feature",
      "id": "node/2758411053",
      "properties": {
        "name": "Howth Junction and Donaghmede",
        "name:en": "Howth Junction and Donaghmede",
        "name:ga": "Gabhal Bhinn Éadair agus Domhnach Míde",
        "network": "Dublin Commuter;DART",
        "old_name": "Howth Junction",
        "operator": "Irish Rail",
        "public_transport": "stop_position",
        "railway": "stop",
        "train": "yes",
        "wheelchair": "yes",
        "wikidata": "Q3969804",
        "wikipedia": "en:Howth Junction & Donaghmede railway station",
        "id": "node/2758411053"
      },
      "geometry": {
        "type": "Point",
        "coordinates": [
          -6.1559459,
          53.3913111
        ]
      }
    },
    {
      "type": "Feature",
      "id": "node/2758411066",
      "properties": {
        "name": "Howth Junction and Donaghmede",
        "name:en": "Howth Junction and Donaghmede",
        "name:ga": "Gabhal Bhinn Éadair agus Domhnach Míde",
        "network": "Dublin Commuter;DART",
        "old_name": "Howth Junction",
        "operator": "Irish Rail",
        "public_transport": "stop_position",
        "railway": "stop",
        "train": "yes",
        "wheelchair": "yes",
        "id": "node/2758411066"
      },
      "geometry": {
        "type": "Point",
        "coordinates": [
          -6.1558514,
          53.3911722
        ]
      }
    },
    {
      "type": "Feature",
      "id": "node/2829159704",
      "properties": {
        "addr:city": "Craughwell",
        "name": "Craughwell",
        "network": "InterCity",
        "operator": "Irish Rail",
        "public_transport": "station",
        "railway": "station",
        "website": "http://www.irishrail.ie/travel-information/craughwell",
        "wikidata": "Q3969502",
        "id": "node/2829159704"
      },
      "geometry": {
        "type": "Point",
        "coordinates": [
          -8.7359784,
          53.2255759
        ]
      }
    },
    {
      "type": "Feature",
      "id": "node/2926144331",
      "properties": {
        "name": "Howth",
        "name:en": "Howth",
        "name:ga": "Binn Éadair",
        "network": "DART",
        "operator": "Irish Rail",
        "public_transport": "stop_position",
        "railway": "stop",
        "train": "yes",
        "id": "node/2926144331"
      },
      "geometry": {
        "type": "Point",
        "coordinates": [
          -6.0743726,
          53.3890966
        ]
      }
    },
    {
      "type": "Feature",
      "id": "node/2926144332",
      "properties": {
        "name": "Bayside",
        "network": "DART",
        "operator": "Irish Rail",
        "public_transport": "stop_position",
        "railway": "stop",
        "train": "yes",
        "wheelchair": "yes",
        "id": "node/2926144332"
      },
      "geometry": {
        "type": "Point",
        "coordinates": [
          -6.1368821,
          53.391497
        ]
      }
    },
    {
      "type": "Feature",
      "id": "node/2940797724",
      "properties": {
        "name": "Dun Laoghaire",
        "network": "InterCity;Dublin Commuter;DART",
        "operator": "Irish Rail",
        "public_transport": "stop_position",
        "railway": "stop",
        "train": "yes",
        "uic_ref": "6000047",
        "id": "node/2940797724"
      },
      "geometry": {
        "type": "Point",
        "coordinates": [
          -6.1348752,
          53.2952193
        ]
      }
    },
    {
      "type": "Feature",
      "id": "node/2940797758",
      "properties": {
        "name": "Sandycove and Glasthule",
        "name:en": "Sandycove and Glasthule",
        "name:ga": "Cuas an Ghainimh agus Glas Tuathail",
        "network": "DART",
        "operator": "Irish Rail",
        "public_transport": "stop_position",
        "railway": "stop",
        "train": "yes",
        "id": "node/2940797758"
      },
      "geometry": {
        "type": "Point",
        "coordinates": [
          -6.1270259,
          53.2882047
        ]
      }
    },
    {
      "type": "Feature",
      "id": "node/3010372440",
      "properties": {
        "addr:city": "Castleconnell",
        "name": "Castleconnell",
        "network": "InterCity",
        "operator": "Irish Rail",
        "phone": "+353 1 8366222 or 1850 366222",
        "public_transport": "station",
        "railway": "station",
        "website": "http://www.irishrail.ie/travel-information/castleconnell",
        "wheelchair": "limited",
        "wikidata": "Q3969335",
        "wikipedia": "en:Castleconnell railway station",
        "id": "node/3010372440"
      },
      "geometry": {
        "type": "Point",
        "coordinates": [
          -8.4979134,
          52.7130568
        ]
      }
    },
    {
      "type": "Feature",
      "id": "node/3014438662",
      "properties": {
        "name": "M3 Parkway",
        "name:en": "M3 Parkway",
        "name:ga": "Ollpháirc M3",
        "network": "Dublin Commuter",
        "public_transport": "stop_position",
        "railway": "stop",
        "train": "yes",
        "id": "node/3014438662"
      },
      "geometry": {
        "type": "Point",
        "coordinates": [
          -6.4690373,
          53.4350052
        ]
      }
    },
    {
      "type": "Feature",
      "id": "node/3032552581",
      "properties": {
        "name": "Killiney",
        "name:en": "Killiney",
        "name:ga": "Cill Iníon Léinin",
        "network": "DART",
        "operator": "Irish Rail",
        "public_transport": "stop_position",
        "railway": "stop",
        "train": "yes",
        "id": "node/3032552581"
      },
      "geometry": {
        "type": "Point",
        "coordinates": [
          -6.1130163,
          53.2553858
        ]
      }
    },
    {
      "type": "Feature",
      "id": "node/3032552753",
      "properties": {
        "name": "Dalkey",
        "name:en": "Dalkey",
        "name:ga": "Deilginis",
        "network": "DART",
        "operator": "Irish Rail",
        "public_transport": "stop_position",
        "railway": "stop",
        "train": "yes",
        "id": "node/3032552753"
      },
      "geometry": {
        "type": "Point",
        "coordinates": [
          -6.1031915,
          53.2756351
        ]
      }
    },
    {
      "type": "Feature",
      "id": "node/3051527215",
      "properties": {
        "addr:city": "Rosslare",
        "name": "Rosslare Strand",
        "name:ga": "Stáisiún Thrá Ros Láir",
        "network": "InterCity",
        "operator": "Irish Rail",
        "phone": "+353 53 9132262",
        "public_transport": "station",
        "railway": "station",
        "ref": "58",
        "toilets:wheelchair": "no",
        "website": "http://www.irishrail.ie/travel-information/rosslare-strand",
        "wheelchair": "limited",
        "wheelchair:description": "The trainstation is unmanned. Only platform 1 is in use. Toilets and waiting room are locked. Nearest public toilets are on the beach next to Watersports Centre.",
        "wikidata": "Q3970730",
        "wikipedia": "en:Rosslare Strand railway station",
        "id": "node/3051527215"
      },
      "geometry": {
        "type": "Point",
        "coordinates": [
          -6.3915978,
          52.2717547
        ]
      }
    },
    {
      "type": "Feature",
      "id": "node/3106031146",
      "properties": {
        "addr:city": "Charleville",
        "addr:street": "Railway Road",
        "name": "Charleville",
        "name:en": "Charleville",
        "name:ga": "An Ráth",
        "network": "InterCity",
        "operator": "Irish Rail",
        "platforms": "3",
        "public_transport": "station",
        "railway": "station",
        "start_date": "1849-03-19",
        "train": "yes",
        "wikidata": "Q3969394",
        "wikipedia": "en:Charleville railway station",
        "id": "node/3106031146"
      },
      "geometry": {
        "type": "Point",
        "coordinates": [
          -8.6535787,
          52.3472276
        ]
      }
    },
    {
      "type": "Feature",
      "id": "node/3106107177",
      "properties": {
        "addr:city": "Ballybrophy",
        "addr:street": "Ballybrophy Station Road",
        "name": "Ballybrophy",
        "name:en": "Ballybrophy",
        "name:ga": "Baile Uí Bhróithe",
        "network": "InterCity",
        "operator": "Irish Rail",
        "platforms": "4",
        "public_transport": "station",
        "railway": "station",
        "start_date": "1847",
        "train": "yes",
        "wikidata": "Q3968958",
        "wikipedia": "en:Ballybrophy railway station",
        "id": "node/3106107177"
      },
      "geometry": {
        "type": "Point",
        "coordinates": [
          -7.6021804,
          52.9002465
        ]
      }
    },
    {
      "type": "Feature",
      "id": "node/3106107179",
      "properties": {
        "name": "Limerick Junction",
        "network": "InterCity",
        "operator": "Irish Rail",
        "public_transport": "stop_position",
        "railway": "stop",
        "train": "yes",
        "id": "node/3106107179"
      },
      "geometry": {
        "type": "Point",
        "coordinates": [
          -8.1997738,
          52.5009499
        ]
      }
    },
    {
      "type": "Feature",
      "id": "node/3106107180",
      "properties": {
        "addr:city": "Mallow",
        "addr:county": "Cork",
        "addr:street": "New Road",
        "name": "Mallow",
        "name:en": "Mallow",
        "name:ga": "Mala",
        "network": "InterCity;Cork Suburban",
        "operator": "Irish Rail",
        "platforms": "3",
        "public_transport": "station",
        "railway": "station",
        "start_date": "1849-03-17",
        "wikidata": "Q3970020",
        "wikipedia": "en:Mallow railway station",
        "id": "node/3106107180"
      },
      "geometry": {
        "type": "Point",
        "coordinates": [
          -8.6553184,
          52.1388277
        ]
      }
    },
    {
      "type": "Feature",
      "id": "node/3106107185",
      "properties": {
        "addr:city": "Templemore",
        "name": "Templemore",
        "name:en": "Templemore",
        "name:ga": "An Teampall Mór",
        "network": "InterCity",
        "operator": "Irish Rail",
        "platforms": "2",
        "public_transport": "station",
        "railway": "station",
        "start_date": "1846",
        "wikidata": "Q928449",
        "wikipedia": "en:Templemore railway station",
        "id": "node/3106107185"
      },
      "geometry": {
        "type": "Point",
        "coordinates": [
          -7.8224599,
          52.7879147
        ]
      }
    },
    {
      "type": "Feature",
      "id": "node/3110915666",
      "properties": {
        "name": "Cork Kent",
        "public_transport": "stop_position",
        "railway": "stop",
        "ref": "3",
        "train": "yes",
        "id": "node/3110915666"
      },
      "geometry": {
        "type": "Point",
        "coordinates": [
          -8.4566854,
          51.9017264
        ]
      }
    },
    {
      "type": "Feature",
      "id": "node/3110915700",
      "properties": {
        "name": "Cork Kent",
        "public_transport": "stop_position",
        "railway": "stop",
        "ref": "2",
        "train": "yes",
        "id": "node/3110915700"
      },
      "geometry": {
        "type": "Point",
        "coordinates": [
          -8.4567009,
          51.9017514
        ]
      }
    },
    {
      "type": "Feature",
      "id": "node/3110915711",
      "properties": {
        "name": "Kent Station (Cork)",
        "public_transport": "stop_position",
        "railway": "stop",
        "ref": "5b",
        "train": "yes",
        "id": "node/3110915711"
      },
      "geometry": {
        "type": "Point",
        "coordinates": [
          -8.4587817,
          51.9015003
        ]
      }
    },
    {
      "type": "Feature",
      "id": "node/3110915722",
      "properties": {
        "name": "Cork Kent",
        "public_transport": "stop_position",
        "railway": "stop",
        "ref": "1",
        "train": "yes",
        "id": "node/3110915722"
      },
      "geometry": {
        "type": "Point",
        "coordinates": [
          -8.4568559,
          51.9018122
        ]
      }
    },
    {
      "type": "Feature",
      "id": "node/3177390706",
      "properties": {
        "name": "Salthill and Monkstown",
        "network": "DART",
        "operator": "Irish Rail",
        "public_transport": "stop_position",
        "railway": "stop",
        "train": "yes",
        "id": "node/3177390706"
      },
      "geometry": {
        "type": "Point",
        "coordinates": [
          -6.1525861,
          53.2953847
        ]
      }
    },
    {
      "type": "Feature",
      "id": "node/3177390721",
      "properties": {
        "name": "Salthill and Monkstown",
        "network": "DART",
        "operator": "Irish Rail",
        "public_transport": "stop_position",
        "railway": "stop",
        "train": "yes",
        "id": "node/3177390721"
      },
      "geometry": {
        "type": "Point",
        "coordinates": [
          -6.1525619,
          53.2954087
        ]
      }
    },
    {
      "type": "Feature",
      "id": "node/3177390741",
      "properties": {
        "name": "Seapoint",
        "name:en": "Seapoint",
        "name:ga": "Rinn Na Mara",
        "network": "DART",
        "operator": "Irish Rail",
        "public_transport": "stop_position",
        "railway": "stop",
        "train": "yes",
        "id": "node/3177390741"
      },
      "geometry": {
        "type": "Point",
        "coordinates": [
          -6.1652116,
          53.2991718
        ]
      }
    },
    {
      "type": "Feature",
      "id": "node/3177396829",
      "properties": {
        "name": "Lansdowne Road",
        "name:en": "Lansdowne Road",
        "name:ga": "Bóthar Lansdún",
        "network": "Dublin Commuter;DART",
        "operator": "Irish Rail",
        "public_transport": "stop_position",
        "railway": "stop",
        "train": "yes",
        "id": "node/3177396829"
      },
      "geometry": {
        "type": "Point",
        "coordinates": [
          -6.2289043,
          53.3339457
        ]
      }
    },
    {
      "type": "Feature",
      "id": "node/3254611862",
      "properties": {
        "name": "Castleknock",
        "name:ga": "Caisleán Cnucha",
        "network": "Dublin Commuter",
        "operator": "Irish Rail",
        "public_transport": "stop_position",
        "railway": "stop",
        "train": "yes",
        "id": "node/3254611862"
      },
      "geometry": {
        "type": "Point",
        "coordinates": [
          -6.371448,
          53.3815428
        ]
      }
    },
    {
      "type": "Feature",
      "id": "node/3281186458",
      "properties": {
        "name": "Shankill",
        "network": "DART",
        "operator": "Irish Rail",
        "public_transport": "stop_position",
        "railway": "stop",
        "train": "yes",
        "id": "node/3281186458"
      },
      "geometry": {
        "type": "Point",
        "coordinates": [
          -6.11702,
          53.2367002
        ]
      }
    },
    {
      "type": "Feature",
      "id": "node/3294541080",
      "properties": {
        "public_transport": "stop_position",
        "railway": "stop",
        "train": "yes",
        "id": "node/3294541080"
      },
      "geometry": {
        "type": "Point",
        "coordinates": [
          -9.5522958,
          52.1738219
        ]
      }
    },
    {
      "type": "Feature",
      "id": "node/3307721254",
      "properties": {
        "addr:county": "Kerry",
        "addr:street": "Fairhill",
        "name": "Killarney",
        "name:en": "Killarney",
        "name:ga": "Stáisiún Chill Airne",
        "network": "InterCity",
        "operator": "Irish Rail",
        "phone": "+353-64-6631067",
        "public_transport": "station",
        "railway": "station",
        "website": "http://www.irishrail.ie/travel-information/killarney",
        "wheelchair": "yes",
        "wikidata": "Q3969865",
        "wikipedia": "en:Killarney railway station",
        "id": "node/3307721254"
      },
      "geometry": {
        "type": "Point",
        "coordinates": [
          -9.5021013,
          52.05927
        ]
      }
    },
    {
      "type": "Feature",
      "id": "node/3363182012",
      "properties": {
        "name": "Tara Street",
        "network": "InterCity;Dublin Commuter;DART",
        "operator": "Irish Rail",
        "public_transport": "stop_position",
        "railway": "stop",
        "train": "yes",
        "id": "node/3363182012"
      },
      "geometry": {
        "type": "Point",
        "coordinates": [
          -6.2543372,
          53.3471244
        ]
      }
    },
    {
      "type": "Feature",
      "id": "node/3402132490",
      "properties": {
        "addr:city": "Dundalk",
        "addr:street": "Carrickmacross Road",
        "name": "Dundalk Clarke",
        "name:en": "Dundalk Clarke",
        "name:ga": "Dún Dealgan Ui Cleirigh",
        "network": "Enterprise;Dublin Commuter",
        "operator": "Irish Rail",
        "platforms": "2",
        "public_transport": "station",
        "railway": "station",
        "website": "http://www.irishrail.ie/travel-information/dundalk-clarke",
        "wikidata": "Q664711",
        "id": "node/3402132490"
      },
      "geometry": {
        "type": "Point",
        "coordinates": [
          -6.4128708,
          54.0012554
        ]
      }
    },
    {
      "type": "Feature",
      "id": "node/3454206354",
      "properties": {
        "name": "Dun Laoghaire",
        "network": "InterCity;Dublin Commuter;DART",
        "operator": "Irish Rail",
        "public_transport": "stop_position",
        "railway": "stop",
        "train": "yes",
        "uic_ref": "6000047",
        "id": "node/3454206354"
      },
      "geometry": {
        "type": "Point",
        "coordinates": [
          -6.134665,
          53.2949177
        ]
      }
    },
    {
      "type": "Feature",
      "id": "node/3455631473",
      "properties": {
        "addr:city": "Clongriffin",
        "addr:street": "Station Hill",
        "name": "Clongriffin",
        "name:en": "Clongriffin",
        "name:ga": "Cluain Ghrífín",
        "network": "Dublin Commuter;DART",
        "operator": "Irish Rail",
        "public_transport": "stop_position",
        "railway": "stop",
        "train": "yes",
        "id": "node/3455631473"
      },
      "geometry": {
        "type": "Point",
        "coordinates": [
          -6.1489751,
          53.4024759
        ]
      }
    },
    {
      "type": "Feature",
      "id": "node/3455675380",
      "properties": {
        "addr:city": "Portmarnock",
        "addr:street": "Station Road",
        "name": "Portmarnock",
        "name:en": "Portmarnock",
        "name:ga": "Port Mearnóg",
        "network": "Dublin Commuter;DART",
        "operator": "Irish Rail",
        "public_transport": "stop_position",
        "railway": "stop",
        "train": "yes",
        "id": "node/3455675380"
      },
      "geometry": {
        "type": "Point",
        "coordinates": [
          -6.1512979,
          53.417681
        ]
      }
    },
    {
      "type": "Feature",
      "id": "node/3456151232",
      "properties": {
        "name": "Tara Street",
        "network": "InterCity;Dublin Commuter;DART",
        "operator": "Irish Rail",
        "public_transport": "stop_position",
        "railway": "stop",
        "train": "yes",
        "id": "node/3456151232"
      },
      "geometry": {
        "type": "Point",
        "coordinates": [
          -6.2542816,
          53.3471318
        ]
      }
    },
    {
      "type": "Feature",
      "id": "node/3556756605",
      "properties": {
        "level": "1",
        "name": "Dublin Pearse",
        "name:en": "Dublin Pearse",
        "name:ga": "Stáisiún na bPiarsach",
        "network": "InterCity;Dublin Commuter;DART",
        "operator": "Irish Rail",
        "public_transport": "stop_position",
        "railway": "stop",
        "train": "yes",
        "id": "node/3556756605"
      },
      "geometry": {
        "type": "Point",
        "coordinates": [
          -6.2484727,
          53.3433603
        ]
      }
    },
    {
      "type": "Feature",
      "id": "node/3556756607",
      "properties": {
        "level": "1",
        "name": "Dublin Pearse",
        "name:en": "Dublin Pearse",
        "name:ga": "Stáisiún na bPiarsach",
        "network": "InterCity;Dublin Commuter;DART",
        "operator": "Irish Rail",
        "public_transport": "stop_position",
        "railway": "stop",
        "train": "yes",
        "id": "node/3556756607"
      },
      "geometry": {
        "type": "Point",
        "coordinates": [
          -6.2484997,
          53.3433279
        ]
      }
    },
    {
      "type": "Feature",
      "id": "node/3578164703",
      "properties": {
        "name": "Navan Road Parkway",
        "name:en": "Navan Road Parkway",
        "name:ga": "Ollpháirc Bhóthar na hUaimhe",
        "network": "Dublin Commuter",
        "operator": "Irish Rail",
        "public_transport": "stop_position",
        "railway": "stop",
        "train": "yes",
        "id": "node/3578164703"
      },
      "geometry": {
        "type": "Point",
        "coordinates": [
          -6.3454672,
          53.3775515
        ]
      }
    },
    {
      "type": "Feature",
      "id": "node/3580458705",
      "properties": {
        "name": "Leixlip Louisa Bridge",
        "name:ga": "Droichead Louisa, Léim an Bhradáin",
        "network": "Dublin Commuter",
        "operator": "Irish Rail",
        "public_transport": "stop_position",
        "railway": "stop",
        "train": "yes",
        "id": "node/3580458705"
      },
      "geometry": {
        "type": "Point",
        "coordinates": [
          -6.5068565,
          53.3698808
        ]
      }
    },
    {
      "type": "Feature",
      "id": "node/3581474993",
      "properties": {
        "addr:city": "Dunboyne",
        "name": "M3 Parkway",
        "name:en": "M3 Parkway",
        "name:ga": "Ollpháirc M3",
        "network": "Dublin Commuter",
        "operator": "Irish Rail",
        "public_transport": "station",
        "railway": "station",
        "train": "yes",
        "website": "http://www.irishrail.ie/travel-information/m3-parkway",
        "wikidata": "Q3970000",
        "id": "node/3581474993"
      },
      "geometry": {
        "type": "Point",
        "coordinates": [
          -6.4688891,
          53.4345286
        ]
      }
    },
    {
      "type": "Feature",
      "id": "node/3586556482",
      "properties": {
        "addr:city": "Bray",
        "addr:street": "Station Yard",
        "name": "Bray Daly",
        "network": "InterCity;Dublin Commuter;DART",
        "operator": "Irish Rail",
        "public_transport": "stop_position",
        "railway": "stop",
        "train": "yes",
        "wheelchair": "yes",
        "id": "node/3586556482"
      },
      "geometry": {
        "type": "Point",
        "coordinates": [
          -6.1006849,
          53.2045193
        ]
      }
    },
    {
      "type": "Feature",
      "id": "node/3594093609",
      "properties": {
        "name": "Ashtown",
        "name:ga": "Baile an Áisigh",
        "network": "Dublin Commuter",
        "operator": "Irish Rail",
        "public_transport": "stop_position",
        "railway": "stop",
        "train": "yes",
        "id": "node/3594093609"
      },
      "geometry": {
        "type": "Point",
        "coordinates": [
          -6.3307952,
          53.3754508
        ]
      }
    },
    {
      "type": "Feature",
      "id": "node/3622824746",
      "properties": {
        "addr:city": "Midleton",
        "addr:street": "Mill Road",
        "name": "Midleton",
        "name:ga": "Mainistir na Corann",
        "network": "Cork Suburban",
        "operator": "Irish Rail",
        "public_transport": "station",
        "railway": "station",
        "website": "http://www.irishrail.ie/travel-information/midleton",
        "wheelchair": "yes",
        "wikidata": "Q3970107",
        "id": "node/3622824746"
      },
      "geometry": {
        "type": "Point",
        "coordinates": [
          -8.1760606,
          51.9211689
        ]
      }
    },
    {
      "type": "Feature",
      "id": "node/3627809171",
      "properties": {
        "name": "Dublin Heuston",
        "name:en": "Dublin Heuston",
        "name:ga": "Baile Átha Cliath Heuston",
        "network": "InterCity",
        "operator": "Irish Rail",
        "public_transport": "stop_position",
        "railway": "stop",
        "ref": "4",
        "train": "yes",
        "id": "node/3627809171"
      },
      "geometry": {
        "type": "Point",
        "coordinates": [
          -6.2940176,
          53.3464127
        ]
      }
    },
    {
      "type": "Feature",
      "id": "node/3627845010",
      "properties": {
        "addr:city": "Port Laoise",
        "addr:street": "Railway Street",
        "name": "Portlaoise",
        "name:en": "Portlaoise",
        "name:ga": "Port Laoise",
        "network": "InterCity",
        "operator": "Irish Rail",
        "platforms": "2",
        "public_transport": "station",
        "railway": "station",
        "start_date": "1847-06-26",
        "wikidata": "Q3970567",
        "wikipedia": "en:Port Laoise railway station",
        "id": "node/3627845010"
      },
      "geometry": {
        "type": "Point",
        "coordinates": [
          -7.3013754,
          53.0368853
        ]
      }
    },
    {
      "type": "Feature",
      "id": "node/3627881984",
      "properties": {
        "addr:city": "Attymon",
        "addr:county": "Galway",
        "name": "Attymon",
        "name:ga": "Áth Tíomáin",
        "network": "InterCity",
        "operator": "Irish Rail",
        "platforms": "1",
        "railway": "station",
        "website": "http://www.irishrail.ie/travel-information/Attymon",
        "wikidata": "Q3968932",
        "wikipedia": "en:Attymon halt",
        "id": "node/3627881984"
      },
      "geometry": {
        "type": "Point",
        "coordinates": [
          -8.6064976,
          53.3213229
        ]
      }
    },
    {
      "type": "Feature",
      "id": "node/3632162138",
      "properties": {
        "name": "Dublin Connolly",
        "name:en": "Dublin Connolly",
        "name:ga": "Baile Átha Cliath Chonghaile",
        "operator": "Irish Rail",
        "public_transport": "stop_position",
        "railway": "stop",
        "train": "yes",
        "id": "node/3632162138"
      },
      "geometry": {
        "type": "Point",
        "coordinates": [
          -6.2489307,
          53.3516967
        ]
      }
    },
    {
      "type": "Feature",
      "id": "node/3634465086",
      "properties": {
        "name": "Waterford Plunkett",
        "network": "InterCity",
        "operator": "Irish Rail",
        "public_transport": "stop_position",
        "railway": "stop",
        "ref": "5",
        "train": "yes",
        "id": "node/3634465086"
      },
      "geometry": {
        "type": "Point",
        "coordinates": [
          -7.1187092,
          52.2665725
        ]
      }
    },
    {
      "type": "Feature",
      "id": "node/3634954890",
      "properties": {
        "addr:city": "Nenagh",
        "addr:county": "Tipperary",
        "addr:street": "Thurles Road",
        "name": "Nenagh",
        "network": "InterCity",
        "operator": "Irish Rail",
        "phone": "+353 67 31232",
        "public_transport": "station",
        "railway": "station",
        "website": "http://www.irishrail.ie/travel-information/nenagh",
        "wheelchair": "yes",
        "wikidata": "Q3970290",
        "id": "node/3634954890"
      },
      "geometry": {
        "type": "Point",
        "coordinates": [
          -8.1950245,
          52.860474
        ]
      }
    },
    {
      "type": "Feature",
      "id": "node/3634964971",
      "properties": {
        "name": "Galway Ceannt",
        "name:en": "Galway Ceannt",
        "name:ga": "Gaillimh Cheannt",
        "network": "InterCity",
        "operator": "Irish Rail",
        "public_transport": "stop_position",
        "railway": "stop",
        "train": "yes",
        "id": "node/3634964971"
      },
      "geometry": {
        "type": "Point",
        "coordinates": [
          -9.0471444,
          53.2735839
        ]
      }
    },
    {
      "type": "Feature",
      "id": "node/3640069842",
      "properties": {
        "addr:city": "Thurles",
        "addr:street": "Butlers Avenue",
        "fax": "+353 504 23194",
        "name": "Thurles",
        "name:en": "Thurles",
        "name:ga": "Durlas",
        "network": "InterCity",
        "operator": "Irish Rail",
        "phone": "+353 504 21733",
        "platforms": "3",
        "public_transport": "station",
        "railway": "station",
        "start_date": "1848-03-13",
        "toilets": "yes",
        "wikidata": "Q3971114",
        "wikipedia": "en:Thurles railway station",
        "id": "node/3640069842"
      },
      "geometry": {
        "type": "Point",
        "coordinates": [
          -7.8219058,
          52.6766937
        ]
      }
    },
    {
      "type": "Feature",
      "id": "node/3647751526",
      "properties": {
        "name": "Limerick Colbert",
        "network": "InterCity",
        "operator": "Irish Rail",
        "public_transport": "stop_position",
        "railway": "stop",
        "train": "yes",
        "id": "node/3647751526"
      },
      "geometry": {
        "type": "Point",
        "coordinates": [
          -8.6242072,
          52.6586842
        ]
      }
    },
    {
      "type": "Feature",
      "id": "node/3658872050",
      "properties": {
        "name": "Dublin Heuston",
        "name:en": "Dublin Heuston",
        "name:ga": "Baile Átha Cliath Heuston",
        "network": "InterCity",
        "operator": "Irish Rail",
        "public_transport": "stop_position",
        "railway": "stop",
        "ref": "8",
        "train": "yes",
        "id": "node/3658872050"
      },
      "geometry": {
        "type": "Point",
        "coordinates": [
          -6.2977605,
          53.3463989
        ]
      }
    },
    {
      "type": "Feature",
      "id": "node/3739082904",
      "properties": {
        "name": "Clonsilla",
        "network": "Dublin Commuter",
        "public_transport": "stop_position",
        "railway": "stop",
        "train": "yes",
        "id": "node/3739082904"
      },
      "geometry": {
        "type": "Point",
        "coordinates": [
          -6.4266094,
          53.3837346
        ]
      }
    },
    {
      "type": "Feature",
      "id": "node/3739127458",
      "properties": {
        "name": "Docklands",
        "name:ga": "Dugthailte",
        "network": "Dublin Commuter",
        "operator": "Irish Rail",
        "public_transport": "stop_position",
        "railway": "stop",
        "train": "yes",
        "id": "node/3739127458"
      },
      "geometry": {
        "type": "Point",
        "coordinates": [
          -6.2392831,
          53.350943
        ]
      }
    },
    {
      "type": "Feature",
      "id": "node/3740185419",
      "properties": {
        "addr:city": "Longford",
        "addr:street": "Saint Joseph's Road",
        "name": "Longford",
        "network": "InterCity;Dublin Commuter",
        "operator": "Irish Rail",
        "phone": "+353 43 3345208",
        "public_transport": "station",
        "railway": "station",
        "website": "http://www.irishrail.ie/travel-information/longford",
        "wheelchair": "yes",
        "wikidata": "Q2090385",
        "id": "node/3740185419"
      },
      "geometry": {
        "type": "Point",
        "coordinates": [
          -7.7958607,
          53.7242204
        ]
      }
    },
    {
      "type": "Feature",
      "id": "node/3754477518",
      "properties": {
        "name": "Clontarf Road",
        "name:en": "Clontarf Road",
        "name:ga": "Bóthar Chluain Tarbh",
        "network": "DART",
        "operator": "Irish Rail",
        "public_transport": "stop_position",
        "railway": "stop",
        "train": "yes",
        "wheelchair": "yes",
        "id": "node/3754477518"
      },
      "geometry": {
        "type": "Point",
        "coordinates": [
          -6.227329,
          53.3629024
        ]
      }
    },
    {
      "type": "Feature",
      "id": "node/3754598674",
      "properties": {
        "name": "Gormanston",
        "network": "Dublin Commuter",
        "operator": "Irish Rail",
        "public_transport": "stop_position",
        "railway": "stop",
        "train": "yes",
        "id": "node/3754598674"
      },
      "geometry": {
        "type": "Point",
        "coordinates": [
          -6.217075,
          53.6378308
        ]
      }
    },
    {
      "type": "Feature",
      "id": "node/3760590275",
      "properties": {
        "addr:city": "Tralee",
        "addr:street": "John Joe Sheehy Road",
        "name": "Tralee Casement",
        "network": "InterCity",
        "operator": "Irish Rail",
        "phone": "+353-66-7123522",
        "platforms": "1",
        "public_transport": "station",
        "railway": "station",
        "website": "http://www.irishrail.ie/travel-information/tralee-casement",
        "wheelchair": "yes",
        "wikidata": "Q546313",
        "id": "node/3760590275"
      },
      "geometry": {
        "type": "Point",
        "coordinates": [
          -9.698541,
          52.2710143
        ]
      }
    },
    {
      "type": "Feature",
      "id": "node/3841573179",
      "properties": {
        "addr:city": "New Ross",
        "addr:county": "Wexford",
        "email": "jfkarboretum@opw.ie",
        "name": "JFK Memorial Park Miniature Railway",
        "opening_hours": "Jun Sa-Su 12:30-17:15; Jul-Aug",
        "operator": "Office of Public Works (OPW)",
        "phone": "+353 51 388171",
        "public_transport": "station",
        "railway": "station",
        "website": "http://www.heritageireland.ie/en/south-east/thejohnfkennedyarboretum/",
        "id": "node/3841573179"
      },
      "geometry": {
        "type": "Point",
        "coordinates": [
          -6.9393741,
          52.3129727
        ]
      }
    },
    {
      "type": "Feature",
      "id": "node/3856374584",
      "properties": {
        "name": "Dundalk Clarke",
        "public_transport": "stop_position",
        "railway": "stop",
        "train": "yes",
        "id": "node/3856374584"
      },
      "geometry": {
        "type": "Point",
        "coordinates": [
          -6.4126803,
          54.0020391
        ]
      }
    },
    {
      "type": "Feature",
      "id": "node/3856374585",
      "properties": {
        "name": "Dundalk Clarke",
        "public_transport": "stop_position",
        "railway": "stop",
        "train": "yes",
        "id": "node/3856374585"
      },
      "geometry": {
        "type": "Point",
        "coordinates": [
          -6.4130171,
          54.0020453
        ]
      }
    },
    {
      "type": "Feature",
      "id": "node/3908808660",
      "properties": {
        "addr:city": "Tipperary",
        "addr:street": "Station Road",
        "name": "Tipperary",
        "operator": "Irish Rail",
        "phone": "+353 62 51206",
        "public_transport": "station",
        "railway": "station",
        "train": "yes",
        "website": "http://www.irishrail.ie/travel-information/tipperary",
        "wheelchair": "no",
        "wikidata": "Q3971116",
        "id": "node/3908808660"
      },
      "geometry": {
        "type": "Point",
        "coordinates": [
          -8.1616037,
          52.4701484
        ]
      }
    },
    {
      "type": "Feature",
      "id": "node/3969371847",
      "properties": {
        "addr:city": "Cobh",
        "addr:county": "Cork",
        "addr:street": "Lower Road",
        "name": "Cobh",
        "name:en": "Cobh",
        "name:ga": "An Cóbh",
        "network": "Cork Suburban",
        "operator": "Irish Rail",
        "phone": "+353 21 4811655",
        "public_transport": "station",
        "railway": "station",
        "website": "http://www.irishrail.ie/travel-information/cobh",
        "wheelchair": "limited \"Via ramp from public road (Lower road) only\"",
        "wikidata": "Q3969447",
        "id": "node/3969371847"
      },
      "geometry": {
        "type": "Point",
        "coordinates": [
          -8.3003801,
          51.8487213
        ]
      }
    },
    {
      "type": "Feature",
      "id": "node/4028759118",
      "properties": {
        "name": "Dun Laoghaire",
        "network": "InterCity;Dublin Commuter;DART",
        "operator": "Irish Rail",
        "public_transport": "stop_position",
        "railway": "stop",
        "train": "yes",
        "uic_ref": "6000047",
        "id": "node/4028759118"
      },
      "geometry": {
        "type": "Point",
        "coordinates": [
          -6.1347112,
          53.2948997
        ]
      }
    },
    {
      "type": "Feature",
      "id": "node/4109805560",
      "properties": {
        "addr:city": "Leixlip",
        "addr:street": "Captain's Hill",
        "name": "Leixlip Confey",
        "name:en": "Leixlip Confey",
        "name:ga": "Confai, Léim an Bhradáin",
        "network": "Dublin Commuter",
        "operator": "Irish Rail",
        "public_transport": "station",
        "railway": "station",
        "train": "yes",
        "wikidata": "Q3969941",
        "id": "node/4109805560"
      },
      "geometry": {
        "type": "Point",
        "coordinates": [
          -6.4854248,
          53.3741379
        ]
      }
    },
    {
      "type": "Feature",
      "id": "node/4684434524",
      "properties": {
        "name": "Clongriffin",
        "name:en": "Clongriffin",
        "name:ga": "Cluain Ghrífín",
        "network": "Dublin Commuter;DART",
        "operator": "Irish Rail",
        "public_transport": "stop_position",
        "railway": "stop",
        "train": "yes",
        "id": "node/4684434524"
      },
      "geometry": {
        "type": "Point",
        "coordinates": [
          -6.1492031,
          53.4025484
        ]
      }
    },
    {
      "type": "Feature",
      "id": "node/4684434525",
      "properties": {
        "name": "Grand Canal Dock",
        "network": "DART",
        "operator": "Irish Rail",
        "public_transport": "stop_position",
        "railway": "stop",
        "train": "yes",
        "id": "node/4684434525"
      },
      "geometry": {
        "type": "Point",
        "coordinates": [
          -6.2380484,
          53.3396381
        ]
      }
    },
    {
      "type": "Feature",
      "id": "node/4684434526",
      "properties": {
        "name": "Grand Canal Dock",
        "network": "Dublin Commuter;DART",
        "operator": "Irish Rail",
        "public_transport": "stop_position",
        "railway": "stop",
        "train": "yes",
        "id": "node/4684434526"
      },
      "geometry": {
        "type": "Point",
        "coordinates": [
          -6.2379642,
          53.3396951
        ]
      }
    },
    {
      "type": "Feature",
      "id": "node/4684434527",
      "properties": {
        "name": "Grand Canal Dock",
        "network": "Dublin Commuter;DART",
        "operator": "Irish Rail",
        "public_transport": "stop_position",
        "railway": "stop",
        "train": "yes",
        "id": "node/4684434527"
      },
      "geometry": {
        "type": "Point",
        "coordinates": [
          -6.237928,
          53.3397186
        ]
      }
    },
    {
      "type": "Feature",
      "id": "node/4684434528",
      "properties": {
        "name": "Greystones",
        "name:en": "Greystones",
        "name:ga": "Na Clocha Liatha",
        "network": "InterCity;Dublin Commuter;DART",
        "operator": "Irish Rail",
        "public_transport": "stop_position",
        "railway": "stop",
        "train": "yes",
        "id": "node/4684434528"
      },
      "geometry": {
        "type": "Point",
        "coordinates": [
          -6.0607509,
          53.1440658
        ]
      }
    },
    {
      "type": "Feature",
      "id": "node/4684434529",
      "properties": {
        "name": "Glenageary",
        "name:en": "Glenageary",
        "name:ga": "Gleann na Caorach",
        "network": "DART",
        "operator": "Irish Rail",
        "public_transport": "stop_position",
        "railway": "stop",
        "train": "yes",
        "id": "node/4684434529"
      },
      "geometry": {
        "type": "Point",
        "coordinates": [
          -6.1230954,
          53.2812499
        ]
      }
    },
    {
      "type": "Feature",
      "id": "node/4684434530",
      "properties": {
        "name": "Blackrock",
        "name:en": "Blackrock",
        "name:ga": "An Charraig Dhubh",
        "network": "Dublin Commuter;DART",
        "operator": "Irish Rail",
        "public_transport": "stop_position",
        "railway": "stop",
        "train": "yes",
        "id": "node/4684434530"
      },
      "geometry": {
        "type": "Point",
        "coordinates": [
          -6.1786973,
          53.3028527
        ]
      }
    },
    {
      "type": "Feature",
      "id": "node/4684434531",
      "properties": {
        "name": "Sandymount",
        "network": "DART",
        "operator": "Irish Rail",
        "public_transport": "stop_position",
        "railway": "stop",
        "train": "yes",
        "id": "node/4684434531"
      },
      "geometry": {
        "type": "Point",
        "coordinates": [
          -6.2210217,
          53.3278824
        ]
      }
    },
    {
      "type": "Feature",
      "id": "node/4684434532",
      "properties": {
        "name": "Sandymount",
        "network": "DART",
        "operator": "Irish Rail",
        "public_transport": "stop_position",
        "railway": "stop",
        "train": "yes",
        "id": "node/4684434532"
      },
      "geometry": {
        "type": "Point",
        "coordinates": [
          -6.2209781,
          53.3278978
        ]
      }
    },
    {
      "type": "Feature",
      "id": "node/4684434533",
      "properties": {
        "name": "Sydney Parade",
        "name:en": "Sydney Parade",
        "name:ga": "Paráid Sydney",
        "network": "DART",
        "operator": "Irish Rail",
        "public_transport": "stop_position",
        "railway": "stop",
        "train": "yes",
        "id": "node/4684434533"
      },
      "geometry": {
        "type": "Point",
        "coordinates": [
          -6.2115336,
          53.3208002
        ]
      }
    },
    {
      "type": "Feature",
      "id": "node/4684434534",
      "properties": {
        "name": "Booterstown",
        "name:en": "Booterstown",
        "name:ga": "Baile an Bhóthair",
        "network": "DART",
        "operator": "Irish Rail",
        "public_transport": "stop_position",
        "railway": "stop",
        "train": "yes",
        "id": "node/4684434534"
      },
      "geometry": {
        "type": "Point",
        "coordinates": [
          -6.1951883,
          53.3100022
        ]
      }
    },
    {
      "type": "Feature",
      "id": "node/4684434535",
      "properties": {
        "name": "Malahide",
        "name:en": "Malahide",
        "name:ga": "Mullach Íde",
        "network": "Dublin Commuter;DART",
        "operator": "Irish Rail",
        "public_transport": "stop_position",
        "railway": "stop",
        "train": "yes",
        "id": "node/4684434535"
      },
      "geometry": {
        "type": "Point",
        "coordinates": [
          -6.1565626,
          53.4506919
        ]
      }
    },
    {
      "type": "Feature",
      "id": "node/4684434536",
      "properties": {
        "name": "Sutton",
        "name:en": "Sutton",
        "name:ga": "Cill Fhionntain",
        "network": "DART",
        "operator": "Irish Rail",
        "public_transport": "stop_position",
        "railway": "stop",
        "train": "yes",
        "wikidata": "Q3971065",
        "wikipedia": "en:Sutton railway station (Ireland)",
        "id": "node/4684434536"
      },
      "geometry": {
        "type": "Point",
        "coordinates": [
          -6.1160837,
          53.3919919
        ]
      }
    },
    {
      "type": "Feature",
      "id": "node/4866103534",
      "properties": {
        "addr:city": "Clongriffin",
        "addr:street": "Station Hill",
        "name": "Clongriffin",
        "name:en": "Clongriffin",
        "name:ga": "Cluain Ghrífín",
        "network": "Dublin Commuter;DART",
        "operator": "Irish Rail",
        "public_transport": "stop_position",
        "railway": "stop",
        "train": "yes",
        "id": "node/4866103534"
      },
      "geometry": {
        "type": "Point",
        "coordinates": [
          -6.1490173,
          53.4024809
        ]
      }
    },
    {
      "type": "Feature",
      "id": "node/5154958536",
      "properties": {
        "addr:country": "IE",
        "name": "Claremorris",
        "network": "InterCity",
        "operator": "Irish Rail",
        "public_transport": "station",
        "railway": "station",
        "start_date": "1862-05-19",
        "website": "http://www.irishrail.ie/travel-information/claremorris",
        "wheelchair": "yes",
        "wikidata": "Q3969436",
        "wikipedia": "en:Claremorris railway station",
        "id": "node/5154958536"
      },
      "geometry": {
        "type": "Point",
        "coordinates": [
          -9.0024122,
          53.7206446
        ]
      }
    },
    {
      "type": "Feature",
      "id": "node/5294708591",
      "properties": {
        "name": "Cork Kent",
        "public_transport": "stop_position",
        "railway": "stop",
        "ref": "5a",
        "train": "yes",
        "id": "node/5294708591"
      },
      "geometry": {
        "type": "Point",
        "coordinates": [
          -8.4584327,
          51.9014377
        ]
      }
    },
    {
      "type": "Feature",
      "id": "node/5294708592",
      "properties": {
        "name": "Kent Station (Cork)",
        "public_transport": "stop_position",
        "railway": "stop",
        "ref": "4",
        "train": "yes",
        "id": "node/5294708592"
      },
      "geometry": {
        "type": "Point",
        "coordinates": [
          -8.458908,
          51.9015681
        ]
      }
    },
    {
      "type": "Feature",
      "id": "node/5294708593",
      "properties": {
        "name": "Kent Station (Cork)",
        "public_transport": "stop_position",
        "railway": "stop",
        "ref": "5b",
        "train": "yes",
        "id": "node/5294708593"
      },
      "geometry": {
        "type": "Point",
        "coordinates": [
          -8.4591856,
          51.9016105
        ]
      }
    },
    {
      "type": "Feature",
      "id": "node/5355217228",
      "properties": {
        "addr:city": "Clonmel",
        "addr:street": "Thomas Street",
        "name": "Clonmel",
        "network": "InterCity",
        "operator": "Irish Rail",
        "operator:en": "Irish Rail",
        "operator:ga": "Iarnród Éireann",
        "phone": "+353 53 21982",
        "public_transport": "station",
        "railway": "station",
        "train": "yes",
        "website": "http://www.irishrail.ie/travel-information/clonmel",
        "wikidata": "Q1124923",
        "id": "node/5355217228"
      },
      "geometry": {
        "type": "Point",
        "coordinates": [
          -7.6991241,
          52.3610817
        ]
      }
    },
    {
      "type": "Feature",
      "id": "node/5355226792",
      "properties": {
        "addr:postcode": "T23 E6TD",
        "addr:street": "Lower Glanmire Road",
        "alt_name": "Cork",
        "internet_access": "wlan",
        "name": "Cork Kent",
        "name:en": "Cork Kent",
        "name:ga": "Corcaigh Kent",
        "network": "InterCity;Cork Suburban",
        "note": "The name \"Cork Kent\" is translated as \"Corcaigh Kent\" and not \"Corcaigh Ceannt\" to avoid confusion with \"Galway Ceannt\".",
        "operator": "Irish Rail",
        "platforms": "5",
        "public_transport": "station",
        "railway": "station",
        "start_date": "1893",
        "toilets": "yes",
        "train": "yes",
        "website": "http://www.irishrail.ie/travel-information/cork-kent",
        "wheelchair": "yes",
        "wikidata": "Q3969483",
        "id": "node/5355226792"
      },
      "geometry": {
        "type": "Point",
        "coordinates": [
          -8.4589764,
          51.9015702
        ]
      }
    },
    {
      "type": "Feature",
      "id": "node/5403835845",
      "properties": {
        "addr:city": "Dublin",
        "addr:street": "Bayside Park",
        "name": "Bayside",
        "network": "DART",
        "operator": "Irish Rail",
        "public_transport": "station",
        "railway": "station",
        "train": "yes",
        "id": "node/5403835845"
      },
      "geometry": {
        "type": "Point",
        "coordinates": [
          -6.1367871,
          53.3915385
        ]
      }
    },
    {
      "type": "Feature",
      "id": "node/5403839993",
      "properties": {
        "name": "Bray Daly",
        "network": "InterCity;Dublin Commuter;DART",
        "operator": "Irish Rail",
        "phone": "+353 1 828 6305",
        "public_transport": "station",
        "railway": "station",
        "train": "yes",
        "website": "http://www.irishrail.ie/travel-information/bray-daly",
        "wheelchair": "yes",
        "id": "node/5403839993"
      },
      "geometry": {
        "type": "Point",
        "coordinates": [
          -6.1005613,
          53.2044148
        ]
      }
    },
    {
      "type": "Feature",
      "id": "node/5403851242",
      "properties": {
        "addr:city": "Clongriffin",
        "addr:street": "Station Hill",
        "name": "Clongriffin",
        "name:en": "Clongriffin",
        "name:ga": "Cluain Ghrífín",
        "network": "Dublin Commuter;DART",
        "operator": "Irish Rail",
        "public_transport": "station",
        "railway": "station",
        "train": "yes",
        "wheelchair": "yes",
        "wikidata": "Q3969439",
        "wikipedia": "en:Clongriffin railway station",
        "id": "node/5403851242"
      },
      "geometry": {
        "type": "Point",
        "coordinates": [
          -6.1489491,
          53.4026996
        ]
      }
    },
    {
      "type": "Feature",
      "id": "node/5403851296",
      "properties": {
        "addr:street": "Clontarf Road",
        "name": "Clontarf Road",
        "name:en": "Clontarf Road",
        "name:ga": "Bóthar Chluain Tarbh",
        "network": "DART",
        "operator": "Irish Rail",
        "public_transport": "station",
        "railway": "station",
        "train": "yes",
        "wheelchair": "yes",
        "wikidata": "Q2979578",
        "wikipedia": "en:Clontarf Road railway station",
        "id": "node/5403851296"
      },
      "geometry": {
        "type": "Point",
        "coordinates": [
          -6.2272787,
          53.3629491
        ]
      }
    },
    {
      "type": "Feature",
      "id": "node/5403871877",
      "properties": {
        "addr:city": "Dublin",
        "addr:street": "Sheriff Street Upper",
        "name": "Docklands",
        "name:en": "Docklands",
        "name:ga": "Dugthailte",
        "network": "Dublin Commuter",
        "opening_hours": "Mo-Fr 07:00-10:00, 15:00-19:00",
        "operator": "Irish Rail",
        "phone": "+353 1 8286380",
        "platforms": "2",
        "public_transport": "station",
        "railway": "station",
        "train": "yes",
        "website": "http://www.irishrail.ie/travel-information/docklands",
        "wheelchair": "yes",
        "wikidata": "Q3968799",
        "wikipedia": "en:Docklands railway station",
        "id": "node/5403871877"
      },
      "geometry": {
        "type": "Point",
        "coordinates": [
          -6.2393672,
          53.3509039
        ]
      }
    },
    {
      "type": "Feature",
      "id": "node/5403886243",
      "properties": {
        "addr:city": "Dunboyne",
        "addr:street": "Station Road",
        "name": "Dunboyne",
        "name:en": "Dunboyne",
        "name:ga": "Dún Búinne",
        "network": "Dublin Commuter",
        "operator": "Irish Rail",
        "public_transport": "station",
        "railway": "station",
        "train": "yes",
        "website": "http://www.irishrail.ie/travel-information/dunboyne",
        "wikidata": "Q3969551",
        "wikipedia": "en:Dunboyne railway station",
        "id": "node/5403886243"
      },
      "geometry": {
        "type": "Point",
        "coordinates": [
          -6.4647972,
          53.4172693
        ]
      }
    },
    {
      "type": "Feature",
      "id": "node/5403904825",
      "properties": {
        "name": "Harmonstown",
        "name:en": "Harmonstown",
        "name:ga": "Baile Hearman",
        "network": "DART",
        "operator": "Irish Rail",
        "public_transport": "station",
        "railway": "station",
        "train": "yes",
        "id": "node/5403904825"
      },
      "geometry": {
        "type": "Point",
        "coordinates": [
          -6.1924014,
          53.3783621
        ]
      }
    },
    {
      "type": "Feature",
      "id": "node/5462430068",
      "properties": {
        "name": "Muine Bheag",
        "name:en": "Bagenalstown",
        "name:ga": "Muine Bheag",
        "network": "InterCity",
        "operator": "Irish Rail",
        "public_transport": "stop_position",
        "railway": "stop",
        "train": "yes",
        "id": "node/5462430068"
      },
      "geometry": {
        "type": "Point",
        "coordinates": [
          -6.9535464,
          52.6985205
        ]
      }
    },
    {
      "type": "Feature",
      "id": "node/5519210321",
      "properties": {
        "name": "Raheny",
        "name:en": "Raheny",
        "name:ga": "Ráth Eanaigh",
        "network": "DART",
        "operator": "Irish Rail",
        "public_transport": "station",
        "railway": "station",
        "train": "yes",
        "id": "node/5519210321"
      },
      "geometry": {
        "type": "Point",
        "coordinates": [
          -6.1761795,
          53.3815986
        ]
      }
    },
    {
      "type": "Feature",
      "id": "node/5519213828",
      "properties": {
        "addr:street": "Briarfield Road",
        "name": "Kilbarrack",
        "name:en": "Kilbarrack",
        "name:ga": "Cill Bharrog",
        "network": "DART",
        "operator": "Irish Rail",
        "public_transport": "station",
        "railway": "station",
        "train": "yes",
        "wheelchair": "yes",
        "id": "node/5519213828"
      },
      "geometry": {
        "type": "Point",
        "coordinates": [
          -6.1614803,
          53.3872797
        ]
      }
    },
    {
      "type": "Feature",
      "id": "node/5519218141",
      "properties": {
        "addr:street": "Harbour Road",
        "name": "Howth",
        "name:en": "Howth",
        "name:ga": "Binn Éadair",
        "network": "DART",
        "operator": "Irish Rail",
        "public_transport": "station",
        "railway": "station",
        "train": "yes",
        "id": "node/5519218141"
      },
      "geometry": {
        "type": "Point",
        "coordinates": [
          -6.0743742,
          53.3891126
        ]
      }
    },
    {
      "type": "Feature",
      "id": "node/5519221177",
      "properties": {
        "name": "Portmarnock",
        "name:en": "Portmarnock",
        "name:ga": "Port Mearnóg",
        "network": "Dublin Commuter;DART",
        "operator": "Irish Rail",
        "public_transport": "station",
        "railway": "station",
        "train": "yes",
        "wikidata": "Q3970569",
        "wikipedia": "en:Portmarnock railway station",
        "id": "node/5519221177"
      },
      "geometry": {
        "type": "Point",
        "coordinates": [
          -6.1513171,
          53.4176576
        ]
      }
    },
    {
      "type": "Feature",
      "id": "node/5597069865",
      "properties": {
        "public_transport": "stop_position",
        "railway": "stop",
        "train": "yes",
        "id": "node/5597069865"
      },
      "geometry": {
        "type": "Point",
        "coordinates": [
          -7.345957,
          53.5229793
        ]
      }
    },
    {
      "type": "Feature",
      "id": "node/6278472695",
      "properties": {
        "name": "Drumcondra",
        "network": "Dublin Commuter",
        "operator": "Irish Rail",
        "public_transport": "stop_position",
        "railway": "stop",
        "train": "yes",
        "id": "node/6278472695"
      },
      "geometry": {
        "type": "Point",
        "coordinates": [
          -6.2589524,
          53.3631376
        ]
      }
    },
    {
      "type": "Feature",
      "id": "node/6278472696",
      "properties": {
        "name": "Drumcondra",
        "network": "Dublin Commuter",
        "operator": "Irish Rail",
        "public_transport": "stop_position",
        "railway": "stop",
        "train": "yes",
        "id": "node/6278472696"
      },
      "geometry": {
        "type": "Point",
        "coordinates": [
          -6.2589685,
          53.3631038
        ]
      }
    },
    {
      "type": "Feature",
      "id": "node/6740364330",
      "properties": {
        "addr:city": "Limerick",
        "addr:street": "Parnell Street",
        "name": "Limerick Colbert",
        "network": "InterCity",
        "operator": "Irish Rail",
        "phone": "+353 61 315555",
        "public_transport": "station",
        "railway": "station",
        "website": "http://www.irishrail.ie/travel-information/limerick-colbert",
        "wikidata": "Q3969965",
        "wikipedia": "en:Limerick Colbert railway station",
        "id": "node/6740364330"
      },
      "geometry": {
        "type": "Point",
        "coordinates": [
          -8.6231276,
          52.6584212
        ]
      }
    },
    {
      "type": "Feature",
      "id": "node/6740507735",
      "properties": {
        "name": "Limerick Junction",
        "network": "InterCity",
        "operator": "Irish Rail",
        "public_transport": "stop_position",
        "railway": "stop",
        "train": "yes",
        "id": "node/6740507735"
      },
      "geometry": {
        "type": "Point",
        "coordinates": [
          -8.1986103,
          52.5021729
        ]
      }
    },
    {
      "type": "Feature",
      "id": "node/6740507736",
      "properties": {
        "addr:city": "Limerick Junction",
        "addr:county": "Tipperary",
        "name": "Limerick Junction",
        "name:en": "Limerick Junction",
        "name:ga": "Gabhal Luimnigh",
        "network": "InterCity",
        "operator": "Irish Rail",
        "platforms": "3",
        "public_transport": "station",
        "railway": "station",
        "start_date": "1848",
        "train": "yes",
        "wikidata": "Q2059829",
        "wikipedia": "en:Limerick Junction",
        "id": "node/6740507736"
      },
      "geometry": {
        "type": "Point",
        "coordinates": [
          -8.1988652,
          52.5019872
        ]
      }
    },
    {
      "type": "Feature",
      "id": "node/6740507737",
      "properties": {
        "name": "Limerick Junction",
        "network": "InterCity",
        "operator": "Irish Rail",
        "public_transport": "stop_position",
        "railway": "stop",
        "train": "yes",
        "id": "node/6740507737"
      },
      "geometry": {
        "type": "Point",
        "coordinates": [
          -8.1995248,
          52.5014733
        ]
      }
    },
    {
      "type": "Feature",
      "id": "node/6852246816",
      "properties": {
        "name": "Waterford Plunkett",
        "network": "InterCity",
        "operator": "Irish Rail",
        "railway": "stop",
        "ref": "4",
        "train": "yes",
        "id": "node/6852246816"
      },
      "geometry": {
        "type": "Point",
        "coordinates": [
          -7.1179153,
          52.2664705
        ]
      }
    },
    {
      "type": "Feature",
      "id": "node/6852246817",
      "properties": {
        "addr:city": "Waterford",
        "addr:street": "Sally Park",
        "name": "Waterford Plunkett",
        "network": "InterCity",
        "operator": "Irish Rail",
        "public_transport": "station",
        "railway": "station",
        "website": "http://www.irishrail.ie/travel-information/waterford-plunkett",
        "wikidata": "Q3971355",
        "wikipedia": "en:Waterford railway station",
        "id": "node/6852246817"
      },
      "geometry": {
        "type": "Point",
        "coordinates": [
          -7.1178049,
          52.2663764
        ]
      }
    },
    {
      "type": "Feature",
      "id": "node/6852298568",
      "properties": {
        "addr:city": "Kilkenny",
        "addr:street": "Dublin Road",
        "alt_name": "Kilkenny Train Station",
        "name": "Kilkenny MacDonagh",
        "network": "InterCity",
        "operator": "Irish Rail",
        "phone": "+353 56 7722024",
        "public_transport": "station",
        "railway": "station",
        "train": "yes",
        "website": "http://www.irishrail.ie/travel-information/kilkenny-macdonagh",
        "wheelchair": "yes",
        "wikidata": "Q2058784",
        "wikipedia": "en:Kilkenny railway station",
        "id": "node/6852298568"
      },
      "geometry": {
        "type": "Point",
        "coordinates": [
          -7.2435663,
          52.654458
        ]
      }
    },
    {
      "type": "Feature",
      "id": "node/6852302249",
      "properties": {
        "addr:city": "Thomastown",
        "name": "Thomastown",
        "network": "InterCity",
        "operator": "Irish Rail",
        "phone": "+353 56 7724218",
        "public_transport": "station",
        "railway": "station",
        "train": "yes",
        "website": "http://www.irishrail.ie/travel-information/thomastown",
        "wheelchair": "limited",
        "wikidata": "Q3971112",
        "wikipedia": "en:Thomastown railway station",
        "id": "node/6852302249"
      },
      "geometry": {
        "type": "Point",
        "coordinates": [
          -7.1488957,
          52.5231654
        ]
      }
    },
    {
      "type": "Feature",
      "id": "node/6852317057",
      "properties": {
        "addr:city": "Carlow",
        "addr:street": "Railway Road",
        "name": "Carlow",
        "network": "InterCity",
        "operator": "Irish Rail",
        "public_transport": "station",
        "railway": "station",
        "train": "yes",
        "wheelchair": "limited",
        "wikidata": "Q3969232",
        "id": "node/6852317057"
      },
      "geometry": {
        "type": "Point",
        "coordinates": [
          -6.9221056,
          52.8410587
        ]
      }
    },
    {
      "type": "Feature",
      "id": "node/6854406235",
      "properties": {
        "name": "Dublin Heuston",
        "name:en": "Dublin Heuston",
        "name:ga": "Baile Átha Cliath Heuston",
        "network": "InterCity",
        "operator": "Irish Rail",
        "public_transport": "stop_position",
        "railway": "stop",
        "ref": "5",
        "train": "yes",
        "id": "node/6854406235"
      },
      "geometry": {
        "type": "Point",
        "coordinates": [
          -6.2940435,
          53.3464685
        ]
      }
    },
    {
      "type": "Feature",
      "id": "node/6854406236",
      "properties": {
        "name": "Dublin Heuston",
        "name:en": "Dublin Heuston",
        "name:ga": "Baile Átha Cliath Heuston",
        "network": "InterCity",
        "operator": "Irish Rail",
        "public_transport": "stop_position",
        "railway": "stop",
        "ref": "1",
        "train": "yes",
        "id": "node/6854406236"
      },
      "geometry": {
        "type": "Point",
        "coordinates": [
          -6.2982512,
          53.3458772
        ]
      }
    },
    {
      "type": "Feature",
      "id": "node/6854406237",
      "properties": {
        "name": "Dublin Heuston",
        "name:en": "Dublin Heuston",
        "name:ga": "Baile Átha Cliath Heuston",
        "network": "InterCity",
        "operator": "Irish Rail",
        "public_transport": "stop_position",
        "railway": "stop",
        "ref": "2",
        "train": "yes",
        "id": "node/6854406237"
      },
      "geometry": {
        "type": "Point",
        "coordinates": [
          -6.2939215,
          53.3462588
        ]
      }
    },
    {
      "type": "Feature",
      "id": "node/6854406238",
      "properties": {
        "name": "Dublin Heuston",
        "name:en": "Dublin Heuston",
        "name:ga": "Baile Átha Cliath Heuston",
        "network": "InterCity",
        "operator": "Irish Rail",
        "public_transport": "stop_position",
        "railway": "stop",
        "ref": "3",
        "train": "yes",
        "id": "node/6854406238"
      },
      "geometry": {
        "type": "Point",
        "coordinates": [
          -6.2939903,
          53.3463085
        ]
      }
    },
    {
      "type": "Feature",
      "id": "node/6854406239",
      "properties": {
        "name": "Dublin Heuston",
        "name:en": "Dublin Heuston",
        "name:ga": "Baile Átha Cliath Heuston",
        "network": "InterCity",
        "operator": "Irish Rail",
        "public_transport": "stop_position",
        "railway": "stop",
        "ref": "6",
        "train": "yes",
        "id": "node/6854406239"
      },
      "geometry": {
        "type": "Point",
        "coordinates": [
          -6.2977002,
          53.3462703
        ]
      }
    },
    {
      "type": "Feature",
      "id": "node/6854406240",
      "properties": {
        "name": "Dublin Heuston",
        "name:en": "Dublin Heuston",
        "name:ga": "Baile Átha Cliath Heuston",
        "network": "InterCity",
        "operator": "Irish Rail",
        "public_transport": "stop_position",
        "railway": "stop",
        "ref": "7",
        "train": "yes",
        "id": "node/6854406240"
      },
      "geometry": {
        "type": "Point",
        "coordinates": [
          -6.2977288,
          53.3463248
        ]
      }
    },
    {
      "type": "Feature",
      "id": "node/6854406241",
      "properties": {
        "addr:city": "Dublin",
        "addr:street": "Saint John's Road West",
        "name": "Dublin Heuston",
        "name:en": "Dublin Heuston",
        "name:ga": "Baile Átha Cliath Heuston",
        "network": "InterCity;Dublin Commuter",
        "old_name": "Dublin Kingsbridge",
        "operator": "Irish Rail",
        "passenger_information_display": "yes",
        "phone": "+353 1 7032132",
        "platforms": "9",
        "public_transport": "station",
        "railway": "station",
        "start_date": "1846",
        "train": "yes",
        "website": "http://www.irishrail.ie/travel-information/dublin-heuston",
        "wheelchair": "yes",
        "wikidata": "Q2377845",
        "wikipedia": "en:Dublin Heuston railway station",
        "id": "node/6854406241"
      },
      "geometry": {
        "type": "Point",
        "coordinates": [
          -6.2948415,
          53.3463091
        ]
      }
    },
    {
      "type": "Feature",
      "id": "node/6854415949",
      "properties": {
        "addr:city": "Galway",
        "addr:street": "Station Road",
        "name": "Galway Ceannt",
        "name:en": "Galway Ceannt",
        "name:ga": "Gaillimh Cheannt",
        "network": "InterCity",
        "note": "Note that the name \"Galway Ceannt\" / \"Gaillimh Cheannt\" is never translated as \"Galway Kent\" to avoid confusion with \"Cork Kent\".",
        "operator": "Irish Rail",
        "phone": "+ 353 91 537582",
        "public_transport": "station",
        "railway": "station",
        "train": "yes",
        "website": "http://www.irishrail.ie/travel-information/galway-ceannt",
        "wheelchair": "yes",
        "wikidata": "Q2086351",
        "wikipedia": "en:Galway railway station",
        "id": "node/6854415949"
      },
      "geometry": {
        "type": "Point",
        "coordinates": [
          -9.0468131,
          53.2734598
        ]
      }
    },
    {
      "type": "Feature",
      "id": "node/6856262797",
      "properties": {
        "addr:city": "Athenry",
        "addr:street": "Station Road",
        "name": "Athenry",
        "name:ga": "Baile Átha an Rí",
        "network": "InterCity",
        "operator": "Irish Rail",
        "platforms": "2",
        "public_transport": "station",
        "railway": "station",
        "train": "yes",
        "website": "http://www.irishrail.ie/travel-information/Athenry",
        "wheelchair": "yes",
        "wikidata": "Q967355",
        "wikipedia": "en:Athenry railway station",
        "id": "node/6856262797"
      },
      "geometry": {
        "type": "Point",
        "coordinates": [
          -8.7489782,
          53.3013745
        ]
      }
    },
    {
      "type": "Feature",
      "id": "node/7176421917",
      "properties": {
        "addr:street": "Longford Terrace",
        "name": "Salthill and Monkstown",
        "name:en": "Salthill and Monkstown",
        "name:ga": "Cnoc an tSalainn agus Baile na Manach",
        "network": "DART",
        "operator": "Irish Rail",
        "public_transport": "station",
        "railway": "station",
        "train": "yes",
        "wheelchair": "yes",
        "wikidata": "Q3970774",
        "wikipedia": "en:Salthill and Monkstown railway station",
        "id": "node/7176421917"
      },
      "geometry": {
        "type": "Point",
        "coordinates": [
          -6.1524235,
          53.2953905
        ]
      }
    },
    {
      "type": "Feature",
      "id": "node/7176421918",
      "properties": {
        "addr:city": "Dublin",
        "addr:postal_district": "D04",
        "addr:street": "Sandymount Avenue",
        "name": "Sandymount",
        "name:en": "Sandymount",
        "name:ga": "Dumhach Trá",
        "network": "DART",
        "operator": "Irish Rail",
        "public_transport": "station",
        "railway": "station",
        "wheelchair": "yes",
        "wikidata": "Q3970859",
        "wikipedia": "en:Sandymount railway station",
        "id": "node/7176421918"
      },
      "geometry": {
        "type": "Point",
        "coordinates": [
          -6.2210505,
          53.327928
        ]
      }
    },
    {
      "type": "Feature",
      "id": "node/7176421919",
      "properties": {
        "addr:city": "Dublin",
        "addr:street": "Middle Third",
        "layer": "1",
        "name": "Killester",
        "name:en": "Killester",
        "name:ga": "Cill Easra",
        "network": "DART",
        "operator": "Irish Rail",
        "public_transport": "station",
        "railway": "station",
        "train": "yes",
        "wheelchair": "yes",
        "wikidata": "Q3196643",
        "id": "node/7176421919"
      },
      "geometry": {
        "type": "Point",
        "coordinates": [
          -6.2049747,
          53.3727798
        ]
      }
    },
    {
      "type": "Feature",
      "id": "node/7176421920",
      "properties": {
        "addr:city": "Dublin",
        "addr:street": "Westland Row",
        "alt_name": "Pearse Station",
        "level": "1",
        "name": "Dublin Pearse",
        "name:en": "Dublin Pearse",
        "name:ga": "Stáisiún na bPiarsach",
        "network": "InterCity;Dublin Commuter;DART",
        "operator": "Irish Rail",
        "phone": "+353 1 7033523",
        "public_transport": "station",
        "railway": "station",
        "train": "yes",
        "website": "http://www.irishrail.ie/travel-information/dublin-pearse",
        "wheelchair": "yes",
        "wikidata": "Q2658249",
        "wikipedia": "en:Dublin Pearse railway station",
        "id": "node/7176421920"
      },
      "geometry": {
        "type": "Point",
        "coordinates": [
          -6.2484634,
          53.3433347
        ]
      }
    },
    {
      "type": "Feature",
      "id": "node/7176421921",
      "properties": {
        "addr:city": "Dublin",
        "addr:postal_district": "D04",
        "addr:street": "Lansdowne Road",
        "name": "Lansdowne Road",
        "name:en": "Lansdowne Road",
        "name:ga": "Bóthar Lansdún",
        "network": "Dublin Commuter;DART",
        "operator": "Irish Rail",
        "public_transport": "station",
        "railway": "station",
        "train": "yes",
        "wikidata": "Q2003842",
        "id": "node/7176421921"
      },
      "geometry": {
        "type": "Point",
        "coordinates": [
          -6.2287109,
          53.3337709
        ]
      }
    },
    {
      "type": "Feature",
      "id": "node/7176421922",
      "properties": {
        "addr:city": "Dublin",
        "addr:postal_district": "D04",
        "addr:street": "Sydney Parade Avenue",
        "name": "Sydney Parade",
        "name:en": "Sydney Parade",
        "name:ga": "Paráid Sydney",
        "network": "DART",
        "operator": "Irish Rail",
        "public_transport": "station",
        "railway": "station",
        "train": "yes",
        "wheelchair": "yes",
        "wikidata": "Q2397711",
        "wikipedia": "en:Sydney Parade railway station",
        "id": "node/7176421922"
      },
      "geometry": {
        "type": "Point",
        "coordinates": [
          -6.2115522,
          53.3207869
        ]
      }
    },
    {
      "type": "Feature",
      "id": "node/7176421923",
      "properties": {
        "addr:city": "Booterstown",
        "addr:street": "Rock Road",
        "name": "Booterstown",
        "name:en": "Booterstown",
        "name:ga": "Baile an Bhóthair",
        "network": "DART",
        "operator": "Irish Rail",
        "public_transport": "station",
        "railway": "station",
        "train": "yes",
        "wheelchair": "yes",
        "wikidata": "Q3969079",
        "wikipedia": "en:Booterstown railway station",
        "id": "node/7176421923"
      },
      "geometry": {
        "type": "Point",
        "coordinates": [
          -6.1951961,
          53.3099853
        ]
      }
    },
    {
      "type": "Feature",
      "id": "node/7176421924",
      "properties": {
        "name": "Blackrock",
        "name:en": "Blackrock",
        "name:ga": "An Charraig Dhubh",
        "network": "Dublin Commuter;DART",
        "operator": "Irish Rail",
        "public_transport": "station",
        "railway": "station",
        "train": "yes",
        "wheelchair": "yes",
        "wikidata": "Q3969060",
        "id": "node/7176421924"
      },
      "geometry": {
        "type": "Point",
        "coordinates": [
          -6.1786985,
          53.3028379
        ]
      }
    },
    {
      "type": "Feature",
      "id": "node/7176421925",
      "properties": {
        "addr:street": "Seapoint Avenue",
        "name": "Seapoint",
        "name:en": "Seapoint",
        "name:ga": "Rinn Na Mara",
        "network": "DART",
        "operator": "Irish Rail",
        "public_transport": "station",
        "railway": "station",
        "train": "yes",
        "wheelchair": "yes",
        "id": "node/7176421925"
      },
      "geometry": {
        "type": "Point",
        "coordinates": [
          -6.1652076,
          53.2991568
        ]
      }
    },
    {
      "type": "Feature",
      "id": "node/7176421926",
      "properties": {
        "addr:street": "Summerhill Road",
        "name": "Sandycove and Glasthule",
        "name:en": "Sandycove and Glasthule",
        "name:ga": "Cuas an Ghainimh agus Glas Tuathail",
        "network": "DART",
        "operator": "Irish Rail",
        "public_transport": "station",
        "railway": "station",
        "train": "yes",
        "wheelchair": "limited",
        "wikidata": "Q3970858",
        "wikipedia": "en:Sandycove and Glasthule railway station",
        "id": "node/7176421926"
      },
      "geometry": {
        "type": "Point",
        "coordinates": [
          -6.1271578,
          53.2880018
        ]
      }
    },
    {
      "type": "Feature",
      "id": "node/7176421927",
      "properties": {
        "addr:city": "Greystones",
        "addr:street": "Church Road",
        "name": "Greystones",
        "name:en": "Greystones",
        "name:ga": "Na Clocha Liatha",
        "network": "InterCity;Dublin Commuter;DART",
        "operator": "Irish Rail",
        "phone": "+353 1 8286340",
        "public_transport": "station",
        "railway": "station",
        "train": "yes",
        "website": "http://www.irishrail.ie/travel-information/greystones",
        "wheelchair": "yes",
        "id": "node/7176421927"
      },
      "geometry": {
        "type": "Point",
        "coordinates": [
          -6.0607671,
          53.1440431
        ]
      }
    },
    {
      "type": "Feature",
      "id": "node/7176421928",
      "properties": {
        "addr:city": "Sutton",
        "addr:street": "Station Road",
        "name": "Sutton",
        "name:en": "Sutton",
        "name:ga": "Cill Fhionntain",
        "network": "DART",
        "operator": "Irish Rail",
        "public_transport": "station",
        "railway": "station",
        "train": "yes",
        "wheelchair": "yes",
        "wikidata": "Q3971065",
        "id": "node/7176421928"
      },
      "geometry": {
        "type": "Point",
        "coordinates": [
          -6.1160836,
          53.3920109
        ]
      }
    },
    {
      "type": "Feature",
      "id": "node/7176421929",
      "properties": {
        "addr:city": "Malahide",
        "addr:street": "Main Street",
        "name": "Malahide",
        "name:en": "Malahide",
        "name:ga": "Mullach Íde",
        "network": "Dublin Commuter;DART",
        "operator": "Irish Rail",
        "public_transport": "station",
        "railway": "station",
        "train": "yes",
        "website": "http://www.irishrail.ie/travel-information/malahide",
        "wheelchair": "yes",
        "wikidata": "Q2459346",
        "wikipedia": "en:Malahide railway station",
        "id": "node/7176421929"
      },
      "geometry": {
        "type": "Point",
        "coordinates": [
          -6.156591,
          53.4506973
        ]
      }
    },
    {
      "type": "Feature",
      "id": "node/7176421930",
      "properties": {
        "addr:city": "Dublin",
        "addr:postal_district": "D13",
        "addr:street": "Kilbarrack Way",
        "name": "Howth Junction and Donaghmede",
        "name:en": "Howth Junction and Donaghmede",
        "name:ga": "Gabhal Bhinn Éadair agus Domhnach Míde",
        "network": "Dublin Commuter;DART",
        "old_name": "Howth Junction",
        "operator": "Irish Rail",
        "public_transport": "station",
        "railway": "station",
        "train": "yes",
        "wheelchair": "yes",
        "wikidata": "Q3969804",
        "wikipedia": "en:Howth Junction & Donaghmede railway station",
        "id": "node/7176421930"
      },
      "geometry": {
        "type": "Point",
        "coordinates": [
          -6.1558326,
          53.3912972
        ]
      }
    },
    {
      "type": "Feature",
      "id": "node/7184996489",
      "properties": {
        "addr:city": "Dún Laoghaire",
        "addr:street": "Crofton Road",
        "alt_name": "Dun Laoghaire",
        "name": "Dún Laoghaire",
        "name:ga": "Stáisiún Dhún Laoghaire",
        "network": "InterCity;Dublin Commuter;DART",
        "official_name": "Dún Laoghaire Mallin",
        "official_name:ga": "Stáisiún Dhún Laoghaire Í Mhealláin",
        "operator": "Irish Rail",
        "public_transport": "station",
        "railway": "station",
        "train": "yes",
        "uic_ref": "6000047",
        "wikidata": "Q3969552",
        "wikipedia": "en:Dún Laoghaire railway station",
        "id": "node/7184996489"
      },
      "geometry": {
        "type": "Point",
        "coordinates": [
          -6.1347451,
          53.2949953
        ]
      }
    },
    {
      "type": "Feature",
      "id": "node/7184996490",
      "properties": {
        "addr:city": "Killiney",
        "addr:street": "Station Road",
        "name": "Killiney",
        "name:en": "Killiney",
        "name:ga": "Cill Iníon Léinin",
        "network": "DART",
        "operator": "Irish Rail",
        "public_transport": "station",
        "railway": "station",
        "train": "yes",
        "wikidata": "Q3969866",
        "id": "node/7184996490"
      },
      "geometry": {
        "type": "Point",
        "coordinates": [
          -6.11304,
          53.2553845
        ]
      }
    },
    {
      "type": "Feature",
      "id": "node/7184996491",
      "properties": {
        "addr:city": "Shankill",
        "addr:postal_district": "D18",
        "addr:street": "Shanganagh Wood",
        "name": "Shankill",
        "network": "DART",
        "operator": "Irish Rail",
        "public_transport": "station",
        "railway": "station",
        "train": "yes",
        "wikidata": "Q252906",
        "id": "node/7184996491"
      },
      "geometry": {
        "type": "Point",
        "coordinates": [
          -6.1170439,
          53.2366973
        ]
      }
    },
    {
      "type": "Feature",
      "id": "node/7184996492",
      "properties": {
        "addr:city": "Glenageary",
        "addr:street": "Station Road",
        "name": "Glenageary",
        "name:en": "Glenageary",
        "name:ga": "Gleann na Caorach",
        "network": "DART",
        "operator": "Irish Rail",
        "public_transport": "station",
        "railway": "station",
        "train": "yes",
        "wikidata": "Q3969737",
        "id": "node/7184996492"
      },
      "geometry": {
        "type": "Point",
        "coordinates": [
          -6.1231083,
          53.2812377
        ]
      }
    },
    {
      "type": "Feature",
      "id": "node/7184996493",
      "properties": {
        "addr:city": "Dalkey",
        "addr:street": "Railway Road",
        "name": "Dalkey",
        "name:en": "Dalkey",
        "name:ga": "Deilginis",
        "network": "DART",
        "operator": "Irish Rail",
        "public_transport": "station",
        "railway": "station",
        "train": "yes",
        "wheelchair": "yes",
        "wikidata": "Q3969514",
        "id": "node/7184996493"
      },
      "geometry": {
        "type": "Point",
        "coordinates": [
          -6.1032043,
          53.2756245
        ]
      }
    },
    {
      "type": "Feature",
      "id": "node/7184996494",
      "properties": {
        "addr:city": "Dublin",
        "addr:housename": "Grand Canal Dock station",
        "addr:street": "Barrow Street",
        "alt_name": "Barrow Street",
        "layer": "1",
        "name": "Grand Canal Dock",
        "name:ga": "Dug Na Canálach Móire",
        "network": "Dublin Commuter;DART",
        "operator": "Irish Rail",
        "public_transport": "station",
        "railway": "station",
        "train": "yes",
        "wheelchair": "yes",
        "wikidata": "Q3113542",
        "id": "node/7184996494"
      },
      "geometry": {
        "type": "Point",
        "coordinates": [
          -6.2381879,
          53.3398189
        ]
      }
    },
    {
      "type": "Feature",
      "id": "node/7185160547",
      "properties": {
        "name": "Skerries",
        "name:ga": "Na Sceirí",
        "network": "Dublin Commuter",
        "operator": "Irish Rail",
        "public_transport": "stop_position",
        "railway": "stop",
        "train": "yes",
        "id": "node/7185160547"
      },
      "geometry": {
        "type": "Point",
        "coordinates": [
          -6.1191546,
          53.5740009
        ]
      }
    },
    {
      "type": "Feature",
      "id": "node/7185160548",
      "properties": {
        "addr:city": "Skerries",
        "addr:street": "Station Road",
        "name": "Skerries",
        "name:ga": "Na Sceirí",
        "network": "Dublin Commuter",
        "operator": "Irish Rail",
        "public_transport": "station",
        "railway": "station",
        "wheelchair": "yes",
        "wikidata": "Q3971011",
        "id": "node/7185160548"
      },
      "geometry": {
        "type": "Point",
        "coordinates": [
          -6.1191749,
          53.5739887
        ]
      }
    },
    {
      "type": "Feature",
      "id": "node/7185160549",
      "properties": {
        "name": "Rush & Lusk",
        "name:ga": "An Ros & Lusca",
        "network": "Dublin Commuter",
        "operator": "Irish Rail",
        "public_transport": "stop_position",
        "railway": "stop",
        "train": "yes",
        "id": "node/7185160549"
      },
      "geometry": {
        "type": "Point",
        "coordinates": [
          -6.1439252,
          53.5202027
        ]
      }
    },
    {
      "type": "Feature",
      "id": "node/7185160550",
      "properties": {
        "name": "Rush & Lusk",
        "name:ga": "An Ros & Lusca",
        "network": "Dublin Commuter",
        "operator": "Irish Rail",
        "public_transport": "station",
        "railway": "station",
        "wikidata": "Q3970750",
        "id": "node/7185160550"
      },
      "geometry": {
        "type": "Point",
        "coordinates": [
          -6.1439498,
          53.5202128
        ]
      }
    },
    {
      "type": "Feature",
      "id": "node/7185160551",
      "properties": {
        "addr:city": "Gormanston",
        "name": "Gormanston",
        "network": "Dublin Commuter",
        "operator": "Irish Rail",
        "public_transport": "station",
        "railway": "station",
        "wikidata": "Q3969744",
        "id": "node/7185160551"
      },
      "geometry": {
        "type": "Point",
        "coordinates": [
          -6.2170527,
          53.6378333
        ]
      }
    },
    {
      "type": "Feature",
      "id": "node/7185160552",
      "properties": {
        "name": "Gormanston",
        "network": "Dublin Commuter",
        "operator": "Irish Rail",
        "public_transport": "stop_position",
        "railway": "stop",
        "train": "yes",
        "id": "node/7185160552"
      },
      "geometry": {
        "type": "Point",
        "coordinates": [
          -6.2170273,
          53.6378366
        ]
      }
    },
    {
      "type": "Feature",
      "id": "node/7185160553",
      "properties": {
        "name": "Drogheda",
        "network": "Dublin Commuter",
        "public_transport": "stop_position",
        "railway": "stop",
        "train": "yes",
        "id": "node/7185160553"
      },
      "geometry": {
        "type": "Point",
        "coordinates": [
          -6.3358318,
          53.7120742
        ]
      }
    },
    {
      "type": "Feature",
      "id": "node/7185160554",
      "properties": {
        "name": "Laytown",
        "name:ga": "An Inse",
        "network": "Dublin Commuter",
        "operator": "Irish Rail",
        "public_transport": "stop_position",
        "railway": "stop",
        "train": "yes",
        "id": "node/7185160554"
      },
      "geometry": {
        "type": "Point",
        "coordinates": [
          -6.2427004,
          53.679502
        ]
      }
    },
    {
      "type": "Feature",
      "id": "node/7185160555",
      "properties": {
        "addr:city": "Laytown",
        "name": "Laytown",
        "name:ga": "An Inse",
        "network": "Dublin Commuter",
        "operator": "Irish Rail",
        "phone": "+353 1 8281400",
        "public_transport": "station",
        "railway": "station",
        "website": "http://www.irishrail.ie/travel-information/laytown",
        "wheelchair": "yes",
        "wikidata": "Q3969937",
        "wikipedia": "en:Laytown railway station",
        "id": "node/7185160555"
      },
      "geometry": {
        "type": "Point",
        "coordinates": [
          -6.2427275,
          53.6795007
        ]
      }
    },
    {
      "type": "Feature",
      "id": "node/7185160556",
      "properties": {
        "name": "Donabate",
        "name:en": "Donabate",
        "name:ga": "Domhnach Bat",
        "network": "Dublin Commuter",
        "operator": "Irish Rail",
        "public_transport": "stop_position",
        "railway": "stop",
        "train": "yes",
        "id": "node/7185160556"
      },
      "geometry": {
        "type": "Point",
        "coordinates": [
          -6.1513346,
          53.4862382
        ]
      }
    },
    {
      "type": "Feature",
      "id": "node/7185160557",
      "properties": {
        "addr:city": "Donabate",
        "internet_access": "no",
        "name": "Donabate",
        "name:en": "Donabate",
        "name:ga": "Domhnach Bat",
        "network": "Dublin Commuter",
        "operator": "Irish Rail",
        "public_transport": "station",
        "railway": "station",
        "wikidata": "Q3969543",
        "id": "node/7185160557"
      },
      "geometry": {
        "type": "Point",
        "coordinates": [
          -6.1513647,
          53.4862405
        ]
      }
    },
    {
      "type": "Feature",
      "id": "node/7185160558",
      "properties": {
        "name": "Balbriggan",
        "network": "Dublin Commuter",
        "operator": "Irish Rail",
        "public_transport": "stop_position",
        "railway": "stop",
        "train": "yes",
        "id": "node/7185160558"
      },
      "geometry": {
        "type": "Point",
        "coordinates": [
          -6.1823134,
          53.6118867
        ]
      }
    },
    {
      "type": "Feature",
      "id": "node/7185160559",
      "properties": {
        "addr:city": "Balbriggan",
        "addr:street": "Railway Street",
        "name": "Balbriggan",
        "network": "Dublin Commuter",
        "operator": "Irish Rail",
        "public_transport": "station",
        "railway": "station",
        "train": "yes",
        "wikidata": "Q941586",
        "id": "node/7185160559"
      },
      "geometry": {
        "type": "Point",
        "coordinates": [
          -6.1823282,
          53.6118769
        ]
      }
    },
    {
      "type": "Feature",
      "id": "node/7198243012",
      "properties": {
        "name": "Broombridge",
        "name:en": "Broombridge",
        "name:ga": "Stáisiún Dhroichead Broome",
        "network": "Dublin Commuter",
        "operator": "Irish Rail",
        "public_transport": "stop_position",
        "railway": "stop",
        "train": "yes",
        "id": "node/7198243012"
      },
      "geometry": {
        "type": "Point",
        "coordinates": [
          -6.2988465,
          53.3726057
        ]
      }
    },
    {
      "type": "Feature",
      "id": "node/7198243013",
      "properties": {
        "addr:city": "Dublin",
        "addr:street": "Broombridge Road",
        "name": "Broombridge",
        "name:en": "Broombridge",
        "name:ga": "Stáisiún Dhroichead Broome",
        "network": "Dublin Commuter",
        "operator": "Irish Rail",
        "phone": "+353-1-8366222",
        "phone:IE": "0818 366222",
        "public_transport": "station",
        "railway": "station",
        "start_date": "1990",
        "toilets": "no",
        "train": "yes",
        "website": "http://www.irishrail.ie/travel-information/broombridge",
        "wheelchair": "yes",
        "wheelchair:description": "Step-free access to westbound platform from public road and Luas stop. Ramp from public road (very steep) or lift / stairs and bridge to eastbound platform.",
        "wikidata": "Q3969133",
        "wikipedia": "en:Broombridge railway station",
        "id": "node/7198243013"
      },
      "geometry": {
        "type": "Point",
        "coordinates": [
          -6.2988178,
          53.3726218
        ]
      }
    },
    {
      "type": "Feature",
      "id": "node/7198261237",
      "properties": {
        "name": "Navan Road Parkway",
        "name:en": "Navan Road Parkway",
        "name:ga": "Ollpháirc Bhóthar na hUaimhe",
        "network": "Dublin Commuter",
        "operator": "Irish Rail",
        "public_transport": "stop_position",
        "railway": "stop",
        "train": "yes",
        "id": "node/7198261237"
      },
      "geometry": {
        "type": "Point",
        "coordinates": [
          -6.345429,
          53.3775715
        ]
      }
    },
    {
      "type": "Feature",
      "id": "node/7198261238",
      "properties": {
        "addr:city": "Dublin",
        "addr:street": "Navan Road",
        "name": "Navan Road Parkway",
        "name:en": "Navan Road Parkway",
        "name:ga": "Ollpháirc Bhóthar na hUaimhe",
        "network": "Dublin Commuter",
        "operator": "Irish Rail",
        "public_transport": "station",
        "railway": "station",
        "wikidata": "Q3970288",
        "id": "node/7198261238"
      },
      "geometry": {
        "type": "Point",
        "coordinates": [
          -6.3454293,
          53.377553
        ]
      }
    },
    {
      "type": "Feature",
      "id": "node/7198309239",
      "properties": {
        "name": "Clonsilla",
        "network": "Dublin Commuter",
        "public_transport": "stop_position",
        "railway": "stop",
        "train": "yes",
        "id": "node/7198309239"
      },
      "geometry": {
        "type": "Point",
        "coordinates": [
          -6.4250982,
          53.3833552
        ]
      }
    },
    {
      "type": "Feature",
      "id": "node/7198309240",
      "properties": {
        "addr:city": "Dublin",
        "addr:postal_district": "D15",
        "addr:street": "Callaghan Bridge",
        "name": "Clonsilla",
        "network": "Dublin Commuter",
        "operator": "Irish Rail",
        "public_transport": "station",
        "railway": "station",
        "train": "yes",
        "id": "node/7198309240"
      },
      "geometry": {
        "type": "Point",
        "coordinates": [
          -6.423507,
          53.3827908
        ]
      }
    },
    {
      "type": "Feature",
      "id": "node/7198310083",
      "properties": {
        "addr:city": "Leixlip",
        "addr:street": "Louisa Bridge",
        "name": "Leixlip Louisa Bridge",
        "name:ga": "Droichead Louisa, Léim an Bhradáin",
        "network": "Dublin Commuter",
        "operator": "Irish Rail",
        "public_transport": "station",
        "railway": "station",
        "wikidata": "Q3969943",
        "id": "node/7198310083"
      },
      "geometry": {
        "type": "Point",
        "coordinates": [
          -6.5064691,
          53.3701502
        ]
      }
    },
    {
      "type": "Feature",
      "id": "node/7198317688",
      "properties": {
        "addr:city": "Kilcock",
        "addr:street": "Molly Ware Street",
        "layer": "1",
        "name": "Kilcock",
        "network": "InterCity;Dublin Commuter",
        "operator": "Irish Rail",
        "public_transport": "station",
        "railway": "station",
        "website": "http://www.irishrail.ie/travel-information/kilcock",
        "wikidata": "Q3969863",
        "wikipedia": "en:Kilcock railway station",
        "id": "node/7198317688"
      },
      "geometry": {
        "type": "Point",
        "coordinates": [
          -6.6688581,
          53.399043
        ]
      }
    },
    {
      "type": "Feature",
      "id": "node/7198335545",
      "properties": {
        "addr:city": "Dublin",
        "addr:postal_district": "D15",
        "addr:street": "Ashtown Road",
        "name": "Ashtown",
        "name:ga": "Baile an Áisigh",
        "network": "Dublin Commuter",
        "operator": "Irish Rail",
        "public_transport": "station",
        "railway": "station",
        "train": "yes",
        "website": "http://www.irishrail.ie/travel-information/Ashtown",
        "wikidata": "Q3968919",
        "wikipedia": "en:Ashtown railway station",
        "id": "node/7198335545"
      },
      "geometry": {
        "type": "Point",
        "coordinates": [
          -6.3318144,
          53.3754061
        ]
      }
    },
    {
      "type": "Feature",
      "id": "node/7198337979",
      "properties": {
        "addr:city": "Castleknock",
        "addr:street": "Castleknock Road",
        "name": "Castleknock",
        "name:ga": "Caisleán Cnucha",
        "network": "Dublin Commuter",
        "operator": "Irish Rail",
        "payment:leap": "yes",
        "public_transport": "station",
        "railway": "station",
        "train": "yes",
        "wikidata": "Q3969330",
        "id": "node/7198337979"
      },
      "geometry": {
        "type": "Point",
        "coordinates": [
          -6.3714239,
          53.3815285
        ]
      }
    },
    {
      "type": "Feature",
      "id": "node/7198337980",
      "properties": {
        "addr:postcode": "D01 V6V6",
        "addr:street": "Amiens Street",
        "loc_name": "Connolly Station",
        "name": "Dublin Connolly",
        "name:en": "Dublin Connolly",
        "name:ga": "Baile Átha Cliath Chonghaile",
        "network": "Enterprise;InterCity;Dublin Commuter;DART",
        "old_name": "Dublin Amiens Street",
        "operator": "Irish Rail",
        "phone": "+353-1-7032358",
        "public_transport": "station",
        "railway": "station",
        "ref": "100",
        "start_date": "1844",
        "train": "yes",
        "website": "http://www.irishrail.ie/travel-information/dublin-connolly",
        "wheelchair": "limited",
        "wikidata": "Q2543742",
        "wikipedia": "en:Dublin Connolly railway station",
        "year_built": "1844",
        "id": "node/7198337980"
      },
      "geometry": {
        "type": "Point",
        "coordinates": [
          -6.2471357,
          53.3527247
        ]
      }
    },
    {
      "type": "Feature",
      "id": "node/7198349811",
      "properties": {
        "addr:city": "Dublin",
        "addr:postal_district": "D15",
        "addr:street": "Carpenterstown Road",
        "name": "Coolmine",
        "network": "Dublin Commuter",
        "operator": "Irish Rail",
        "public_transport": "station",
        "railway": "station",
        "wheelchair": "yes",
        "wikidata": "Q3969479",
        "id": "node/7198349811"
      },
      "geometry": {
        "type": "Point",
        "coordinates": [
          -6.3906473,
          53.3776926
        ]
      }
    },
    {
      "type": "Feature",
      "id": "node/7198349812",
      "properties": {
        "addr:city": "Maynooth",
        "addr:street": "Straffan Road",
        "layer": "1",
        "name": "Maynooth",
        "network": "InterCity;Dublin Commuter",
        "operator": "Irish Rail",
        "public_transport": "station",
        "railway": "station",
        "train": "yes",
        "website": "http://www.irishrail.ie/travel-information/maynooth",
        "wikidata": "Q3970077",
        "id": "node/7198349812"
      },
      "geometry": {
        "type": "Point",
        "coordinates": [
          -6.5905148,
          53.3779814
        ]
      }
    },
    {
      "type": "Feature",
      "id": "node/7198369362",
      "properties": {
        "name": "Edgeworthstown",
        "network": "InterCity;Dublin Commuter",
        "operator": "Irish Rail",
        "public_transport": "stop_position",
        "railway": "stop",
        "train": "yes",
        "id": "node/7198369362"
      },
      "geometry": {
        "type": "Point",
        "coordinates": [
          -7.6030944,
          53.6887746
        ]
      }
    },
    {
      "type": "Feature",
      "id": "node/7198369363",
      "properties": {
        "addr:city": "Edgeworthstown",
        "addr:street": "Station Road",
        "name": "Edgeworthstown",
        "network": "InterCity;Dublin Commuter",
        "old_name": "Mostrim",
        "operator": "Irish Rail",
        "phone": "+353 43 6671031",
        "public_transport": "station",
        "railway": "station",
        "railway:ref:DB": "ZIET",
        "website": "http://www.irishrail.ie/travel-information/edgeworthstown",
        "wheelchair": "limited",
        "wikidata": "Q3969559",
        "id": "node/7198369363"
      },
      "geometry": {
        "type": "Point",
        "coordinates": [
          -7.6031144,
          53.6887624
        ]
      }
    },
    {
      "type": "Feature",
      "id": "node/7198398740",
      "properties": {
        "addr:city": "Enfield",
        "addr:street": "Main Street",
        "name": "Enfield",
        "network": "InterCity;Dublin Commuter",
        "operator": "Irish Rail",
        "public_transport": "station",
        "railway": "station",
        "website": "https://irishrail.ie",
        "wikidata": "Q3969562",
        "wikipedia": "en:Enfield (Ireland) railway station",
        "id": "node/7198398740"
      },
      "geometry": {
        "type": "Point",
        "coordinates": [
          -6.8341687,
          53.4161821
        ]
      }
    },
    {
      "type": "Feature",
      "id": "node/7198405505",
      "properties": {
        "addr:city": "Mullingar",
        "addr:street": "Clonmore Road",
        "name": "Mullingar",
        "name:en": "Mullingar",
        "name:ga": "An Muileann gCearr",
        "network": "InterCity",
        "operator": "Irish Rail",
        "platforms": "3",
        "public_transport": "station",
        "railway": "station",
        "railway:ref": "MUL",
        "start_date": "1848",
        "website": "http://www.irishrail.ie/travel-information/mullingar",
        "wikidata": "Q3970250",
        "wikipedia": "en:Mullingar railway station",
        "id": "node/7198405505"
      },
      "geometry": {
        "type": "Point",
        "coordinates": [
          -7.345688,
          53.5229058
        ]
      }
    },
    {
      "type": "Feature",
      "id": "node/7234040085",
      "properties": {
        "name": "M3 Parkway",
        "name:en": "M3 Parkway",
        "name:ga": "Ollpháirc M3",
        "network": "Dublin Commuter",
        "public_transport": "stop_position",
        "railway": "stop",
        "train": "yes",
        "id": "node/7234040085"
      },
      "geometry": {
        "type": "Point",
        "coordinates": [
          -6.4688299,
          53.4343652
        ]
      }
    },
    {
      "type": "Feature",
      "id": "node/7234111685",
      "properties": {
        "name": "Hansfield",
        "network": "Dublin Commuter",
        "public_transport": "stop_position",
        "railway": "stop",
        "train": "yes",
        "id": "node/7234111685"
      },
      "geometry": {
        "type": "Point",
        "coordinates": [
          -6.4425756,
          53.3871445
        ]
      }
    },
    {
      "type": "Feature",
      "id": "node/7234390185",
      "properties": {
        "name": "Drogheda",
        "network": "Dublin Commuter",
        "public_transport": "stop_position",
        "railway": "stop",
        "train": "yes",
        "id": "node/7234390185"
      },
      "geometry": {
        "type": "Point",
        "coordinates": [
          -6.3351059,
          53.7119706
        ]
      }
    },
    {
      "type": "Feature",
      "id": "node/7234390285",
      "properties": {
        "name": "Drogheda",
        "network": "Dublin Commuter",
        "public_transport": "stop_position",
        "railway": "stop",
        "train": "yes",
        "id": "node/7234390285"
      },
      "geometry": {
        "type": "Point",
        "coordinates": [
          -6.3357857,
          53.712109
        ]
      }
    },
    {
      "type": "Feature",
      "id": "node/7234393885",
      "properties": {
        "name": "Longford",
        "network": "Dublin Commuter",
        "public_transport": "stop_position",
        "railway": "stop",
        "train": "yes",
        "id": "node/7234393885"
      },
      "geometry": {
        "type": "Point",
        "coordinates": [
          -7.7959537,
          53.7241788
        ]
      }
    },
    {
      "type": "Feature",
      "id": "node/7234393985",
      "properties": {
        "name": "Longford",
        "network": "Dublin Commuter",
        "public_transport": "stop_position",
        "railway": "stop",
        "train": "yes",
        "id": "node/7234393985"
      },
      "geometry": {
        "type": "Point",
        "coordinates": [
          -7.795856,
          53.7242369
        ]
      }
    },
    {
      "type": "Feature",
      "id": "node/8399667627",
      "properties": {
        "name": "Limerick Colbert",
        "network": "InterCity",
        "operator": "Irish Rail",
        "public_transport": "stop_position",
        "railway": "stop",
        "train": "yes",
        "id": "node/8399667627"
      },
      "geometry": {
        "type": "Point",
        "coordinates": [
          -8.6241373,
          52.6587907
        ]
      }
    },
    {
      "type": "Feature",
      "id": "node/8399667726",
      "properties": {
        "name": "Limerick Colbert",
        "network": "InterCity",
        "operator": "Irish Rail",
        "public_transport": "stop_position",
        "railway": "stop",
        "train": "yes",
        "id": "node/8399667726"
      },
      "geometry": {
        "type": "Point",
        "coordinates": [
          -8.6241771,
          52.6587204
        ]
      }
    },
    {
      "type": "Feature",
      "id": "node/8403563822",
      "properties": {
        "addr:city": "Athy",
        "addr:street": "Church Road",
        "name": "Athy",
        "name:ga": "Baile Átha Í",
        "network": "InterCity",
        "operator": "Irish Rail",
        "public_transport": "station",
        "railway": "station",
        "website": "http://www.irishrail.ie/travel-information/Athy",
        "wikidata": "Q3968931",
        "id": "node/8403563822"
      },
      "geometry": {
        "type": "Point",
        "coordinates": [
          -6.9764756,
          52.9922877
        ]
      }
    },
    {
      "type": "Feature",
      "id": "node/8403567017",
      "properties": {
        "addr:city": "Bagenalstown",
        "addr:county": "Carlow",
        "addr:street": "Station Road",
        "name": "Muine Bheag",
        "name:en": "Bagenalstown",
        "name:ga": "Muine Bheag",
        "network": "InterCity",
        "operator": "Irish Rail",
        "phone": "+353 59 972 1302",
        "public_transport": "station",
        "railway": "station",
        "website": "http://www.irishrail.ie/travel-information/muine-bheag-bagenalstown",
        "wheelchair": "limited",
        "wikidata": "Q13583310",
        "wikipedia": "en:Muine Bheag halt",
        "id": "node/8403567017"
      },
      "geometry": {
        "type": "Point",
        "coordinates": [
          -6.9525956,
          52.6989293
        ]
      }
    },
    {
      "type": "Feature",
      "id": "node/8403567018",
      "properties": {
        "name": "Athy",
        "name:ga": "Baile Átha Í",
        "network": "InterCity",
        "operator": "Irish Rail",
        "public_transport": "stop_position",
        "railway": "stop",
        "ref": "2",
        "train": "yes",
        "id": "node/8403567018"
      },
      "geometry": {
        "type": "Point",
        "coordinates": [
          -6.9760907,
          52.9915371
        ]
      }
    },
    {
      "type": "Feature",
      "id": "node/8436500717",
      "properties": {
        "addr:city": "Hazelhatch",
        "name": "Hazelhatch and Celbridge",
        "name:ga": "Collchoill agus Cill Droichid",
        "network": "Dublin Commuter",
        "operator": "Irish Rail",
        "public_transport": "station",
        "railway": "station",
        "train": "yes",
        "website": "http://www.irishrail.ie/travel-information/hazelhatch-and-celbridge",
        "wikidata": "Q3969778",
        "id": "node/8436500717"
      },
      "geometry": {
        "type": "Point",
        "coordinates": [
          -6.5232477,
          53.3226358
        ]
      }
    },
    {
      "type": "Feature",
      "id": "node/8436515317",
      "properties": {
        "addr:city": "Clara",
        "addr:county": "Offaly",
        "addr:street": "Station Road",
        "name": "Clara",
        "name:ga": "Clóirtheach",
        "network": "InterCity",
        "operator": "Irish Rail",
        "platforms": "1",
        "public_transport": "station",
        "railway": "station",
        "train": "yes",
        "wikidata": "Q3969435",
        "wikipedia": "en:Clara railway station",
        "id": "node/8436515317"
      },
      "geometry": {
        "type": "Point",
        "coordinates": [
          -7.6160842,
          53.3396756
        ]
      }
    },
    {
      "type": "Feature",
      "id": "node/8436522717",
      "properties": {
        "name": "Tullamore",
        "name:en": "Tullamore",
        "name:ga": "Tulach Mhór",
        "network": "InterCity",
        "operator": "Irish Rail",
        "public_transport": "stop_position",
        "railway": "stop",
        "ref": "1",
        "train": "yes",
        "id": "node/8436522717"
      },
      "geometry": {
        "type": "Point",
        "coordinates": [
          -7.4998545,
          53.2702254
        ]
      }
    },
    {
      "type": "Feature",
      "id": "node/8436522718",
      "properties": {
        "addr:city": "Tullamore",
        "name": "Tullamore",
        "name:en": "Tullamore",
        "name:ga": "Tulach Mhór",
        "network": "InterCity",
        "operator": "Irish Rail",
        "platforms": "2",
        "public_transport": "station",
        "railway": "station",
        "train": "yes",
        "wikidata": "Q3971209",
        "wikipedia": "en:Tullamore railway station",
        "id": "node/8436522718"
      },
      "geometry": {
        "type": "Point",
        "coordinates": [
          -7.5003389,
          53.2705805
        ]
      }
    },
    {
      "type": "Feature",
      "id": "node/9123967004",
      "properties": {
        "addr:city": "Dublin",
        "addr:street": "Royal Canal Avenue",
        "internet_access": "no",
        "name": "Pelletstown",
        "name:en": "Pelletstown",
        "name:ga": "Baile Pheiléid",
        "network": "Dublin Commuter",
        "opening_date": "2021",
        "operator": "Irish Rail",
        "phone": "+353-1-8366222",
        "phone:IE": "0818 366222",
        "public_transport": "station",
        "railway": "station",
        "start_date": "2021-09-26",
        "toilets": "no",
        "train": "yes",
        "website": "https://www.irishrail.ie/en-ie/travel-information/find-a-station?key=Pelletstown",
        "wheelchair": "yes",
        "wheelchair:description": "Step-free access from Royal Canal Avenue across bridge to eastbound platform. Step-free access from Ashington via ramp to westbound platform. Access via ramp only between platforms.",
        "wikidata": "Q85792690",
        "wikipedia": "en:Pelletstown railway station",
        "id": "node/9123967004"
      },
      "geometry": {
        "type": "Point",
        "coordinates": [
          -6.3143054,
          53.3751804
        ]
      }
    },
    {
      "type": "Feature",
      "id": "node/9123967006",
      "properties": {
        "name": "Pelletstown",
        "name:en": "Pelletstown",
        "name:ga": "Baile Pheiléid",
        "network": "Dublin Commuter",
        "operator": "Irish Rail",
        "public_transport": "stop_position",
        "railway": "stop",
        "start_date": "2021-09-26",
        "train": "yes",
        "wikidata": "Q85792690",
        "wikipedia": "en:Pelletstown railway station",
        "id": "node/9123967006"
      },
      "geometry": {
        "type": "Point",
        "coordinates": [
          -6.3143054,
          53.3751684
        ]
      }
    },
    {
      "type": "Feature",
      "id": "node/9123967007",
      "properties": {
        "name": "Pelletstown",
        "name:en": "Pelletstown",
        "name:ga": "Baile Pheiléid",
        "network": "Dublin Commuter",
        "operator": "Irish Rail",
        "public_transport": "stop_position",
        "railway": "stop",
        "start_date": "2021-09-26",
        "train": "yes",
        "wikidata": "Q85792690",
        "wikipedia": "en:Pelletstown railway station",
        "id": "node/9123967007"
      },
      "geometry": {
        "type": "Point",
        "coordinates": [
          -6.3143024,
          53.3752008
        ]
      }
    }
  ]
}