{
  "type": "FeatureCollection",
  "features": [
    {
      "type": "Feature",
      "id": "node/5216328921",
      "properties": {
        "name": "محطة قطار المنصور",
        "name:ar": "محطة قطار المنصور",
        "public_transport": "station",
        "railway": "station",
        "train": "yes",
        "id": "node/5216328921"
      },
      "geometry": {
        "type": "Point",
        "coordinates": [
          44.3292531,
          33.3223776
        ]
      }
    },
    {
      "type": "Feature",
      "id": "node/5643752006",
      "properties": {
        "public_transport": "station",
        "railway": "halt",
        "train": "yes",
        "id": "node/5643752006"
      },
      "geometry": {
        "type": "Point",
        "coordinates": [
          45.0222555,
          31.2421528
        ]
      }
    },
    {
      "type": "Feature",
      "id": "node/6948164732",
      "properties": {
        "addr:city": "كربلاء",
        "name": "محطة قطار كربلاء",
        "name:ar": "محطة قطار كربلاء",
        "name:de": "Bahnhof Karbala",
        "name:en": "Karbala Train Station",
        "name:es": "Estación de Karbalá",
        "public_transport": "station",
        "railway": "station",
        "train": "yes",
        "id": "node/6948164732"
      },
      "geometry": {
        "type": "Point",
        "coordinates": [
          44.0773299,
          32.6782766
        ]
      }
    }
  ]
}