{
  "type": "FeatureCollection",
  "features": [
    {
      "type": "Feature",
      "id": "node/263264374",
      "properties": {
        "int_name": "Mashhad Railway Station",
        "name": "ایستگاه راه آهن مشهد",
        "name:de": "Maschhad Hauptbahnhof",
        "name:en": "Mashhad Railway Station",
        "phone": "+98 51 3222 4682",
        "public_transport": "station",
        "rail": "yes",
        "railway": "station",
        "train": "yes",
        "wikidata": "Q5941905",
        "id": "node/263264374"
      },
      "geometry": {
        "type": "Point",
        "coordinates": [
          59.6241894,
          36.3045564
        ]
      }
    },
    {
      "type": "Feature",
      "id": "node/303841913",
      "properties": {
        "name": "دامغان",
        "name:ar": "دامغان",
        "name:de": "Damghan",
        "name:en": "Damghan",
        "public_transport": "station",
        "rail": "yes",
        "railway": "station",
        "train": "yes",
        "wikidata": "Q85168425",
        "id": "node/303841913"
      },
      "geometry": {
        "type": "Point",
        "coordinates": [
          54.3703683,
          36.1505901
        ]
      }
    },
    {
      "type": "Feature",
      "id": "node/684207694",
      "properties": {
        "name": "سیمین دشت",
        "name:en": "Simindasht",
        "public_transport": "station",
        "railway": "station",
        "train": "yes",
        "id": "node/684207694"
      },
      "geometry": {
        "type": "Point",
        "coordinates": [
          52.501321,
          35.520691
        ]
      }
    },
    {
      "type": "Feature",
      "id": "node/694341911",
      "properties": {
        "name": "هشترود",
        "name:en": "Hashtrud",
        "public_transport": "station",
        "railway": "station",
        "train": "yes",
        "wikidata": "Q85168202",
        "id": "node/694341911"
      },
      "geometry": {
        "type": "Point",
        "coordinates": [
          46.8789799,
          37.3194893
        ]
      }
    },
    {
      "type": "Feature",
      "id": "node/696516108",
      "properties": {
        "name": "ایستگاه خیام",
        "public_transport": "station",
        "railway": "station",
        "train": "yes",
        "wikidata": "Q85168358",
        "id": "node/696516108"
      },
      "geometry": {
        "type": "Point",
        "coordinates": [
          58.9917326,
          36.0857506
        ]
      }
    },
    {
      "type": "Feature",
      "id": "node/703745805",
      "properties": {
        "name": "ایستگاه بندر امام خمینی",
        "public_transport": "station",
        "railway": "station",
        "train": "yes",
        "id": "node/703745805"
      },
      "geometry": {
        "type": "Point",
        "coordinates": [
          49.078089,
          30.4318944
        ]
      }
    },
    {
      "type": "Feature",
      "id": "node/828648487",
      "properties": {
        "name": "ایستگاه راه آهن شیراز",
        "name:en": "Shiraz Railway Station",
        "public_transport": "station",
        "rail": "station",
        "railway": "station",
        "train": "yes",
        "wikidata": "Q5951511",
        "wikipedia": "fa:ایستگاه راه‌آهن شیراز",
        "id": "node/828648487"
      },
      "geometry": {
        "type": "Point",
        "coordinates": [
          52.431362,
          29.7641449
        ]
      }
    },
    {
      "type": "Feature",
      "id": "node/891725424",
      "properties": {
        "name": "ایستگاه راه آهن شهرضا",
        "name:en": "Shahreza",
        "public_transport": "station",
        "railway": "station",
        "train": "yes",
        "wikidata": "Q28169516",
        "id": "node/891725424"
      },
      "geometry": {
        "type": "Point",
        "coordinates": [
          51.832187,
          31.9760428
        ]
      }
    },
    {
      "type": "Feature",
      "id": "node/1463887002",
      "properties": {
        "addr:city": "بافق",
        "addr:street": "بلوار آیت الله میرغنی زاده",
        "name": "ایستگاه راه آهن بافق",
        "operator": "شرکت راه آهن جمهوری اسلامی ایران",
        "public_transport": "station",
        "railway": "station",
        "train": "yes",
        "wikidata": "Q62107358",
        "wikipedia": "fa:ایستگاه راه‌آهن بافق",
        "id": "node/1463887002"
      },
      "geometry": {
        "type": "Point",
        "coordinates": [
          55.3991457,
          31.5877722
        ]
      }
    },
    {
      "type": "Feature",
      "id": "node/1896111155",
      "properties": {
        "name": "ایستگاه راه آهن قارون",
        "public_transport": "station",
        "rail": "yes",
        "railway": "station",
        "train": "yes",
        "id": "node/1896111155"
      },
      "geometry": {
        "type": "Point",
        "coordinates": [
          49.0016572,
          33.4244582
        ]
      }
    },
    {
      "type": "Feature",
      "id": "node/3144516900",
      "properties": {
        "name": "ایستگاه سنخواست",
        "public_transport": "station",
        "railway": "station",
        "train": "yes",
        "id": "node/3144516900"
      },
      "geometry": {
        "type": "Point",
        "coordinates": [
          56.9631834,
          36.7586723
        ]
      }
    },
    {
      "type": "Feature",
      "id": "node/3220636997",
      "properties": {
        "name": "ایسگاه راه آهن گدوک",
        "name:en": "Gadok",
        "public_transport": "station",
        "railway": "station",
        "train": "yes",
        "id": "node/3220636997"
      },
      "geometry": {
        "type": "Point",
        "coordinates": [
          52.9172316,
          35.8241774
        ]
      }
    },
    {
      "type": "Feature",
      "id": "node/3979198994",
      "properties": {
        "name": "شوش",
        "name:de": "Susa",
        "name:en": "Shush",
        "public_transport": "station",
        "railway": "station",
        "railway:ref": "189",
        "train": "yes",
        "id": "node/3979198994"
      },
      "geometry": {
        "type": "Point",
        "coordinates": [
          48.2898691,
          32.2050878
        ]
      }
    },
    {
      "type": "Feature",
      "id": "node/4020043514",
      "properties": {
        "name": "بامدژ",
        "public_transport": "station",
        "railway": "station",
        "train": "yes",
        "id": "node/4020043514"
      },
      "geometry": {
        "type": "Point",
        "coordinates": [
          48.6687088,
          31.6878091
        ]
      }
    },
    {
      "type": "Feature",
      "id": "node/4020043516",
      "properties": {
        "name": "خاور",
        "name:en": "Khavar",
        "public_transport": "station",
        "railway": "station",
        "railway:ref": "194",
        "train": "yes",
        "id": "node/4020043516"
      },
      "geometry": {
        "type": "Point",
        "coordinates": [
          48.693191,
          31.6124515
        ]
      }
    },
    {
      "type": "Feature",
      "id": "node/4025966922",
      "properties": {
        "name": "اینچه برون",
        "name:en": "Incheh Borun",
        "official_name": "ایستگاه راه آهن اینچه برون",
        "public_transport": "station",
        "railway": "station",
        "train": "yes",
        "wikidata": "Q85168021",
        "id": "node/4025966922"
      },
      "geometry": {
        "type": "Point",
        "coordinates": [
          54.6143829,
          37.429806
        ]
      }
    },
    {
      "type": "Feature",
      "id": "node/4036831341",
      "properties": {
        "name": "آهودشت",
        "name:en": "Ahu Dasht",
        "public_transport": "station",
        "railway": "station",
        "railway:ref": "192",
        "train": "yes",
        "id": "node/4036831341"
      },
      "geometry": {
        "type": "Point",
        "coordinates": [
          48.5607557,
          31.8738255
        ]
      }
    },
    {
      "type": "Feature",
      "id": "node/4051446252",
      "properties": {
        "name": "میان آباد",
        "name:en": "Miyanab",
        "public_transport": "station",
        "railway": "station",
        "railway:ref": "191",
        "train": "yes",
        "id": "node/4051446252"
      },
      "geometry": {
        "type": "Point",
        "coordinates": [
          48.4473277,
          31.9697273
        ]
      }
    },
    {
      "type": "Feature",
      "id": "node/4198405971",
      "properties": {
        "name": "سیستان",
        "public_transport": "station",
        "railway": "station",
        "train": "yes",
        "wikidata": "Q85168231",
        "id": "node/4198405971"
      },
      "geometry": {
        "type": "Point",
        "coordinates": [
          52.1121951,
          32.6698536
        ]
      }
    },
    {
      "type": "Feature",
      "id": "node/4384779601",
      "properties": {
        "name": "بادرود",
        "name:en": "Badrood",
        "public_transport": "station",
        "railway": "station",
        "train": "yes",
        "id": "node/4384779601"
      },
      "geometry": {
        "type": "Point",
        "coordinates": [
          52.0321996,
          33.6565504
        ]
      }
    },
    {
      "type": "Feature",
      "id": "node/4506949244",
      "properties": {
        "addr:city": "اقلید",
        "addr:street": "بلوار راه آهن اقلید",
        "image": "https://www.google.com/maps/uv?hl=fa&pb=!1s0x3fafe3cc3b216aab%3A0x29633aa7fe8d14c7!3m1!7e115!4shttps%3A%2F%2Flh5.googleusercontent.com%2Fp%2FAF1QipPbfh8IvE09ViOqQwWk2tt5HbRu7_MOla_jYnuG%3Dw213-h160-k-no!5z2KfbjNiz2Krar9in2Ycg2LHYp9mHINii2YfZhiDYp9mC2YTbjN",
        "internet_access": "yes",
        "level": "0",
        "name": "ایستگاه راه‌آهن اقلید",
        "name:en": "Eghlid railway station",
        "public_transport": "station",
        "railway": "station",
        "train": "yes",
        "wheelchair": "yes",
        "wikidata": "Q7284279",
        "wikipedia": "fa:فهرست ایستگاه‌های راه‌آهن ایران",
        "id": "node/4506949244"
      },
      "geometry": {
        "type": "Point",
        "coordinates": [
          52.7501794,
          31.0067995
        ]
      }
    },
    {
      "type": "Feature",
      "id": "node/4902617893",
      "properties": {
        "name": "نیک پسندی",
        "name:en": "Nik Pasandi",
        "public_transport": "station",
        "railway": "station",
        "train": "yes",
        "id": "node/4902617893"
      },
      "geometry": {
        "type": "Point",
        "coordinates": [
          51.2552436,
          35.6781903
        ]
      }
    },
    {
      "type": "Feature",
      "id": "node/4933372824",
      "properties": {
        "name": "ایستگاه راه آهن شمتیغ ایران",
        "name:en": "Shamtigh station",
        "public_transport": "station",
        "railway": "station",
        "train": "yes",
        "wikidata": "Q85172763",
        "id": "node/4933372824"
      },
      "geometry": {
        "type": "Point",
        "coordinates": [
          60.891068,
          34.3178294
        ]
      }
    },
    {
      "type": "Feature",
      "id": "node/5160831955",
      "properties": {
        "name": "غدیر",
        "name:en": "Ghadir",
        "public_transport": "station",
        "railway": "station",
        "station": "light_rail",
        "station_number": "1",
        "train": "yes",
        "wikidata": "Q20717404",
        "id": "node/5160831955"
      },
      "geometry": {
        "type": "Point",
        "coordinates": [
          59.6202014,
          36.2568247
        ]
      }
    },
    {
      "type": "Feature",
      "id": "node/5162609065",
      "properties": {
        "name": "سید رضی",
        "name:en": "Seyyed Razi",
        "public_transport": "station",
        "railway": "station",
        "station": "light_rail",
        "station_number": "14",
        "train": "yes",
        "wikidata": "Q20718128",
        "id": "node/5162609065"
      },
      "geometry": {
        "type": "Point",
        "coordinates": [
          59.5170258,
          36.3225508
        ]
      }
    },
    {
      "type": "Feature",
      "id": "node/5162609068",
      "properties": {
        "name": "دانش آموز",
        "name:en": "Danesh Amooz",
        "public_transport": "station",
        "railway": "station",
        "station": "light_rail",
        "station_number": "15",
        "train": "yes",
        "wikidata": "Q20717445",
        "id": "node/5162609068"
      },
      "geometry": {
        "type": "Point",
        "coordinates": [
          59.5086023,
          36.3251818
        ]
      }
    },
    {
      "type": "Feature",
      "id": "node/5162609074",
      "properties": {
        "name": "هفت تیر",
        "name:en": "Haft-e Tir",
        "public_transport": "station",
        "railway": "station",
        "station": "light_rail",
        "station_number": "16",
        "train": "yes",
        "wikidata": "Q20717431",
        "id": "node/5162609074"
      },
      "geometry": {
        "type": "Point",
        "coordinates": [
          59.5004042,
          36.3277382
        ]
      }
    },
    {
      "type": "Feature",
      "id": "node/5162609081",
      "properties": {
        "name": "صدف",
        "name:en": "Sadaf",
        "public_transport": "station",
        "railway": "station",
        "station": "light_rail",
        "station_number": "17",
        "train": "yes",
        "wikidata": "Q20718117",
        "id": "node/5162609081"
      },
      "geometry": {
        "type": "Point",
        "coordinates": [
          59.492898,
          36.3300842
        ]
      }
    },
    {
      "type": "Feature",
      "id": "node/5162679629",
      "properties": {
        "name": "امام حسین",
        "name:en": "Imam Hossein Metro Station",
        "public_transport": "station",
        "railway": "station",
        "station": "subway",
        "subway": "yes",
        "train": "yes",
        "id": "node/5162679629"
      },
      "geometry": {
        "type": "Point",
        "coordinates": [
          51.6693574,
          32.6581181
        ]
      }
    },
    {
      "type": "Feature",
      "id": "node/5162991969",
      "properties": {
        "name": "شریعتی",
        "name:en": "Shariati",
        "public_transport": "station",
        "railway": "station",
        "station": "subway",
        "subway": "yes",
        "train": "yes",
        "wikidata": "Q20718132",
        "id": "node/5162991969"
      },
      "geometry": {
        "type": "Point",
        "coordinates": [
          59.5860036,
          36.2911
        ]
      }
    },
    {
      "type": "Feature",
      "id": "node/5162991971",
      "properties": {
        "name": "بسیج",
        "name:en": "Basij",
        "public_transport": "station",
        "railway": "station",
        "station": "light_rail",
        "train": "yes",
        "wikidata": "Q20717245",
        "id": "node/5162991971"
      },
      "geometry": {
        "type": "Point",
        "coordinates": [
          59.6035542,
          36.2735632
        ]
      }
    },
    {
      "type": "Feature",
      "id": "node/5162991973",
      "properties": {
        "name": "ایستگاه قطارشهری هفده شهریور",
        "name:en": "Hefdah-e Shahrivar",
        "public_transport": "station",
        "railway": "station",
        "station": "light_rail",
        "train": "yes",
        "wikidata": "Q20717452",
        "id": "node/5162991973"
      },
      "geometry": {
        "type": "Point",
        "coordinates": [
          59.6092172,
          36.2677285
        ]
      }
    },
    {
      "type": "Feature",
      "id": "node/5162991974",
      "properties": {
        "name": "پروین اعتصامی",
        "name:en": "Parvin-e Etessami",
        "public_transport": "station",
        "railway": "station",
        "station": "light_rail",
        "train": "yes",
        "wikidata": "Q20718097",
        "id": "node/5162991974"
      },
      "geometry": {
        "type": "Point",
        "coordinates": [
          59.6141847,
          36.2627827
        ]
      }
    },
    {
      "type": "Feature",
      "id": "node/5230301190",
      "properties": {
        "name": "شهید قاسم سلیمانی",
        "name:en": "Qasem Soleimani",
        "name:etymology:wikidata": "Q892014",
        "old_name:en": "Hashtgerd",
        "public_transport": "station",
        "railway": "station",
        "train": "yes",
        "wikidata": "Q85967553",
        "id": "node/5230301190"
      },
      "geometry": {
        "type": "Point",
        "coordinates": [
          50.7191449,
          35.9587933
        ]
      }
    },
    {
      "type": "Feature",
      "id": "node/5419099942",
      "properties": {
        "name": "سرخ دشت",
        "name:en": "Sorkhdasht",
        "public_transport": "station",
        "railway": "halt",
        "train": "yes",
        "wikidata": "Q85168622",
        "id": "node/5419099942"
      },
      "geometry": {
        "type": "Point",
        "coordinates": [
          52.8791392,
          35.2711741
        ]
      }
    },
    {
      "type": "Feature",
      "id": "node/5419103653",
      "properties": {
        "name": "لاهور",
        "public_transport": "station",
        "railway": "halt",
        "train": "yes",
        "wikidata": "Q85168529",
        "id": "node/5419103653"
      },
      "geometry": {
        "type": "Point",
        "coordinates": [
          53.0834216,
          35.3295719
        ]
      }
    },
    {
      "type": "Feature",
      "id": "node/5419106162",
      "properties": {
        "name": "بیابانک",
        "name:en": "Biyabanak",
        "public_transport": "station",
        "railway": "halt",
        "train": "yes",
        "wikidata": "Q31068368",
        "id": "node/5419106162"
      },
      "geometry": {
        "type": "Point",
        "coordinates": [
          53.2785228,
          35.4293725
        ]
      }
    },
    {
      "type": "Feature",
      "id": "node/5419117641",
      "properties": {
        "name": "ایستگاه میاندره",
        "public_transport": "station",
        "railway": "halt",
        "train": "yes",
        "wikidata": "Q85168356",
        "id": "node/5419117641"
      },
      "geometry": {
        "type": "Point",
        "coordinates": [
          53.602991,
          35.57381
        ]
      }
    },
    {
      "type": "Feature",
      "id": "node/5419121298",
      "properties": {
        "name": "ایستگاه آبگرم",
        "public_transport": "station",
        "railway": "halt",
        "train": "yes",
        "wikidata": "Q85168277",
        "id": "node/5419121298"
      },
      "geometry": {
        "type": "Point",
        "coordinates": [
          53.7635909,
          35.5401634
        ]
      }
    },
    {
      "type": "Feature",
      "id": "node/5602562105",
      "properties": {
        "name": "گلشهر",
        "name:en": "Golshahr",
        "public_transport": "station",
        "railway": "station",
        "train": "yes",
        "wikidata": "Q2373606",
        "id": "node/5602562105"
      },
      "geometry": {
        "type": "Point",
        "coordinates": [
          50.9329176,
          35.8249517
        ]
      }
    },
    {
      "type": "Feature",
      "id": "node/5602579937",
      "properties": {
        "alt_name": "اکباتان",
        "name": "ارم سبز",
        "name:en": "Eram-e Sabz",
        "public_transport": "station",
        "railway": "station",
        "station": "light_rail",
        "train": "yes",
        "id": "node/5602579937"
      },
      "geometry": {
        "type": "Point",
        "coordinates": [
          51.3019752,
          35.7176786
        ]
      }
    },
    {
      "type": "Feature",
      "id": "node/5604727196",
      "properties": {
        "name": "صادقیه (تهران)",
        "name:en": "Tehran (Sadeghiyeh)",
        "public_transport": "station",
        "railway": "station",
        "station": "light_rail",
        "train": "yes",
        "id": "node/5604727196"
      },
      "geometry": {
        "type": "Point",
        "coordinates": [
          51.3312811,
          35.7179381
        ]
      }
    },
    {
      "type": "Feature",
      "id": "node/5606659846",
      "properties": {
        "name": "گرمدره",
        "name:en": "Garmdarreh",
        "operator": "Tehran Urban and Suburban Railways Organization",
        "public_transport": "station",
        "railway": "station",
        "station": "light_rail",
        "train": "yes",
        "wikidata": "Q2373010",
        "id": "node/5606659846"
      },
      "geometry": {
        "type": "Point",
        "coordinates": [
          51.081807,
          35.7517846
        ]
      }
    },
    {
      "type": "Feature",
      "id": "node/5607262986",
      "properties": {
        "alt_name": "ماهدشت",
        "alt_name:en": "Mahdasht",
        "name": "محمد شهر",
        "name:en": "Mohammad Shahr",
        "public_transport": "station",
        "railway": "station",
        "train": "yes",
        "wikidata": "Q2373729",
        "id": "node/5607262986"
      },
      "geometry": {
        "type": "Point",
        "coordinates": [
          50.9648493,
          35.802277
        ]
      }
    },
    {
      "type": "Feature",
      "id": "node/5607263132",
      "properties": {
        "alt_name": "فردیس",
        "alt_name:en": "Fardis",
        "name": "کرج",
        "name:en": "Karaj",
        "public_transport": "station",
        "railway": "station",
        "train": "yes",
        "wikidata": "Q2372238",
        "id": "node/5607263132"
      },
      "geometry": {
        "type": "Point",
        "coordinates": [
          51.0025424,
          35.7866258
        ]
      }
    },
    {
      "type": "Feature",
      "id": "node/5909276329",
      "properties": {
        "name": "زرین قبا",
        "name:en": "Zarrin Qaba",
        "note": "درحال احداث",
        "public_transport": "station",
        "railway": "station",
        "train": "yes",
        "id": "node/5909276329"
      },
      "geometry": {
        "type": "Point",
        "coordinates": [
          47.1852832,
          37.7038247
        ]
      }
    },
    {
      "type": "Feature",
      "id": "node/5932705294",
      "properties": {
        "name": "ایستگاه راه آهن سنگان",
        "name:en": "Sangan",
        "public_transport": "station",
        "railway": "station",
        "train": "yes",
        "id": "node/5932705294"
      },
      "geometry": {
        "type": "Point",
        "coordinates": [
          60.3114299,
          34.4728584
        ]
      }
    },
    {
      "type": "Feature",
      "id": "node/5932721159",
      "properties": {
        "name": "سلامی‎",
        "name:en": "Salami",
        "public_transport": "station",
        "railway": "station",
        "train": "yes",
        "id": "node/5932721159"
      },
      "geometry": {
        "type": "Point",
        "coordinates": [
          60.0026696,
          34.742668
        ]
      }
    },
    {
      "type": "Feature",
      "id": "node/6385222136",
      "properties": {
        "name": "ایستگاه راه آهن بجستان",
        "name:en": "Bajestan",
        "network": "RAI",
        "public_transport": "station",
        "railway": "station",
        "train": "yes",
        "id": "node/6385222136"
      },
      "geometry": {
        "type": "Point",
        "coordinates": [
          58.2192369,
          34.6124912
        ]
      }
    },
    {
      "type": "Feature",
      "id": "node/6479850747",
      "properties": {
        "name": "ایستگاه راه آهن تربت",
        "name:en": "Torbat railway station",
        "public_transport": "station",
        "railway": "station",
        "train": "yes",
        "wikidata": "Q85168343",
        "id": "node/6479850747"
      },
      "geometry": {
        "type": "Point",
        "coordinates": [
          59.57481,
          35.9576568
        ]
      }
    },
    {
      "type": "Feature",
      "id": "node/6534887564",
      "properties": {
        "name": "مرند",
        "name:en": "Marand",
        "public_transport": "station",
        "railway": "station",
        "train": "yes",
        "wikidata": "Q43401142",
        "id": "node/6534887564"
      },
      "geometry": {
        "type": "Point",
        "coordinates": [
          45.7936502,
          38.4366215
        ]
      }
    },
    {
      "type": "Feature",
      "id": "node/6535044505",
      "properties": {
        "name": "ابردژ",
        "name:en": "Abardej",
        "public_transport": "station",
        "railway": "station",
        "train": "yes",
        "wikidata": "Q85167782",
        "id": "node/6535044505"
      },
      "geometry": {
        "type": "Point",
        "coordinates": [
          51.8014732,
          35.2054284
        ]
      }
    },
    {
      "type": "Feature",
      "id": "node/6535085632",
      "properties": {
        "name": "امروان",
        "name:en": "Amravan",
        "public_transport": "station",
        "railway": "station",
        "train": "yes",
        "wikidata": "Q85168406",
        "id": "node/6535085632"
      },
      "geometry": {
        "type": "Point",
        "coordinates": [
          54.2062774,
          35.91747
        ]
      }
    },
    {
      "type": "Feature",
      "id": "node/6593855682",
      "properties": {
        "addr:city": "گرمسار",
        "name": "گرمسار",
        "name:en": "Garmsar",
        "public_transport": "station",
        "railway": "station",
        "train": "yes",
        "wikidata": "Q43401126",
        "id": "node/6593855682"
      },
      "geometry": {
        "type": "Point",
        "coordinates": [
          52.308491,
          35.235405
        ]
      }
    },
    {
      "type": "Feature",
      "id": "node/6831473486",
      "properties": {
        "name": "گونی بافی",
        "name:en": "Gooni Bafi",
        "public_transport": "station",
        "railway": "station",
        "train": "yes",
        "wikidata": "Q85168706",
        "id": "node/6831473486"
      },
      "geometry": {
        "type": "Point",
        "coordinates": [
          52.8981936,
          36.4819017
        ]
      }
    },
    {
      "type": "Feature",
      "id": "node/6867937639",
      "properties": {
        "name": "ایستگاه راه آهن تهران",
        "name:en": "Tehran Railway Station",
        "public_transport": "station",
        "railway": "station",
        "train": "yes",
        "uic_name": "Tehran",
        "uic_ref": "9600401",
        "wikidata": "Q4453688",
        "id": "node/6867937639"
      },
      "geometry": {
        "type": "Point",
        "coordinates": [
          51.3978023,
          35.6580883
        ]
      }
    },
    {
      "type": "Feature",
      "id": "node/6870181924",
      "properties": {
        "name": "ایستگاه فریمان",
        "name:en": "Fariman",
        "public_transport": "station",
        "railway": "station",
        "train": "yes",
        "wikidata": "Q85168435",
        "id": "node/6870181924"
      },
      "geometry": {
        "type": "Point",
        "coordinates": [
          59.7639084,
          36.0010216
        ]
      }
    },
    {
      "type": "Feature",
      "id": "node/6872099324",
      "properties": {
        "name": "کبوتر دره",
        "public_transport": "station",
        "railway": "station",
        "train": "yes",
        "id": "node/6872099324"
      },
      "geometry": {
        "type": "Point",
        "coordinates": [
          52.4286038,
          35.4264756
        ]
      }
    },
    {
      "type": "Feature",
      "id": "node/7319397466",
      "properties": {
        "name": "ایستگاه قطار درانجیر",
        "name:en": "Dareanjir",
        "public_transport": "station",
        "railway": "station",
        "train": "yes",
        "wikidata": "Q85168511",
        "id": "node/7319397466"
      },
      "geometry": {
        "type": "Point",
        "coordinates": [
          55.0499093,
          32.3325633
        ]
      }
    },
    {
      "type": "Feature",
      "id": "node/7786409713",
      "properties": {
        "name": "ایستگاه راه آهن سعادت شهر",
        "name:en": "Saadatshahr",
        "network": "RAI",
        "public_transport": "station",
        "railway": "station",
        "train": "yes",
        "id": "node/7786409713"
      },
      "geometry": {
        "type": "Point",
        "coordinates": [
          53.0942238,
          30.1053415
        ]
      }
    },
    {
      "type": "Feature",
      "id": "node/7786409737",
      "properties": {
        "name": "هرند",
        "name:en": "Herand",
        "network": "RAI",
        "public_transport": "station",
        "railway": "station",
        "train": "yes",
        "wikidata": "Q85168181",
        "id": "node/7786409737"
      },
      "geometry": {
        "type": "Point",
        "coordinates": [
          52.4533485,
          32.629102
        ]
      }
    },
    {
      "type": "Feature",
      "id": "node/7786409743",
      "properties": {
        "name": "ورزنه",
        "name:en": "Varzaneh",
        "network": "RAI",
        "public_transport": "station",
        "railway": "station",
        "train": "yes",
        "id": "node/7786409743"
      },
      "geometry": {
        "type": "Point",
        "coordinates": [
          52.6070642,
          32.569614
        ]
      }
    },
    {
      "type": "Feature",
      "id": "node/7786409745",
      "properties": {
        "name": "ایستگاه راه‌ آهن طبس",
        "name:en": "Tabas Railway Station",
        "network": "RAI",
        "public_transport": "station",
        "railway": "station",
        "train": "yes",
        "id": "node/7786409745"
      },
      "geometry": {
        "type": "Point",
        "coordinates": [
          56.8907103,
          33.613272
        ]
      }
    },
    {
      "type": "Feature",
      "id": "node/7786409748",
      "properties": {
        "name": "ایستگاه راه آهن تربت حیدریه",
        "name:en": "Torbat-e Heydarieh",
        "public_transport": "station",
        "railway": "station",
        "train": "yes",
        "wikidata": "Q85168284",
        "id": "node/7786409748"
      },
      "geometry": {
        "type": "Point",
        "coordinates": [
          59.3066365,
          35.2738948
        ]
      }
    },
    {
      "type": "Feature",
      "id": "node/7787930028",
      "properties": {
        "name": "سفیددشت",
        "name:en": "Sefiddasht",
        "network": "RAI",
        "public_transport": "station",
        "railway": "station",
        "train": "yes",
        "id": "node/7787930028"
      },
      "geometry": {
        "type": "Point",
        "coordinates": [
          51.2058027,
          32.1715391
        ]
      }
    },
    {
      "type": "Feature",
      "id": "node/8179182539",
      "properties": {
        "name": "اسلامشهر",
        "name:en": "Eslamshahr",
        "public_transport": "station",
        "railway": "station",
        "train": "yes",
        "wikidata": "Q28169520",
        "id": "node/8179182539"
      },
      "geometry": {
        "type": "Point",
        "coordinates": [
          51.2150602,
          35.5539211
        ]
      }
    },
    {
      "type": "Feature",
      "id": "node/8258493790",
      "properties": {
        "addr:city": "روستای خیرآباد",
        "internet_access": "no",
        "name": "ایستگاه راه آهن دیدگان",
        "operator": "رجا",
        "public_transport": "station",
        "railway": "station",
        "train": "yes",
        "id": "node/8258493790"
      },
      "geometry": {
        "type": "Point",
        "coordinates": [
          53.3498957,
          30.3634688
        ]
      }
    },
    {
      "type": "Feature",
      "id": "node/8360946104",
      "properties": {
        "name": "ایستگاه راه‌ آهن نیشابور",
        "name:de": "Nischapur Hauptbahnhof",
        "name:en": "Neyshabur Railway Station",
        "public_transport": "station",
        "railway": "station",
        "train": "yes",
        "wikidata": "Q5942290",
        "id": "node/8360946104"
      },
      "geometry": {
        "type": "Point",
        "coordinates": [
          58.7850791,
          36.1947804
        ]
      }
    },
    {
      "type": "Feature",
      "id": "node/8360946105",
      "properties": {
        "name": "دیزباد",
        "name:en": "Dizbad",
        "public_transport": "station",
        "railway": "station",
        "train": "yes",
        "wikidata": "Q85168332",
        "id": "node/8360946105"
      },
      "geometry": {
        "type": "Point",
        "coordinates": [
          59.2118494,
          35.9691835
        ]
      }
    },
    {
      "type": "Feature",
      "id": "node/8364095070",
      "properties": {
        "alt_name": "Shahroud",
        "name": "ایستگاه شاهرود",
        "name:en": "Shahrud",
        "public_transport": "station",
        "railway": "station",
        "train": "yes",
        "wikidata": "Q85168313",
        "id": "node/8364095070"
      },
      "geometry": {
        "type": "Point",
        "coordinates": [
          55.0012131,
          36.4001066
        ]
      }
    },
    {
      "type": "Feature",
      "id": "node/8371063323",
      "properties": {
        "name": "ایستگاه راه آهن سبزوار",
        "name:en": "Sabzevar Train Station",
        "public_transport": "station",
        "railway": "station",
        "train": "yes",
        "wikidata": "Q85168400",
        "id": "node/8371063323"
      },
      "geometry": {
        "type": "Point",
        "coordinates": [
          58.0815491,
          36.4504281
        ]
      }
    },
    {
      "type": "Feature",
      "id": "node/8371927564",
      "properties": {
        "name": "میوتک",
        "public_transport": "station",
        "railway": "station",
        "train": "yes",
        "id": "node/8371927564"
      },
      "geometry": {
        "type": "Point",
        "coordinates": [
          60.4853503,
          34.3443442
        ]
      }
    },
    {
      "type": "Feature",
      "id": "node/8372007354",
      "properties": {
        "name": "خوشابه",
        "public_transport": "station",
        "railway": "station",
        "train": "yes",
        "id": "node/8372007354"
      },
      "geometry": {
        "type": "Point",
        "coordinates": [
          60.6679128,
          34.3276443
        ]
      }
    },
    {
      "type": "Feature",
      "id": "node/8411423083",
      "properties": {
        "name": "آزادگان",
        "name:en": "Azadegan",
        "public_transport": "station",
        "railway": "station",
        "train": "yes",
        "wikidata": "Q85168597",
        "id": "node/8411423083"
      },
      "geometry": {
        "type": "Point",
        "coordinates": [
          60.0673588,
          36.0332807
        ]
      }
    },
    {
      "type": "Feature",
      "id": "node/8411445147",
      "properties": {
        "building": "train_station",
        "name": "مختوم قلی",
        "name:en": "Makhtom Gholy",
        "public_transport": "station",
        "railway": "station",
        "train": "yes",
        "wikidata": "Q85168639",
        "id": "node/8411445147"
      },
      "geometry": {
        "type": "Point",
        "coordinates": [
          60.4630449,
          36.0869948
        ]
      }
    },
    {
      "type": "Feature",
      "id": "node/8418713826",
      "properties": {
        "name": "شیرین بلاغ",
        "public_transport": "station",
        "railway": "station",
        "train": "yes",
        "wikidata": "Q85172779",
        "id": "node/8418713826"
      },
      "geometry": {
        "type": "Point",
        "coordinates": [
          45.4258232,
          37.1496621
        ]
      }
    },
    {
      "type": "Feature",
      "id": "node/8418713855",
      "properties": {
        "addr:city": "سولدوز",
        "addr:street": "راه آهن",
        "name": "سولدوز (نقده)",
        "public_transport": "station",
        "railway": "station",
        "train": "yes",
        "wikidata": "Q61063857",
        "wikipedia": "fa:خط راه‌آهن مراغه-ارومیه",
        "id": "node/8418713855"
      },
      "geometry": {
        "type": "Point",
        "coordinates": [
          45.4883169,
          36.9592521
        ]
      }
    },
    {
      "type": "Feature",
      "id": "node/8603059698",
      "properties": {
        "addr:city": "دورود",
        "addr:street": "خیابان راه آهن",
        "name": "ایستگاه راه آهن دورود",
        "name:en": "Doroud Railway Station",
        "public_transport": "station",
        "railway": "station",
        "train": "yes",
        "wikidata": "Q65196493",
        "id": "node/8603059698"
      },
      "geometry": {
        "type": "Point",
        "coordinates": [
          49.0626171,
          33.4851372
        ]
      }
    },
    {
      "type": "Feature",
      "id": "node/8706532753",
      "properties": {
        "addr:city": "قم",
        "addr:street": "خیابان سپاه",
        "name": "قم",
        "name:en": "Qom",
        "name:fa": "قم",
        "public_transport": "station",
        "railway": "station",
        "train": "yes",
        "wikidata": "Q28169526",
        "id": "node/8706532753"
      },
      "geometry": {
        "type": "Point",
        "coordinates": [
          50.8729085,
          34.64838
        ]
      }
    },
    {
      "type": "Feature",
      "id": "node/8758881217",
      "properties": {
        "addr:city": "مهریز",
        "name": "ایستگاه راه آهن مهریز",
        "name:en": "Mehriz Railway Station",
        "network": "راه آهن جمهوری اسلامی ایران",
        "public_transport": "station",
        "railway": "station",
        "train": "yes",
        "id": "node/8758881217"
      },
      "geometry": {
        "type": "Point",
        "coordinates": [
          54.5736849,
          31.5435691
        ]
      }
    },
    {
      "type": "Feature",
      "id": "node/8759660996",
      "properties": {
        "addr:city": "مهریز",
        "name": "ایستگاه راه آهن بندرخشک مهریز",
        "network": "راه آهن جمهوری اسلامی ایران",
        "public_transport": "station",
        "railway": "station",
        "train": "yes",
        "id": "node/8759660996"
      },
      "geometry": {
        "type": "Point",
        "coordinates": [
          54.5801033,
          31.6833154
        ]
      }
    },
    {
      "type": "Feature",
      "id": "node/8914569168",
      "properties": {
        "name": "نسيم شهر",
        "name:en": "Nasimshahr",
        "public_transport": "station",
        "railway": "station",
        "train": "yes",
        "id": "node/8914569168"
      },
      "geometry": {
        "type": "Point",
        "coordinates": [
          51.1776285,
          35.5419023
        ]
      }
    },
    {
      "type": "Feature",
      "id": "node/8914569169",
      "properties": {
        "name": "گلستان",
        "name:en": "Golestan",
        "public_transport": "station",
        "railway": "station",
        "train": "yes",
        "id": "node/8914569169"
      },
      "geometry": {
        "type": "Point",
        "coordinates": [
          51.1530714,
          35.5282437
        ]
      }
    },
    {
      "type": "Feature",
      "id": "node/8914569170",
      "properties": {
        "name": "نصیرشهر",
        "name:en": "Nasir Shahr",
        "public_transport": "station",
        "railway": "station",
        "train": "yes",
        "id": "node/8914569170"
      },
      "geometry": {
        "type": "Point",
        "coordinates": [
          51.1225124,
          35.5052979
        ]
      }
    },
    {
      "type": "Feature",
      "id": "node/8914701417",
      "properties": {
        "name": "ایستگاه راه آهن اراک",
        "name:en": "Arak",
        "public_transport": "station",
        "railway": "station",
        "train": "yes",
        "wikidata": "Q65198630",
        "wikipedia": "fa:ایستگاه راه‌آهن اراک",
        "id": "node/8914701417"
      },
      "geometry": {
        "type": "Point",
        "coordinates": [
          49.7017415,
          34.0718868
        ]
      }
    },
    {
      "type": "Feature",
      "id": "node/8914869672",
      "properties": {
        "name": "ساوه",
        "name:en": "Saveh",
        "public_transport": "station",
        "railway": "station",
        "train": "yes",
        "id": "node/8914869672"
      },
      "geometry": {
        "type": "Point",
        "coordinates": [
          50.2687689,
          35.1062454
        ]
      }
    },
    {
      "type": "Feature",
      "id": "node/8914869673",
      "properties": {
        "name": "ایستگاه قطار نقاب",
        "name:en": "Neqab",
        "public_transport": "station",
        "railway": "station",
        "train": "yes",
        "id": "node/8914869673"
      },
      "geometry": {
        "type": "Point",
        "coordinates": [
          57.4195,
          36.655712
        ]
      }
    },
    {
      "type": "Feature",
      "id": "node/8957670072",
      "properties": {
        "name": "ایستگاه راه آهن خاش",
        "name:en": "Khash",
        "public_transport": "station",
        "railway": "station",
        "train": "yes",
        "id": "node/8957670072"
      },
      "geometry": {
        "type": "Point",
        "coordinates": [
          61.1907343,
          28.2044079
        ]
      }
    },
    {
      "type": "Feature",
      "id": "node/8960554742",
      "properties": {
        "name": "ایستگاه راه آهن چاه ترش",
        "name:en": "Chah Torsh Railway Station",
        "public_transport": "station",
        "rail": "yes",
        "railway": "station",
        "train": "yes",
        "id": "node/8960554742"
      },
      "geometry": {
        "type": "Point",
        "coordinates": [
          54.5156449,
          31.202176
        ]
      }
    },
    {
      "type": "Feature",
      "id": "node/8960554744",
      "properties": {
        "name": "ایستگاه راه آهن کالمند",
        "name:en": "Kalmand Railway Station",
        "public_transport": "station",
        "rail": "yes",
        "railway": "station",
        "train": "yes",
        "id": "node/8960554744"
      },
      "geometry": {
        "type": "Point",
        "coordinates": [
          54.5956255,
          31.3209575
        ]
      }
    },
    {
      "type": "Feature",
      "id": "node/9208500968",
      "properties": {
        "addr:city": "بناب",
        "addr:street": "ایستگاه راه آهن",
        "name": "بناب",
        "name:en": "Bonab",
        "public_transport": "station",
        "railway": "station",
        "train": "yes",
        "id": "node/9208500968"
      },
      "geometry": {
        "type": "Point",
        "coordinates": [
          46.1233878,
          37.3725532
        ]
      }
    },
    {
      "type": "Feature",
      "id": "node/9266812400",
      "properties": {
        "name": "سراجو",
        "public_transport": "station",
        "railway": "station",
        "train": "yes",
        "id": "node/9266812400"
      },
      "geometry": {
        "type": "Point",
        "coordinates": [
          46.709309,
          37.3069251
        ]
      }
    },
    {
      "type": "Feature",
      "id": "node/9344682994",
      "properties": {
        "name": "ایستگاه بید بیدک",
        "public_transport": "station",
        "railway": "halt",
        "train": "yes",
        "id": "node/9344682994"
      },
      "geometry": {
        "type": "Point",
        "coordinates": [
          52.8181076,
          30.9143605
        ]
      }
    },
    {
      "type": "Feature",
      "id": "node/9344682995",
      "properties": {
        "name": "ایستگاه خانخوره",
        "public_transport": "station",
        "railway": "halt",
        "train": "yes",
        "id": "node/9344682995"
      },
      "geometry": {
        "type": "Point",
        "coordinates": [
          52.9996753,
          30.8347765
        ]
      }
    },
    {
      "type": "Feature",
      "id": "node/9346771354",
      "properties": {
        "name": "ایستگاه راه آهن صغاد",
        "public_transport": "station",
        "railway": "halt",
        "train": "yes",
        "id": "node/9346771354"
      },
      "geometry": {
        "type": "Point",
        "coordinates": [
          52.4856585,
          31.3128351
        ]
      }
    },
    {
      "type": "Feature",
      "id": "node/9346771371",
      "properties": {
        "name": "ایستگاه راه آهن ایزدخواست",
        "public_transport": "station",
        "railway": "halt",
        "train": "yes",
        "id": "node/9346771371"
      },
      "geometry": {
        "type": "Point",
        "coordinates": [
          52.1525898,
          31.4888284
        ]
      }
    },
    {
      "type": "Feature",
      "id": "node/9346771372",
      "properties": {
        "name": "ایستگاه راه آهن شورجستان",
        "public_transport": "station",
        "railway": "halt",
        "train": "yes",
        "id": "node/9346771372"
      },
      "geometry": {
        "type": "Point",
        "coordinates": [
          52.3463189,
          31.4252875
        ]
      }
    }
  ]
}