{
  "type": "FeatureCollection",
  "features": [
    {
      "type": "Feature",
      "id": "node/32539105",
      "properties": {
        "name": "평양",
        "name:en": "P'yŏngyang",
        "name:fr": "Pyongyang",
        "name:ja": "平壌",
        "name:ko": "평양",
        "name:ko-Hani": "平壤",
        "name:ko-Latn": "P'yŏngyang-yŏk",
        "name:ru": "Пхеньян",
        "name:vi": "Bình Nhưỡng",
        "name:zh": "平壤",
        "official_name": "평양역",
        "official_name:ja": "平壌駅",
        "official_name:ko-Hani": "平壤驛",
        "official_name:zh": "平壤站",
        "operator": "조선민주주의인민공화국 철도성",
        "operator:en": "Korean State Railway",
        "operator:zh": "朝鲜铁道省",
        "public_transport": "station",
        "railway": "station",
        "train": "yes",
        "wikidata": "Q701162",
        "id": "node/32539105"
      },
      "geometry": {
        "type": "Point",
        "coordinates": [
          125.7358714,
          39.0046949
        ]
      }
    },
    {
      "type": "Feature",
      "id": "node/253776401",
      "properties": {
        "alt_name": "서평양역",
        "alt_name:en": "Sopyongyang Railway Station",
        "alt_name:ko-Hani": "西平壤驛",
        "alt_name:ko-Latn": "Sŏp'yŏngyang-yŏk",
        "alt_name:zh": "西平壤站",
        "name": "서평양",
        "name:en": "Sopyongyang",
        "name:ko": "서평양",
        "name:ko-Hani": "西平壤",
        "name:ko-Latn": "Sŏp'yŏngyang",
        "name:ru": "Сопхеньян",
        "name:zh": "西平壤",
        "public_transport": "station",
        "railway": "station",
        "train": "yes",
        "wikidata": "Q705490",
        "id": "node/253776401"
      },
      "geometry": {
        "type": "Point",
        "coordinates": [
          125.7255176,
          39.0531393
        ]
      }
    },
    {
      "type": "Feature",
      "id": "node/253778564",
      "properties": {
        "alt_name": "서포역",
        "alt_name:en": "Sopo Railway Station",
        "alt_name:ko-Hani": "西浦驛",
        "alt_name:zh": "西浦站",
        "name": "서포",
        "name:en": "Sopo",
        "name:ko": "서포",
        "name:ko-Hani": "西浦",
        "name:ru": "Сопхо",
        "name:zh": "西浦",
        "public_transport": "station",
        "railway": "station",
        "train": "yes",
        "wikidata": "Q851617",
        "id": "node/253778564"
      },
      "geometry": {
        "type": "Point",
        "coordinates": [
          125.7352285,
          39.0895514
        ]
      }
    },
    {
      "type": "Feature",
      "id": "node/1036058317",
      "properties": {
        "alt_name": "장천리역",
        "alt_name:en": "Changcholli Railway Station",
        "alt_name:ko-Hani": "長川里驛",
        "alt_name:zh": "长川里站",
        "alt_name:zh-Hant": "長川里站",
        "name": "장천리",
        "name:en": "Changcholli",
        "name:ko": "장천리",
        "name:ko-Hani": "長川里",
        "name:zh": "长川里",
        "name:zh-Hant": "長川里",
        "public_transport": "station",
        "railway": "station",
        "train": "yes",
        "id": "node/1036058317"
      },
      "geometry": {
        "type": "Point",
        "coordinates": [
          125.6898886,
          38.7143597
        ]
      }
    },
    {
      "type": "Feature",
      "id": "node/1252448922",
      "properties": {
        "alt_name": "황주역",
        "alt_name:en": "Hwangju Railway Station",
        "alt_name:ko-Hani": "黄州驛",
        "alt_name:zh": "黄州站",
        "name": "황주",
        "name:en": "Hwangju",
        "name:ko": "황주",
        "name:ko-Hani": "黄州",
        "name:ru": "Хванджу",
        "name:zh": "黄州",
        "public_transport": "station",
        "railway": "station",
        "train": "yes",
        "wikidata": "Q5368383",
        "id": "node/1252448922"
      },
      "geometry": {
        "type": "Point",
        "coordinates": [
          125.7606443,
          38.6945065
        ]
      }
    },
    {
      "type": "Feature",
      "id": "node/1882272032",
      "properties": {
        "alt_name": "흑교역",
        "alt_name:en": "Hukkyo Railway Station",
        "alt_name:ko-Hani": "黑橋驛",
        "alt_name:zh": "黑桥站",
        "name": "흑교",
        "name:en": "Hukkyo",
        "name:ko": "흑교",
        "name:ko-Hani": "黑橋",
        "name:ru": "Хыккё",
        "name:zh": "黑桥",
        "public_transport": "station",
        "railway": "station",
        "train": "yes",
        "wikidata": "Q5363896",
        "id": "node/1882272032"
      },
      "geometry": {
        "type": "Point",
        "coordinates": [
          125.790608,
          38.7997014
        ]
      }
    },
    {
      "type": "Feature",
      "id": "node/1901006890",
      "properties": {
        "name": "룡암",
        "name:en": "Ryong'am",
        "name:ko": "룡암",
        "name:ko-Hani": "龍岩",
        "official_name": "룡암역",
        "official_name:en": "Ryong'am Station",
        "official_name:ko-Hani": "龍岩驛",
        "operator": "조선민주주의인민공화국 철도성",
        "operator:en": "Korean State Railway",
        "operator:zh": "朝鲜铁道省",
        "public_transport": "station",
        "railway": "station",
        "train": "yes",
        "id": "node/1901006890"
      },
      "geometry": {
        "type": "Point",
        "coordinates": [
          126.0702931,
          39.8390404
        ]
      }
    },
    {
      "type": "Feature",
      "id": "node/2139145892",
      "properties": {
        "name": "청화력",
        "name:ko": "청화력",
        "public_transport": "station",
        "railway": "station",
        "train": "yes",
        "id": "node/2139145892"
      },
      "geometry": {
        "type": "Point",
        "coordinates": [
          125.7157586,
          39.6754966
        ]
      }
    },
    {
      "type": "Feature",
      "id": "node/2143221474",
      "properties": {
        "name": "왕신",
        "name:en": "Wangsin",
        "name:ko": "왕신",
        "public_transport": "station",
        "railway": "station",
        "train": "yes",
        "id": "node/2143221474"
      },
      "geometry": {
        "type": "Point",
        "coordinates": [
          125.7078549,
          38.0240928
        ]
      }
    },
    {
      "type": "Feature",
      "id": "node/2925089105",
      "properties": {
        "alt_name": "간동역",
        "alt_name:en": "Kindung Railway Station",
        "alt_name:ko-Hani": "긴登驛",
        "alt_name:zh": "长登站",
        "name": "간동",
        "name:en": "Kindung",
        "name:ko": "간동",
        "name:ko-Hani": "긴登",
        "name:ru": "Киндын",
        "name:zh": "长登",
        "public_transport": "station",
        "railway": "station",
        "train": "yes",
        "wikidata": "Q2595630",
        "id": "node/2925089105"
      },
      "geometry": {
        "type": "Point",
        "coordinates": [
          125.7780565,
          38.7411464
        ]
      }
    },
    {
      "type": "Feature",
      "id": "node/2925698263",
      "properties": {
        "alt_name": "간리역",
        "alt_name:en": "Galli Railway Station",
        "alt_name:ko-Hani": "間里驛",
        "alt_name:zh": "间里站",
        "name": "간리",
        "name:en": "Galli",
        "name:ko": "간리",
        "name:ko-Hani": "間里",
        "name:ru": "Канни",
        "name:zh": "间里",
        "public_transport": "station",
        "railway": "station",
        "train": "yes",
        "wikidata": "Q851607",
        "id": "node/2925698263"
      },
      "geometry": {
        "type": "Point",
        "coordinates": [
          125.7000534,
          39.1455823
        ]
      }
    },
    {
      "type": "Feature",
      "id": "node/2925698264",
      "properties": {
        "alt_name": "산음역",
        "alt_name:en": "Saneum Railway Station",
        "alt_name:ja": "山陰駅",
        "alt_name:ko-Hani": "山陰驛",
        "alt_name:zh": "山阴站",
        "alt_name:zh-Hant": "山陰站",
        "name": "산음",
        "name:en": "Saneum",
        "name:ja": "山陰",
        "name:ko": "산음",
        "name:ko-Hani": "山陰",
        "name:ru": "Саным",
        "name:zh": "山阴",
        "name:zh-Hant": "山陰",
        "public_transport": "station",
        "railway": "station",
        "train": "yes",
        "wikidata": "Q21035443",
        "id": "node/2925698264"
      },
      "geometry": {
        "type": "Point",
        "coordinates": [
          125.7222779,
          39.1234104
        ]
      }
    },
    {
      "type": "Feature",
      "id": "node/2927432278",
      "properties": {
        "alt_name": "갈천역",
        "alt_name:en": "Galcheon Railway Station",
        "alt_name:ko-Hani": "葛川驛",
        "alt_name:zh": "葛川站",
        "name": "갈천",
        "name:en": "Galcheon",
        "name:ko": "갈천",
        "name:ko-Hani": "葛川",
        "name:ru": "Кальчхон",
        "name:zh": "葛川",
        "public_transport": "station",
        "railway": "station",
        "train": "yes",
        "wikidata": "Q15261328",
        "id": "node/2927432278"
      },
      "geometry": {
        "type": "Point",
        "coordinates": [
          125.4209516,
          38.7957767
        ]
      }
    },
    {
      "type": "Feature",
      "id": "node/2927432312",
      "properties": {
        "alt_name": "강서역",
        "alt_name:en": "Kangseo Railway Station",
        "alt_name:ko-Hani": "江西驛",
        "alt_name:zh": "江西站",
        "name": "강서",
        "name:en": "Kangseo",
        "name:ko": "강서",
        "name:ko-Hani": "江西",
        "name:ru": "Кансо",
        "name:zh": "江西",
        "public_transport": "station",
        "railway": "station",
        "train": "yes",
        "wikidata": "Q6362887",
        "id": "node/2927432312"
      },
      "geometry": {
        "type": "Point",
        "coordinates": [
          125.5215942,
          38.9169312
        ]
      }
    },
    {
      "type": "Feature",
      "id": "node/2927434864",
      "properties": {
        "alt_name": "룡강역",
        "alt_name:en": "Ryonggang Railway Station",
        "alt_name:ko-Hani": "龍岡驛",
        "alt_name:zh": "龙冈站",
        "name": "룡강",
        "name:en": "Ryonggang",
        "name:ko": "룡강",
        "name:ko-Hani": "龍岡",
        "name:ru": "Йонган",
        "name:zh": "龙冈",
        "public_transport": "station",
        "railway": "station",
        "train": "yes",
        "wikidata": "Q15261327",
        "wikipedia": "en:Ryonggang station",
        "id": "node/2927434864"
      },
      "geometry": {
        "type": "Point",
        "coordinates": [
          125.4244569,
          38.8537069
        ]
      }
    },
    {
      "type": "Feature",
      "id": "node/4261071242",
      "properties": {
        "name": "가림",
        "name:en": "Karim",
        "name:ko": "가림",
        "name:ko-Hani": "佳林",
        "name:ru": "Карим",
        "official_name": "가림역",
        "official_name:ko-Hani": "佳林驛",
        "operator": "조선민주주의인민공화국 철도성",
        "operator:en": "Korean State Railway",
        "operator:zh": "朝鲜铁道省",
        "public_transport": "station",
        "railway": "station",
        "train": "yes",
        "wikidata": "Q16175549",
        "id": "node/4261071242"
      },
      "geometry": {
        "type": "Point",
        "coordinates": [
          128.2607045,
          41.5080878
        ]
      }
    },
    {
      "type": "Feature",
      "id": "node/4617604573",
      "properties": {
        "alt_name": "보산역",
        "alt_name:en": "Posan Railway Station",
        "alt_name:ko-Hani": "保山驛",
        "alt_name:zh": "保山站",
        "name": "보산",
        "name:en": "Posan",
        "name:ko": "보산",
        "name:ko-Hani": "保山",
        "name:zh": "保山",
        "public_transport": "station",
        "railway": "station",
        "train": "yes",
        "id": "node/4617604573"
      },
      "geometry": {
        "type": "Point",
        "coordinates": [
          125.5535495,
          38.9032509
        ]
      }
    },
    {
      "type": "Feature",
      "id": "node/4619778138",
      "properties": {
        "alt_name": "룡성역",
        "alt_name:en": "Ryongsŏng Railway Station",
        "alt_name:ko-Hani": "龍城驛",
        "alt_name:zh": "龙城站",
        "name": "룡성",
        "name:en": "Ryongsŏng",
        "name:ko": "룡성",
        "name:ko-Hani": "龍城",
        "name:zh": "龙城",
        "public_transport": "station",
        "railway": "station",
        "train": "yes",
        "wikidata": "Q12594210",
        "id": "node/4619778138"
      },
      "geometry": {
        "type": "Point",
        "coordinates": [
          125.783203,
          39.1204169
        ]
      }
    },
    {
      "type": "Feature",
      "id": "node/4619795906",
      "properties": {
        "name": "운전",
        "name:en": "Unjon",
        "name:ko": "운전",
        "name:ko-Hani": "雲田",
        "name:ru": "Унджон",
        "name:zh": "云田",
        "official_name": "운전역",
        "official_name:ko-Hani": "雲田驛",
        "official_name:zh": "云田站",
        "operator": "조선민주주의인민공화국 철도성",
        "operator:en": "Korean State Railway",
        "operator:zh": "朝鲜铁道省",
        "public_transport": "station",
        "railway": "station",
        "train": "yes",
        "wikidata": "Q7896935",
        "id": "node/4619795906"
      },
      "geometry": {
        "type": "Point",
        "coordinates": [
          125.5192596,
          39.6612428
        ]
      }
    },
    {
      "type": "Feature",
      "id": "node/5261176947",
      "properties": {
        "name": "전천",
        "name:en": "Jungam",
        "name:fr": "Jungam",
        "name:ja": "前川",
        "name:ko": "전천",
        "official_name": "전천역",
        "official_name:en": "Jungam Station",
        "official_name:fr": "Gare de Jungam",
        "operator": "조선민주주의인민공화국 철도성",
        "operator:en": "Korean State Railway",
        "operator:zh": "朝鲜铁道省",
        "public_transport": "station",
        "railway": "station",
        "train": "yes",
        "id": "node/5261176947"
      },
      "geometry": {
        "type": "Point",
        "coordinates": [
          126.4674962,
          40.6132113
        ]
      }
    },
    {
      "type": "Feature",
      "id": "node/5262475275",
      "properties": {
        "name": "포평청년",
        "name:ja": "葡坪青年",
        "name:ko": "포평청년",
        "name:ko-Hani": "葡坪靑年",
        "name:zh": "葡坪青年",
        "official_name": "포평청년역",
        "official_name:ja": "葡坪青年駅",
        "official_name:ko": "포평청년역",
        "official_name:ko-Hani": "葡坪靑年驛",
        "official_name:zh": "葡坪青年站",
        "operator": "조선민주주의인민공화국 철도성",
        "operator:en": "Korean State Railway",
        "operator:zh": "朝鲜铁道省",
        "public_transport": "station",
        "railway": "station",
        "train": "yes",
        "wikidata": "Q16184922",
        "id": "node/5262475275"
      },
      "geometry": {
        "type": "Point",
        "coordinates": [
          127.2323388,
          41.4993572
        ]
      }
    },
    {
      "type": "Feature",
      "id": "node/5265331786",
      "properties": {
        "name": "해주청년",
        "name:ja": "海州青年",
        "name:ko": "해주청년",
        "name:ko-Hani": "海州靑年",
        "name:zh": "海州青年",
        "official_name": "해주청년역",
        "official_name:ja": "海州青年駅",
        "official_name:ko-Hani": "海州靑年驛",
        "official_name:zh": "海州青年站",
        "operator": "조선민주주의인민공화국 철도성",
        "operator:en": "Korean State Railway",
        "operator:zh": "朝鲜铁道省",
        "public_transport": "station",
        "railway": "station",
        "train": "yes",
        "wikidata": "Q11285660",
        "id": "node/5265331786"
      },
      "geometry": {
        "type": "Point",
        "coordinates": [
          125.7276946,
          38.0342867
        ]
      }
    },
    {
      "type": "Feature",
      "id": "node/6220983853",
      "properties": {
        "addr:city": "옹진군",
        "addr:town": "옹진읍",
        "name": "옹진",
        "name:ko": "옹진",
        "name:ko-Hani": "甕津",
        "name:ko-Latn": "Ongjin",
        "public_transport": "station",
        "railway": "station",
        "train": "yes",
        "wikidata": "Q16184800",
        "wikipedia": "ko:옹진역",
        "id": "node/6220983853"
      },
      "geometry": {
        "type": "Point",
        "coordinates": [
          125.3683505,
          37.9370252
        ]
      }
    },
    {
      "type": "Feature",
      "id": "node/6220984195",
      "properties": {
        "name": "신강령",
        "name:ko": "신강령",
        "public_transport": "station",
        "railway": "station",
        "train": "yes",
        "wikidata": "Q12604073",
        "wikipedia": "ko:신강령역",
        "id": "node/6220984195"
      },
      "geometry": {
        "type": "Point",
        "coordinates": [
          125.4629915,
          37.9494656
        ]
      }
    },
    {
      "type": "Feature",
      "id": "node/6220984367",
      "properties": {
        "addr:city": "강령군",
        "name": "강령",
        "public_transport": "station",
        "railway": "station",
        "train": "yes",
        "wikidata": "Q16177219",
        "wikipedia": "ko:강령역",
        "id": "node/6220984367"
      },
      "geometry": {
        "type": "Point",
        "coordinates": [
          125.5114367,
          37.9007666
        ]
      }
    },
    {
      "type": "Feature",
      "id": "node/6235266437",
      "properties": {
        "name": "장연",
        "name:en": "Changyŏn",
        "name:ja": "長淵",
        "name:ko": "장연",
        "name:ko-Hani": "長淵",
        "name:zh": "长渊",
        "name:zh-Hant": "長淵",
        "public_transport": "station",
        "railway": "station",
        "train": "yes",
        "wikidata": "Q16170376",
        "id": "node/6235266437"
      },
      "geometry": {
        "type": "Point",
        "coordinates": [
          125.09442,
          38.2479349
        ]
      }
    },
    {
      "type": "Feature",
      "id": "node/6813636290",
      "properties": {
        "name": "정도",
        "name:en": "Jŏngdo",
        "name:ko": "정도",
        "public_transport": "station",
        "railway": "station",
        "train": "yes",
        "id": "node/6813636290"
      },
      "geometry": {
        "type": "Point",
        "coordinates": [
          125.69939,
          38.0047303
        ]
      }
    },
    {
      "type": "Feature",
      "id": "node/6813636291",
      "properties": {
        "name": "서해주",
        "name:en": "Sŏhaeju",
        "name:ko": "서해주",
        "public_transport": "station",
        "railway": "station",
        "train": "yes",
        "id": "node/6813636291"
      },
      "geometry": {
        "type": "Point",
        "coordinates": [
          125.6664598,
          38.0390536
        ]
      }
    },
    {
      "type": "Feature",
      "id": "node/6813636292",
      "properties": {
        "name": "문정",
        "name:en": "Munjŏng",
        "name:ko": "문정",
        "public_transport": "station",
        "railway": "station",
        "train": "yes",
        "id": "node/6813636292"
      },
      "geometry": {
        "type": "Point",
        "coordinates": [
          125.6358474,
          38.0586347
        ]
      }
    },
    {
      "type": "Feature",
      "id": "node/6905428356",
      "properties": {
        "internet_access": "no",
        "name": "창평",
        "name:en": "Changpyeong",
        "name:fr": "Changpyeong",
        "name:ko": "창평",
        "official_name": "창평역",
        "official_name:en": "Changpyeong Station",
        "official_name:fr": "Gare de Changpyeong",
        "operator": "조선민주주의인민공화국 철도성",
        "operator:en": "Korean State Railway",
        "operator:zh": "朝鲜铁道省",
        "public_transport": "station",
        "railway": "station",
        "train": "yes",
        "id": "node/6905428356"
      },
      "geometry": {
        "type": "Point",
        "coordinates": [
          126.4989746,
          40.5819863
        ]
      }
    },
    {
      "type": "Feature",
      "id": "node/8101108241",
      "properties": {
        "name": "룡연",
        "name:ko": "룡연",
        "name:ko-Latn": "Ryongyŏn",
        "name:zh": "龍淵",
        "public_transport": "station",
        "railway": "station",
        "train": "yes",
        "wikidata": "Q16220480",
        "wikipedia": "ko:룡연역",
        "id": "node/8101108241"
      },
      "geometry": {
        "type": "Point",
        "coordinates": [
          125.5421372,
          37.8729288
        ]
      }
    },
    {
      "type": "Feature",
      "id": "node/8421790936",
      "properties": {
        "abandoned:railway": "station",
        "addr:city": "옹진군",
        "name": "랭정",
        "name:en": "Raengjŏng",
        "name:ko": "랭정",
        "name:ko-Hani": "冷井",
        "name:ko-Latn": "Raengjŏng",
        "public_transport": "station",
        "railway": "station",
        "train": "yes",
        "wikidata": "Q16188365",
        "wikipedia": "ko:랭정역",
        "id": "node/8421790936"
      },
      "geometry": {
        "type": "Point",
        "coordinates": [
          125.4066646,
          37.9369749
        ]
      }
    },
    {
      "type": "Feature",
      "id": "node/8424315804",
      "properties": {
        "addr:city": "배천군",
        "addr:town": "봉량로동자구",
        "name": "은빛",
        "name:ko": "은빛",
        "name:ko-Latn": "Ŭnbit",
        "public_transport": "station",
        "railway": "station",
        "train": "yes",
        "id": "node/8424315804"
      },
      "geometry": {
        "type": "Point",
        "coordinates": [
          126.3298521,
          38.0314757
        ]
      }
    },
    {
      "type": "Feature",
      "id": "node/9144437972",
      "properties": {
        "name": "수동",
        "name:ko": "수동",
        "public_transport": "station",
        "railway": "station",
        "train": "yes",
        "id": "node/9144437972"
      },
      "geometry": {
        "type": "Point",
        "coordinates": [
          127.0137179,
          39.3914766
        ]
      }
    },
    {
      "type": "Feature",
      "id": "node/9364666117",
      "properties": {
        "name": "동산",
        "name:ko": "동산",
        "network": "구성선",
        "public_transport": "station",
        "railway": "station",
        "train": "yes",
        "id": "node/9364666117"
      },
      "geometry": {
        "type": "Point",
        "coordinates": [
          125.3115195,
          39.950353
        ]
      }
    },
    {
      "type": "Feature",
      "id": "node/9364666118",
      "properties": {
        "name": "어미현",
        "name:ko": "어미현",
        "network": "구성선",
        "public_transport": "station",
        "railway": "station",
        "train": "yes",
        "id": "node/9364666118"
      },
      "geometry": {
        "type": "Point",
        "coordinates": [
          125.3621591,
          39.9354704
        ]
      }
    },
    {
      "type": "Feature",
      "id": "node/9364666121",
      "properties": {
        "name": "산성",
        "name:ko": "산성",
        "network": "구성선",
        "public_transport": "station",
        "railway": "station",
        "train": "yes",
        "id": "node/9364666121"
      },
      "geometry": {
        "type": "Point",
        "coordinates": [
          125.4374918,
          39.9299937
        ]
      }
    }
  ]
}