{
  "type": "FeatureCollection",
  "features": [
    {
      "type": "Feature",
      "id": "node/289245376",
      "properties": {
        "alt_name": "동래역",
        "alt_name:en": "Dongnae Station",
        "name": "동래",
        "name:en": "Dongnae",
        "name:ja": "東萊",
        "name:ko-Hani": "東萊",
        "name:zh": "东萊",
        "operator": "부산교통공사",
        "platforms": "2",
        "public_transport": "station",
        "railway": "station",
        "ref": "125",
        "station": "subway",
        "train": "yes",
        "id": "node/289245376"
      },
      "geometry": {
        "type": "Point",
        "coordinates": [
          129.0784845,
          35.2056761
        ]
      }
    },
    {
      "type": "Feature",
      "id": "node/354373659",
      "properties": {
        "name": "평택",
        "name:en": "Pyeongtaek",
        "name:ja": "平沢",
        "name:ko": "평택",
        "name:ko-Latn": "Pyeongtaek",
        "operator": "한국철도공사",
        "public_transport": "station",
        "railway": "station",
        "station": "subway",
        "subway": "yes",
        "train": "yes",
        "wikidata": "Q137313",
        "id": "node/354373659"
      },
      "geometry": {
        "type": "Point",
        "coordinates": [
          127.0853183,
          36.9908233
        ]
      }
    },
    {
      "type": "Feature",
      "id": "node/355172696",
      "properties": {
        "name": "관악",
        "name:en": "Gwanak",
        "name:ja": "クァナク(冠岳)",
        "name:ko": "관악",
        "public_transport": "station",
        "railway": "station",
        "station": "subway",
        "subway": "yes",
        "train": "yes",
        "wikidata": "Q137184",
        "id": "node/355172696"
      },
      "geometry": {
        "type": "Point",
        "coordinates": [
          126.9091539,
          37.4187236
        ]
      }
    },
    {
      "type": "Feature",
      "id": "node/355172716",
      "properties": {
        "name": "오산",
        "name:en": "Osan",
        "name:ko": "오산",
        "operator": "한국철도공사",
        "public_transport": "station",
        "railway": "station",
        "station": "subway",
        "subway": "yes",
        "train": "yes",
        "wikidata": "Q137232",
        "id": "node/355172716"
      },
      "geometry": {
        "type": "Point",
        "coordinates": [
          127.0667523,
          37.145558
        ]
      }
    },
    {
      "type": "Feature",
      "id": "node/355172773",
      "properties": {
        "name": "녹천",
        "name:en": "Nokcheon",
        "name:ja": "ノクチョン(鹿川)",
        "name:ko": "녹천",
        "public_transport": "station",
        "railway": "station",
        "station": "subway",
        "subway": "yes",
        "train": "yes",
        "wikidata": "Q490629",
        "id": "node/355172773"
      },
      "geometry": {
        "type": "Point",
        "coordinates": [
          127.0513984,
          37.6446274
        ]
      }
    },
    {
      "type": "Feature",
      "id": "node/355172793",
      "properties": {
        "name": "덕정",
        "name:en": "Deokjeong",
        "name:ja": "徳亭(トクチョン)",
        "name:ja_kana": "トクチョン",
        "name:ko": "덕정",
        "operator": "한국철도공사",
        "public_transport": "station",
        "railway": "station",
        "station": "subway",
        "subway": "yes",
        "train": "yes",
        "wikidata": "Q483397",
        "wikipedia": "ko:덕정역",
        "id": "node/355172793"
      },
      "geometry": {
        "type": "Point",
        "coordinates": [
          127.0615487,
          37.843445
        ]
      }
    },
    {
      "type": "Feature",
      "id": "node/355172795",
      "properties": {
        "name": "덕계",
        "name:en": "Deokgye",
        "name:ja": "徳渓(トッケ)",
        "name:ja_kana": "トッケ",
        "name:ko": "덕계",
        "public_transport": "station",
        "railway": "station",
        "station": "subway",
        "subway": "yes",
        "train": "yes",
        "wikidata": "Q483443",
        "wikipedia": "ko:덕계역",
        "id": "node/355172795"
      },
      "geometry": {
        "type": "Point",
        "coordinates": [
          127.0566509,
          37.8186361
        ]
      }
    },
    {
      "type": "Feature",
      "id": "node/355172817",
      "properties": {
        "name": "송내",
        "name:en": "Songnae",
        "name:ja": "ソンネ(松内)",
        "name:ko": "송내",
        "public_transport": "station",
        "railway": "station",
        "station": "subway",
        "subway": "yes",
        "train": "yes",
        "wheelchair": "yes",
        "wikidata": "Q490524",
        "wikipedia": "ko:송내역",
        "id": "node/355172817"
      },
      "geometry": {
        "type": "Point",
        "coordinates": [
          126.7528847,
          37.4877038
        ]
      }
    },
    {
      "type": "Feature",
      "id": "node/355172830",
      "properties": {
        "name": "도화",
        "name:en": "Dohwa",
        "name:ja": "トファ(道禾)",
        "name:ko": "도화",
        "operator": "한국철도공사",
        "public_transport": "station",
        "railway": "station",
        "station": "subway",
        "subway": "yes",
        "train": "yes",
        "wikidata": "Q490585",
        "wikipedia": "ko:도화역",
        "id": "node/355172830"
      },
      "geometry": {
        "type": "Point",
        "coordinates": [
          126.6682641,
          37.4661244
        ]
      }
    },
    {
      "type": "Feature",
      "id": "node/355172832",
      "properties": {
        "name": "제물포",
        "name:en": "Jemulpo",
        "name:ja": "チェムルポ(済物浦)",
        "name:ko": "제물포",
        "operator": "한국철도공사",
        "public_transport": "station",
        "railway": "station",
        "station": "subway",
        "subway": "yes",
        "train": "yes",
        "wikidata": "Q490479",
        "wikipedia": "ko:제물포역",
        "id": "node/355172832"
      },
      "geometry": {
        "type": "Point",
        "coordinates": [
          126.6569848,
          37.4668149
        ]
      }
    },
    {
      "type": "Feature",
      "id": "node/355172834",
      "properties": {
        "name": "도원",
        "name:en": "Dowon",
        "name:ja": "トウォン(桃源)",
        "name:ko": "도원",
        "operator": "한국철도공사",
        "public_transport": "station",
        "railway": "station",
        "station": "subway",
        "subway": "yes",
        "train": "yes",
        "wikidata": "Q490515",
        "wikipedia": "ko:도원역",
        "id": "node/355172834"
      },
      "geometry": {
        "type": "Point",
        "coordinates": [
          126.6424009,
          37.4688261
        ]
      }
    },
    {
      "type": "Feature",
      "id": "node/355172839",
      "properties": {
        "name": "동암",
        "name:en": "Dongam",
        "name:ja": "トンアム(洞岩)",
        "name:ko": "동암",
        "operator": "한국철도공사",
        "public_transport": "station",
        "railway": "station",
        "station": "subway",
        "subway": "yes",
        "train": "yes",
        "wikidata": "Q490468",
        "wikipedia": "ko:동암역",
        "id": "node/355172839"
      },
      "geometry": {
        "type": "Point",
        "coordinates": [
          126.7028769,
          37.4710457
        ]
      }
    },
    {
      "type": "Feature",
      "id": "node/355172843",
      "properties": {
        "name": "주안",
        "name:en": "Juan",
        "name:ja": "チュアン(朱安)",
        "name:ko": "주안",
        "name:zh": "朱安",
        "operator": "한국철도공사",
        "public_transport": "station",
        "railway": "station",
        "ref": "156;I218",
        "station": "subway",
        "subway": "yes",
        "train": "yes",
        "id": "node/355172843"
      },
      "geometry": {
        "type": "Point",
        "coordinates": [
          126.6806313,
          37.4650814
        ]
      }
    },
    {
      "type": "Feature",
      "id": "node/355173656",
      "properties": {
        "name": "한남",
        "name:en": "Hannam",
        "name:ja": "ハンナム(漢南)",
        "name:ko": "한남",
        "public_transport": "station",
        "railway": "station",
        "station": "subway",
        "subway": "yes",
        "train": "yes",
        "wikidata": "Q58955",
        "id": "node/355173656"
      },
      "geometry": {
        "type": "Point",
        "coordinates": [
          127.0092424,
          37.5294452
        ]
      }
    },
    {
      "type": "Feature",
      "id": "node/355173691",
      "properties": {
        "addr:city": "동구",
        "addr:housenumber": "215",
        "addr:postcode": "34626",
        "addr:street": "중앙로",
        "internet_access": "wlan",
        "name": "대전",
        "name:en": "Daejeon",
        "name:ja": "大田",
        "name:ko": "대전",
        "name:zh": "大田",
        "operator": "한국철도공사",
        "public_transport": "station",
        "railway": "station",
        "train": "yes",
        "wikidata": "Q20919",
        "wikipedia": "ko:대전역",
        "id": "node/355173691"
      },
      "geometry": {
        "type": "Point",
        "coordinates": [
          127.4346482,
          36.3322464
        ]
      }
    },
    {
      "type": "Feature",
      "id": "node/355173789",
      "properties": {
        "alt_name": "사상역",
        "int_name": "Sasang station",
        "name": "사상",
        "name:en": "Sasang Station",
        "name:ja": "ササン(沙上)",
        "name:ko": "사상역",
        "name:ko-Latn": "Sasangyeok",
        "public_transport": "station",
        "railway": "station",
        "train": "yes",
        "id": "node/355173789"
      },
      "geometry": {
        "type": "Point",
        "coordinates": [
          128.9887191,
          35.1624759
        ]
      }
    },
    {
      "type": "Feature",
      "id": "node/355173805",
      "properties": {
        "alt_name": "율리",
        "int_name": "Yulli",
        "name": "율리",
        "name:en": "Yulli",
        "name:ja": "ユルリ",
        "name:ko": "율리",
        "name:ko-Latn": "Yulliyeok",
        "operator": "부산교통공사",
        "platforms": "2",
        "public_transport": "station",
        "railway": "station",
        "ref": "236",
        "station": "subway",
        "subway": "yes",
        "train": "yes",
        "wikidata": "Q705857",
        "id": "node/355173805"
      },
      "geometry": {
        "type": "Point",
        "coordinates": [
          129.0128975,
          35.2464762
        ]
      }
    },
    {
      "type": "Feature",
      "id": "node/355173838",
      "properties": {
        "addr:city": "부산광역시",
        "addr:district": "서구",
        "addr:housenumber": "지하 170",
        "addr:neighbourhood": "토성동3가",
        "addr:postcode": "49241",
        "addr:street": "구덕로",
        "internet_access": "wlan",
        "internet_access:fee": "no",
        "name": "토성",
        "name:en": "Toseong",
        "name:ja": "トソン(土城)",
        "name:ko": "토성",
        "name:ko-Hani": "土城驛",
        "name:ko-Latn": "Toseongyeok",
        "operator": "부산교통공사",
        "phone": "+82 51-678-6109",
        "public_transport": "station",
        "railway": "station",
        "ref": "109",
        "station": "subway",
        "train": "yes",
        "wheelchair": "yes",
        "wikidata": "Q706124",
        "wikipedia": "ko:토성역",
        "id": "node/355173838"
      },
      "geometry": {
        "type": "Point",
        "coordinates": [
          129.01979,
          35.100761
        ]
      }
    },
    {
      "type": "Feature",
      "id": "node/355173846",
      "properties": {
        "name": "초량",
        "name:en": "Choryang",
        "name:ja": "チョリャン(草梁)",
        "name:ko": "초량",
        "name:ko-Hani": "草梁",
        "name:ko-Latn": "Choryang",
        "public_transport": "station",
        "railway": "station",
        "station": "subway",
        "train": "yes",
        "wikidata": "Q705321",
        "id": "node/355173846"
      },
      "geometry": {
        "type": "Point",
        "coordinates": [
          129.043037,
          35.121169
        ]
      }
    },
    {
      "type": "Feature",
      "id": "node/355173882",
      "properties": {
        "alt_name": "경성대부경대",
        "int_name": "Kyunsung Univ.Pukyong Nat'l Univ.",
        "name": "경성대·부경대",
        "name:en": "Kyungsung Univ. · Pukyong Nat'l Univ.",
        "name:ja": "慶星大, 釜慶大",
        "name:ko": "경성대·부경대",
        "name:ko-Latn": "Gyeongseongdae · bugyeongdaeyeok",
        "operator": "부산교통공사",
        "platforms": "2",
        "public_transport": "station",
        "railway": "station",
        "ref": "212",
        "station": "subway",
        "train": "yes",
        "wheelchair": "yes",
        "wikidata": "Q705146",
        "id": "node/355173882"
      },
      "geometry": {
        "type": "Point",
        "coordinates": [
          129.100531,
          35.137558
        ]
      }
    },
    {
      "type": "Feature",
      "id": "node/355173884",
      "properties": {
        "alt_name": "대연",
        "int_name": "Daeyeon",
        "name": "대연",
        "name:en": "Daeyeon",
        "name:ja": "テヨン",
        "name:ko": "대연",
        "name:ko-Latn": "Daeyeonyeok",
        "operator": "부산교통공사",
        "platforms": "2",
        "public_transport": "station",
        "railway": "station",
        "ref": "213",
        "station": "subway",
        "train": "yes",
        "wikidata": "Q705159",
        "id": "node/355173884"
      },
      "geometry": {
        "type": "Point",
        "coordinates": [
          129.092172,
          35.135148
        ]
      }
    },
    {
      "type": "Feature",
      "id": "node/355173893",
      "properties": {
        "alt_name": "못골",
        "int_name": "Motgol",
        "name": "못골",
        "name:en": "Motgol",
        "name:ja": "モッコル",
        "name:ko": "못골",
        "name:ko-Latn": "Motgolyeok",
        "operator": "부산교통공사",
        "platforms": "2",
        "public_transport": "station",
        "railway": "station",
        "ref": "214",
        "station": "subway",
        "train": "yes",
        "wikidata": "Q705177",
        "id": "node/355173893"
      },
      "geometry": {
        "type": "Point",
        "coordinates": [
          129.084783,
          35.134758
        ]
      }
    },
    {
      "type": "Feature",
      "id": "node/355173894",
      "properties": {
        "alt_name": "지게골",
        "int_name": "Jigegol",
        "name": "지게골",
        "name:en": "Jigegol",
        "name:ja": "チゲゴル",
        "name:ko": "지게골",
        "name:ko-Latn": "Jigegolyeok",
        "operator": "부산교통공사",
        "platforms": "2",
        "public_transport": "station",
        "railway": "station",
        "ref": "215",
        "station": "subway",
        "train": "yes",
        "wikidata": "Q705233",
        "id": "node/355173894"
      },
      "geometry": {
        "type": "Point",
        "coordinates": [
          129.074224,
          35.135668
        ]
      }
    },
    {
      "type": "Feature",
      "id": "node/360198537",
      "properties": {
        "name": "사북",
        "name:en": "Sabuk",
        "name:ko": "사북",
        "name:ko-Latn": "Sabukyeok",
        "network": "태백선",
        "public_transport": "station",
        "railway": "station",
        "train": "yes",
        "wikidata": "Q1599264",
        "wikipedia": "ko:사북역",
        "id": "node/360198537"
      },
      "geometry": {
        "type": "Point",
        "coordinates": [
          128.8170335,
          37.2261666
        ]
      }
    },
    {
      "type": "Feature",
      "id": "node/368636118",
      "properties": {
        "name": "충주",
        "name:en": "Chungju",
        "name:ja": "チュンジュ(忠州)",
        "name:ko": "충주",
        "name:ko-Latn": "Chungju",
        "operator": "한국철도공사",
        "public_transport": "station",
        "railway": "station",
        "source": "gps",
        "train": "yes",
        "wikidata": "Q50014",
        "wikipedia": "ko:충주역",
        "id": "node/368636118"
      },
      "geometry": {
        "type": "Point",
        "coordinates": [
          127.9086036,
          36.9760432
        ]
      }
    },
    {
      "type": "Feature",
      "id": "node/368636171",
      "properties": {
        "addr:city": "충청남도 천안시 동남구",
        "addr:housenumber": "239",
        "addr:street": "대흥로",
        "alt_name": "천안역",
        "alt_name:en": "Cheonan station",
        "internet_access": "wlan",
        "name": "천안",
        "name:en": "Cheonan",
        "name:ko": "천안",
        "operator": "한국철도공사",
        "public_transport": "station",
        "railway": "station",
        "source": "http://kr.open.gugi.yahoo.com",
        "station": "train",
        "subway": "yes",
        "train": "yes",
        "wikidata": "Q54298",
        "wikipedia": "ko:천안역",
        "id": "node/368636171"
      },
      "geometry": {
        "type": "Point",
        "coordinates": [
          127.14684,
          36.8102804
        ]
      }
    },
    {
      "type": "Feature",
      "id": "node/368636173",
      "properties": {
        "addr:city": "경기도 파주시 장단면 노상리",
        "addr:housenumber": "307",
        "addr:street": "희망로",
        "internet_access": "no",
        "name": "도라산",
        "name:en": "Dorasan",
        "name:ja": "トラサン(都羅山)",
        "name:ko": "도라산",
        "name:ko-Hani": "都羅山",
        "name:ko-Latn": "Dorasan",
        "name:ru": "Торасан",
        "name:zh": "都罗山",
        "operator": "한국철도공사",
        "public_transport": "station",
        "railway": "station",
        "source": "http://kr.open.gugi.yahoo.com",
        "start_date": "2002-04-11;2021-12-11",
        "station": "subway",
        "subway": "yes",
        "train": "yes",
        "wikidata": "Q50011",
        "wikipedia": "en:Dorasan station",
        "id": "node/368636173"
      },
      "geometry": {
        "type": "Point",
        "coordinates": [
          126.7092684,
          37.8982255
        ]
      }
    },
    {
      "type": "Feature",
      "id": "node/368636186",
      "properties": {
        "alt_name": "남서울대",
        "name": "성환",
        "name:en": "Seonghwan",
        "name:ko": "성환",
        "operator": "한국철도공사",
        "public_transport": "station",
        "railway": "station",
        "station": "subway",
        "subway": "yes",
        "train": "yes",
        "id": "node/368636186"
      },
      "geometry": {
        "type": "Point",
        "coordinates": [
          127.1268868,
          36.9159824
        ]
      }
    },
    {
      "type": "Feature",
      "id": "node/368636231",
      "properties": {
        "addr:housenumber": "680",
        "addr:street": "동부대로",
        "alt_name": "전주역",
        "name": "전주",
        "name:en": "Jeonju",
        "name:ko": "전주",
        "ncat": "기차역",
        "operator": "한국철도공사",
        "public_transport": "station",
        "railway": "station",
        "source": "http://kr.open.gugi.yahoo.com",
        "train": "yes",
        "wikidata": "Q624605",
        "wikipedia": "ko:전주역",
        "id": "node/368636231"
      },
      "geometry": {
        "type": "Point",
        "coordinates": [
          127.1623649,
          35.8500537
        ]
      }
    },
    {
      "type": "Feature",
      "id": "node/368636260",
      "properties": {
        "name": "수색",
        "name:en": "Susaek",
        "name:ja": "スセク(水色)",
        "name:ko": "수색",
        "public_transport": "station",
        "railway": "station",
        "station": "subway",
        "subway": "yes",
        "train": "yes",
        "wikidata": "Q59845",
        "id": "node/368636260"
      },
      "geometry": {
        "type": "Point",
        "coordinates": [
          126.8955531,
          37.5807582
        ]
      }
    },
    {
      "type": "Feature",
      "id": "node/368636272",
      "properties": {
        "alt_name": "옥천역",
        "name": "옥천",
        "name:en": "Okcheon",
        "name:ko": "옥천",
        "name:ko-Latn": "Okcheonyeok",
        "ncat": "기차역",
        "operator": "한국철도공사",
        "public_transport": "station",
        "railway": "station",
        "source": "http://kr.open.gugi.yahoo.com",
        "train": "yes",
        "id": "node/368636272"
      },
      "geometry": {
        "type": "Point",
        "coordinates": [
          127.5653496,
          36.2977484
        ]
      }
    },
    {
      "type": "Feature",
      "id": "node/368636313",
      "properties": {
        "disused:railway": "station",
        "name": "간현",
        "name:en": "Ganhyeon",
        "name:ko": "간현",
        "name:ko-Latn": "Ganhyeon",
        "ncat": "기차역",
        "operator": "No",
        "public_transport": "station",
        "railway": "station",
        "source": "http://kr.open.gugi.yahoo.com",
        "train": "yes",
        "wikidata": "Q1592009",
        "wikipedia": "ko:간현역",
        "id": "node/368636313"
      },
      "geometry": {
        "type": "Point",
        "coordinates": [
          127.8373557,
          37.3627641
        ]
      }
    },
    {
      "type": "Feature",
      "id": "node/368636319",
      "properties": {
        "name": "고한",
        "name:en": "Gohan",
        "name:ko": "고한역",
        "name:ko-Latn": "Gohanyeok",
        "ncat": "기차역",
        "public_transport": "station",
        "railway": "station",
        "source": "http://kr.open.gugi.yahoo.com",
        "train": "yes",
        "wikidata": "Q1599074",
        "wikipedia": "ko:고한역",
        "id": "node/368636319"
      },
      "geometry": {
        "type": "Point",
        "coordinates": [
          128.8529765,
          37.2008397
        ]
      }
    },
    {
      "type": "Feature",
      "id": "node/368636441",
      "properties": {
        "name": "신탄리",
        "name:en": "Sintan-ri",
        "name:ja": "シンタンリ(新炭里)",
        "name:ko": "신탄리",
        "ncat": "기차역",
        "public_transport": "station",
        "railway": "station",
        "source": "http://kr.open.gugi.yahoo.com",
        "train": "yes",
        "wikidata": "Q55632",
        "id": "node/368636441"
      },
      "geometry": {
        "type": "Point",
        "coordinates": [
          127.1388954,
          38.2127565
        ]
      }
    },
    {
      "type": "Feature",
      "id": "node/368636449",
      "properties": {
        "addr:city": "충청북도 영동군 영동읍",
        "addr:housenumber": "87",
        "addr:street": "계산로",
        "name": "영동",
        "name:en": "Yeongdong",
        "name:ko": "영동",
        "name:ko-Latn": "Yeongdong",
        "official_name": "영동역",
        "official_name:en": "Yeongdong Station",
        "operator": "한국철도공사",
        "public_transport": "station",
        "railway": "station",
        "source": "http://kr.open.gugi.yahoo.com",
        "train": "yes",
        "id": "node/368636449"
      },
      "geometry": {
        "type": "Point",
        "coordinates": [
          127.7858142,
          36.1726667
        ]
      }
    },
    {
      "type": "Feature",
      "id": "node/368636454",
      "properties": {
        "name": "입석리",
        "name:en": "Ipseongni",
        "name:ko": "입석리",
        "name:ko-Latn": "Ipseongniyeok",
        "ncat": "기차역",
        "public_transport": "station",
        "railway": "station",
        "source": "http://kr.open.gugi.yahoo.com",
        "train": "yes",
        "wikidata": "Q1595159",
        "wikipedia": "ko:입석리역",
        "id": "node/368636454"
      },
      "geometry": {
        "type": "Point",
        "coordinates": [
          128.2989841,
          37.1984759
        ]
      }
    },
    {
      "type": "Feature",
      "id": "node/368636558",
      "properties": {
        "alt_name": "태화강역",
        "alt_name:en": "Taehwagang Station",
        "name": "태화강",
        "name:en": "Taehwagang",
        "name:ja": "テファガン(太和江)",
        "name:ko": "태화강",
        "name:ko-Latn": "Taehwagang",
        "ncat": "기차역",
        "operator": "한국철도공사",
        "public_transport": "station",
        "railway": "station",
        "source": "http://kr.open.gugi.yahoo.com",
        "start_date": "1921;1992;2021-12-28",
        "station": "subway",
        "subway": "yes",
        "train": "yes",
        "wikidata": "Q626465",
        "wikipedia": "ko:태화강역",
        "id": "node/368636558"
      },
      "geometry": {
        "type": "Point",
        "coordinates": [
          129.3540107,
          35.5388089
        ]
      }
    },
    {
      "type": "Feature",
      "id": "node/368636625",
      "properties": {
        "alt_name": "왜관역",
        "alt_name:en": "Waegwanyeok",
        "name": "왜관",
        "name:en": "Waegwan",
        "name:ko": "왜관",
        "name:ko-Latn": "Waegwanyeok",
        "ncat": "기차역",
        "operator": "한국철도공사",
        "public_transport": "station",
        "railway": "station",
        "source": "http://kr.open.gugi.yahoo.com",
        "train": "yes",
        "id": "node/368636625"
      },
      "geometry": {
        "type": "Point",
        "coordinates": [
          128.4004803,
          35.9920486
        ]
      }
    },
    {
      "type": "Feature",
      "id": "node/368636646",
      "properties": {
        "building": "train_station",
        "int_name": "Gunsan Station",
        "name": "군산",
        "name:en": "Gunsan",
        "name:ko": "군산",
        "name:ko-Latn": "Gunsany",
        "ncat": "기차역",
        "old_name": "신군산역",
        "operator": "한국철도공사",
        "platforms": "2",
        "public_transport": "station",
        "railway": "station",
        "source": "http://kr.open.gugi.yahoo.com",
        "train": "yes",
        "wikidata": "Q1239993",
        "wikipedia": "ko:군산역",
        "id": "node/368636646"
      },
      "geometry": {
        "type": "Point",
        "coordinates": [
          126.7602959,
          35.9993608
        ]
      }
    },
    {
      "type": "Feature",
      "id": "node/368636680",
      "properties": {
        "name": "영월",
        "name:en": "Yeongwol",
        "name:ko": "영월역",
        "name:ko-Latn": "Yeongwolyeok",
        "ncat": "기차역",
        "public_transport": "station",
        "railway": "station",
        "source": "http://kr.open.gugi.yahoo.com",
        "train": "yes",
        "wikidata": "Q1599411",
        "wikipedia": "ko:영월역",
        "id": "node/368636680"
      },
      "geometry": {
        "type": "Point",
        "coordinates": [
          128.4809263,
          37.1821719
        ]
      }
    },
    {
      "type": "Feature",
      "id": "node/368636692",
      "properties": {
        "name": "도계",
        "name:en": "Dogye",
        "name:ko": "도계",
        "name:ko-Latn": "Dogyeyeok",
        "ncat": "기차역",
        "public_transport": "station",
        "railway": "station",
        "source": "http://kr.open.gugi.yahoo.com",
        "train": "yes",
        "wikidata": "Q983373",
        "wikipedia": "ko:도계역",
        "id": "node/368636692"
      },
      "geometry": {
        "type": "Point",
        "coordinates": [
          129.0443386,
          37.22922
        ]
      }
    },
    {
      "type": "Feature",
      "id": "node/368636728",
      "properties": {
        "name": "용문",
        "name:en": "Yongmun",
        "name:ko": "용문",
        "operator": "한국철도공사",
        "public_transport": "station",
        "railway": "station",
        "source": "http://kr.open.gugi.yahoo.com",
        "station": "subway",
        "subway": "yes",
        "train": "yes",
        "wikidata": "Q477582",
        "id": "node/368636728"
      },
      "geometry": {
        "type": "Point",
        "coordinates": [
          127.59465,
          37.4822294
        ]
      }
    },
    {
      "type": "Feature",
      "id": "node/368636742",
      "properties": {
        "addr:city": "경상남도 밀양시",
        "addr:housenumber": "62",
        "addr:postcode": "50445",
        "addr:street": "중앙로",
        "alt_name:en": "Milyang Station",
        "alt_name:ko": "밀양역",
        "name": "밀양",
        "name:en": "Miryang",
        "name:ko": "밀양",
        "name:ko-Latn": "Miryang",
        "ncat": "기차역",
        "note": "밀양\"역\" 이름 기입 금지.",
        "operator": "한국철도공사",
        "public_transport": "station",
        "railway": "station",
        "source": "http://kr.open.gugi.yahoo.com",
        "train": "yes",
        "wikidata": "Q477090",
        "wikipedia": "ko:밀양역",
        "id": "node/368636742"
      },
      "geometry": {
        "type": "Point",
        "coordinates": [
          128.7713079,
          35.4745399
        ]
      }
    },
    {
      "type": "Feature",
      "id": "node/368636794",
      "properties": {
        "name": "강경",
        "name:en": "Ganggyeong",
        "name:ko": "강경",
        "name:ko-Latn": "Ganggyeongyeok",
        "ncat": "기차역",
        "operator": "한국철도공사",
        "public_transport": "station",
        "railway": "station",
        "source": "http://kr.open.gugi.yahoo.com",
        "train": "yes",
        "wikidata": "Q818385",
        "wikipedia": "ko:강경역",
        "id": "node/368636794"
      },
      "geometry": {
        "type": "Point",
        "coordinates": [
          127.0172715,
          36.1548371
        ]
      }
    },
    {
      "type": "Feature",
      "id": "node/368637061",
      "properties": {
        "name": "동해",
        "name:en": "Donghae",
        "name:ja": "東海(トンヘ)",
        "name:ko": "동해",
        "name:ko-Latn": "Donghaeyeok",
        "ncat": "기차역",
        "operator": "한국철도공사",
        "public_transport": "station",
        "railway": "station",
        "source": "http://kr.open.gugi.yahoo.com",
        "train": "yes",
        "wikidata": "Q1162839",
        "wikipedia": "ko:동해역",
        "id": "node/368637061"
      },
      "geometry": {
        "type": "Point",
        "coordinates": [
          129.1226016,
          37.4975753
        ]
      }
    },
    {
      "type": "Feature",
      "id": "node/368637144",
      "properties": {
        "name": "백산",
        "name:en": "Baeksan",
        "name:ko": "백산",
        "name:ko-Latn": "Baeksanyeok",
        "ncat": "기차역",
        "network": "영동선",
        "operator": "코레일",
        "public_transport": "station",
        "railway": "station",
        "source": "http://kr.open.gugi.yahoo.com",
        "train": "yes",
        "wikidata": "Q1162672",
        "wikipedia": "ko:백산역",
        "id": "node/368637144"
      },
      "geometry": {
        "type": "Point",
        "coordinates": [
          129.0335752,
          37.138502
        ]
      }
    },
    {
      "type": "Feature",
      "id": "node/368637174",
      "properties": {
        "name": "봉양",
        "name:en": "Bongyang",
        "name:ja": "鳳陽",
        "name:ko": "봉양",
        "name:ko-Hani": "鳳陽",
        "name:ko-Latn": "Bongyang",
        "name:zh": "凤阳",
        "name:zh-Hant": "鳳陽",
        "ncat": "기차역",
        "operator": "한국철도공사",
        "public_transport": "station",
        "railway": "station",
        "source": "http://kr.open.gugi.yahoo.com",
        "train": "yes",
        "wikidata": "Q620017",
        "wikipedia": "ko:봉양역",
        "id": "node/368637174"
      },
      "geometry": {
        "type": "Point",
        "coordinates": [
          128.1314707,
          37.1297418
        ]
      }
    },
    {
      "type": "Feature",
      "id": "node/368637246",
      "properties": {
        "name": "삽교",
        "name:en": "Sapgyo",
        "name:ko": "삽교",
        "name:ko-Latn": "Sapgyoyeok",
        "ncat": "기차역",
        "operator": "한국철도공사",
        "public_transport": "station",
        "railway": "station",
        "source": "http://kr.open.gugi.yahoo.com",
        "train": "yes",
        "id": "node/368637246"
      },
      "geometry": {
        "type": "Point",
        "coordinates": [
          126.7515305,
          36.6798216
        ]
      }
    },
    {
      "type": "Feature",
      "id": "node/368637281",
      "properties": {
        "name": "석항",
        "name:en": "Seokhang",
        "name:ko": "석항",
        "name:ko-Latn": "Seokhangyeok",
        "ncat": "기차역",
        "public_transport": "station",
        "railway": "station",
        "source": "http://kr.open.gugi.yahoo.com",
        "train": "yes",
        "wikidata": "Q1599301",
        "wikipedia": "ko:석항역",
        "id": "node/368637281"
      },
      "geometry": {
        "type": "Point",
        "coordinates": [
          128.6205564,
          37.1972666
        ]
      }
    },
    {
      "type": "Feature",
      "id": "node/368637309",
      "properties": {
        "name": "신례원",
        "name:en": "Sillyewon",
        "name:ko": "신례원",
        "name:ko-Latn": "Sillyewonyeok",
        "ncat": "기차역",
        "operator": "한국철도공사",
        "public_transport": "station",
        "railway": "station",
        "source": "http://kr.open.gugi.yahoo.com",
        "train": "yes",
        "wikidata": "Q1235378",
        "id": "node/368637309"
      },
      "geometry": {
        "type": "Point",
        "coordinates": [
          126.8495699,
          36.7271537
        ]
      }
    },
    {
      "type": "Feature",
      "id": "node/368637389",
      "properties": {
        "name": "영천",
        "name:en": "Yeongcheon",
        "name:ko": "영천",
        "ncat": "기차역",
        "public_transport": "station",
        "railway": "station",
        "source": "http://kr.open.gugi.yahoo.com",
        "train": "yes",
        "wikidata": "Q755243",
        "id": "node/368637389"
      },
      "geometry": {
        "type": "Point",
        "coordinates": [
          128.9388909,
          35.9590454
        ]
      }
    },
    {
      "type": "Feature",
      "id": "node/368637399",
      "properties": {
        "name": "예미",
        "name:en": "Yemi",
        "name:ko": "예미역",
        "name:ko-Latn": "Yemiyeok",
        "ncat": "기차역",
        "public_transport": "station",
        "railway": "station",
        "source": "http://kr.open.gugi.yahoo.com",
        "train": "yes",
        "wikidata": "Q1599418",
        "wikipedia": "ko:예미역",
        "id": "node/368637399"
      },
      "geometry": {
        "type": "Point",
        "coordinates": [
          128.6483309,
          37.2124522
        ]
      }
    },
    {
      "type": "Feature",
      "id": "node/368637495",
      "properties": {
        "addr:city": "경상북도 의성군 의성읍",
        "addr:housenumber": "89-10",
        "addr:postcode": "37335",
        "addr:street": "문소3길",
        "alt_name": "의성역",
        "name": "의성",
        "name:en": "Uiseong",
        "name:ko": "의성",
        "name:ko-Latn": "Uiseongyeok",
        "ncat": "기차역",
        "operator": "한국철도공사",
        "public_transport": "station",
        "railway": "station",
        "source": "http://kr.open.gugi.yahoo.com",
        "train": "yes",
        "id": "node/368637495"
      },
      "geometry": {
        "type": "Point",
        "coordinates": [
          128.693128,
          36.35336
        ]
      }
    },
    {
      "type": "Feature",
      "id": "node/368637509",
      "properties": {
        "addr:city": "충청북도 옥천군 이원면",
        "addr:housenumber": "51",
        "addr:street": "이원역길",
        "alt_name": "이원역",
        "alt_name:en": "Iwon Station",
        "name": "이원",
        "name:en": "Iwon",
        "name:ko": "이원",
        "name:ko-Latn": "Iwonyeok",
        "ncat": "기차역",
        "operator": "한국철도공사",
        "public_transport": "station",
        "railway": "station",
        "source": "http://kr.open.gugi.yahoo.com",
        "train": "yes",
        "id": "node/368637509"
      },
      "geometry": {
        "type": "Point",
        "coordinates": [
          127.6186518,
          36.243989
        ]
      }
    },
    {
      "type": "Feature",
      "id": "node/368637607",
      "properties": {
        "name": "청천",
        "name:en": "Cheongcheon",
        "name:ko": "청천",
        "name:ko-Latn": "Cheongcheonyeok",
        "ncat": "기차역",
        "operator": "한국철도공사",
        "public_transport": "station",
        "railway": "station",
        "source": "http://kr.open.gugi.yahoo.com",
        "train": "yes",
        "wikidata": "Q1598016",
        "id": "node/368637607"
      },
      "geometry": {
        "type": "Point",
        "coordinates": [
          128.7694217,
          35.8808786
        ]
      }
    },
    {
      "type": "Feature",
      "id": "node/368637619",
      "properties": {
        "ele": "855",
        "name": "추전",
        "name:en": "Chujeon",
        "name:ko": "추전",
        "name:ko-Latn": "Chujeonyeok",
        "ncat": "기차역",
        "public_transport": "station",
        "railway": "halt",
        "source": "http://kr.open.gugi.yahoo.com",
        "train": "yes",
        "type": "public_transport",
        "wikidata": "Q464837",
        "wikipedia": "ko:추전역",
        "id": "node/368637619"
      },
      "geometry": {
        "type": "Point",
        "coordinates": [
          128.9494319,
          37.2000291
        ]
      }
    },
    {
      "type": "Feature",
      "id": "node/368637794",
      "properties": {
        "name": "계룡",
        "name:en": "Gyeryong",
        "name:ja": "鶏龍(ケリョン)",
        "name:ja-Hira": "けりょん",
        "name:ko": "계룡",
        "name:ko-Latn": "Gyeryongyeok",
        "ncat": "기차역",
        "public_transport": "station",
        "railway": "station",
        "source": "http://kr.open.gugi.yahoo.com",
        "train": "yes",
        "wheelchair": "yes",
        "wikidata": "Q626423",
        "id": "node/368637794"
      },
      "geometry": {
        "type": "Point",
        "coordinates": [
          127.265282,
          36.2729855
        ]
      }
    },
    {
      "type": "Feature",
      "id": "node/368637854",
      "properties": {
        "name": "신탄진",
        "name:en": "Sintanjin",
        "name:ko": "신탄진",
        "name:ko-Latn": "Sintanjinyeok",
        "ncat": "기차역",
        "operator": "한국철도공사",
        "public_transport": "station",
        "railway": "station",
        "source": "http://kr.open.gugi.yahoo.com",
        "train": "yes",
        "wikidata": "Q188831",
        "id": "node/368637854"
      },
      "geometry": {
        "type": "Point",
        "coordinates": [
          127.4281663,
          36.4496321
        ]
      }
    },
    {
      "type": "Feature",
      "id": "node/368637884",
      "properties": {
        "name": "지평",
        "name:en": "Jipyeong",
        "name:ko": "지평",
        "operator": "한국철도공사",
        "public_transport": "station",
        "railway": "station",
        "station": "subway",
        "subway": "yes",
        "train": "yes",
        "wikidata": "Q545131",
        "id": "node/368637884"
      },
      "geometry": {
        "type": "Point",
        "coordinates": [
          127.6293674,
          37.4766379
        ]
      }
    },
    {
      "type": "Feature",
      "id": "node/368637895",
      "properties": {
        "name": "연당",
        "name:en": "Yeondang",
        "name:ko": "연당",
        "name:ko-Latn": "Yeondangyeok",
        "ncat": "기차역",
        "public_transport": "station",
        "railway": "station",
        "source": "http://kr.open.gugi.yahoo.com",
        "train": "yes",
        "wikidata": "Q1599392",
        "wikipedia": "ko:연당역",
        "id": "node/368637895"
      },
      "geometry": {
        "type": "Point",
        "coordinates": [
          128.3960793,
          37.1849921
        ]
      }
    },
    {
      "type": "Feature",
      "id": "node/368637947",
      "properties": {
        "name": "망상",
        "name:en": "Mangsang",
        "name:ja": "望祥(マンサン)",
        "name:ko": "망상",
        "name:ko-Latn": "Mangsangyeok",
        "ncat": "기차역",
        "operator": "Korail",
        "public_transport": "station",
        "railway": "station",
        "source": "http://kr.open.gugi.yahoo.com",
        "train": "yes",
        "id": "node/368637947"
      },
      "geometry": {
        "type": "Point",
        "coordinates": [
          129.0984376,
          37.5868638
        ]
      }
    },
    {
      "type": "Feature",
      "id": "node/368638013",
      "properties": {
        "name": "월롱",
        "name:en": "Wollong",
        "name:ja": "ウォルロン(月籠)",
        "name:ko": "월롱",
        "ncat": "기차역",
        "public_transport": "station",
        "railway": "station",
        "source": "http://kr.open.gugi.yahoo.com",
        "station": "subway",
        "subway": "yes",
        "train": "yes",
        "wikidata": "Q59877",
        "id": "node/368638013"
      },
      "geometry": {
        "type": "Point",
        "coordinates": [
          126.7925749,
          37.796251
        ]
      }
    },
    {
      "type": "Feature",
      "id": "node/368638233",
      "properties": {
        "name": "도고온천",
        "name:en": "Dogooncheon",
        "name:ko": "도고온천",
        "name:ko-Latn": "Dogooncheonyeok",
        "ncat": "기차역",
        "operator": "한국철도공사",
        "public_transport": "station",
        "railway": "station",
        "source": "http://kr.open.gugi.yahoo.com",
        "train": "yes",
        "wikidata": "Q625019",
        "id": "node/368638233"
      },
      "geometry": {
        "type": "Point",
        "coordinates": [
          126.8895459,
          36.7495364
        ]
      }
    },
    {
      "type": "Feature",
      "id": "node/436402743",
      "properties": {
        "name": "파주",
        "name:en": "Paju",
        "name:ja": "パジュ(坡州)",
        "name:ko": "파주",
        "public_transport": "station",
        "railway": "station",
        "station": "subway",
        "subway": "yes",
        "train": "yes",
        "wikidata": "Q59878",
        "id": "node/436402743"
      },
      "geometry": {
        "type": "Point",
        "coordinates": [
          126.7924283,
          37.8150577
        ]
      }
    },
    {
      "type": "Feature",
      "id": "node/910386578",
      "properties": {
        "alt_name": "영주역",
        "alt_name:en": "Yeongju Station",
        "name": "영주",
        "name:en": "Yeongju",
        "name:ko": "영주",
        "name:ko-Latn": "Yeongjuyeok",
        "operator": "한국철도공사",
        "platforms": "3",
        "public_transport": "station",
        "railway": "station",
        "train": "yes",
        "wikidata": "Q58919",
        "wikipedia": "ko:영주역",
        "id": "node/910386578"
      },
      "geometry": {
        "type": "Point",
        "coordinates": [
          128.625578,
          36.8109445
        ]
      }
    },
    {
      "type": "Feature",
      "id": "node/946636583",
      "properties": {
        "name": "임실",
        "name:en": "Imsil",
        "name:ja": "イムシル",
        "name:ko": "임실",
        "name:ko-Latn": "Imsil",
        "public_transport": "station",
        "railway": "station",
        "train": "yes",
        "wikidata": "Q1232973",
        "id": "node/946636583"
      },
      "geometry": {
        "type": "Point",
        "coordinates": [
          127.2898846,
          35.6329664
        ]
      }
    },
    {
      "type": "Feature",
      "id": "node/1169237755",
      "properties": {
        "name": "원덕",
        "name:en": "Wondeok",
        "name:ko": "원덕",
        "operator": "한국철도공사",
        "public_transport": "station",
        "railway": "station",
        "station": "subway",
        "subway": "yes",
        "train": "yes",
        "wikidata": "Q484032",
        "id": "node/1169237755"
      },
      "geometry": {
        "type": "Point",
        "coordinates": [
          127.5468697,
          37.4687663
        ]
      }
    },
    {
      "type": "Feature",
      "id": "node/1458109500",
      "properties": {
        "name": "중랑",
        "name:en": "Jungnang",
        "name:ja": "チュンナン(中浪)",
        "name:ko": "중랑",
        "operator": "Korail",
        "platforms": "2",
        "public_transport": "station",
        "railway": "station",
        "ref": "K119",
        "station": "subway",
        "subway": "yes",
        "train": "yes",
        "wikidata": "Q50004",
        "wikipedia": "ko:중랑역",
        "id": "node/1458109500"
      },
      "geometry": {
        "type": "Point",
        "coordinates": [
          127.0763183,
          37.5949548
        ]
      }
    },
    {
      "type": "Feature",
      "id": "node/1565727595",
      "properties": {
        "addr:city": "문산읍",
        "addr:housenumber": "94",
        "addr:street": "문산역로",
        "alt_name": "문산역",
        "name": "문산",
        "name:en": "Munsan",
        "name:ja": "ムンサン(汶山)",
        "name:ko": "문산",
        "network": "수도권 전철",
        "operator": "한국철도공사",
        "public_transport": "station",
        "railway": "station",
        "station": "subway",
        "subway": "yes",
        "train": "yes",
        "wikidata": "Q59880",
        "wikipedia": "ko:문산역",
        "id": "node/1565727595"
      },
      "geometry": {
        "type": "Point",
        "coordinates": [
          126.7878537,
          37.8544294
        ]
      }
    },
    {
      "type": "Feature",
      "id": "node/1657629122",
      "properties": {
        "alt_name": "울산역(통도사)",
        "highspeed": "yes",
        "name": "울산",
        "name:de": "Ulsan",
        "name:en": "Ulsan",
        "name:ko": "울산",
        "name:ko-Latn": "Ulsan",
        "note": "--역 이름에 기입 금지",
        "operator": "한국철도공사",
        "public_transport": "station",
        "railway": "station",
        "service": "highspeed",
        "train": "yes",
        "wikidata": "Q54295",
        "wikipedia": "ko:울산역",
        "id": "node/1657629122"
      },
      "geometry": {
        "type": "Point",
        "coordinates": [
          129.1379303,
          35.5513139
        ]
      }
    },
    {
      "type": "Feature",
      "id": "node/1789755424",
      "properties": {
        "name": "망우",
        "name:en": "Mangu",
        "name:ja": "マンウ(忘憂)",
        "name:ko": "망우",
        "operator": "한국철도공사",
        "public_transport": "station",
        "railway": "station",
        "station": "subway",
        "subway": "yes",
        "train": "yes",
        "wikidata": "Q49994",
        "wikipedia": "ko:망우역",
        "id": "node/1789755424"
      },
      "geometry": {
        "type": "Point",
        "coordinates": [
          127.0918581,
          37.5996345
        ]
      }
    },
    {
      "type": "Feature",
      "id": "node/1793029802",
      "properties": {
        "light_rail": "yes",
        "name": "의정부중앙",
        "name:en": "Uijeongbu Jung-ang",
        "name:ja": "議政府中央",
        "name:ja_kana": "ウィジョンブジュンアン",
        "name:ko": "의정부중앙",
        "public_transport": "station",
        "railway": "station",
        "station": "light_rail",
        "train": "yes",
        "wikidata": "Q702877",
        "wikipedia": "ko:의정부중앙역",
        "id": "node/1793029802"
      },
      "geometry": {
        "type": "Point",
        "coordinates": [
          127.049742,
          37.7436907
        ]
      }
    },
    {
      "type": "Feature",
      "id": "node/1880695888",
      "properties": {
        "name": "금강",
        "name:en": "Geumgang",
        "name:ko": "금강",
        "name:ko-Latn": "Geumgangyeok",
        "public_transport": "station",
        "railway": "station",
        "train": "yes",
        "id": "node/1880695888"
      },
      "geometry": {
        "type": "Point",
        "coordinates": [
          128.7373933,
          35.8624915
        ]
      }
    },
    {
      "type": "Feature",
      "id": "node/1939806959",
      "properties": {
        "name": "백마고지",
        "name:en": "Baengmagoji",
        "name:ja": "ペンマゴジ(白馬高地)",
        "name:ko": "백마고지",
        "operator": "한국철도공사",
        "public_transport": "station",
        "railway": "station",
        "train": "yes",
        "wikidata": "Q492003",
        "wikipedia": "ko:백마고지역",
        "id": "node/1939806959"
      },
      "geometry": {
        "type": "Point",
        "coordinates": [
          127.1660697,
          38.2575203
        ]
      }
    },
    {
      "type": "Feature",
      "id": "node/2090733296",
      "properties": {
        "name": "운정",
        "name:en": "Unjeong",
        "name:ja": "ウンジョン(雲井)",
        "name:ko": "운정",
        "public_transport": "station",
        "railway": "station",
        "station": "subway",
        "subway": "yes",
        "train": "yes",
        "wikidata": "Q59871",
        "id": "node/2090733296"
      },
      "geometry": {
        "type": "Point",
        "coordinates": [
          126.7670466,
          37.7253427
        ]
      }
    },
    {
      "type": "Feature",
      "id": "node/2090733354",
      "properties": {
        "name": "임진강",
        "name:en": "Imjingang",
        "name:ja": "イムジンガン(臨津江)",
        "name:ko": "임진강",
        "operator": "한국철도공사",
        "public_transport": "station",
        "railway": "station",
        "start_date": "2001-09-30;2020-03-28",
        "station": "subway",
        "subway": "yes",
        "train": "yes",
        "wikidata": "Q54345",
        "wikipedia": "ko:임진강역",
        "id": "node/2090733354"
      },
      "geometry": {
        "type": "Point",
        "coordinates": [
          126.7482781,
          37.8882564
        ]
      }
    },
    {
      "type": "Feature",
      "id": "node/2346858838",
      "properties": {
        "addr:city": "서울특별시 서대문구",
        "addr:housenumber": "30",
        "addr:street": "신촌역로",
        "alt_name": "신촌역",
        "alt_name:en": "Shinchon Station",
        "name": "신촌",
        "name:en": "Sinchon",
        "name:ja": "シンチョン(新村)[国鉄駅]",
        "name:ko": "신촌",
        "name:zh": "新村",
        "operator": "한국철도공사",
        "public_transport": "station",
        "railway": "station",
        "station": "subway",
        "subway": "yes",
        "train": "yes",
        "wikidata": "Q59840",
        "wikipedia": "ko:신촌역 (경의선)",
        "id": "node/2346858838"
      },
      "geometry": {
        "type": "Point",
        "coordinates": [
          126.9423581,
          37.5597815
        ]
      }
    },
    {
      "type": "Feature",
      "id": "node/2783256700",
      "properties": {
        "name": "백양리",
        "name:en": "Baekyangri",
        "name:ko": "백양리",
        "public_transport": "station",
        "railway": "station",
        "station": "subway",
        "subway": "yes",
        "train": "yes",
        "id": "node/2783256700"
      },
      "geometry": {
        "type": "Point",
        "coordinates": [
          127.5891858,
          37.8308012
        ]
      }
    },
    {
      "type": "Feature",
      "id": "node/2783311708",
      "properties": {
        "name": "강촌",
        "name:en": "Gangchon",
        "name:ja": "カンチョン",
        "name:ko": "강촌",
        "public_transport": "station",
        "railway": "station",
        "station": "subway",
        "subway": "yes",
        "train": "yes",
        "id": "node/2783311708"
      },
      "geometry": {
        "type": "Point",
        "coordinates": [
          127.6341294,
          37.8057137
        ]
      }
    },
    {
      "type": "Feature",
      "id": "node/2847440772",
      "properties": {
        "addr:city": "광명시",
        "addr:housenumber": "21",
        "addr:street": "광명역로",
        "highspeed": "yes",
        "internet_access": "wlan",
        "name": "광명",
        "name:en": "Gwangmyeong",
        "name:ja": "クヮンミョン(光明)",
        "name:ko": "광명",
        "operator": "한국철도공사",
        "public_transport": "station",
        "railway": "station",
        "station": "train",
        "subway": "yes",
        "train": "yes",
        "wikidata": "Q20950",
        "wikipedia": "ko:광명역",
        "id": "node/2847440772"
      },
      "geometry": {
        "type": "Point",
        "coordinates": [
          126.8846978,
          37.41638
        ]
      }
    },
    {
      "type": "Feature",
      "id": "node/2859438901",
      "properties": {
        "name": "사릉",
        "name:en": "Sareung",
        "name:ja": "サルン",
        "name:ko": "사릉",
        "public_transport": "station",
        "railway": "station",
        "station": "subway",
        "subway": "yes",
        "train": "yes",
        "wikidata": "Q49986",
        "id": "node/2859438901"
      },
      "geometry": {
        "type": "Point",
        "coordinates": [
          127.1768961,
          37.6510986
        ]
      }
    },
    {
      "type": "Feature",
      "id": "node/3141944280",
      "properties": {
        "public_transport": "station",
        "railway": "station",
        "train": "yes",
        "id": "node/3141944280"
      },
      "geometry": {
        "type": "Point",
        "coordinates": [
          128.4613242,
          35.8615672
        ]
      }
    },
    {
      "type": "Feature",
      "id": "node/3218977267",
      "properties": {
        "name": "간석",
        "name:en": "Ganseok",
        "name:ja": "カンソク(間石)",
        "name:ko": "간석",
        "public_transport": "station",
        "railway": "station",
        "station": "subway",
        "subway": "yes",
        "train": "yes",
        "wikidata": "Q490501",
        "wikipedia": "ko:간석역",
        "id": "node/3218977267"
      },
      "geometry": {
        "type": "Point",
        "coordinates": [
          126.6935306,
          37.4647335
        ]
      }
    },
    {
      "type": "Feature",
      "id": "node/3233869354",
      "properties": {
        "name": "부개",
        "name:en": "Bugae",
        "name:ja": "プゲ(富開)",
        "name:ko": "부개",
        "operator": "한국철도공사",
        "public_transport": "station",
        "railway": "station",
        "station": "subway",
        "subway": "yes",
        "train": "yes",
        "wikidata": "Q490712",
        "wikipedia": "ko:부개역",
        "id": "node/3233869354"
      },
      "geometry": {
        "type": "Point",
        "coordinates": [
          126.7406058,
          37.4884914
        ]
      }
    },
    {
      "type": "Feature",
      "id": "node/3276816593",
      "properties": {
        "addr:city": "시흥시",
        "addr:housenumber": "55",
        "addr:street": "서해안로736번길",
        "name": "달월",
        "name:en": "Darwol",
        "name:ja": "タルォル(達月)",
        "name:ko": "달월",
        "network": "수도권 전철",
        "operator": "한국철도공사",
        "public_transport": "station",
        "railway": "station",
        "station": "subway",
        "subway": "yes",
        "train": "yes",
        "wikidata": "Q702328",
        "wikipedia": "ko:달월역",
        "id": "node/3276816593"
      },
      "geometry": {
        "type": "Point",
        "coordinates": [
          126.7453575,
          37.3799789
        ]
      }
    },
    {
      "type": "Feature",
      "id": "node/3406378782",
      "properties": {
        "name": "서강대",
        "name:en": "Sogang Univ.",
        "name:ja": "ソガンデ(西江大)",
        "name:ko": "서강대",
        "name:zh": "西江大学",
        "public_transport": "station",
        "railway": "station",
        "station": "subway",
        "subway": "yes",
        "train": "yes",
        "id": "node/3406378782"
      },
      "geometry": {
        "type": "Point",
        "coordinates": [
          126.9351841,
          37.552353
        ]
      }
    },
    {
      "type": "Feature",
      "id": "node/3408263979",
      "properties": {
        "name": "청라국제도시",
        "name:en": "Cheongna Int'l City",
        "name:ja": "青羅国際都市",
        "name:ja-Hira": "ちょんなこくさいとし",
        "name:ko": "청라국제도시",
        "public_transport": "station",
        "railway": "station",
        "short_name:en": "Cheongna Int'l City",
        "station": "subway",
        "subway": "yes",
        "train": "yes",
        "id": "node/3408263979"
      },
      "geometry": {
        "type": "Point",
        "coordinates": [
          126.6246922,
          37.5564451
        ]
      }
    },
    {
      "type": "Feature",
      "id": "node/3408318907",
      "properties": {
        "name": "대성리",
        "name:en": "Daeseong-ri",
        "name:ja": "テソンリ",
        "name:ko": "대성리",
        "public_transport": "station",
        "railway": "station",
        "station": "subway",
        "subway": "yes",
        "train": "yes",
        "wikidata": "Q49973",
        "id": "node/3408318907"
      },
      "geometry": {
        "type": "Point",
        "coordinates": [
          127.3795872,
          37.6838519
        ]
      }
    },
    {
      "type": "Feature",
      "id": "node/3436803670",
      "properties": {
        "addr:city": "서울시 동대문구",
        "addr:housenumber": "214",
        "addr:street": "왕산로",
        "alt_name": "청량리역",
        "alt_name:en": "Cheongnyangni station",
        "internet_access": "wlan",
        "name": "청량리",
        "name:en": "Cheongnyangni",
        "name:ja": "チョンニャンニ(清涼里)",
        "name:ko": "청량리",
        "operator": "한국철도공사",
        "public_transport": "station",
        "railway": "station",
        "subway": "yes",
        "train": "yes",
        "wikidata": "Q20417",
        "wikipedia": "ko:청량리역",
        "id": "node/3436803670"
      },
      "geometry": {
        "type": "Point",
        "coordinates": [
          127.0482573,
          37.5805961
        ]
      }
    },
    {
      "type": "Feature",
      "id": "node/4011911213",
      "properties": {
        "addr:city": "세종특별자치시 조치원읍",
        "addr:housenumber": "215",
        "addr:postcode": "30023",
        "addr:street": "으뜸길",
        "air_conditioning": "yes",
        "internet_access": "yes",
        "internet_access:fee": "no",
        "level": "2",
        "name": "조치원",
        "name:de": "Bf Jochiwon",
        "name:en": "Jochiwon",
        "name:ko": "조치원",
        "name:ko-Latn": "Jochiwonyeok",
        "operator": "한국철도공사",
        "public_transport": "station",
        "railway": "station",
        "train": "yes",
        "wheelchair": "yes",
        "wikidata": "Q188312",
        "wikipedia": "ko:조치원역",
        "id": "node/4011911213"
      },
      "geometry": {
        "type": "Point",
        "coordinates": [
          127.2958888,
          36.60102
        ]
      }
    },
    {
      "type": "Feature",
      "id": "node/4090063434",
      "properties": {
        "name": "영종",
        "name:en": "Yeongjong",
        "name:ja": "ヨンジョン(永宗)",
        "name:ko": "영종",
        "name:zh": "永宗",
        "public_transport": "station",
        "railway": "station",
        "station": "subway",
        "subway": "yes",
        "train": "yes",
        "wikidata": "Q15894783",
        "id": "node/4090063434"
      },
      "geometry": {
        "type": "Point",
        "coordinates": [
          126.524599,
          37.5118887
        ]
      }
    },
    {
      "type": "Feature",
      "id": "node/4092335459",
      "properties": {
        "alt_name": "신경주역",
        "name": "신경주",
        "name:de": "Bf SinGyeongju",
        "name:en": "Singyeongju",
        "name:ko": "신경주",
        "operator": "한국철도공사",
        "operator:en": "Korail",
        "public_transport": "station",
        "railway": "station",
        "train": "yes",
        "wikidata": "Q54294",
        "wikipedia": "ko:신경주역",
        "id": "node/4092335459"
      },
      "geometry": {
        "type": "Point",
        "coordinates": [
          129.1389632,
          35.7982689
        ]
      }
    },
    {
      "type": "Feature",
      "id": "node/4097564535",
      "properties": {
        "name": "고모",
        "name:en": "Gomo",
        "name:ko": "고모",
        "name:ko-Latn": "Gomoyeok",
        "ncat": "기차역",
        "operator": "한국철도공사",
        "public_transport": "station",
        "railway": "station",
        "source": "http://kr.open.gugi.yahoo.com",
        "train": "yes",
        "wikidata": "Q341716",
        "id": "node/4097564535"
      },
      "geometry": {
        "type": "Point",
        "coordinates": [
          128.6778911,
          35.8599652
        ]
      }
    },
    {
      "type": "Feature",
      "id": "node/4423233270",
      "properties": {
        "name": "쌍룡",
        "name:en": "Ssangnyong",
        "name:ko": "쌍룡",
        "public_transport": "station",
        "railway": "station",
        "train": "yes",
        "wikidata": "Q1599367",
        "wikipedia": "ko:쌍룡역",
        "id": "node/4423233270"
      },
      "geometry": {
        "type": "Point",
        "coordinates": [
          128.3286805,
          37.1742252
        ]
      }
    },
    {
      "type": "Feature",
      "id": "node/4456505490",
      "properties": {
        "internet_access": "wlan",
        "name": "만종",
        "name:ja": "万鍾",
        "name:ko": "만종",
        "name:zh": "万钟",
        "name:zh-Hant": "万鍾",
        "public_transport": "station",
        "railway": "station",
        "train": "yes",
        "wikidata": "Q545459",
        "wikipedia": "ko:만종역",
        "id": "node/4456505490"
      },
      "geometry": {
        "type": "Point",
        "coordinates": [
          127.8931116,
          37.353949
        ]
      }
    },
    {
      "type": "Feature",
      "id": "node/4497184211",
      "properties": {
        "addr:city": "충청북도 영동군 심천면",
        "addr:housenumber": "5-1",
        "addr:street": "심천로5길",
        "name": "심천",
        "name:de": "Sation Simcheon",
        "name:en": "Simcheon",
        "name:ko": "심천",
        "official_name": "심천역",
        "official_name:en": "Simcheon Station",
        "operator": "한국철도공사",
        "public_transport": "station",
        "railway": "station",
        "train": "yes",
        "wikidata": "Q625284",
        "wikipedia": "ko:심천역",
        "id": "node/4497184211"
      },
      "geometry": {
        "type": "Point",
        "coordinates": [
          127.7207879,
          36.2368257
        ]
      }
    },
    {
      "type": "Feature",
      "id": "node/4636808676",
      "properties": {
        "name": "풍무",
        "name:en": "Pungmu",
        "name:ja": "プンム(豊舞)",
        "name:ko": "풍무",
        "name:zh": "豊舞",
        "public_transport": "station",
        "railway": "station",
        "ref": "107",
        "station": "subway",
        "subway": "yes",
        "train": "yes",
        "wikidata": "Q24864137",
        "id": "node/4636808676"
      },
      "geometry": {
        "type": "Point",
        "coordinates": [
          126.7324105,
          37.6124529
        ]
      }
    },
    {
      "type": "Feature",
      "id": "node/4643555327",
      "properties": {
        "name": "야당",
        "name:en": "Yadang",
        "name:ja": "ヤダン(野塘)",
        "name:ko": "야당",
        "public_transport": "station",
        "railway": "station",
        "station": "subway",
        "subway": "yes",
        "train": "yes",
        "wikidata": "Q18328866",
        "id": "node/4643555327"
      },
      "geometry": {
        "type": "Point",
        "coordinates": [
          126.7615226,
          37.7129672
        ]
      }
    },
    {
      "type": "Feature",
      "id": "node/4656699757",
      "properties": {
        "name": "지행",
        "name:en": "Jihaeng",
        "name:ja": "紙杏(チヘン)",
        "name:ja_kana": "チヘン",
        "name:ko": "지행",
        "public_transport": "station",
        "railway": "station",
        "station": "subway",
        "subway": "yes",
        "train": "yes",
        "wikidata": "Q483399",
        "wikipedia": "ko:지행역",
        "id": "node/4656699757"
      },
      "geometry": {
        "type": "Point",
        "coordinates": [
          127.0558058,
          37.892269
        ]
      }
    },
    {
      "type": "Feature",
      "id": "node/4691568063",
      "properties": {
        "name": "진주",
        "name:en": "Jinju",
        "name:ja": "チンジュ(晋州)",
        "name:ko": "진주",
        "note": "이름칸에 진주\"역\"이름 기입 금지",
        "operator": "한국철도공사",
        "public_transport": "station",
        "railway": "station",
        "train": "yes",
        "wikidata": "Q389035",
        "wikipedia": "ko:진주역",
        "id": "node/4691568063"
      },
      "geometry": {
        "type": "Point",
        "coordinates": [
          128.1183494,
          35.1501201
        ]
      }
    },
    {
      "type": "Feature",
      "id": "node/4725167962",
      "properties": {
        "alt_name": "천안아산역(온왕온천)",
        "highspeed": "yes",
        "internet_access": "wlan",
        "name": "천안아산",
        "name:en": "Cheonan-Asan",
        "name:ja": "天安牙山",
        "name:ko": "천안아산",
        "operator": "한국철도공사",
        "public_transport": "station",
        "railway": "station",
        "train": "yes",
        "wikidata": "Q54282",
        "wikipedia": "ko:천안아산역",
        "id": "node/4725167962"
      },
      "geometry": {
        "type": "Point",
        "coordinates": [
          127.1044991,
          36.7943803
        ]
      }
    },
    {
      "type": "Feature",
      "id": "node/4753904469",
      "properties": {
        "name": "남포",
        "name:ko": "남포",
        "operator": "한국철도공사",
        "public_transport": "station",
        "railway": "station",
        "train": "yes",
        "id": "node/4753904469"
      },
      "geometry": {
        "type": "Point",
        "coordinates": [
          126.5947591,
          36.3155876
        ]
      }
    },
    {
      "type": "Feature",
      "id": "node/4767326624",
      "properties": {
        "name": "청령포",
        "name:ko": "청령포",
        "public_transport": "station",
        "railway": "station",
        "train": "yes",
        "wikidata": "Q1599501",
        "wikipedia": "ko:청령포역",
        "id": "node/4767326624"
      },
      "geometry": {
        "type": "Point",
        "coordinates": [
          128.4496819,
          37.1706749
        ]
      }
    },
    {
      "type": "Feature",
      "id": "node/4767326709",
      "properties": {
        "name": "탄부",
        "name:ko": "탄부",
        "public_transport": "station",
        "railway": "station",
        "train": "yes",
        "wikidata": "Q1599538",
        "wikipedia": "ko:탄부역",
        "id": "node/4767326709"
      },
      "geometry": {
        "type": "Point",
        "coordinates": [
          128.5091641,
          37.1833577
        ]
      }
    },
    {
      "type": "Feature",
      "id": "node/4767488289",
      "properties": {
        "name": "연하",
        "name:ko": "연하역",
        "public_transport": "station",
        "railway": "station",
        "train": "yes",
        "wikidata": "Q1599401",
        "wikipedia": "ko:연하역",
        "id": "node/4767488289"
      },
      "geometry": {
        "type": "Point",
        "coordinates": [
          128.5552232,
          37.1907577
        ]
      }
    },
    {
      "type": "Feature",
      "id": "node/4767891478",
      "properties": {
        "name": "조동",
        "name:ko": "조동",
        "public_transport": "station",
        "railway": "station",
        "train": "yes",
        "wikidata": "Q1599479",
        "wikipedia": "ko:조동역",
        "id": "node/4767891478"
      },
      "geometry": {
        "type": "Point",
        "coordinates": [
          128.697919,
          37.227742
        ]
      }
    },
    {
      "type": "Feature",
      "id": "node/4767891713",
      "properties": {
        "name": "자미원",
        "name:ko": "자미원",
        "public_transport": "station",
        "railway": "station",
        "train": "yes",
        "wikidata": "Q1599457",
        "wikipedia": "ko:자미원역",
        "id": "node/4767891713"
      },
      "geometry": {
        "type": "Point",
        "coordinates": [
          128.7336795,
          37.2366742
        ]
      }
    },
    {
      "type": "Feature",
      "id": "node/4767891732",
      "properties": {
        "name": "민둥산",
        "name:ko": "민둥산",
        "network": "태백선",
        "public_transport": "station",
        "railway": "station",
        "train": "yes",
        "wikidata": "Q1599221",
        "wikipedia": "ko:민둥산역",
        "id": "node/4767891732"
      },
      "geometry": {
        "type": "Point",
        "coordinates": [
          128.7736429,
          37.2436437
        ]
      }
    },
    {
      "type": "Feature",
      "id": "node/4779079334",
      "properties": {
        "name": "문곡",
        "name:en": "Mungok",
        "name:ko": "문곡",
        "name:ko-Latn": "Mungokyeok",
        "ncat": "기차역",
        "public_transport": "station",
        "railway": "station",
        "train": "yes",
        "wikidata": "Q1599211",
        "wikipedia": "ko:문곡역",
        "id": "node/4779079334"
      },
      "geometry": {
        "type": "Point",
        "coordinates": [
          128.9898642,
          37.1517538
        ]
      }
    },
    {
      "type": "Feature",
      "id": "node/4826452445",
      "properties": {
        "name": "서원주",
        "name:en": "Seowonju",
        "name:ja": "西原州",
        "name:ko": "서원주",
        "name:ko-Hani": "西原州",
        "name:zh": "西原州",
        "operator": "한국철도공사",
        "public_transport": "station",
        "railway": "station",
        "start_date": "2020-01-05",
        "train": "yes",
        "wikidata": "Q545380",
        "wikipedia": "ko:서원주역",
        "id": "node/4826452445"
      },
      "geometry": {
        "type": "Point",
        "coordinates": [
          127.8394215,
          37.3484481
        ]
      }
    },
    {
      "type": "Feature",
      "id": "node/4860959660",
      "properties": {
        "addr:city": "수원시",
        "addr:housenumber": "924",
        "addr:street": "덕영대로",
        "description": "1호선, 기차역 수원역",
        "internet_access": "wlan",
        "internet_access:fee": "no",
        "name": "수원",
        "name:en": "Suwon",
        "name:ja": "水原",
        "name:ja_kana": "スウォン",
        "name:ko": "수원",
        "name:zh": "水原",
        "operator": "한국철도공사",
        "public_transport": "station",
        "railway": "station",
        "ref": "P155",
        "station": "subway",
        "subway": "yes",
        "train": "yes",
        "wikidata": "Q54306",
        "wikipedia": "ko:수원역",
        "id": "node/4860959660"
      },
      "geometry": {
        "type": "Point",
        "coordinates": [
          126.9999102,
          37.2658097
        ]
      }
    },
    {
      "type": "Feature",
      "id": "node/4876124104",
      "properties": {
        "name": "지탄",
        "name:en": "Jitan",
        "name:ko": "지탄",
        "official_name": "지탄역",
        "official_name:en": "Jitan Station",
        "public_transport": "station",
        "railway": "station",
        "train": "yes",
        "id": "node/4876124104"
      },
      "geometry": {
        "type": "Point",
        "coordinates": [
          127.6758934,
          36.2417377
        ]
      }
    },
    {
      "type": "Feature",
      "id": "node/4880228659",
      "properties": {
        "addr:city": "강원도 평창군 용평면",
        "addr:housenumber": "1715",
        "addr:postcode": "25317",
        "addr:street": "평창대로",
        "internet_access": "wlan",
        "name": "평창",
        "name:en": "Pyeongchang",
        "name:ja": "平昌駅",
        "name:ko": "평창역",
        "public_transport": "station",
        "railway": "station",
        "train": "yes",
        "id": "node/4880228659"
      },
      "geometry": {
        "type": "Point",
        "coordinates": [
          128.4295278,
          37.5622911
        ]
      }
    },
    {
      "type": "Feature",
      "id": "node/4880516149",
      "properties": {
        "name": "아포",
        "name:en": "Apo",
        "name:ko": "아포",
        "name:ko-Latn": "Apoyeok",
        "operator": "한국철도공사",
        "public_transport": "station",
        "railway": "station",
        "train": "yes",
        "wikidata": "Q341195",
        "id": "node/4880516149"
      },
      "geometry": {
        "type": "Point",
        "coordinates": [
          128.2572873,
          36.1586495
        ]
      }
    },
    {
      "type": "Feature",
      "id": "node/4974511635",
      "properties": {
        "addr:city": "군포시",
        "addr:housenumber": "28",
        "addr:postcode": "15887",
        "addr:street": "대야1로",
        "name": "대야미",
        "name:en": "Daeyami",
        "name:ja": "大夜味",
        "name:ko": "대야미",
        "operator": "한국철도공사",
        "public_transport": "station",
        "railway": "station",
        "station": "subway",
        "subway": "yes",
        "train": "yes",
        "wikidata": "Q490578",
        "wikipedia": "ko:대야미역",
        "id": "node/4974511635"
      },
      "geometry": {
        "type": "Point",
        "coordinates": [
          126.9168618,
          37.3279256
        ]
      }
    },
    {
      "type": "Feature",
      "id": "node/5194520289",
      "properties": {
        "name": "괘법르네시떼",
        "name:en": "Gwaebeop Renecite",
        "name:ja": "クェボプ(掛法)ルネシテ",
        "name:ko": "괘법르네시떼",
        "name:zh": "掛法Renecite",
        "public_transport": "station",
        "railway": "station",
        "ref": "2",
        "station": "light_rail",
        "train": "yes",
        "wikidata": "Q705895",
        "id": "node/5194520289"
      },
      "geometry": {
        "type": "Point",
        "coordinates": [
          128.9777216,
          35.1632602
        ]
      }
    },
    {
      "type": "Feature",
      "id": "node/5225311374",
      "properties": {
        "description": "수도권 전철 경의중앙선,수인분당선 및 ITX 청춘 왕십리역",
        "internet_access": "wlan",
        "name": "왕십리",
        "name:en": "Wangsimni",
        "name:ja": "ワンシムニ",
        "name:ko": "왕십리",
        "name:zh": "往十里",
        "network": "수도권 전철",
        "operator": "한국철도공사",
        "public_transport": "station",
        "railway": "station",
        "ref": "K116;K210",
        "subway": "yes",
        "train": "yes",
        "wikidata": "Q17184",
        "wikipedia": "ko:왕십리역",
        "id": "node/5225311374"
      },
      "geometry": {
        "type": "Point",
        "coordinates": [
          127.0385786,
          37.5614861
        ]
      }
    },
    {
      "type": "Feature",
      "id": "node/5273293497",
      "properties": {
        "name": "응봉",
        "name:en": "Eungbong",
        "name:ja": "ウンボン(鷹峰)",
        "name:ko": "응봉",
        "operator": "한국철도공사",
        "public_transport": "station",
        "railway": "station",
        "station": "subway",
        "subway": "yes",
        "train": "yes",
        "wikidata": "Q58953",
        "wikipedia": "ko:응봉역",
        "id": "node/5273293497"
      },
      "geometry": {
        "type": "Point",
        "coordinates": [
          127.0347279,
          37.5502759
        ]
      }
    },
    {
      "type": "Feature",
      "id": "node/5273307894",
      "properties": {
        "name": "서빙고",
        "name:en": "Seobinggo",
        "name:ja": "ソビンゴ(西氷庫)",
        "name:ko": "서빙고",
        "operator": "한국철도공사",
        "public_transport": "station",
        "railway": "station",
        "station": "subway",
        "subway": "yes",
        "train": "yes",
        "id": "node/5273307894"
      },
      "geometry": {
        "type": "Point",
        "coordinates": [
          126.9883182,
          37.5195744
        ]
      }
    },
    {
      "type": "Feature",
      "id": "node/5274520073",
      "properties": {
        "alt_name": "제천역",
        "name": "제천",
        "name:en": "Jecheon",
        "name:ko": "제천",
        "note": "\"역\"이름 기입 금지",
        "operator": "한국철도공사",
        "public_transport": "station",
        "railway": "station",
        "train": "yes",
        "wikidata": "Q620025",
        "wikipedia": "en:Jecheon Station",
        "id": "node/5274520073"
      },
      "geometry": {
        "type": "Point",
        "coordinates": [
          128.2059637,
          37.1270743
        ]
      }
    },
    {
      "type": "Feature",
      "id": "node/5320511383",
      "properties": {
        "addr:city": "인천광역시",
        "addr:street": "월곶중앙로14번길",
        "name": "월곶",
        "name:en": "Wolgot",
        "name:ja": "月串(ウォルゴッ)",
        "name:ja_kana": "ウォルゴッ",
        "name:ko": "월곶",
        "operator": "한국철도공사",
        "public_transport": "station",
        "railway": "station",
        "station": "subway",
        "subway": "yes",
        "train": "yes",
        "wikidata": "Q547111",
        "wikipedia": "ko:월곶역",
        "id": "node/5320511383"
      },
      "geometry": {
        "type": "Point",
        "coordinates": [
          126.7427645,
          37.3918155
        ]
      }
    },
    {
      "type": "Feature",
      "id": "node/5323513159",
      "properties": {
        "layer": "-3",
        "name": "수정",
        "name:en": "Sujeong",
        "name:ja": "スジョン",
        "name:ko": "수정",
        "public_transport": "station",
        "railway": "station",
        "station": "subway",
        "train": "yes",
        "wikidata": "Q705814",
        "id": "node/5323513159"
      },
      "geometry": {
        "type": "Point",
        "coordinates": [
          129.0091715,
          35.2233039
        ]
      }
    },
    {
      "type": "Feature",
      "id": "node/5338792760",
      "properties": {
        "name": "능길",
        "name:en": "Neunggil",
        "name:ja": "ヌンギル",
        "name:ko": "능길",
        "name:zh": "陵道",
        "old_name": "신길온천",
        "old_name:en": "Singiloncheon",
        "operator": "한국철도공사",
        "public_transport": "station",
        "railway": "station",
        "station": "subway",
        "subway": "yes",
        "train": "yes",
        "wikidata": "Q490346",
        "wikipedia": "ko:신길온천역",
        "id": "node/5338792760"
      },
      "geometry": {
        "type": "Point",
        "coordinates": [
          126.7673001,
          37.3375382
        ]
      }
    },
    {
      "type": "Feature",
      "id": "node/5340678901",
      "properties": {
        "name": "구래",
        "name:en": "Gurae",
        "name:ja": "クレ(九来)",
        "name:ko": "구래",
        "name:zh": "九來",
        "public_transport": "station",
        "railway": "station",
        "ref": "101",
        "station": "subway",
        "subway": "yes",
        "train": "yes",
        "wikidata": "Q24864050",
        "id": "node/5340678901"
      },
      "geometry": {
        "type": "Point",
        "coordinates": [
          126.6285739,
          37.6453841
        ]
      }
    },
    {
      "type": "Feature",
      "id": "node/5340688293",
      "properties": {
        "name": "고촌",
        "name:en": "Gochon",
        "name:ja": "ゴチョン(高村)",
        "name:ko": "고촌",
        "name:zh": "高村",
        "public_transport": "station",
        "railway": "station",
        "ref": "108",
        "station": "subway",
        "train": "yes",
        "wikidata": "Q24864104",
        "id": "node/5340688293"
      },
      "geometry": {
        "type": "Point",
        "coordinates": [
          126.7701876,
          37.6013319
        ]
      }
    },
    {
      "type": "Feature",
      "id": "node/5347790596",
      "properties": {
        "internet_access": "wlan",
        "name": "정왕",
        "name:en": "Jeongwang",
        "name:ja": "正往(チョンワン)",
        "name:ja_kana": "チョンワン",
        "name:ko": "정왕",
        "network": "수도권 전철",
        "operator": "한국철도공사",
        "public_transport": "station",
        "railway": "station",
        "station": "subway",
        "subway": "yes",
        "train": "yes",
        "website": "http://info.korail.com/mbs/www/index.jsp",
        "wikidata": "Q490469",
        "wikipedia": "ko:정왕역",
        "id": "node/5347790596"
      },
      "geometry": {
        "type": "Point",
        "coordinates": [
          126.7429429,
          37.3517845
        ]
      }
    },
    {
      "type": "Feature",
      "id": "node/5347802252",
      "properties": {
        "name": "수리산",
        "name:en": "Surisan",
        "name:ja": "修理山",
        "name:ko": "수리산",
        "network": "수도권전철4호선",
        "operator": "한국철도공사",
        "public_transport": "station",
        "railway": "station",
        "station": "subway",
        "subway": "yes",
        "train": "yes",
        "wikidata": "Q497879",
        "wikipedia": "ko:수리산역",
        "id": "node/5347802252"
      },
      "geometry": {
        "type": "Point",
        "coordinates": [
          126.9255584,
          37.3504199
        ]
      }
    },
    {
      "type": "Feature",
      "id": "node/5351281122",
      "properties": {
        "alt_name": "이촌 (국립중앙박물관)",
        "alt_name:en": "Ichon (National Museum of Korea)",
        "name": "이촌",
        "name:en": "Ichon",
        "name:ja": "イチョン",
        "name:ko": "이촌",
        "name:zh": "二村",
        "operator": "한국철도공사",
        "public_transport": "station",
        "railway": "station",
        "station": "subway",
        "subway": "yes",
        "train": "yes",
        "wikidata": "Q58957",
        "wikipedia": "ko:이촌역",
        "id": "node/5351281122"
      },
      "geometry": {
        "type": "Point",
        "coordinates": [
          126.9733635,
          37.5224397
        ]
      }
    },
    {
      "type": "Feature",
      "id": "node/5417688235",
      "properties": {
        "name:ko": "북청주역(2021년)",
        "public_transport": "station",
        "railway": "station",
        "train": "yes",
        "id": "node/5417688235"
      },
      "geometry": {
        "type": "Point",
        "coordinates": [
          127.4442345,
          36.668953
        ]
      }
    },
    {
      "type": "Feature",
      "id": "node/5425834492",
      "properties": {
        "addr:city": "부산 부산진구 부전동",
        "addr:housenumber": "181",
        "addr:street": "부전로",
        "name": "부전",
        "name:en": "Bujeon",
        "name:eo": "Bujeon Stacio",
        "name:ja": "釜田",
        "name:ko": "부전",
        "name:ko-Hani": "釜田",
        "operator": "한국철도공사",
        "public_transport": "station",
        "railway": "station",
        "station": "train",
        "subway": "yes",
        "train": "yes",
        "wikidata": "Q624891",
        "wikipedia": "en:Bujeon station (Korail)",
        "id": "node/5425834492"
      },
      "geometry": {
        "type": "Point",
        "coordinates": [
          129.0601074,
          35.1646008
        ]
      }
    },
    {
      "type": "Feature",
      "id": "node/5442165368",
      "properties": {
        "name": "금촌",
        "name:en": "Geumchon",
        "name:ja": "クムチョン(金村)",
        "name:ko": "금촌",
        "name:ko-Latn": "Geumchonyeok",
        "ncat": "기차역",
        "public_transport": "station",
        "railway": "station",
        "source": "http://kr.open.gugi.yahoo.com",
        "station": "subway",
        "subway": "yes",
        "train": "yes",
        "wikidata": "Q59875",
        "id": "node/5442165368"
      },
      "geometry": {
        "type": "Point",
        "coordinates": [
          126.7744726,
          37.7661112
        ]
      }
    },
    {
      "type": "Feature",
      "id": "node/5442185227",
      "properties": {
        "addr:city": "경기도 고양시 덕양구",
        "addr:housenumber": "102",
        "addr:street": "소원로",
        "highspeed": "yes",
        "name": "행신",
        "name:en": "Haengsin",
        "name:ja": "ヘンシン(幸信)",
        "name:ko": "행신",
        "operator": "한국철도공사",
        "public_transport": "station",
        "railway": "station",
        "station": "subway",
        "subway": "yes",
        "train": "yes",
        "wikidata": "Q59850",
        "wikipedia": "ko:행신역",
        "id": "node/5442185227"
      },
      "geometry": {
        "type": "Point",
        "coordinates": [
          126.834087,
          37.6121452
        ]
      }
    },
    {
      "type": "Feature",
      "id": "node/5444369664",
      "properties": {
        "name": "독산",
        "name:en": "Doksan",
        "name:ja": "トクサン(禿山)",
        "public_transport": "station",
        "railway": "station",
        "station": "subway",
        "subway": "yes",
        "train": "yes",
        "id": "node/5444369664"
      },
      "geometry": {
        "type": "Point",
        "coordinates": [
          126.8894844,
          37.4660736
        ]
      }
    },
    {
      "type": "Feature",
      "id": "node/5444507509",
      "properties": {
        "name": "안양",
        "name:en": "Anyang",
        "name:ja": "アニャン(安養)",
        "name:ko": "안양",
        "operator": "한국철도공사",
        "public_transport": "station",
        "railway": "station",
        "station": "subway",
        "subway": "yes",
        "train": "yes",
        "wikidata": "Q54301",
        "id": "node/5444507509"
      },
      "geometry": {
        "type": "Point",
        "coordinates": [
          126.9228826,
          37.4016302
        ]
      }
    },
    {
      "type": "Feature",
      "id": "node/5446013304",
      "properties": {
        "name": "양정",
        "name:en": "Yangjeong",
        "name:ko": "양정",
        "public_transport": "station",
        "railway": "station",
        "station": "subway",
        "subway": "yes",
        "train": "yes",
        "wikidata": "Q482969",
        "id": "node/5446013304"
      },
      "geometry": {
        "type": "Point",
        "coordinates": [
          127.1946137,
          37.6040198
        ]
      }
    },
    {
      "type": "Feature",
      "id": "node/5446020616",
      "properties": {
        "name": "덕소",
        "name:en": "Deokso",
        "name:ko": "덕소",
        "operator": "한국철도공사",
        "public_transport": "station",
        "railway": "station",
        "station": "subway",
        "subway": "yes",
        "train": "yes",
        "wikidata": "Q58944",
        "wikipedia": "ko:덕소역",
        "id": "node/5446020616"
      },
      "geometry": {
        "type": "Point",
        "coordinates": [
          127.2088206,
          37.5869047
        ]
      }
    },
    {
      "type": "Feature",
      "id": "node/5448527919",
      "properties": {
        "name": "능곡",
        "name:en": "Neunggok",
        "name:ja": "ヌンゴク(陵谷)",
        "name:ko": "능곡",
        "operator": "한국철도공사;서부광역철도",
        "public_transport": "station",
        "railway": "station",
        "station": "subway",
        "subway": "yes",
        "train": "yes",
        "wikidata": "Q59852",
        "id": "node/5448527919"
      },
      "geometry": {
        "type": "Point",
        "coordinates": [
          126.8208008,
          37.6187422
        ]
      }
    },
    {
      "type": "Feature",
      "id": "node/5487467976",
      "properties": {
        "alt_name": "강구역",
        "alt_name:en": "Gangu Station",
        "name": "강구",
        "name:en": "Gangu",
        "name:ko": "강구",
        "network": "동해선",
        "operator": "한국철도공사",
        "public_transport": "station",
        "railway": "station",
        "train": "yes",
        "id": "node/5487467976"
      },
      "geometry": {
        "type": "Point",
        "coordinates": [
          129.3722762,
          36.3522076
        ]
      }
    },
    {
      "type": "Feature",
      "id": "node/5487467993",
      "properties": {
        "alt_name": "장사역",
        "name": "장사",
        "name:en": "Jangsa",
        "name:ko": "장사",
        "network": "동해선",
        "operator": "한국철도공사",
        "public_transport": "station",
        "railway": "station",
        "train": "yes",
        "id": "node/5487467993"
      },
      "geometry": {
        "type": "Point",
        "coordinates": [
          129.3691361,
          36.2841414
        ]
      }
    },
    {
      "type": "Feature",
      "id": "node/5487472514",
      "properties": {
        "alt_name": "월포역",
        "name": "월포",
        "name:en": "Wolpo",
        "name:ko": "월포",
        "public_transport": "station",
        "railway": "station",
        "train": "yes",
        "id": "node/5487472514"
      },
      "geometry": {
        "type": "Point",
        "coordinates": [
          129.3664017,
          36.2040057
        ]
      }
    },
    {
      "type": "Feature",
      "id": "node/5535381367",
      "properties": {
        "highspeed": "yes",
        "internet_access": "wlan",
        "name": "동탄",
        "name:en": "Dongtan",
        "name:ja": "東灘",
        "name:ja-Hira": "とんたん",
        "name:ko": "동탄",
        "operator": "주식회사SR",
        "public_transport": "station",
        "railway": "station",
        "station": "highspeed",
        "train": "yes",
        "wikidata": "Q23954759",
        "wikipedia": "ko:동탄역",
        "id": "node/5535381367"
      },
      "geometry": {
        "type": "Point",
        "coordinates": [
          127.0955279,
          37.2003658
        ]
      }
    },
    {
      "type": "Feature",
      "id": "node/5549811384",
      "properties": {
        "public_transport": "station",
        "railway": "station",
        "train": "yes",
        "id": "node/5549811384"
      },
      "geometry": {
        "type": "Point",
        "coordinates": [
          129.0390629,
          37.2130226
        ]
      }
    },
    {
      "type": "Feature",
      "id": "node/5747415218",
      "properties": {
        "addr:city": "부산광역시 해운대구",
        "addr:district": "해운대구",
        "addr:housenumber": "427",
        "addr:neighbourhood": "좌동",
        "addr:postcode": "48066",
        "addr:street": "장산로",
        "name": "신해운대",
        "name:en": "Sinhaeundae",
        "name:ja": "新海雲台",
        "name:ko": "신해운대",
        "name:ko-Hani": "新海雲臺",
        "name:ko-Latn": "Sinhaeundaeyeok",
        "operator": "한국철도공사",
        "public_transport": "station",
        "railway": "station",
        "subway": "yes",
        "train": "yes",
        "wheelchair": "yes",
        "wikidata": "Q1234122",
        "id": "node/5747415218"
      },
      "geometry": {
        "type": "Point",
        "coordinates": [
          129.1768241,
          35.1817359
        ]
      }
    },
    {
      "type": "Feature",
      "id": "node/5772099311",
      "properties": {
        "addr:city": "서울특별시 용산구",
        "addr:housenumber": "405",
        "addr:postcode": "04320",
        "addr:street": "한강대로",
        "alt_name": "서울역",
        "alt_name:en": "Seoul Station",
        "description": "KTX, 무궁화호등 일반열차 철도역. (Train station. not subway Station)",
        "internet_access": "wlan",
        "name": "서울",
        "name:en": "Seoul",
        "name:ja": "ソウル",
        "name:ko": "서울",
        "name:zh": "首尔",
        "operator": "한국철도공사",
        "public_transport": "station",
        "railway": "station",
        "relation": "수도권 전철 경의중앙선",
        "toilets:wheelchair": "yes",
        "train": "yes",
        "wheelchair": "limited",
        "wikidata": "Q20415",
        "wikipedia": "ko:서울역",
        "id": "node/5772099311"
      },
      "geometry": {
        "type": "Point",
        "coordinates": [
          126.9707793,
          37.5545547
        ]
      }
    },
    {
      "type": "Feature",
      "id": "node/5786705261",
      "properties": {
        "addr:city": "부산광역시 기장군",
        "addr:housenumber": "86",
        "addr:street": "차성로288번길",
        "name": "기장",
        "name:en": "Gijang",
        "name:ja": "機張駅",
        "name:ko": "기장",
        "name:ko-Hani": "機張",
        "name:ko-Latn": "Gijangnyeok",
        "operator": "한국철도공사",
        "public_transport": "station",
        "railway": "station",
        "subway": "yes",
        "train": "yes",
        "id": "node/5786705261"
      },
      "geometry": {
        "type": "Point",
        "coordinates": [
          129.2189162,
          35.2444462
        ]
      }
    },
    {
      "type": "Feature",
      "id": "node/5803833316",
      "properties": {
        "name": "금릉",
        "name:en": "Geumneung",
        "name:ja": "クムロン(金陵)",
        "name:ko": "금릉",
        "public_transport": "station",
        "railway": "station",
        "station": "subway",
        "subway": "yes",
        "train": "yes",
        "wikidata": "Q59873",
        "id": "node/5803833316"
      },
      "geometry": {
        "type": "Point",
        "coordinates": [
          126.765343,
          37.7513781
        ]
      }
    },
    {
      "type": "Feature",
      "id": "node/5812740054",
      "properties": {
        "addr:city": "상록구",
        "addr:housenumber": "119-10",
        "addr:postcode": "15521",
        "addr:street": "건건로",
        "name": "반월",
        "name:en": "Banwol",
        "name:ja": "半月",
        "name:ko": "반월",
        "operator": "한국철도공사",
        "public_transport": "station",
        "railway": "station",
        "station": "subway",
        "subway": "yes",
        "train": "yes",
        "wikidata": "Q490591",
        "wikipedia": "ko:반월역",
        "id": "node/5812740054"
      },
      "geometry": {
        "type": "Point",
        "coordinates": [
          126.9038361,
          37.3124221
        ]
      }
    },
    {
      "type": "Feature",
      "id": "node/5821698813",
      "properties": {
        "name": "춘천",
        "name:en": "Chuncheon",
        "name:ja": "チュンチョン(春川)",
        "name:ko": "춘천",
        "operator": "한국철도공사",
        "public_transport": "station",
        "railway": "station",
        "station": "subway",
        "subway": "yes",
        "train": "yes",
        "wikidata": "Q49948",
        "id": "node/5821698813"
      },
      "geometry": {
        "type": "Point",
        "coordinates": [
          127.716664,
          37.8845604
        ]
      }
    },
    {
      "type": "Feature",
      "id": "node/5835544502",
      "properties": {
        "addr:city": "영등포구",
        "addr:housenumber": "846",
        "addr:street": "경인로",
        "alt_name": "영등포역",
        "alt_name:en": "Yeongdeungpo Station",
        "internet_access": "wlan",
        "name": "영등포",
        "name:en": "Yeongdeungpo",
        "name:ja": "ヨンドゥンポ(永登浦)",
        "name:ko": "영등포",
        "name:zh": "永登浦",
        "network": "한국철도공사",
        "public_transport": "station",
        "railway": "station",
        "station": "train",
        "subway": "yes",
        "train": "yes",
        "website": "http://www.letskorail.com/ebizprd/stationKtxView.do?stationSeq=10279285&searchCondition=ktx1",
        "wikidata": "Q43311",
        "wikipedia": "en:Yeongdeungpo Station",
        "id": "node/5835544502"
      },
      "geometry": {
        "type": "Point",
        "coordinates": [
          126.9076335,
          37.5156447
        ]
      }
    },
    {
      "type": "Feature",
      "id": "node/5840686671",
      "properties": {
        "addr:city": "용산구 한강로3가",
        "addr:housenumber": "55",
        "addr:postcode": "04377",
        "addr:street": "한강대로23길",
        "alt_name": "용산역",
        "alt_name:en": "Yongsan station",
        "internet_access": "wlan",
        "name": "용산",
        "name:en": "Yongsan",
        "name:ja": "ヨンサン(龍山)",
        "name:ko": "용산",
        "name:zh": "龙山",
        "operator": "한국철도공사",
        "public_transport": "station",
        "railway": "station",
        "station": "train",
        "subway": "yes",
        "train": "yes",
        "wikidata": "Q20416",
        "wikipedia": "ko:용산역",
        "id": "node/5840686671"
      },
      "geometry": {
        "type": "Point",
        "coordinates": [
          126.9651428,
          37.5301906
        ]
      }
    },
    {
      "type": "Feature",
      "id": "node/5842009774",
      "properties": {
        "name": "팔당",
        "name:en": "Paldang",
        "name:ko": "팔당",
        "public_transport": "station",
        "railway:historic": "station",
        "train": "yes",
        "id": "node/5842009774"
      },
      "geometry": {
        "type": "Point",
        "coordinates": [
          127.250888,
          37.5434788
        ]
      }
    },
    {
      "type": "Feature",
      "id": "node/5874928699",
      "properties": {
        "name": "신흥리",
        "name:en": "Sinheung-ri",
        "name:ko": "신흥리",
        "public_transport": "station",
        "railway": "disused_station",
        "train": "disused",
        "id": "node/5874928699"
      },
      "geometry": {
        "type": "Point",
        "coordinates": [
          126.7974504,
          35.3847323
        ]
      }
    },
    {
      "type": "Feature",
      "id": "node/5881583288",
      "properties": {
        "name": "가평",
        "name:en": "Gapyeong",
        "name:ja": "カピョン",
        "name:ko": "가평",
        "public_transport": "station",
        "railway": "station",
        "station": "subway",
        "subway": "yes",
        "train": "yes",
        "id": "node/5881583288"
      },
      "geometry": {
        "type": "Point",
        "coordinates": [
          127.5107574,
          37.8145761
        ]
      }
    },
    {
      "type": "Feature",
      "id": "node/5881583344",
      "properties": {
        "name": "굴봉산",
        "name:en": "Gulbongsan",
        "name:ja": "クルボンサン",
        "name:ko": "굴봉산",
        "public_transport": "station",
        "railway": "station",
        "station": "subway",
        "subway": "yes",
        "train": "yes",
        "id": "node/5881583344"
      },
      "geometry": {
        "type": "Point",
        "coordinates": [
          127.5571369,
          37.8319287
        ]
      }
    },
    {
      "type": "Feature",
      "id": "node/5881583619",
      "properties": {
        "name": "김유정",
        "name:en": "Gimyujeong",
        "name:ja": "キミュジョン(金裕貞)",
        "name:ko": "김유정",
        "name:zh": "金裕贞",
        "ncat": "기차역",
        "public_transport": "station",
        "railway": "station",
        "source": "http://kr.open.gugi.yahoo.com",
        "station": "subway",
        "subway": "yes",
        "train": "yes",
        "wikidata": "Q49954",
        "id": "node/5881583619"
      },
      "geometry": {
        "type": "Point",
        "coordinates": [
          127.7140763,
          37.8184357
        ]
      }
    },
    {
      "type": "Feature",
      "id": "node/5881583631",
      "properties": {
        "name": "남춘천",
        "name:en": "Namchuncheon",
        "name:ja": "ナムチュンチョン(南春川)",
        "name:ko": "남춘천",
        "public_transport": "station",
        "railway": "station",
        "station": "subway",
        "subway": "yes",
        "train": "yes",
        "id": "node/5881583631"
      },
      "geometry": {
        "type": "Point",
        "coordinates": [
          127.7239381,
          37.8640114
        ]
      }
    },
    {
      "type": "Feature",
      "id": "node/5881815128",
      "properties": {
        "name": "금곡",
        "name:en": "Geumgok",
        "name:ja": "クムゴク",
        "name:ko": "금곡",
        "operator": "KORAIL",
        "platforms": "2",
        "public_transport": "station",
        "railway": "station",
        "ref": "P127",
        "station": "subway",
        "subway": "yes",
        "train": "yes",
        "id": "node/5881815128"
      },
      "geometry": {
        "type": "Point",
        "coordinates": [
          127.2074445,
          37.637287
        ]
      }
    },
    {
      "type": "Feature",
      "id": "node/5881815147",
      "properties": {
        "name": "평내호평",
        "name:en": "PyeongnaeHopyeong",
        "name:ja": "ピョンネホピョン",
        "name:ko": "평내호평",
        "public_transport": "station",
        "railway": "station",
        "station": "subway",
        "subway": "yes",
        "train": "yes",
        "wikidata": "Q49980",
        "id": "node/5881815147"
      },
      "geometry": {
        "type": "Point",
        "coordinates": [
          127.2444899,
          37.6532144
        ]
      }
    },
    {
      "type": "Feature",
      "id": "node/5881815171",
      "properties": {
        "name": "천마산",
        "name:en": "Cheonmasan",
        "name:ja": "チョンマサン",
        "name:ko": "천마산",
        "public_transport": "station",
        "railway": "station",
        "station": "subway",
        "subway": "yes",
        "train": "yes",
        "wikidata": "Q11500343",
        "id": "node/5881815171"
      },
      "geometry": {
        "type": "Point",
        "coordinates": [
          127.2850496,
          37.6592164
        ]
      }
    },
    {
      "type": "Feature",
      "id": "node/5881815357",
      "properties": {
        "name": "마석",
        "name:en": "Maseok",
        "name:ja": "マソク",
        "name:ko": "마석",
        "public_transport": "station",
        "railway": "station",
        "station": "subway",
        "subway": "yes",
        "train": "yes",
        "wikidata": "Q49978",
        "id": "node/5881815357"
      },
      "geometry": {
        "type": "Point",
        "coordinates": [
          127.3116745,
          37.6527753
        ]
      }
    },
    {
      "type": "Feature",
      "id": "node/5881815521",
      "properties": {
        "name": "청평",
        "name:en": "Cheongpyeong",
        "name:ja": "チョンピョン",
        "name:ko": "청평",
        "public_transport": "station",
        "railway": "station",
        "station": "subway",
        "subway": "yes",
        "train": "yes",
        "wikidata": "Q49972",
        "id": "node/5881815521"
      },
      "geometry": {
        "type": "Point",
        "coordinates": [
          127.4266005,
          37.735536
        ]
      }
    },
    {
      "type": "Feature",
      "id": "node/5881815796",
      "properties": {
        "name": "상천",
        "name:en": "Sangcheon",
        "name:ja": "サンチョン",
        "name:ko": "상천",
        "public_transport": "station",
        "railway": "station",
        "station": "subway",
        "subway": "yes",
        "train": "yes",
        "wikidata": "Q49968",
        "id": "node/5881815796"
      },
      "geometry": {
        "type": "Point",
        "coordinates": [
          127.4544009,
          37.7701656
        ]
      }
    },
    {
      "type": "Feature",
      "id": "node/5884250499",
      "properties": {
        "name": "갈매",
        "name:en": "Galmae",
        "name:ja": "カルメ",
        "name:ko": "갈매",
        "operator": "Korail",
        "platforms": "2",
        "public_transport": "station",
        "railway": "station",
        "station": "subway",
        "subway": "yes",
        "train": "yes",
        "wikidata": "Q49992",
        "id": "node/5884250499"
      },
      "geometry": {
        "type": "Point",
        "coordinates": [
          127.1147293,
          37.6339464
        ]
      }
    },
    {
      "type": "Feature",
      "id": "node/5884250514",
      "properties": {
        "name": "별내",
        "name:en": "Byeollae",
        "name:ja": "ピョルレ(別内)",
        "name:ko": "별내",
        "public_transport": "station",
        "railway": "station",
        "station": "subway",
        "subway": "yes",
        "train": "yes",
        "wikidata": "Q702027",
        "id": "node/5884250514"
      },
      "geometry": {
        "type": "Point",
        "coordinates": [
          127.1276086,
          37.642333
        ]
      }
    },
    {
      "type": "Feature",
      "id": "node/5884250531",
      "properties": {
        "name": "퇴계원",
        "name:en": "Toegyewon",
        "name:ja": "テゲウォン",
        "name:ko": "퇴계원",
        "operator": "Korail",
        "platforms": "2",
        "public_transport": "station",
        "railway": "station",
        "source": "gps",
        "station": "subway",
        "subway": "yes",
        "train": "yes",
        "wikidata": "Q49990",
        "id": "node/5884250531"
      },
      "geometry": {
        "type": "Point",
        "coordinates": [
          127.1435322,
          37.6482557
        ]
      }
    },
    {
      "type": "Feature",
      "id": "node/5889529434",
      "properties": {
        "name": "신원",
        "name:en": "Sinwon",
        "name:ko": "신원",
        "public_transport": "station",
        "railway": "station",
        "station": "subway",
        "subway": "yes",
        "train": "yes",
        "wikidata": "Q58935",
        "id": "node/5889529434"
      },
      "geometry": {
        "type": "Point",
        "coordinates": [
          127.3727035,
          37.5259709
        ]
      }
    },
    {
      "type": "Feature",
      "id": "node/5889529448",
      "properties": {
        "name": "국수",
        "name:en": "Guksu",
        "name:ko": "국수",
        "public_transport": "station",
        "railway": "station",
        "station": "subway",
        "subway": "yes",
        "train": "yes",
        "wikidata": "Q58934",
        "id": "node/5889529448"
      },
      "geometry": {
        "type": "Point",
        "coordinates": [
          127.3993318,
          37.5161724
        ]
      }
    },
    {
      "type": "Feature",
      "id": "node/5889529461",
      "properties": {
        "name": "아신",
        "name:en": "Asin",
        "name:ko": "아신",
        "public_transport": "station",
        "railway": "station",
        "station": "subway",
        "subway": "yes",
        "train": "yes",
        "wikidata": "Q58933",
        "id": "node/5889529461"
      },
      "geometry": {
        "type": "Point",
        "coordinates": [
          127.4432369,
          37.5139172
        ]
      }
    },
    {
      "type": "Feature",
      "id": "node/5889529469",
      "properties": {
        "name": "오빈",
        "name:en": "Obin",
        "name:ko": "오빈",
        "public_transport": "station",
        "railway": "station",
        "station": "subway",
        "subway": "yes",
        "train": "yes",
        "wikidata": "Q58930",
        "id": "node/5889529469"
      },
      "geometry": {
        "type": "Point",
        "coordinates": [
          127.4738918,
          37.5061587
        ]
      }
    },
    {
      "type": "Feature",
      "id": "node/5889532068",
      "properties": {
        "name": "양평",
        "name:en": "Yangpyeong",
        "name:ja": "ヤンピョン(楊平)",
        "name:ko": "양평",
        "operator": "한국철도공사",
        "public_transport": "station",
        "railway": "station",
        "station": "subway",
        "subway": "yes",
        "train": "yes",
        "wikidata": "Q56141",
        "id": "node/5889532068"
      },
      "geometry": {
        "type": "Point",
        "coordinates": [
          127.4916795,
          37.4928145
        ]
      }
    },
    {
      "type": "Feature",
      "id": "node/5890164145",
      "properties": {
        "name": "운길산",
        "name:en": "Ungilsan",
        "name:ko": "운길산",
        "public_transport": "station",
        "railway": "station",
        "station": "subway",
        "subway": "yes",
        "train": "yes",
        "wikidata": "Q58941",
        "id": "node/5890164145"
      },
      "geometry": {
        "type": "Point",
        "coordinates": [
          127.3098747,
          37.5547878
        ]
      }
    },
    {
      "type": "Feature",
      "id": "node/5894627167",
      "properties": {
        "addr:city": "아산시 온천동",
        "addr:housenumber": "1496",
        "addr:street": "온천대로",
        "name": "온양온천",
        "name:en": "Onyangoncheon",
        "name:ko": "온양온천",
        "operator": "한국철도공사",
        "public_transport": "station",
        "railway": "station",
        "station": "train",
        "subway": "yes",
        "train": "yes",
        "wikidata": "Q167611",
        "wikipedia": "ko:온양온천역",
        "id": "node/5894627167"
      },
      "geometry": {
        "type": "Point",
        "coordinates": [
          127.0031561,
          36.7805526
        ]
      }
    },
    {
      "type": "Feature",
      "id": "node/5896286361",
      "properties": {
        "name": "서정리",
        "name:en": "Seojeong-ri",
        "name:ko": "서정리",
        "operator": "한국철도공사",
        "public_transport": "station",
        "railway": "station",
        "station": "train",
        "subway": "yes",
        "train": "yes",
        "wheelchair": "yes",
        "wikidata": "Q167500",
        "id": "node/5896286361"
      },
      "geometry": {
        "type": "Point",
        "coordinates": [
          127.0529486,
          37.0570768
        ]
      }
    },
    {
      "type": "Feature",
      "id": "node/5904958058",
      "properties": {
        "name": "서동탄",
        "name:en": "Seodongtan",
        "name:ko": "서동탄",
        "operator": "한국철도공사",
        "public_transport": "station",
        "railway": "station",
        "station": "subway",
        "subway": "yes",
        "train": "yes",
        "wikidata": "Q54310",
        "wikipedia": "ko:서동탄역",
        "id": "node/5904958058"
      },
      "geometry": {
        "type": "Point",
        "coordinates": [
          127.0520326,
          37.1956553
        ]
      }
    },
    {
      "type": "Feature",
      "id": "node/5907964902",
      "properties": {
        "addr:city": "인천광역시",
        "addr:housenumber": "17",
        "addr:street": "은청로",
        "name": "남동인더스파크",
        "name:en": "Namdong Induspark",
        "name:ja": "南洞産業団地 (ナムドン·インダスパーク)",
        "name:ko": "남동인더스파크",
        "name:zh": "南洞产业团地",
        "operator": "한국철도공사",
        "public_transport": "station",
        "railway": "station",
        "station": "subway",
        "subway": "yes",
        "train": "yes",
        "wikidata": "Q10856060",
        "wikipedia": "ko:남동인더스파크역",
        "id": "node/5907964902"
      },
      "geometry": {
        "type": "Point",
        "coordinates": [
          126.6952345,
          37.4077519
        ]
      }
    },
    {
      "type": "Feature",
      "id": "node/5907964998",
      "properties": {
        "addr:city": "인천광역시",
        "addr:housenumber": "205",
        "addr:street": "호구포로",
        "name": "호구포",
        "name:en": "Hogupo",
        "name:ja": "虎口浦 (ホグポ)",
        "name:ko": "호구포",
        "operator": "한국철도공사",
        "public_transport": "station",
        "railway": "station",
        "station": "subway",
        "subway": "yes",
        "train": "yes",
        "wikidata": "Q547163",
        "wikipedia": "ko:호구포역",
        "id": "node/5907964998"
      },
      "geometry": {
        "type": "Point",
        "coordinates": [
          126.7086388,
          37.4016902
        ]
      }
    },
    {
      "type": "Feature",
      "id": "node/5907965015",
      "properties": {
        "addr:housenumber": "567",
        "addr:street": "청능대로",
        "name": "인천논현",
        "name:en": "Incheon Nonhyeon",
        "name:ja": "仁川論峴 (インチョンノンヒョン)",
        "name:ko": "인천논현",
        "operator": "한국철도공사",
        "public_transport": "station",
        "railway": "station",
        "station": "subway",
        "subway": "yes",
        "train": "yes",
        "wikidata": "Q492195",
        "wikipedia": "ko:인천논현역",
        "id": "node/5907965015"
      },
      "geometry": {
        "type": "Point",
        "coordinates": [
          126.7225648,
          37.4006866
        ]
      }
    },
    {
      "type": "Feature",
      "id": "node/5910775264",
      "properties": {
        "name": "숭의",
        "name:en": "Sungui",
        "name:ja": "崇義(スンイ)",
        "name:ko": "숭의",
        "name:zh": "崇义",
        "operator": "한국철도공사",
        "public_transport": "station",
        "railway": "station",
        "station": "subway",
        "subway": "yes",
        "train": "yes",
        "wikidata": "Q16095154",
        "wikipedia": "ko:숭의역",
        "id": "node/5910775264"
      },
      "geometry": {
        "type": "Point",
        "coordinates": [
          126.6382349,
          37.4607927
        ]
      }
    },
    {
      "type": "Feature",
      "id": "node/5910775265",
      "properties": {
        "name": "신포",
        "name:en": "Sinpo",
        "name:ja": "新浦(シンポ)",
        "name:ko": "신포",
        "name:zh": "新浦",
        "operator": "한국철도공사",
        "public_transport": "station",
        "railway": "station",
        "station": "subway",
        "subway": "yes",
        "train": "yes",
        "wikidata": "Q18815348",
        "wikipedia": "ko:신포역 (인천)",
        "id": "node/5910775265"
      },
      "geometry": {
        "type": "Point",
        "coordinates": [
          126.6248171,
          37.4682643
        ]
      }
    },
    {
      "type": "Feature",
      "id": "node/5910775269",
      "properties": {
        "name": "인하대",
        "name:en": "Inha Univ.",
        "name:ja": "インハデ(仁荷大)",
        "name:ko": "인하대",
        "name:zh": "仁荷大学",
        "operator": "한국철도공사",
        "public_transport": "station",
        "railway": "station",
        "station": "subway",
        "subway": "yes",
        "train": "yes",
        "wikidata": "Q1593043",
        "wikipedia": "ko:인하대역",
        "id": "node/5910775269"
      },
      "geometry": {
        "type": "Point",
        "coordinates": [
          126.6497844,
          37.4482473
        ]
      }
    },
    {
      "type": "Feature",
      "id": "node/5910775653",
      "properties": {
        "addr:city": "옥련동",
        "addr:housenumber": "175",
        "addr:street": "비류대로",
        "name": "송도",
        "name:en": "Songdo",
        "name:ja": "松島(ソンド)",
        "name:ko": "송도",
        "name:zh": "松岛",
        "note": "추후 인천발 KTX의 시종착역이 될 예정이다.(2025년예정) 그로인해 북서쪽 화물선 부지에 주박선 2개와 섬식승강장 설치(410m), 동쪽 방향으로 인상선 설치, 역건물 서쪽으로 증축할 예정이다. KTX가 개통되면 기차역으로 바꾸어주십시오",
        "operator": "한국철도공사",
        "public_transport": "station",
        "railway": "station",
        "station": "subway",
        "subway": "yes",
        "train": "yes",
        "wikidata": "Q20400",
        "wikipedia": "ko:송도역",
        "id": "node/5910775653"
      },
      "geometry": {
        "type": "Point",
        "coordinates": [
          126.6547155,
          37.4299382
        ]
      }
    },
    {
      "type": "Feature",
      "id": "node/5919544685",
      "properties": {
        "addr:housenumber": "160",
        "addr:street": "양화로",
        "name": "홍대입구",
        "name:en": "Hongik Univ.",
        "name:ja": "ホンデイック(弘大入口)",
        "name:ko": "홍대입구",
        "name:ko-Latn": "Hongdaeibgu",
        "name:zh": "弘益大学",
        "operator": "서울교통공사;한국철도공사;공항철도주식회사",
        "platforms": "2",
        "public_transport": "station",
        "railway": "station",
        "ref": "239",
        "station": "subway",
        "subway": "yes",
        "train": "yes",
        "wheelchair": "yes",
        "id": "node/5919544685"
      },
      "geometry": {
        "type": "Point",
        "coordinates": [
          126.9256952,
          37.5582622
        ]
      }
    },
    {
      "type": "Feature",
      "id": "node/5919544813",
      "properties": {
        "name": "공항화물청사",
        "name:en": "Incheon International Airport Cargo Terminal",
        "name:ja": "空港貨物庁舎",
        "name:ko": "공항화물청사",
        "name:zh-CN": "机场货物办公楼",
        "operator": "Korail Airport Railroad",
        "public_transport": "station",
        "railway": "station",
        "station": "subway",
        "subway": "yes",
        "train": "yes",
        "wikidata": "Q54256",
        "id": "node/5919544813"
      },
      "geometry": {
        "type": "Point",
        "coordinates": [
          126.4774954,
          37.4590304
        ]
      }
    },
    {
      "type": "Feature",
      "id": "node/5919544816",
      "properties": {
        "alt_name": "인천국제공항1터미널",
        "int_name": "Incheon Int’l Airport Terminal 1",
        "name": "인천공항1터미널",
        "name:en": "Incheon Int'l Airport Terminal 1",
        "name:ja": "仁川国際空港1ターミナル",
        "name:ko": "인천공항1터미널",
        "name:zh": "仁川国际机场1号航站楼",
        "old_name": "인천국제공항",
        "old_name:en": "Incheon International Airport",
        "old_name:ja": "仁川国際空港",
        "old_name:ko": "인천국제공항",
        "old_name:zh": "仁川国际机场",
        "operator": "Korail Airport Railroad",
        "public_transport": "station",
        "railway": "station",
        "short_name:en": "Incheon Int’l Airport Terminal 1",
        "station": "subway",
        "subway": "yes",
        "train": "yes",
        "id": "node/5919544816"
      },
      "geometry": {
        "type": "Point",
        "coordinates": [
          126.4527808,
          37.447159
        ]
      }
    },
    {
      "type": "Feature",
      "id": "node/5919544839",
      "properties": {
        "addr:city": "인천광역시",
        "addr:housenumber": "272",
        "addr:postcode": "22382",
        "addr:street": "공항로",
        "alt_name": "인천국제공항2터미널",
        "building": "train_station",
        "name": "인천공항2터미널",
        "name:en": "Incheon Int'l Airport Terminal 2",
        "name:ja": "仁川国際空港2ターミナル",
        "name:ko": "인천공항2터미널",
        "name:zh-Hans": "仁川国际机场2号航站楼",
        "name:zh-Hant": "仁川國際機場第2航廈",
        "public_transport": "station",
        "railway": "station",
        "start_date": "2018-01-13",
        "station": "subway",
        "subway": "yes",
        "train": "yes",
        "wikidata": "Q31178924",
        "id": "node/5919544839"
      },
      "geometry": {
        "type": "Point",
        "coordinates": [
          126.4334747,
          37.4689424
        ]
      }
    },
    {
      "type": "Feature",
      "id": "node/5930638324",
      "properties": {
        "alt_name": "부발역",
        "alt_name:en": "Bubal Station",
        "name": "부발",
        "name:en": "Bubal",
        "name:ja": "夫鉢",
        "name:ja_kana": "プバル",
        "name:ko": "부발",
        "name:zh": "夫鉢",
        "operator": "한국철도공사",
        "public_transport": "station",
        "railway": "station",
        "start_date": "2016-09-24;2021-12-31",
        "station": "subway",
        "subway": "yes",
        "train": "yes",
        "wikidata": "Q23936227",
        "wikipedia": "ko:부발역",
        "id": "node/5930638324"
      },
      "geometry": {
        "type": "Point",
        "coordinates": [
          127.4903284,
          37.2604023
        ]
      }
    },
    {
      "type": "Feature",
      "id": "node/5933896994",
      "properties": {
        "bicycle": "yes",
        "name": "옥수",
        "name:en": "Oksu",
        "name:ja": "オッス(玉水)",
        "name:ko": "옥수",
        "public_transport": "station",
        "railway": "station",
        "station": "subway",
        "subway": "yes",
        "train": "yes",
        "wikidata": "Q34696",
        "id": "node/5933896994"
      },
      "geometry": {
        "type": "Point",
        "coordinates": [
          127.0183585,
          37.540264
        ]
      }
    },
    {
      "type": "Feature",
      "id": "node/5937907124",
      "properties": {
        "name": "화정",
        "name:en": "Hwajeong",
        "name:ja": "ファジョン(花井)",
        "name:ko": "화정",
        "public_transport": "station",
        "railway": "station",
        "station": "subway",
        "subway": "yes",
        "train": "yes",
        "wikidata": "Q79836",
        "id": "node/5937907124"
      },
      "geometry": {
        "type": "Point",
        "coordinates": [
          126.832577,
          37.6346457
        ]
      }
    },
    {
      "type": "Feature",
      "id": "node/5942137502",
      "properties": {
        "light_rail": "yes",
        "name": "사상",
        "name:en": "Sasang",
        "network": "사상하단선",
        "operator": "부산교통공사",
        "public_transport": "station",
        "railway": "station",
        "train": "yes",
        "id": "node/5942137502"
      },
      "geometry": {
        "type": "Point",
        "coordinates": [
          128.9845477,
          35.1621553
        ]
      }
    },
    {
      "type": "Feature",
      "id": "node/6006354021",
      "properties": {
        "name": "서대전",
        "name:en": "Seodaejeon",
        "name:ja": "ソデジョン",
        "name:ko": "서대전",
        "name:zh": "西大田",
        "operator": "한국철도공사",
        "public_transport": "station",
        "railway": "station",
        "train": "yes",
        "wikidata": "Q54293",
        "wikipedia": "ko:서대전역",
        "id": "node/6006354021"
      },
      "geometry": {
        "type": "Point",
        "coordinates": [
          127.4031961,
          36.3225055
        ]
      }
    },
    {
      "type": "Feature",
      "id": "node/6039313661",
      "properties": {
        "name": "공덕",
        "name:en": "Gongdeok",
        "name:ja": "コンドク(孔徳)",
        "name:ko": "공덕",
        "name:zh": "孔徳",
        "public_transport": "station",
        "railway": "station",
        "station": "subway",
        "subway": "yes",
        "train": "yes",
        "wheelchair": "yes",
        "wikidata": "Q54272",
        "id": "node/6039313661"
      },
      "geometry": {
        "type": "Point",
        "coordinates": [
          126.9508061,
          37.5436538
        ]
      }
    },
    {
      "type": "Feature",
      "id": "node/6041674894",
      "properties": {
        "name": "효창공원앞",
        "name:en": "Hyochang Park",
        "name:ja": "ヒョチャンコンウォナプ(孝昌公園前)",
        "name:ko": "효창공원앞",
        "name:zh": "孝昌公園",
        "public_transport": "station",
        "railway": "station",
        "station": "subway",
        "subway": "yes",
        "train": "yes",
        "wikidata": "Q487828",
        "wikipedia": "en:Hyochang Park station",
        "id": "node/6041674894"
      },
      "geometry": {
        "type": "Point",
        "coordinates": [
          126.9613324,
          37.5393413
        ]
      }
    },
    {
      "type": "Feature",
      "id": "node/6094326939",
      "properties": {
        "bicycle": "yes",
        "name": "송파",
        "name:en": "Songpa",
        "name:ja": "ソンパ(松坡)",
        "name:ko": "송파",
        "public_transport": "station",
        "railway": "station",
        "station": "subway",
        "subway": "yes",
        "train": "yes",
        "wikidata": "Q75341",
        "wikipedia": "ko:송파역",
        "id": "node/6094326939"
      },
      "geometry": {
        "type": "Point",
        "coordinates": [
          127.1121822,
          37.4997247
        ]
      }
    },
    {
      "type": "Feature",
      "id": "node/6132712618",
      "properties": {
        "alt_name": "북울산역",
        "name": "북울산",
        "name:en": "Bugulsan",
        "name:ko": "북울산",
        "operator": "한국철도공사",
        "public_transport": "station",
        "railway": "station",
        "start_date": "2021-12-28",
        "station": "tram",
        "train": "yes",
        "id": "node/6132712618"
      },
      "geometry": {
        "type": "Point",
        "coordinates": [
          129.3724491,
          35.6148687
        ]
      }
    },
    {
      "type": "Feature",
      "id": "node/6353989250",
      "properties": {
        "name": "동백산",
        "name:en": "Dongbaeksan",
        "public_transport": "station",
        "railway": "station",
        "train": "yes",
        "id": "node/6353989250"
      },
      "geometry": {
        "type": "Point",
        "coordinates": [
          129.0345384,
          37.1549137
        ]
      }
    },
    {
      "type": "Feature",
      "id": "node/6438230399",
      "properties": {
        "name": "판대",
        "operator": "No",
        "public_transport": "station",
        "railway": "station",
        "train": "yes",
        "wikipedia": "ko:판대역",
        "id": "node/6438230399"
      },
      "geometry": {
        "type": "Point",
        "coordinates": [
          127.7817492,
          37.3938896
        ]
      }
    },
    {
      "type": "Feature",
      "id": "node/6480269468",
      "properties": {
        "addr:city": "부산광역시 해운대구 제송동",
        "addr:housenumber": "210",
        "addr:street": "해운대로",
        "name": "센텀",
        "name:en": "Centum",
        "name:ja": "センタム駅",
        "name:ko": "센텀",
        "operator": "한국철도공사",
        "public_transport": "station",
        "railway": "station",
        "subway": "yes",
        "train": "yes",
        "id": "node/6480269468"
      },
      "geometry": {
        "type": "Point",
        "coordinates": [
          129.1245187,
          35.1794562
        ]
      }
    },
    {
      "type": "Feature",
      "id": "node/7106135782",
      "properties": {
        "construction:railway": "station",
        "name": "보성",
        "public_transport": "station",
        "railway": "station",
        "train": "yes",
        "id": "node/7106135782"
      },
      "geometry": {
        "type": "Point",
        "coordinates": [
          127.0853501,
          34.7593737
        ]
      }
    },
    {
      "type": "Feature",
      "id": "node/7106135784",
      "properties": {
        "construction:railway": "station",
        "name": "장동",
        "public_transport": "station",
        "railway": "station",
        "train": "yes",
        "id": "node/7106135784"
      },
      "geometry": {
        "type": "Point",
        "coordinates": [
          126.9937671,
          34.752266
        ]
      }
    },
    {
      "type": "Feature",
      "id": "node/7106197685",
      "properties": {
        "construction:railway": "station",
        "name": "장흥",
        "public_transport": "station",
        "railway": "station",
        "train": "yes",
        "id": "node/7106197685"
      },
      "geometry": {
        "type": "Point",
        "coordinates": [
          126.9118444,
          34.6694878
        ]
      }
    },
    {
      "type": "Feature",
      "id": "node/7174964144",
      "properties": {
        "name": "(공사중)",
        "public_transport": "station",
        "railway": "station",
        "train": "yes",
        "id": "node/7174964144"
      },
      "geometry": {
        "type": "Point",
        "coordinates": [
          128.9804121,
          35.1440628
        ]
      }
    },
    {
      "type": "Feature",
      "id": "node/7174964145",
      "properties": {
        "name": "에코델타시티역 (공사중)",
        "public_transport": "station",
        "railway": "station",
        "train": "yes",
        "id": "node/7174964145"
      },
      "geometry": {
        "type": "Point",
        "coordinates": [
          128.9136605,
          35.1620968
        ]
      }
    },
    {
      "type": "Feature",
      "id": "node/7238508817",
      "properties": {
        "alt_name": "이촌 (국립중앙박물관)",
        "alt_name:en": "Ichon (National Museum of Korea)",
        "name": "이촌",
        "name:en": "Ichon",
        "name:ja": "イチョン(二村)",
        "name:ko": "이촌",
        "name:zh": "二村",
        "network": "서울 지하철",
        "operator": "서울교통공사",
        "public_transport": "station",
        "railway": "station",
        "station": "subway",
        "subway": "yes",
        "train": "yes",
        "wikidata": "Q58957",
        "wikipedia": "ko:이촌역",
        "id": "node/7238508817"
      },
      "geometry": {
        "type": "Point",
        "coordinates": [
          126.9733678,
          37.5227123
        ]
      }
    },
    {
      "type": "Feature",
      "id": "node/7290067937",
      "properties": {
        "name": "약목",
        "public_transport": "station",
        "railway": "station",
        "train": "yes",
        "wikidata": "Q625988",
        "wikipedia": "zh:若木站",
        "id": "node/7290067937"
      },
      "geometry": {
        "type": "Point",
        "coordinates": [
          128.3642305,
          36.0371858
        ]
      }
    },
    {
      "type": "Feature",
      "id": "node/7394341194",
      "properties": {
        "description": "폐역",
        "disused:railway": "station",
        "internet_access": "no",
        "name": "온릉",
        "name:ko": "온릉",
        "public_transport": "station",
        "railway": "station",
        "train": "yes",
        "wikidata": "Q789497",
        "wikipedia": "ko:온릉역",
        "id": "node/7394341194"
      },
      "geometry": {
        "type": "Point",
        "coordinates": [
          126.9488825,
          37.7183286
        ]
      }
    },
    {
      "type": "Feature",
      "id": "node/7394341197",
      "properties": {
        "disused:railway": "station",
        "internet_access": "no",
        "name": "장흥",
        "name:ja": "チャンフン(長興)",
        "name:ko": "장흥",
        "public_transport": "station",
        "railway": "station",
        "train": "yes",
        "wikidata": "Q1595763",
        "wikipedia": "ko:장흥역 (양주)",
        "id": "node/7394341197"
      },
      "geometry": {
        "type": "Point",
        "coordinates": [
          126.9416456,
          37.7187427
        ]
      }
    },
    {
      "type": "Feature",
      "id": "node/7394341198",
      "properties": {
        "disused:railway": "station",
        "internet_access": "no",
        "name": "벽제",
        "name:ko": "벽제",
        "public_transport": "station",
        "railway": "station",
        "train": "yes",
        "wikidata": "Q789481",
        "wikipedia": "ko:벽제역",
        "id": "node/7394341198"
      },
      "geometry": {
        "type": "Point",
        "coordinates": [
          126.893769,
          37.6803246
        ]
      }
    },
    {
      "type": "Feature",
      "id": "node/7394341199",
      "properties": {
        "description": "폐역",
        "disused:railway": "station",
        "name": "삼릉",
        "name:ko": "삼릉",
        "public_transport": "station",
        "railway": "station",
        "train": "yes",
        "wikidata": "Q789475",
        "wikipedia": "ko:삼릉역",
        "id": "node/7394341199"
      },
      "geometry": {
        "type": "Point",
        "coordinates": [
          126.8503633,
          37.678492
        ]
      }
    },
    {
      "type": "Feature",
      "id": "node/7394341200",
      "properties": {
        "description": "폐역",
        "disused:railway": "station",
        "name": "원릉",
        "name:ja": "ウォンヌン(元陵)",
        "name:ko": "원릉",
        "public_transport": "station",
        "railway": "station",
        "train": "yes",
        "wikidata": "Q789470",
        "wikipedia": "ko:원릉역",
        "id": "node/7394341200"
      },
      "geometry": {
        "type": "Point",
        "coordinates": [
          126.8397228,
          37.662534
        ]
      }
    },
    {
      "type": "Feature",
      "id": "node/7394341201",
      "properties": {
        "disused:railway": "station",
        "name": "대정",
        "name:ko": "대정",
        "public_transport": "station",
        "railway": "station",
        "train": "yes",
        "wikidata": "Q789462",
        "wikipedia": "ko:대정역",
        "id": "node/7394341201"
      },
      "geometry": {
        "type": "Point",
        "coordinates": [
          126.8211117,
          37.6412187
        ]
      }
    },
    {
      "type": "Feature",
      "id": "node/7397984719",
      "properties": {
        "name": "횡성",
        "name:en": "Hoengseong Station",
        "name:ja": "横城駅",
        "name:ja-Latn": "フェンソン",
        "public_transport": "station",
        "railway": "station",
        "train": "yes",
        "wikidata": "Q31179710",
        "wikipedia": "ko:횡성역",
        "id": "node/7397984719"
      },
      "geometry": {
        "type": "Point",
        "coordinates": [
          128.0099407,
          37.4831084
        ]
      }
    },
    {
      "type": "Feature",
      "id": "node/7581484183",
      "properties": {
        "name": "솔안신호소",
        "public_transport": "station",
        "railway": "station",
        "train": "yes",
        "id": "node/7581484183"
      },
      "geometry": {
        "type": "Point",
        "coordinates": [
          129.0272936,
          37.1496012
        ]
      }
    },
    {
      "type": "Feature",
      "id": "node/7632207769",
      "properties": {
        "highspeed": "yes",
        "name": "평택지제",
        "name:en": "Pyeongtaek Jije",
        "name:ja": "平澤芝制",
        "name:ko": "평택지제",
        "old_name": "지제",
        "public_transport": "station",
        "railway": "station",
        "train": "yes",
        "wikidata": "Q167502",
        "wikipedia": "ko:평택지제역",
        "id": "node/7632207769"
      },
      "geometry": {
        "type": "Point",
        "coordinates": [
          127.0698667,
          37.018753
        ]
      }
    },
    {
      "type": "Feature",
      "id": "node/7637880030",
      "properties": {
        "internet_access": "wlan",
        "name": "수서",
        "name:en": "Suseo",
        "name:ja": "スソ(水西)",
        "name:ko": "수서",
        "network": "SRT",
        "operator": "주식회사 SR",
        "public_transport": "station",
        "railway": "station",
        "train": "yes",
        "wikidata": "Q46157",
        "wikipedia": "ko:수서역",
        "id": "node/7637880030"
      },
      "geometry": {
        "type": "Point",
        "coordinates": [
          127.1046888,
          37.485099
        ]
      }
    },
    {
      "type": "Feature",
      "id": "node/7769360289",
      "properties": {
        "addr:city": "광주광역시 광산구",
        "addr:housenumber": "201",
        "addr:street": "상무대로",
        "alt_name": "광주송정역",
        "alt_name:en": "GwangjuSongjeong Station",
        "internet_access": "wlan",
        "name": "광주송정",
        "name:en": "Gwangju Songjeong",
        "name:ja": "光州松汀",
        "name:ko": "광주송정",
        "name:zh": "光州松汀",
        "note": "일반철도 광주송정역\n광주송정\"역\" 이름 기입 금지",
        "operator": "한국철도공사",
        "public_transport": "station",
        "railway": "station",
        "train": "yes",
        "wikidata": "Q624500",
        "wikipedia": "ko:광주송정역",
        "id": "node/7769360289"
      },
      "geometry": {
        "type": "Point",
        "coordinates": [
          126.7901098,
          35.1377072
        ]
      }
    },
    {
      "type": "Feature",
      "id": "node/7769360303",
      "properties": {
        "addr:city": "광주광역시 광산구",
        "addr:housenumber": "310-23",
        "addr:street": "목련로",
        "alt_name": "극락강역",
        "name": "극락강",
        "name:en": "Geungnakgang",
        "name:ko": "극락강",
        "note": "~~역 이름 기입 금지",
        "operator": "한국철도공사",
        "public_transport": "station",
        "railway": "station",
        "train": "yes",
        "wikidata": "Q2048569",
        "wikipedia": "ko:극락강역",
        "id": "node/7769360303"
      },
      "geometry": {
        "type": "Point",
        "coordinates": [
          126.8309058,
          35.1762466
        ]
      }
    },
    {
      "type": "Feature",
      "id": "node/7769360347",
      "properties": {
        "addr:city": "광주광역시 북구",
        "addr:housenumber": "235",
        "addr:street": "무등로",
        "internet_access": "wlan",
        "name": "광주",
        "name:en": "Gwangju",
        "name:ja": "光州",
        "name:ko": "광주",
        "name:zh": "広州",
        "note": "일반 철도 광주역.\n광주\"역\"이라는 이름으로 바꾸지 마세요. ~~역이름을 쓰면 안됩니다.",
        "operator": "한국철도공사",
        "public_transport": "station",
        "railway": "station",
        "train": "yes",
        "wikidata": "Q489731",
        "wikipedia": "ko:광주역",
        "id": "node/7769360347"
      },
      "geometry": {
        "type": "Point",
        "coordinates": [
          126.909777,
          35.1659931
        ]
      }
    },
    {
      "type": "Feature",
      "id": "node/7783042838",
      "properties": {
        "addr:city": "광주광역시 서구",
        "addr:housenumber": "203",
        "addr:street": "풍서좌로",
        "alt_name": "서광주역",
        "alt_name:en": "Seogwangju Station",
        "name": "서광주",
        "name:en": "Seogwangju",
        "name:ja": "ソグァンジュ(西光州)",
        "name:ko": "서광주",
        "operator": "한국철도공사",
        "public_transport": "station",
        "railway": "station",
        "train": "yes",
        "wikidata": "Q624113",
        "wikipedia": "ko:서광주역",
        "id": "node/7783042838"
      },
      "geometry": {
        "type": "Point",
        "coordinates": [
          126.8474307,
          35.1247329
        ]
      }
    },
    {
      "type": "Feature",
      "id": "node/7839145036",
      "properties": {
        "highspeed": "yes",
        "name": "공주",
        "name:en": "Gongju",
        "name:ja": "公州(コンジュ)",
        "name:ja_kana": "コンジュ",
        "name:ko": "공주",
        "operator": "한국철도공사",
        "public_transport": "station",
        "railway": "station",
        "service": "highspeed",
        "train": "yes",
        "wikidata": "Q1586754",
        "wikipedia": "ko:공주역",
        "id": "node/7839145036"
      },
      "geometry": {
        "type": "Point",
        "coordinates": [
          127.0966368,
          36.3322371
        ]
      }
    },
    {
      "type": "Feature",
      "id": "node/7839145082",
      "properties": {
        "addr:city": "익산시",
        "addr:housenumber": "153",
        "addr:street": "익산대로",
        "level": "3",
        "name": "익산",
        "name:en": "Iksan",
        "name:ja": "益山",
        "name:ko": "익산",
        "operator": "한국철도공사",
        "public_transport": "station",
        "railway": "station",
        "train": "yes",
        "wikidata": "Q100882",
        "wikipedia": "ko:익산역",
        "id": "node/7839145082"
      },
      "geometry": {
        "type": "Point",
        "coordinates": [
          126.9459134,
          35.9412564
        ]
      }
    },
    {
      "type": "Feature",
      "id": "node/7839157504",
      "properties": {
        "addr:city": "정읍시",
        "addr:housenumber": "305",
        "addr:street": "서부산업도로",
        "name": "정읍",
        "name:en": "Jeongeup",
        "name:ja": "井邑(チョンウプ駅)",
        "name:ko": "정읍",
        "name:zh": "井邑",
        "operator": "한국철도공사",
        "public_transport": "station",
        "railway": "station",
        "train": "yes",
        "wikidata": "Q625983",
        "wikipedia": "ko:정읍역",
        "id": "node/7839157504"
      },
      "geometry": {
        "type": "Point",
        "coordinates": [
          126.8419169,
          35.5757734
        ]
      }
    },
    {
      "type": "Feature",
      "id": "node/7839157576",
      "properties": {
        "addr:city": "전라남도 장성군",
        "addr:housenumber": "87",
        "addr:street": "역전로",
        "name": "장성",
        "name:en": "Jangseong",
        "name:ja": "長城(チャンソン駅)",
        "name:ko": "장성",
        "name:ko-Latn": "Jangseong",
        "operator": "한국철도공사",
        "phone": "+82 1544-7788",
        "public_transport": "station",
        "railway": "station",
        "train": "yes",
        "wikidata": "Q983276",
        "wikipedia": "ko:장성역",
        "id": "node/7839157576"
      },
      "geometry": {
        "type": "Point",
        "coordinates": [
          126.7796823,
          35.3001204
        ]
      }
    },
    {
      "type": "Feature",
      "id": "node/7839157592",
      "properties": {
        "addr:city": "전남 목포시",
        "addr:housenumber": "98",
        "addr:street": "영산로",
        "name": "목포",
        "name:en": "Mokpo",
        "name:ja": "木浦",
        "name:ko": "목포",
        "operator": "한국철도공사",
        "public_transport": "station",
        "railway": "station",
        "train": "yes",
        "wikidata": "Q69113",
        "wikipedia": "ko:목포역",
        "id": "node/7839157592"
      },
      "geometry": {
        "type": "Point",
        "coordinates": [
          126.3876448,
          34.7921339
        ]
      }
    },
    {
      "type": "Feature",
      "id": "node/7880740622",
      "properties": {
        "name": "동익산",
        "name:en": "Dongiksan",
        "name:ko": "동익산",
        "operator": "한국철도공사",
        "public_transport": "station",
        "railway": "station",
        "train": "yes",
        "wikidata": "Q1233965",
        "wikipedia": "ko:동익산역",
        "id": "node/7880740622"
      },
      "geometry": {
        "type": "Point",
        "coordinates": [
          126.9569285,
          35.9204873
        ]
      }
    },
    {
      "type": "Feature",
      "id": "node/7916699664",
      "properties": {
        "description": "2호선 왕십리역 (line 2)",
        "name": "왕십리",
        "name:en": "Wangsimni",
        "name:ja": "ワンシムニ(往十里)",
        "name:ko": "왕십리",
        "name:zh": "往十里",
        "network": "수도권 전철",
        "official_name": "왕십리(성동구청)",
        "official_name:en": "Wangsimni (Seongdong-gu Office)",
        "official_name:ja": "ワンシムニ",
        "official_name:ko": "왕십리(성동구청)",
        "official_name:zh": "往十里(城东区厅)",
        "operator": "서울교통공사",
        "public_transport": "station",
        "railway": "station",
        "ref": "208",
        "station": "subway",
        "subway": "yes",
        "train": "yes",
        "wikidata": "Q17184",
        "wikipedia": "ko:왕십리역",
        "id": "node/7916699664"
      },
      "geometry": {
        "type": "Point",
        "coordinates": [
          127.0371526,
          37.5612078
        ]
      }
    },
    {
      "type": "Feature",
      "id": "node/7916699665",
      "properties": {
        "description": "5호선 왕십리역 (line 5)",
        "internet_access": "wlan",
        "name": "왕십리",
        "name:en": "Wangsimni",
        "name:ja": "ワンシムニ(往十里)",
        "name:ko": "왕십리",
        "name:zh": "往十里",
        "network": "수도권 전철",
        "official_name": "왕십리(성동구청)",
        "official_name:en": "Wangsimni (Seongdong-gu Office)",
        "official_name:ja": "ワンシムニ",
        "official_name:ko": "왕십리(성동구청)",
        "official_name:zh": "往十里(城东区厅)",
        "operator": "서울교통공사",
        "public_transport": "station",
        "railway": "station",
        "ref": "540",
        "station": "subway",
        "subway": "yes",
        "train": "yes",
        "wikidata": "Q17184",
        "wikipedia": "ko:왕십리역",
        "id": "node/7916699665"
      },
      "geometry": {
        "type": "Point",
        "coordinates": [
          127.0357093,
          37.5609924
        ]
      }
    },
    {
      "type": "Feature",
      "id": "node/7959053328",
      "properties": {
        "addr:city": "대구 동구",
        "addr:housenumber": "550",
        "addr:street": "동대구로",
        "description": "일반철도 동대구역\n이름에 동대구\"역\"기입 금지",
        "name": "동대구",
        "name:en": "Dongdaegu",
        "name:ja": "東大邱",
        "name:ko": "동대구",
        "operator": "한국철도공사",
        "public_transport": "station",
        "railway": "station",
        "train": "yes",
        "wikidata": "Q54288",
        "wikipedia": "ko:동대구역",
        "id": "node/7959053328"
      },
      "geometry": {
        "type": "Point",
        "coordinates": [
          128.6286226,
          35.8792748
        ]
      }
    },
    {
      "type": "Feature",
      "id": "node/7962806665",
      "properties": {
        "name": "웅천",
        "name:ko": "웅천",
        "network": "한국철도공사",
        "operator": "한국철도공사",
        "public_transport": "station",
        "railway": "station",
        "train": "yes",
        "id": "node/7962806665"
      },
      "geometry": {
        "type": "Point",
        "coordinates": [
          126.6067347,
          36.2359262
        ]
      }
    },
    {
      "type": "Feature",
      "id": "node/7980071985",
      "properties": {
        "addr:city": "충청남도 논산시",
        "addr:housenumber": "263-13",
        "addr:street": "해월로",
        "name": "논산",
        "name:en": "Nonsan",
        "name:ko": "논산",
        "name:ko-Latn": "Nonsan",
        "operator": "한국철도공사",
        "public_transport": "station",
        "railway": "station",
        "train": "yes",
        "wikidata": "Q623739",
        "wikipedia": "ko:논산역",
        "id": "node/7980071985"
      },
      "geometry": {
        "type": "Point",
        "coordinates": [
          127.0927854,
          36.2069561
        ]
      }
    },
    {
      "type": "Feature",
      "id": "node/7983457102",
      "properties": {
        "name": "송학역(폐역)",
        "name:en": "Songhak Station (Closed)",
        "name:ko": "송학역(폐역)",
        "public_transport": "station",
        "railway": "station",
        "train": "yes",
        "wikidata": "Q1591870",
        "wikipedia": "ko:송학역 (제천)",
        "id": "node/7983457102"
      },
      "geometry": {
        "type": "Point",
        "coordinates": [
          128.2701039,
          37.186946
        ]
      }
    },
    {
      "type": "Feature",
      "id": "node/8000119050",
      "properties": {
        "name": "백양리역(폐역)",
        "name:en": "Baegyangri Station",
        "name:ko": "백양리역(폐역)",
        "public_transport": "station",
        "railway": "halt",
        "train": "yes",
        "wikidata": "Q49962",
        "id": "node/8000119050"
      },
      "geometry": {
        "type": "Point",
        "coordinates": [
          127.612695,
          37.8267585
        ]
      }
    },
    {
      "type": "Feature",
      "id": "node/8000119052",
      "properties": {
        "name": "강촌역(폐역)",
        "name:en": "Gangchon Station",
        "name:ko": "강촌역(폐역)",
        "public_transport": "station",
        "railway": "station",
        "train": "yes",
        "id": "node/8000119052"
      },
      "geometry": {
        "type": "Point",
        "coordinates": [
          127.6322952,
          37.8162469
        ]
      }
    },
    {
      "type": "Feature",
      "id": "node/8041793373",
      "properties": {
        "name": "사천",
        "name:en": "Sacheon",
        "name:ja": "泗川",
        "name:ko": "사천",
        "official_name": "사천역",
        "official_name:en": "Sacheon Station",
        "official_name:ja": "泗川駅",
        "operator": "코레일",
        "public_transport": "station",
        "railway": "station",
        "train": "yes",
        "wikidata": "Q1592527",
        "wikipedia": "ko:사천역",
        "id": "node/8041793373"
      },
      "geometry": {
        "type": "Point",
        "coordinates": [
          128.0903825,
          35.0933974
        ]
      }
    },
    {
      "type": "Feature",
      "id": "node/8111372509",
      "properties": {
        "name": "천원",
        "name:ko": "천원",
        "public_transport": "station",
        "railway": "station",
        "train": "yes",
        "id": "node/8111372509"
      },
      "geometry": {
        "type": "Point",
        "coordinates": [
          126.8190323,
          35.5255121
        ]
      }
    },
    {
      "type": "Feature",
      "id": "node/8111372620",
      "properties": {
        "name": "노령",
        "name:en": "Noryeong",
        "name:ko": "노령",
        "public_transport": "station",
        "railway": "station",
        "train": "yes",
        "id": "node/8111372620"
      },
      "geometry": {
        "type": "Point",
        "coordinates": [
          126.8005991,
          35.4900108
        ]
      }
    },
    {
      "type": "Feature",
      "id": "node/8142633924",
      "properties": {
        "alt_name": "여수",
        "alt_name:en": "Yeosu",
        "alt_name:ja": "麗水",
        "internet_access": "wlan",
        "name": "여수엑스포",
        "name:en": "Yeosu EXPO",
        "name:ja": "麗水エキスポ",
        "name:ko": "여수엑스포",
        "operator": "한국철도공사",
        "public_transport": "station",
        "railway": "station",
        "train": "yes",
        "wikidata": "Q1162912",
        "wikipedia": "ko:여수엑스포역",
        "id": "node/8142633924"
      },
      "geometry": {
        "type": "Point",
        "coordinates": [
          127.7492394,
          34.7555141
        ]
      }
    },
    {
      "type": "Feature",
      "id": "node/8153431901",
      "properties": {
        "name": "마산",
        "name:en": "Masan",
        "name:ja": "馬山",
        "name:ko": "마산",
        "operator": "한국철도공사",
        "public_transport": "station",
        "railway": "station",
        "train": "yes",
        "wikidata": "Q624162",
        "wikipedia": "ko:마산역",
        "id": "node/8153431901"
      },
      "geometry": {
        "type": "Point",
        "coordinates": [
          128.576728,
          35.2363635
        ]
      }
    },
    {
      "type": "Feature",
      "id": "node/8221953269",
      "properties": {
        "addr:city": "경산시 하양읍",
        "addr:housenumber": "1",
        "addr:street": "하양역길",
        "construction": "station",
        "name": "하양",
        "name:en": "Hayang",
        "name:ko": "하양",
        "note": "--역 기입 금지",
        "operator": "한국철도공사",
        "public_transport": "station",
        "railway": "station",
        "train": "yes",
        "wikidata": "Q1598053",
        "wikipedia": "ko:하양역",
        "id": "node/8221953269"
      },
      "geometry": {
        "type": "Point",
        "coordinates": [
          128.81844,
          35.909587
        ]
      }
    },
    {
      "type": "Feature",
      "id": "node/8223919750",
      "properties": {
        "addr:city": "교동",
        "addr:housenumber": "176",
        "addr:postcode": "25491",
        "addr:street": "용지로",
        "building": "yes",
        "internet_access": "wlan",
        "name": "강릉",
        "name:en": "Gangneung",
        "name:ja": "江陵",
        "name:ko": "강릉",
        "name:zh": "江陵",
        "note": "\"철도역\"이라는 단어를 추가하지 마십시오. 이름= 강릉",
        "operator": "한국철도공사",
        "public_transport": "station",
        "railway": "station",
        "train": "yes",
        "wikidata": "Q983377",
        "wikipedia": "ko:강릉역",
        "id": "node/8223919750"
      },
      "geometry": {
        "type": "Point",
        "coordinates": [
          128.8993979,
          37.76452
        ]
      }
    },
    {
      "type": "Feature",
      "id": "node/8233698788",
      "properties": {
        "addr:city": "중랑구",
        "addr:housenumber": "297",
        "addr:postcode": "02098",
        "addr:street": "망우로",
        "name": "상봉",
        "name:en": "Sangbong",
        "name:ja": "上鳳",
        "name:ko": "상봉",
        "operator": "한국철도공사",
        "public_transport": "station",
        "railway": "station",
        "station": "subway",
        "subway": "yes",
        "train": "yes",
        "wikidata": "Q49995",
        "wikipedia": "ko:상봉역",
        "id": "node/8233698788"
      },
      "geometry": {
        "type": "Point",
        "coordinates": [
          127.0856555,
          37.5970314
        ]
      }
    },
    {
      "type": "Feature",
      "id": "node/8234193098",
      "properties": {
        "name": "대야",
        "name:en": "Daeya",
        "name:ko": "대야",
        "operator": "한국철도공사",
        "public_transport": "station",
        "railway": "station",
        "train": "yes",
        "wikidata": "Q1239999",
        "wikipedia": "ko:대야역",
        "id": "node/8234193098"
      },
      "geometry": {
        "type": "Point",
        "coordinates": [
          126.8242542,
          35.944932
        ]
      }
    },
    {
      "type": "Feature",
      "id": "node/8236839371",
      "properties": {
        "addr:city": "나주시",
        "addr:housenumber": "56",
        "addr:street": "나주역길",
        "name": "나주",
        "name:en": "Naju",
        "name:ja": "羅州",
        "name:ko": "나주",
        "name:ko-Latn": "Najuyeok",
        "operator": "한국철도공사",
        "public_transport": "station",
        "railway": "station",
        "train": "yes",
        "wikidata": "Q983289",
        "wikipedia": "ko:나주역",
        "id": "node/8236839371"
      },
      "geometry": {
        "type": "Point",
        "coordinates": [
          126.7174847,
          35.0139274
        ]
      }
    },
    {
      "type": "Feature",
      "id": "node/8236839399",
      "properties": {
        "name": "함평",
        "name:en": "Hampyeong",
        "name:ja": "ハンピョ",
        "name:ko": "함평",
        "operator": "한국철도공사",
        "public_transport": "station",
        "railway": "station",
        "train": "yes",
        "wikidata": "Q983296",
        "wikipedia": "ko:함평역",
        "id": "node/8236839399"
      },
      "geometry": {
        "type": "Point",
        "coordinates": [
          126.5393089,
          35.0238347
        ]
      }
    },
    {
      "type": "Feature",
      "id": "node/8236839404",
      "properties": {
        "name": "무안",
        "name:en": "Muan",
        "name:ja": "ムアン",
        "name:ko": "무안",
        "operator": "한국철도공사",
        "public_transport": "station",
        "railway": "station",
        "train": "yes",
        "wikidata": "Q983298",
        "wikipedia": "ko:무안역",
        "id": "node/8236839404"
      },
      "geometry": {
        "type": "Point",
        "coordinates": [
          126.5175783,
          34.9627975
        ]
      }
    },
    {
      "type": "Feature",
      "id": "node/8236896050",
      "properties": {
        "name": "임성리",
        "name:en": "Imseongni",
        "name:ko": "임성리",
        "operator": "한국철도공사",
        "public_transport": "station",
        "railway": "station",
        "train": "yes",
        "wikidata": "Q983304",
        "wikipedia": "ko:임성리역",
        "id": "node/8236896050"
      },
      "geometry": {
        "type": "Point",
        "coordinates": [
          126.435209,
          34.8204653
        ]
      }
    },
    {
      "type": "Feature",
      "id": "node/8259053324",
      "properties": {
        "addr:city": "대구광역시 서구",
        "addr:housenumber": "55",
        "addr:street": "북비산로",
        "construction": "station",
        "name": "서대구",
        "name:en": "Seodaegu",
        "name:ja": "ソデグ",
        "name:ko": "서대구",
        "name:zh": "西大邱",
        "note": "경부선, KTX 2021년 12월 개업.\n대구산업선: 2027년 예정\n달빛내륙철도: 2030년 예정\n대구경북선: 2030년 예정",
        "operator": "한국철도공사",
        "public_transport": "station",
        "railway": "construction",
        "train": "yes",
        "wikidata": "Q341676",
        "wikipedia": "ko:서대구역",
        "id": "node/8259053324"
      },
      "geometry": {
        "type": "Point",
        "coordinates": [
          128.5411501,
          35.8814013
        ]
      }
    },
    {
      "type": "Feature",
      "id": "node/8259053348",
      "properties": {
        "addr:city": "대구 북구",
        "addr:housenumber": "161",
        "addr:street": "태평로",
        "name": "대구",
        "name:en": "Daegu",
        "name:ja": "テグ",
        "name:ko": "대구",
        "name:zh": "大邱",
        "note": "일반철도 대구역.\n대구\"역\"이름 기입 금지",
        "operator": "한국철도공사",
        "public_transport": "station",
        "railway": "station",
        "train": "yes",
        "wikidata": "Q54291",
        "wikipedia": "ko:대구역",
        "id": "node/8259053348"
      },
      "geometry": {
        "type": "Point",
        "coordinates": [
          128.5960548,
          35.8760013
        ]
      }
    },
    {
      "type": "Feature",
      "id": "node/8305399629",
      "properties": {
        "addr:city": "원주시",
        "addr:housenumber": "1860",
        "addr:postcode": "26395",
        "addr:street": "북원로",
        "alt_name": "신원주",
        "name": "원주",
        "name:en": "Wonju",
        "name:ja": "ウォンジュ",
        "name:ko": "원주",
        "name:zh": "原州",
        "note": "원주\"역\"이름 기입 금지.",
        "operator": "한국철도공사",
        "public_transport": "station",
        "railway": "station",
        "start_date": "2021-01-05",
        "train": "yes",
        "wikidata": "Q545473",
        "wikipedia": "ko:원주역",
        "id": "node/8305399629"
      },
      "geometry": {
        "type": "Point",
        "coordinates": [
          127.9228206,
          37.3164083
        ]
      }
    },
    {
      "type": "Feature",
      "id": "node/8366725244",
      "properties": {
        "name": "곡성",
        "name:en": "Gokseong",
        "name:ko": "곡성",
        "operator": "한국철도공사",
        "public_transport": "station",
        "railway": "station",
        "train": "yes",
        "id": "node/8366725244"
      },
      "geometry": {
        "type": "Point",
        "coordinates": [
          127.3044579,
          35.2834557
        ]
      }
    },
    {
      "type": "Feature",
      "id": "node/8371236055",
      "properties": {
        "name": "구례구",
        "name:en": "Guryegu",
        "name:ko": "구례구",
        "operator": "한국철도공사",
        "public_transport": "station",
        "railway": "station",
        "train": "yes",
        "wikidata": "Q1232219",
        "id": "node/8371236055"
      },
      "geometry": {
        "type": "Point",
        "coordinates": [
          127.4519666,
          35.1634776
        ]
      }
    },
    {
      "type": "Feature",
      "id": "node/8371236059",
      "properties": {
        "internet_access": "no",
        "name": "봉덕",
        "name:en": "Bongdeok",
        "name:ko": "봉덕",
        "public_transport": "station",
        "railway": "halt",
        "train": "yes",
        "id": "node/8371236059"
      },
      "geometry": {
        "type": "Point",
        "coordinates": [
          127.4566496,
          35.1338671
        ]
      }
    },
    {
      "type": "Feature",
      "id": "node/8371236087",
      "properties": {
        "addr:city": "전라남도 순천시",
        "addr:housenumber": "135",
        "addr:postcode": "57964",
        "addr:street": "팔마로",
        "name": "순천",
        "name:en": "Suncheon",
        "name:ja": "順天",
        "name:ko": "순천",
        "name:zh": "顺天",
        "operator": "한국철도공사",
        "public_transport": "station",
        "railway": "station",
        "train": "yes",
        "wikidata": "Q624385",
        "wikipedia": "ko:순천역 (전라남도)",
        "id": "node/8371236087"
      },
      "geometry": {
        "type": "Point",
        "coordinates": [
          127.5040597,
          34.9458107
        ]
      }
    },
    {
      "type": "Feature",
      "id": "node/8401576843",
      "properties": {
        "construction": "station",
        "highspeed": "yes",
        "name": "무안공항",
        "name:en": "Muan International Airport",
        "name:ko": "무안공항",
        "operator": "한국철도공사",
        "public_transport": "station",
        "railway": "construction",
        "train": "yes",
        "id": "node/8401576843"
      },
      "geometry": {
        "type": "Point",
        "coordinates": [
          126.3885115,
          34.993542
        ]
      }
    },
    {
      "type": "Feature",
      "id": "node/8442435447",
      "properties": {
        "alt_name": "김천구미",
        "description": "김천(구미)역",
        "highspeed": "yes",
        "name": "김천(구미)",
        "name:en": "Gimcheon(Gumi)",
        "name:ko": "김천(구미)",
        "note": "김천(구미)\"역\" 이름 기입 금지",
        "operator": "한국철도공사",
        "public_transport": "station",
        "railway": "station",
        "train": "yes",
        "wikidata": "Q59949",
        "wikipedia": "ko:김천(구미)역",
        "id": "node/8442435447"
      },
      "geometry": {
        "type": "Point",
        "coordinates": [
          128.1806889,
          36.1130256
        ]
      }
    },
    {
      "type": "Feature",
      "id": "node/8560135440",
      "properties": {
        "addr:city": "충청북도 청주시 청원구",
        "addr:housenumber": "443",
        "addr:postcode": "28307",
        "addr:street": "토성로",
        "building": "yes",
        "name": "오근장",
        "name:en": "Ogeunjang",
        "name:ko": "오근장",
        "name:ko-Hani": "梧根場",
        "operator": "한국철도공사",
        "public_transport": "station",
        "railway": "station",
        "train": "yes",
        "wikidata": "Q812295",
        "wikipedia": "ko:오근장역",
        "id": "node/8560135440"
      },
      "geometry": {
        "type": "Point",
        "coordinates": [
          127.4778612,
          36.6998966
        ]
      }
    },
    {
      "type": "Feature",
      "id": "node/8658838317",
      "properties": {
        "addr:city": "세종특별자치시 전의면",
        "addr:housenumber": "10",
        "addr:postcode": "30004",
        "addr:street": "만세길",
        "air_conditioning": "yes",
        "name": "전의",
        "name:en": "Jeonui",
        "name:ko": "전의",
        "network": "한국철도공사",
        "operator": "한국철도공사",
        "public_transport": "station",
        "railway": "station",
        "train": "yes",
        "wheelchair": "yes",
        "wikidata": "Q188305",
        "id": "node/8658838317"
      },
      "geometry": {
        "type": "Point",
        "coordinates": [
          127.2024935,
          36.678389
        ]
      }
    },
    {
      "type": "Feature",
      "id": "node/8664401956",
      "properties": {
        "name": "홍성",
        "name:en": "Hongseong",
        "name:ko": "홍성",
        "operator": "한국철도공사",
        "public_transport": "station",
        "railway": "station",
        "train": "yes",
        "wikidata": "Q1235512",
        "id": "node/8664401956"
      },
      "geometry": {
        "type": "Point",
        "coordinates": [
          126.6811624,
          36.5993489
        ]
      }
    },
    {
      "type": "Feature",
      "id": "node/8664432526",
      "properties": {
        "name": "부강",
        "name:en": "Bugang",
        "name:ko": "부강",
        "operator": "한국철도공사",
        "public_transport": "station",
        "railway": "station",
        "train": "yes",
        "wikidata": "Q188829",
        "id": "node/8664432526"
      },
      "geometry": {
        "type": "Point",
        "coordinates": [
          127.3650211,
          36.532549
        ]
      }
    },
    {
      "type": "Feature",
      "id": "node/8693385785",
      "properties": {
        "addr:city": "부산 동구",
        "addr:housenumber": "1187-21",
        "addr:postcode": "48760",
        "addr:street": "중앙대로206번길",
        "internet_access": "wlan",
        "name": "부산",
        "name:en": "Busan",
        "name:ja": "釜山",
        "name:ko": "부산",
        "name:zh": "釜山",
        "note": "부산\"역\" 이름 기입 금지",
        "operator": "한국철도공사",
        "public_transport": "station",
        "railway": "station",
        "train": "yes",
        "wikidata": "Q53118",
        "wikipedia": "ko:부산역",
        "id": "node/8693385785"
      },
      "geometry": {
        "type": "Point",
        "coordinates": [
          129.04265,
          35.1157823
        ]
      }
    },
    {
      "type": "Feature",
      "id": "node/8874484801",
      "properties": {
        "name": "예산",
        "name:en": "Yesan",
        "name:ko": "예산",
        "operator": "한국철도공사",
        "public_transport": "station",
        "railway": "station",
        "train": "yes",
        "id": "node/8874484801"
      },
      "geometry": {
        "type": "Point",
        "coordinates": [
          126.8284677,
          36.6871147
        ]
      }
    },
    {
      "type": "Feature",
      "id": "node/8962684261",
      "properties": {
        "name": "아화",
        "name:en": "Ahwa",
        "name:ko": "아화",
        "name:ko-Latn": "Ahwa",
        "ncat": "아화역",
        "public_transport": "station",
        "railway": "station",
        "start_date": "2021-12-28",
        "train": "yes",
        "id": "node/8962684261"
      },
      "geometry": {
        "type": "Point",
        "coordinates": [
          129.0513788,
          35.8986342
        ]
      }
    },
    {
      "type": "Feature",
      "id": "node/8984037491",
      "properties": {
        "alt_name": "풍기역",
        "alt_name:en": "Punggi Station",
        "internet_access": "wlan",
        "internet_access:fee": "no",
        "name": "풍기",
        "name:en": "Punggi",
        "name:ko": "풍기",
        "operator": "한국철도공사",
        "public_transport": "station",
        "railway": "station",
        "train": "yes",
        "wheelchair": "yes",
        "wikidata": "Q727651",
        "wikipedia": "ko:풍기역",
        "id": "node/8984037491"
      },
      "geometry": {
        "type": "Point",
        "coordinates": [
          128.5234721,
          36.8740554
        ]
      }
    },
    {
      "type": "Feature",
      "id": "node/8984037520",
      "properties": {
        "addr:city": "충북 단양군 단양읍",
        "addr:housenumber": "896",
        "addr:postcode": "27027",
        "addr:street": "단양로",
        "air_conditioning": "yes",
        "alt_name": "단양역",
        "alt_name:en": "Danyang Station",
        "internet_access": "wlan",
        "internet_access:fee": "no",
        "name": "단양",
        "name:en": "Danyang",
        "name:ko": "단양",
        "public_transport": "station",
        "railway": "station",
        "train": "yes",
        "wheelchair": "yes",
        "id": "node/8984037520"
      },
      "geometry": {
        "type": "Point",
        "coordinates": [
          128.34404,
          36.9731041
        ]
      }
    },
    {
      "type": "Feature",
      "id": "node/9007807571",
      "properties": {
        "name": "일신",
        "name:ko": "일신",
        "public_transport": "station",
        "railway": "station",
        "train": "yes",
        "id": "node/9007807571"
      },
      "geometry": {
        "type": "Point",
        "coordinates": [
          127.6890047,
          37.4453582
        ]
      }
    },
    {
      "type": "Feature",
      "id": "node/9008200149",
      "properties": {
        "alt_name": "가남역",
        "alt_name:en": "Ganam station",
        "name": "가남",
        "name:en": "Ganam",
        "name:ja": "カナム(加南)",
        "name:ko": "가남",
        "operator": "한국철도공사",
        "public_transport": "station",
        "railway": "station",
        "start_date": "2021-12-31",
        "train": "yes",
        "wikidata": "Q85972394",
        "wikipedia": "ko:가남역",
        "id": "node/9008200149"
      },
      "geometry": {
        "type": "Point",
        "coordinates": [
          127.5354382,
          37.1974167
        ]
      }
    },
    {
      "type": "Feature",
      "id": "node/9021551362",
      "properties": {
        "name": "강진",
        "public_transport": "station",
        "railway": "station",
        "train": "yes",
        "id": "node/9021551362"
      },
      "geometry": {
        "type": "Point",
        "coordinates": [
          126.7762495,
          34.6289742
        ]
      }
    },
    {
      "type": "Feature",
      "id": "node/9021551363",
      "properties": {
        "name": "해남",
        "public_transport": "station",
        "railway": "station",
        "train": "yes",
        "id": "node/9021551363"
      },
      "geometry": {
        "type": "Point",
        "coordinates": [
          126.6327545,
          34.6410127
        ]
      }
    },
    {
      "type": "Feature",
      "id": "node/9021551364",
      "properties": {
        "name": "영암",
        "public_transport": "station",
        "railway": "station",
        "train": "yes",
        "id": "node/9021551364"
      },
      "geometry": {
        "type": "Point",
        "coordinates": [
          126.5308723,
          34.7593445
        ]
      }
    },
    {
      "type": "Feature",
      "id": "node/9044855253",
      "properties": {
        "addr:city": "포항시 북구",
        "addr:housenumber": "1",
        "addr:street": "포항역로",
        "alt_name": "포항역",
        "alt_name:en": "Pohang Station",
        "name": "포항",
        "name:en": "Pohang",
        "name:ko": "포항",
        "operator": "한국철도공사",
        "public_transport": "station",
        "railway": "station",
        "train": "yes",
        "wikidata": "Q624288",
        "wikipedia": "ko:포항역",
        "id": "node/9044855253"
      },
      "geometry": {
        "type": "Point",
        "coordinates": [
          129.3426784,
          36.0712333
        ]
      }
    },
    {
      "type": "Feature",
      "id": "node/9046712244",
      "properties": {
        "addr:city": "영덕군 영덕읍",
        "addr:housenumber": "29",
        "addr:street": "중앙길",
        "alt_name": "영덕역",
        "alt_name:en": "Yeongdeok station",
        "name": "영덕",
        "name:en": "Yeongdeok",
        "name:ko": "영덕",
        "operator": "한국철도공사",
        "public_transport": "station",
        "railway": "station",
        "train": "yes",
        "wikidata": "Q31180375",
        "wikipedia": "ko:영덕역",
        "id": "node/9046712244"
      },
      "geometry": {
        "type": "Point",
        "coordinates": [
          129.3783024,
          36.4104516
        ]
      }
    },
    {
      "type": "Feature",
      "id": "node/9104562082",
      "properties": {
        "alt_name": "앙성온천역",
        "alt_name:en": "Angseongoncheon station",
        "name": "앙성온천",
        "name:en": "Angseongoncheon",
        "name:ja": "アンソンオンチョン(仰城温泉)",
        "name:ko": "앙성온천",
        "operator": "한국철도공사",
        "public_transport": "station",
        "railway": "station",
        "start_date": "2021-12-31",
        "train": "yes",
        "wikidata": "Q109738513",
        "wikipedia": "ko:앙성온천역",
        "id": "node/9104562082"
      },
      "geometry": {
        "type": "Point",
        "coordinates": [
          127.7870186,
          37.0921014
        ]
      }
    },
    {
      "type": "Feature",
      "id": "node/9104562711",
      "properties": {
        "alt_name": "감곡장호원역",
        "alt_name:en": "Gamgok Janghowon station",
        "name": "감곡장호원",
        "name:en": "Gamgok Janghowon",
        "name:ja": "カムゴクチャンホウォン(甘谷長湖院)",
        "name:ko": "감곡장호원",
        "public_transport": "station",
        "railway": "station",
        "start_date": "2021-12-31",
        "train": "yes",
        "wikidata": "Q100270854",
        "wikipedia": "ko:감곡장호원역",
        "id": "node/9104562711"
      },
      "geometry": {
        "type": "Point",
        "coordinates": [
          127.6356198,
          37.1270431
        ]
      }
    },
    {
      "type": "Feature",
      "id": "node/9129173192",
      "properties": {
        "addr:city": "충청북도 영동군 심천면",
        "addr:housenumber": "55",
        "addr:street": "각계길",
        "name": "각계",
        "name:en": "Gakgye",
        "name:ko": "각계",
        "official_name": "각계역",
        "official_name:en": "Gakgye Station",
        "public_transport": "station",
        "railway": "halt",
        "train": "yes",
        "id": "node/9129173192"
      },
      "geometry": {
        "type": "Point",
        "coordinates": [
          127.7254469,
          36.2081587
        ]
      }
    },
    {
      "type": "Feature",
      "id": "node/9376156828",
      "properties": {
        "alt_name": "서경주역",
        "alt_name:en": "Seogyeongju station",
        "name": "서경주",
        "name:en": "Seogyeongju",
        "name:ko": "서경주",
        "operator": "한국철도공사",
        "public_transport": "station",
        "railway": "station",
        "start_date": "2021-12-28",
        "train": "yes",
        "id": "node/9376156828"
      },
      "geometry": {
        "type": "Point",
        "coordinates": [
          129.1808636,
          35.8846915
        ]
      }
    }
  ]
}