{
  "type": "FeatureCollection",
  "features": [
    {
      "type": "Feature",
      "id": "node/528528650",
      "properties": {
        "name": "Ново-Устькаменогорск",
        "name:ru": "Ново-Усть-Каменогорск",
        "public_transport": "station",
        "railway": "station",
        "train": "yes",
        "uic_name": "Novo-Ust-Kamenogorsk",
        "uic_ref": "2700378",
        "id": "node/528528650"
      },
      "geometry": {
        "type": "Point",
        "coordinates": [
          82.6520225,
          49.9237558
        ]
      }
    },
    {
      "type": "Feature",
      "id": "node/1871045720",
      "properties": {
        "esr:user": "683102",
        "name": "Тобол",
        "name:ja": "トボル",
        "name:ru": "Тобол",
        "network": "КТЖ",
        "operator": "КТЖ",
        "public_transport": "station",
        "railway": "station",
        "train": "yes",
        "uic_name": "Tobol",
        "uic_ref": "2709980",
        "id": "node/1871045720"
      },
      "geometry": {
        "type": "Point",
        "coordinates": [
          62.5820892,
          52.6930032
        ]
      }
    },
    {
      "type": "Feature",
      "id": "node/2029507845",
      "properties": {
        "name": "Карабулак",
        "name:de": "Karabulak",
        "public_transport": "station",
        "railway": "station",
        "source": "bing, poezdato.net",
        "train": "yes",
        "uic_name": "Karabulak",
        "uic_ref": "2700669",
        "id": "node/2029507845"
      },
      "geometry": {
        "type": "Point",
        "coordinates": [
          78.490508,
          44.8936083
        ]
      }
    },
    {
      "type": "Feature",
      "id": "node/2401351429",
      "properties": {
        "name": "Курайлы",
        "network": "АО «НК «КТЖ»",
        "operator": "Актюбинское отделение",
        "public_transport": "station",
        "railway": "station",
        "train": "yes",
        "uic_name": "Kurajli",
        "uic_ref": "2704841",
        "id": "node/2401351429"
      },
      "geometry": {
        "type": "Point",
        "coordinates": [
          57.0124229,
          50.4590507
        ]
      }
    },
    {
      "type": "Feature",
      "id": "node/2665686515",
      "properties": {
        "alt_name": "Алтынсарино",
        "name": "Алтынсарино",
        "name:de": "Altinsarin",
        "name:kk": "Алтынсарин",
        "name:ru": "Алтынсарино",
        "network": "АО «КТЖ»",
        "operator": "КТЖ",
        "public_transport": "station",
        "railway": "station",
        "train": "yes",
        "uic_name": "Altinsarin",
        "uic_ref": "2704717",
        "id": "node/2665686515"
      },
      "geometry": {
        "type": "Point",
        "coordinates": [
          62.3274221,
          51.7509241
        ]
      }
    },
    {
      "type": "Feature",
      "id": "node/2783374799",
      "properties": {
        "esr:user": "660806",
        "name": "Сагиз",
        "network": "Атырауское отделение",
        "operator": "АО «КТЖ»",
        "public_transport": "station",
        "railway": "station",
        "train": "yes",
        "uic_name": "Sagyz",
        "uic_ref": "2704803",
        "website": "https://www.railways.kz",
        "id": "node/2783374799"
      },
      "geometry": {
        "type": "Point",
        "coordinates": [
          54.8829494,
          48.2343036
        ]
      }
    },
    {
      "type": "Feature",
      "id": "node/2783383945",
      "properties": {
        "esr:user": "660844",
        "name": "Жантерек",
        "network": "Атырауское отделение",
        "operator": "АО \"НК \"ҚТЖ\"",
        "public_transport": "station",
        "railway": "station",
        "source": "bing",
        "train": "yes",
        "uic_name": "Janterek",
        "uic_ref": "2704801",
        "website": "https://www.railways.kz",
        "id": "node/2783383945"
      },
      "geometry": {
        "type": "Point",
        "coordinates": [
          54.2167142,
          47.9261689
        ]
      }
    },
    {
      "type": "Feature",
      "id": "node/2785100097",
      "properties": {
        "esr:user": "660831",
        "name": "Мукур",
        "network": "Атырауское отделение",
        "operator": "АО \"НК \"ҚТЖ\"",
        "public_transport": "station",
        "railway": "station",
        "source": "bing",
        "train": "yes",
        "uic_name": "Mukur",
        "uic_ref": "2704802",
        "website": "https://www.railways.kz",
        "id": "node/2785100097"
      },
      "geometry": {
        "type": "Point",
        "coordinates": [
          54.4921948,
          48.0411642
        ]
      }
    },
    {
      "type": "Feature",
      "id": "node/2930848713",
      "properties": {
        "esr:user": "662303",
        "name": "Ганюшкино",
        "network": "Атырауское отделение",
        "operator": "АО \"НК \"ҚТЖ\"",
        "public_transport": "station",
        "railway": "station",
        "source": "bing",
        "train": "yes",
        "uic_name": "Ganjuschkino",
        "uic_ref": "2704791",
        "website": "https://www.railways.kz",
        "id": "node/2930848713"
      },
      "geometry": {
        "type": "Point",
        "coordinates": [
          49.0523053,
          46.6612964
        ]
      }
    },
    {
      "type": "Feature",
      "id": "node/2933948952",
      "properties": {
        "esr:user": "662132",
        "name": "Нарын",
        "network": "Атырауское отделение",
        "operator": "АО \"НК \"ҚТЖ\"",
        "public_transport": "station",
        "railway": "station",
        "source": "bing",
        "train": "yes",
        "uic_name": "Narin(KAZ)",
        "uic_ref": "2700171",
        "website": "https://www.railways.kz",
        "id": "node/2933948952"
      },
      "geometry": {
        "type": "Point",
        "coordinates": [
          50.52852,
          47.0416973
        ]
      }
    },
    {
      "type": "Feature",
      "id": "node/3784673411",
      "properties": {
        "esr:user": "662229",
        "name": "Исатай",
        "name:ru": "Исатай",
        "network": "Атырауское отделение",
        "operator": "АО \"НК \"ҚТЖ\"",
        "public_transport": "station",
        "railway": "station",
        "train": "yes",
        "uic_name": "Isataj",
        "uic_ref": "2704792",
        "website": "https://www.railways.kz",
        "id": "node/3784673411"
      },
      "geometry": {
        "type": "Point",
        "coordinates": [
          50.0676762,
          46.8029189
        ]
      }
    },
    {
      "type": "Feature",
      "id": "node/3784686496",
      "properties": {
        "esr:user": "662209",
        "name": "Сазанкурак",
        "name:ru": "Сазанкурак",
        "network": "Атырауское отделение",
        "operator": "АО \"НК \"ҚТЖ\"",
        "public_transport": "station",
        "railway": "station",
        "train": "yes",
        "uic_name": "Razezd n 12",
        "uic_ref": "2705866",
        "website": "https://www.railways.kz",
        "id": "node/3784686496"
      },
      "geometry": {
        "type": "Point",
        "coordinates": [
          50.3720177,
          46.9600733
        ]
      }
    },
    {
      "type": "Feature",
      "id": "node/3784696689",
      "properties": {
        "esr:user": "661832",
        "name": "Баксай",
        "name:ru": "Баксай",
        "network": "Атырауское отделение",
        "operator": "АО \"НК \"ҚТЖ\"",
        "public_transport": "station",
        "railway": "station",
        "train": "yes",
        "uic_name": "Baksaj",
        "uic_ref": "2704996",
        "website": "https://www.railways.kz",
        "id": "node/3784696689"
      },
      "geometry": {
        "type": "Point",
        "coordinates": [
          51.1758816,
          47.2568187
        ]
      }
    },
    {
      "type": "Feature",
      "id": "node/3784705031",
      "properties": {
        "esr:user": "661809",
        "name": "Махамбет",
        "name:ru": "Махамбет",
        "network": "Атырауское отделение",
        "operator": "АО \"НК \"ҚТЖ\"",
        "public_transport": "station",
        "railway": "station",
        "train": "yes",
        "uic_name": "Makhambet",
        "uic_ref": "2704794",
        "website": "https://www.railways.kz",
        "id": "node/3784705031"
      },
      "geometry": {
        "type": "Point",
        "coordinates": [
          51.8687954,
          47.1593875
        ]
      }
    },
    {
      "type": "Feature",
      "id": "node/3784715963",
      "properties": {
        "esr:user": "661508",
        "name": "Тендык",
        "name:ru": "Тендык",
        "network": "Атырауское отделение",
        "operator": "АО \"НК \"ҚТЖ\"",
        "public_transport": "station",
        "railway": "station",
        "train": "yes",
        "uic_name": "Tendik",
        "uic_ref": "2704796",
        "website": "https://www.railways.kz",
        "id": "node/3784715963"
      },
      "geometry": {
        "type": "Point",
        "coordinates": [
          52.0299822,
          47.14731
        ]
      }
    },
    {
      "type": "Feature",
      "id": "node/3785194817",
      "properties": {
        "esr:user": "671302",
        "name": "Кызгалдакты",
        "name:ru": "Кызгалдакты",
        "network": "АО «НК «КТЖ»",
        "operator": "Актюбинское отделение",
        "public_transport": "station",
        "railway": "halt",
        "train": "yes",
        "uic_name": "Tjulpannij",
        "uic_ref": "2704842",
        "id": "node/3785194817"
      },
      "geometry": {
        "type": "Point",
        "coordinates": [
          57.0691874,
          50.3973149
        ]
      }
    },
    {
      "type": "Feature",
      "id": "node/3789489962",
      "properties": {
        "esr:user": "704309",
        "name": "Кайрат",
        "name:ru": "Кайрат",
        "public_transport": "station",
        "railway": "station",
        "train": "yes",
        "uic_name": "Kajrat",
        "uic_ref": "2700806",
        "id": "node/3789489962"
      },
      "geometry": {
        "type": "Point",
        "coordinates": [
          77.0931066,
          43.5972455
        ]
      }
    },
    {
      "type": "Feature",
      "id": "node/4021927564",
      "properties": {
        "esr:user": "661705",
        "name": "Атырау",
        "name:ru": "Атырау",
        "network": "Атырауское отделение",
        "operator": "АО «Пассажирские перевозки»",
        "phone": "+7 7122 955549",
        "public_transport": "station",
        "railway": "station",
        "train": "yes",
        "uic_name": "Atyrau",
        "uic_ref": "2704830",
        "website": "https://www.railways.kz",
        "id": "node/4021927564"
      },
      "geometry": {
        "type": "Point",
        "coordinates": [
          51.9568429,
          47.1294884
        ]
      }
    },
    {
      "type": "Feature",
      "id": "node/4022911770",
      "properties": {
        "esr:user": "661300",
        "name": "Доссор",
        "name:ru": "Доссор",
        "network": "Атырауское отделение",
        "operator": "АО \"НК \"ҚТЖ\"",
        "public_transport": "station",
        "railway": "station",
        "train": "yes",
        "uic_name": "Dossor",
        "uic_ref": "2704960",
        "website": "https://www.railways.kz",
        "id": "node/4022911770"
      },
      "geometry": {
        "type": "Point",
        "coordinates": [
          52.9611052,
          47.5104512
        ]
      }
    },
    {
      "type": "Feature",
      "id": "node/4025083262",
      "properties": {
        "esr:user": "661404",
        "name": "Искине",
        "name:ru": "Искине",
        "network": "Атырауское отделение",
        "operator": "АО \"НК \"ҚТЖ\"",
        "public_transport": "station",
        "railway": "station",
        "source": "bing",
        "train": "yes",
        "uic_name": "Iskine",
        "uic_ref": "2704798",
        "website": "https://www.railways.kz",
        "id": "node/4025083262"
      },
      "geometry": {
        "type": "Point",
        "coordinates": [
          52.6170104,
          47.3632708
        ]
      }
    },
    {
      "type": "Feature",
      "id": "node/4025962077",
      "properties": {
        "esr:user": "661207",
        "name": "Карабатано",
        "name:ru": "Карабатано",
        "network": "Атырауское отделение",
        "operator": "АО \"НК \"ҚТЖ\"",
        "public_transport": "station",
        "railway": "station",
        "source": "bing",
        "train": "yes",
        "uic_name": "Karabatano",
        "uic_ref": "2704797",
        "website": "https://www.railways.kz",
        "id": "node/4025962077"
      },
      "geometry": {
        "type": "Point",
        "coordinates": [
          52.3077327,
          47.2722157
        ]
      }
    },
    {
      "type": "Feature",
      "id": "node/4029732478",
      "properties": {
        "esr:user": "662500",
        "name": "Кульсары",
        "name:ru": "Кульсары",
        "network": "Атырауское отделение",
        "operator": "АО \"НК \"ҚТЖ\"",
        "public_transport": "station",
        "railway": "station",
        "train": "yes",
        "uic_name": "Kulsari",
        "uic_ref": "2704822",
        "website": "https://www.railways.kz",
        "id": "node/4029732478"
      },
      "geometry": {
        "type": "Point",
        "coordinates": [
          53.9387283,
          46.9479592
        ]
      }
    },
    {
      "type": "Feature",
      "id": "node/4030794153",
      "properties": {
        "alt_name": "Защита",
        "esr:user": "713007",
        "name": "Оскемен 1",
        "name:ru": "Усть-Каменогорск 1",
        "network": "КТЖ",
        "operator": "Защитинское отделение",
        "public_transport": "station",
        "railway": "station",
        "train": "yes",
        "uic_name": "Zaschita",
        "uic_ref": "2700730",
        "id": "node/4030794153"
      },
      "geometry": {
        "type": "Point",
        "coordinates": [
          82.5639882,
          50.0063981
        ]
      }
    },
    {
      "type": "Feature",
      "id": "node/4036867228",
      "properties": {
        "esr:user": "661003",
        "name": "Жамансор",
        "name:ru": "Жамансор",
        "network": "Атырауское отделение",
        "operator": "АО \"НК \"ҚТЖ\"",
        "public_transport": "station",
        "railway": "station",
        "train": "yes",
        "uic_name": "Jamansor",
        "uic_ref": "2704799",
        "website": "https://www.railways.kz",
        "id": "node/4036867228"
      },
      "geometry": {
        "type": "Point",
        "coordinates": [
          53.7961833,
          47.7875808
        ]
      }
    },
    {
      "type": "Feature",
      "id": "node/4041217730",
      "properties": {
        "esr:user": "713702",
        "name": "Усть-Каменогорск",
        "name:ru": "Усть-Каменогорск",
        "public_transport": "station",
        "railway": "station",
        "train": "yes",
        "uic_name": "Ust-Kamenogorsk",
        "uic_ref": "2700890",
        "id": "node/4041217730"
      },
      "geometry": {
        "type": "Point",
        "coordinates": [
          82.6477443,
          49.9560618
        ]
      }
    },
    {
      "type": "Feature",
      "id": "node/4091065627",
      "properties": {
        "esr:user": "661103",
        "int_name": "Makat",
        "name": "Макат",
        "name:kk": "Мақат",
        "name:ru": "Макат",
        "network": "Атырауское отделение",
        "operator": "АО \"НК \"ҚТЖ\"",
        "public_transport": "station",
        "railway": "station",
        "ref": "Мақат",
        "train": "yes",
        "uic_name": "Makat",
        "uic_ref": "2704980",
        "website": "https://www.railways.kz",
        "id": "node/4091065627"
      },
      "geometry": {
        "type": "Point",
        "coordinates": [
          53.338114,
          47.6428212
        ]
      }
    },
    {
      "type": "Feature",
      "id": "node/5025635018",
      "properties": {
        "name": "Жалгызтал",
        "network": "КТЖ",
        "operator": "Кустанайское отделение",
        "public_transport": "station",
        "railway": "station",
        "source": "Sentinel-2",
        "train": "yes",
        "id": "node/5025635018"
      },
      "geometry": {
        "type": "Point",
        "coordinates": [
          67.2182176,
          49.9959214
        ]
      }
    },
    {
      "type": "Feature",
      "id": "node/5672566580",
      "properties": {
        "esr:user": "661601",
        "name": "Ак Жайык",
        "network": "Атырауское отделение",
        "operator": "АО \"НК \"ҚТЖ\"",
        "phone": "+7 7122 953400",
        "public_transport": "station",
        "railway": "station",
        "train": "yes",
        "uic_ref": "2704795",
        "website": "https://www.railways.kz",
        "website:stock": "https://www.railways.kz",
        "id": "node/5672566580"
      },
      "geometry": {
        "type": "Point",
        "coordinates": [
          51.9337128,
          47.0976601
        ]
      }
    },
    {
      "type": "Feature",
      "id": "node/5723270365",
      "properties": {
        "name": "Тенгиз",
        "network": "Атырауское отделение",
        "operator": "АО \"НК \"ҚТЖ\"",
        "public_transport": "station",
        "railway": "station",
        "train": "yes",
        "website": "https://www.railways.kz",
        "id": "node/5723270365"
      },
      "geometry": {
        "type": "Point",
        "coordinates": [
          53.4126566,
          46.2083484
        ]
      }
    },
    {
      "type": "Feature",
      "id": "node/5942125858",
      "properties": {
        "esr:user": "662106",
        "name": "Ак-кистау",
        "network": "Атырауское отделение",
        "operator": "АО \"НК \"ҚТЖ\"",
        "public_transport": "station",
        "railway": "station",
        "train": "yes",
        "uic_ref": "2704793",
        "website": "https://www.railways.kz",
        "id": "node/5942125858"
      },
      "geometry": {
        "type": "Point",
        "coordinates": [
          51.006891,
          47.2276496
        ]
      }
    },
    {
      "type": "Feature",
      "id": "node/6182647585",
      "properties": {
        "esr:user": "703734",
        "name": "Кокузек",
        "name:ru": "Кокузек",
        "public_transport": "station",
        "railway": "station",
        "train": "yes",
        "uic_ref": "2700920",
        "id": "node/6182647585"
      },
      "geometry": {
        "type": "Point",
        "coordinates": [
          76.8026681,
          43.3561432
        ]
      }
    },
    {
      "type": "Feature",
      "id": "node/7029676795",
      "properties": {
        "name": "Элеватор",
        "network": "Казахстанская железная дорога",
        "operator": "КЖД",
        "public_transport": "station",
        "railway": "halt",
        "train": "yes",
        "id": "node/7029676795"
      },
      "geometry": {
        "type": "Point",
        "coordinates": [
          76.9600245,
          43.3279737
        ]
      }
    },
    {
      "type": "Feature",
      "id": "node/7029766239",
      "properties": {
        "name": "Роща",
        "network": "Казахстанская железная дорога",
        "operator": "Казахстанская железная дорога",
        "public_transport": "station",
        "railway": "halt",
        "train": "yes",
        "id": "node/7029766239"
      },
      "geometry": {
        "type": "Point",
        "coordinates": [
          76.9520199,
          43.3025969
        ]
      }
    },
    {
      "type": "Feature",
      "id": "node/7034564033",
      "properties": {
        "name": "Шакубай",
        "network": "Казахстанская железная дорога",
        "operator": "Кустанайское отделение",
        "public_transport": "station",
        "railway": "station",
        "train": "yes",
        "id": "node/7034564033"
      },
      "geometry": {
        "type": "Point",
        "coordinates": [
          61.5511085,
          52.3094611
        ]
      }
    },
    {
      "type": "Feature",
      "id": "node/7038658385",
      "properties": {
        "name": "Шолпан",
        "network": "КТЖ",
        "public_transport": "station",
        "railway": "station",
        "train": "yes",
        "id": "node/7038658385"
      },
      "geometry": {
        "type": "Point",
        "coordinates": [
          73.7950734,
          44.6636395
        ]
      }
    },
    {
      "type": "Feature",
      "id": "node/7038671115",
      "properties": {
        "name": "Курмангазы",
        "network": "КТЖ",
        "operator": "Жамбыльское (ЖАМ)",
        "public_transport": "station",
        "railway": "station",
        "train": "yes",
        "id": "node/7038671115"
      },
      "geometry": {
        "type": "Point",
        "coordinates": [
          74.5381028,
          44.6031351
        ]
      }
    },
    {
      "type": "Feature",
      "id": "node/7040855839",
      "properties": {
        "name": "Путевой пост 767 км",
        "network": "КТЖ",
        "operator": "Карагандинское отделение",
        "public_transport": "station",
        "railway": "halt",
        "train": "yes",
        "id": "node/7040855839"
      },
      "geometry": {
        "type": "Point",
        "coordinates": [
          72.8435441,
          49.5288219
        ]
      }
    },
    {
      "type": "Feature",
      "id": "node/7044948982",
      "properties": {
        "name": "Шубарколь",
        "network": "КТЖ",
        "public_transport": "station",
        "railway": "station",
        "train": "yes",
        "id": "node/7044948982"
      },
      "geometry": {
        "type": "Point",
        "coordinates": [
          68.7785893,
          49.0001346
        ]
      }
    },
    {
      "type": "Feature",
      "id": "node/7060239596",
      "properties": {
        "name": "20 км",
        "network": "КТЖ",
        "operator": "Алматинское отделение",
        "public_transport": "station",
        "railway": "halt",
        "train": "yes",
        "id": "node/7060239596"
      },
      "geometry": {
        "type": "Point",
        "coordinates": [
          78.0766537,
          44.9571551
        ]
      }
    },
    {
      "type": "Feature",
      "id": "node/7060318434",
      "properties": {
        "name": "10 км",
        "network": "КТЖ",
        "operator": "Алматинское  отделение",
        "public_transport": "station",
        "railway": "halt",
        "train": "yes",
        "id": "node/7060318434"
      },
      "geometry": {
        "type": "Point",
        "coordinates": [
          78.0112567,
          44.976174
        ]
      }
    },
    {
      "type": "Feature",
      "id": "node/7060379499",
      "properties": {
        "name": "47 км",
        "network": "КТЖ",
        "operator": "Алматинское отделение",
        "public_transport": "station",
        "railway": "halt",
        "train": "yes",
        "id": "node/7060379499"
      },
      "geometry": {
        "type": "Point",
        "coordinates": [
          78.4189508,
          44.8842517
        ]
      }
    },
    {
      "type": "Feature",
      "id": "node/7060382837",
      "properties": {
        "name": "40 км",
        "network": "КТЖ",
        "operator": "Алматинское отделени",
        "public_transport": "station",
        "railway": "halt",
        "train": "yes",
        "id": "node/7060382837"
      },
      "geometry": {
        "type": "Point",
        "coordinates": [
          78.2808538,
          44.8445006
        ]
      }
    },
    {
      "type": "Feature",
      "id": "node/7060383555",
      "properties": {
        "name": "66 км",
        "network": "КТЖ",
        "operator": "Алмаатинское отделение",
        "public_transport": "station",
        "railway": "halt",
        "train": "yes",
        "id": "node/7060383555"
      },
      "geometry": {
        "type": "Point",
        "coordinates": [
          78.6191652,
          44.8772514
        ]
      }
    },
    {
      "type": "Feature",
      "id": "node/7060683093",
      "properties": {
        "name": "1013 км",
        "network": "КТЖ",
        "operator": "Кустанайское отделение",
        "public_transport": "station",
        "railway": "halt",
        "train": "yes",
        "id": "node/7060683093"
      },
      "geometry": {
        "type": "Point",
        "coordinates": [
          60.4683005,
          50.4270343
        ]
      }
    },
    {
      "type": "Feature",
      "id": "node/7060737224",
      "properties": {
        "name": "1129 км",
        "network": "КТЖ",
        "operator": "Кустанайское отделение",
        "public_transport": "station",
        "railway": "halt",
        "train": "yes",
        "id": "node/7060737224"
      },
      "geometry": {
        "type": "Point",
        "coordinates": [
          58.7380308,
          50.3584259
        ]
      }
    },
    {
      "type": "Feature",
      "id": "node/7061556613",
      "properties": {
        "name": "Смолянка",
        "network": "КТЖ",
        "operator": "Защитинское отделение",
        "public_transport": "station",
        "railway:disused": "station",
        "train": "yes",
        "id": "node/7061556613"
      },
      "geometry": {
        "type": "Point",
        "coordinates": [
          83.0207028,
          49.7148058
        ]
      }
    },
    {
      "type": "Feature",
      "id": "node/7061650643",
      "properties": {
        "name": "122 км",
        "network": "КТЖ",
        "operator": "Защитинское отделение",
        "public_transport": "station",
        "railway": "halt",
        "train": "yes",
        "id": "node/7061650643"
      },
      "geometry": {
        "type": "Point",
        "coordinates": [
          83.6275145,
          49.6155433
        ]
      }
    },
    {
      "type": "Feature",
      "id": "node/7061671446",
      "properties": {
        "name": "33 км",
        "network": "КТЖ",
        "operator": "Защитинское отделение",
        "public_transport": "station",
        "railway": "halt",
        "train": "yes",
        "id": "node/7061671446"
      },
      "geometry": {
        "type": "Point",
        "coordinates": [
          82.8150471,
          49.8794433
        ]
      }
    },
    {
      "type": "Feature",
      "id": "node/7061673941",
      "properties": {
        "name": "57 км",
        "network": "КТЖ",
        "operator": "Защитинское отделение",
        "public_transport": "station",
        "railway": "halt",
        "train": "yes",
        "id": "node/7061673941"
      },
      "geometry": {
        "type": "Point",
        "coordinates": [
          82.9443118,
          49.7294556
        ]
      }
    },
    {
      "type": "Feature",
      "id": "node/7061674798",
      "properties": {
        "name": "45 км",
        "network": "КТЖ",
        "operator": "Защитинское отделение",
        "public_transport": "station",
        "railway": "halt",
        "train": "yes",
        "id": "node/7061674798"
      },
      "geometry": {
        "type": "Point",
        "coordinates": [
          82.9262795,
          49.8032572
        ]
      }
    },
    {
      "type": "Feature",
      "id": "node/7061679252",
      "properties": {
        "name": "49 км",
        "network": "КТЖ",
        "operator": "Защитинское отделение",
        "public_transport": "station",
        "railway": "halt",
        "train": "yes",
        "id": "node/7061679252"
      },
      "geometry": {
        "type": "Point",
        "coordinates": [
          82.928246,
          49.7755899
        ]
      }
    },
    {
      "type": "Feature",
      "id": "node/7061716299",
      "properties": {
        "name": "23 км",
        "network": "КТЖ",
        "operator": "Защитинское отделение",
        "public_transport": "station",
        "railway": "halt",
        "train": "yes",
        "id": "node/7061716299"
      },
      "geometry": {
        "type": "Point",
        "coordinates": [
          82.7058312,
          49.8890746
        ]
      }
    },
    {
      "type": "Feature",
      "id": "node/7061767086",
      "properties": {
        "name": "Сарыжиде",
        "network": "КТЖ",
        "operator": "Актюбинское отделение",
        "public_transport": "station",
        "railway": "station",
        "train": "yes",
        "id": "node/7061767086"
      },
      "geometry": {
        "type": "Point",
        "coordinates": [
          59.4854713,
          47.6469235
        ]
      }
    },
    {
      "type": "Feature",
      "id": "node/7062781084",
      "properties": {
        "name": "Байкадам",
        "network": "КТЖ",
        "operator": "Актюбинское отделение",
        "public_transport": "station",
        "railway": "station",
        "train": "yes",
        "id": "node/7062781084"
      },
      "geometry": {
        "type": "Point",
        "coordinates": [
          59.2042107,
          47.3465427
        ]
      }
    },
    {
      "type": "Feature",
      "id": "node/7062790362",
      "properties": {
        "name": "Бегимбет",
        "network": "КТЖ",
        "operator": "Актюбинское отделение",
        "public_transport": "station",
        "railway": "station",
        "train": "yes",
        "id": "node/7062790362"
      },
      "geometry": {
        "type": "Point",
        "coordinates": [
          59.0157654,
          47.0690368
        ]
      }
    },
    {
      "type": "Feature",
      "id": "node/7062977473",
      "properties": {
        "name": "Турыш",
        "network": "КТЖ",
        "operator": "Мангистаусское отделение",
        "public_transport": "station",
        "railway": "station",
        "train": "yes",
        "id": "node/7062977473"
      },
      "geometry": {
        "type": "Point",
        "coordinates": [
          56.1140619,
          45.4569879
        ]
      }
    },
    {
      "type": "Feature",
      "id": "node/7063101568",
      "properties": {
        "name": "Шукуркуль",
        "network": "КТЖ",
        "operator": "Акмолинское отделение",
        "public_transport": "station",
        "railway": "halt",
        "train": "yes",
        "id": "node/7063101568"
      },
      "geometry": {
        "type": "Point",
        "coordinates": [
          67.3529165,
          53.2147166
        ]
      }
    },
    {
      "type": "Feature",
      "id": "node/7063163984",
      "properties": {
        "name": "Шенды",
        "network": "КТЖ",
        "operator": "Актюбинское отделение",
        "public_transport": "station",
        "railway": "halt",
        "train": "yes",
        "id": "node/7063163984"
      },
      "geometry": {
        "type": "Point",
        "coordinates": [
          60.4704916,
          47.6027565
        ]
      }
    },
    {
      "type": "Feature",
      "id": "node/7063551665",
      "properties": {
        "name": "Шаховский",
        "network": "КТЖ",
        "operator": "Акмолинское отделение",
        "public_transport": "station",
        "railway": "halt",
        "train": "yes",
        "id": "node/7063551665"
      },
      "geometry": {
        "type": "Point",
        "coordinates": [
          69.2293296,
          54.8218943
        ]
      }
    },
    {
      "type": "Feature",
      "id": "node/7063562242",
      "properties": {
        "name": "Шаховский",
        "network": "КТЖ",
        "operator": "Акмолинское отделение",
        "public_transport": "station",
        "railway": "halt",
        "train": "yes",
        "id": "node/7063562242"
      },
      "geometry": {
        "type": "Point",
        "coordinates": [
          69.3239933,
          54.6874521
        ]
      }
    },
    {
      "type": "Feature",
      "id": "node/7063617680",
      "properties": {
        "name": "Улан",
        "network": "КТЖ",
        "operator": "Защитинское отделение",
        "public_transport": "station",
        "railway": "station",
        "train": "yes",
        "id": "node/7063617680"
      },
      "geometry": {
        "type": "Point",
        "coordinates": [
          82.4750992,
          49.8778125
        ]
      }
    },
    {
      "type": "Feature",
      "id": "node/7063619915",
      "properties": {
        "name": "Чаган",
        "network": "КТЖ",
        "operator": "Семипалатинское отделение",
        "public_transport": "station",
        "railway": "station",
        "train": "yes",
        "id": "node/7063619915"
      },
      "geometry": {
        "type": "Point",
        "coordinates": [
          79.2213515,
          50.6063344
        ]
      }
    },
    {
      "type": "Feature",
      "id": "node/7063621814",
      "properties": {
        "name": "Уральск-Товарная",
        "network": "КТЖ",
        "operator": "Семипалатинское отделение",
        "public_transport": "station",
        "railway": "station",
        "train": "yes",
        "id": "node/7063621814"
      },
      "geometry": {
        "type": "Point",
        "coordinates": [
          51.3120598,
          51.2464867
        ]
      }
    },
    {
      "type": "Feature",
      "id": "node/7063638910",
      "properties": {
        "name": "Углерудная",
        "network": "КТЖ",
        "operator": "Карагандинское отделение",
        "public_transport": "station",
        "railway": "station",
        "train": "yes",
        "id": "node/7063638910"
      },
      "geometry": {
        "type": "Point",
        "coordinates": [
          73.0314749,
          50.0403728
        ]
      }
    },
    {
      "type": "Feature",
      "id": "node/7064865231",
      "properties": {
        "name": "Сатимсай",
        "network": "КТЖ",
        "operator": "Кызыл-Ординское",
        "public_transport": "station",
        "railway": "halt",
        "train": "yes",
        "id": "node/7064865231"
      },
      "geometry": {
        "type": "Point",
        "coordinates": [
          67.7413684,
          43.5399303
        ]
      }
    },
    {
      "type": "Feature",
      "id": "node/7065774979",
      "properties": {
        "name": "Ленгер",
        "network": "КТЖ",
        "operator": "Шымкентское отделение",
        "public_transport": "station",
        "railway": "station",
        "train": "yes",
        "id": "node/7065774979"
      },
      "geometry": {
        "type": "Point",
        "coordinates": [
          69.877901,
          42.1840975
        ]
      }
    },
    {
      "type": "Feature",
      "id": "node/7066035677",
      "properties": {
        "name": "Курык-Порт",
        "network": "КТЖ",
        "operator": "Мангистаусское отделение",
        "public_transport": "station",
        "railway": "station",
        "train": "yes",
        "id": "node/7066035677"
      },
      "geometry": {
        "type": "Point",
        "coordinates": [
          51.441617,
          43.1647576
        ]
      }
    },
    {
      "type": "Feature",
      "id": "node/7066105756",
      "properties": {
        "name": "Караганда-Угольная",
        "network": "КТЖ",
        "operator": "Карагандинское отделение (КАР)",
        "public_transport": "station",
        "railway": "station",
        "train": "yes",
        "id": "node/7066105756"
      },
      "geometry": {
        "type": "Point",
        "coordinates": [
          73.1041469,
          49.8912513
        ]
      }
    },
    {
      "type": "Feature",
      "id": "node/7066109971",
      "properties": {
        "name": "Енбекшильдер",
        "network": "КТЖ",
        "operator": "Павлодарское отделение",
        "public_transport": "station",
        "railway": "station",
        "train": "yes",
        "id": "node/7066109971"
      },
      "geometry": {
        "type": "Point",
        "coordinates": [
          71.5214005,
          52.7856223
        ]
      }
    },
    {
      "type": "Feature",
      "id": "node/7066119030",
      "properties": {
        "name": "Ерсай",
        "network": "КТЖ",
        "operator": "Мангистаусское отделение",
        "public_transport": "station",
        "railway": "station",
        "train": "yes",
        "id": "node/7066119030"
      },
      "geometry": {
        "type": "Point",
        "coordinates": [
          51.5832366,
          43.195269
        ]
      }
    },
    {
      "type": "Feature",
      "id": "node/7066131789",
      "properties": {
        "name": "Абаил",
        "network": "КТЖ",
        "operator": "Жамбыльское отделение",
        "public_transport": "station",
        "railway": "station",
        "train": "yes",
        "id": "node/7066131789"
      },
      "geometry": {
        "type": "Point",
        "coordinates": [
          70.4762887,
          42.4877211
        ]
      }
    },
    {
      "type": "Feature",
      "id": "node/7066184933",
      "properties": {
        "name": "Екибастуз-Северный 2",
        "network": "КТЖ",
        "operator": "Павлодарское отделение",
        "public_transport": "station",
        "railway": "station",
        "train": "yes",
        "id": "node/7066184933"
      },
      "geometry": {
        "type": "Point",
        "coordinates": [
          75.4821544,
          52.0251735
        ]
      }
    },
    {
      "type": "Feature",
      "id": "node/7066201290",
      "properties": {
        "name": "Екибастуз-Северный 1",
        "name:de": "Ekibastus-Nord 1",
        "network": "КТЖ",
        "operator": "Павлодарское отделение",
        "public_transport": "station",
        "railway": "station",
        "train": "yes",
        "id": "node/7066201290"
      },
      "geometry": {
        "type": "Point",
        "coordinates": [
          75.3720292,
          51.886298
        ]
      }
    },
    {
      "type": "Feature",
      "id": "node/7066248958",
      "properties": {
        "name": "Актау-Порт",
        "network": "КТЖ",
        "operator": "Мангистаусское отделение",
        "public_transport": "station",
        "railway": "station",
        "train": "yes",
        "id": "node/7066248958"
      },
      "geometry": {
        "type": "Point",
        "coordinates": [
          51.2225562,
          43.5995627
        ]
      }
    },
    {
      "type": "Feature",
      "id": "node/7066630613",
      "properties": {
        "name": "Нур-Султан-Нурлы Жол",
        "network": "КТЖ",
        "operator": "Акмолинское отделение",
        "public_transport": "station",
        "railway": "station",
        "train": "yes",
        "id": "node/7066630613"
      },
      "geometry": {
        "type": "Point",
        "coordinates": [
          71.5318038,
          51.1123218
        ]
      }
    },
    {
      "type": "Feature",
      "id": "node/7066649423",
      "properties": {
        "name": "Бугунь",
        "network": "КТЖ",
        "operator": "Жамбыльское отделение",
        "public_transport": "station",
        "railway": "station",
        "train": "yes",
        "id": "node/7066649423"
      },
      "geometry": {
        "type": "Point",
        "coordinates": [
          70.1875071,
          43.3609559
        ]
      }
    },
    {
      "type": "Feature",
      "id": "node/7066654365",
      "properties": {
        "name": "Байсерке",
        "network": "КТЖ",
        "operator": "Алма-Атинское отделение",
        "public_transport": "station",
        "railway": "station",
        "train": "yes",
        "id": "node/7066654365"
      },
      "geometry": {
        "type": "Point",
        "coordinates": [
          77.0450863,
          43.4829487
        ]
      }
    },
    {
      "type": "Feature",
      "id": "node/7067911363",
      "properties": {
        "name": "Павлодар-Порт",
        "network": "КТЖ",
        "operator": "Павлодарское отделение",
        "public_transport": "station",
        "railway": "station",
        "train": "yes",
        "id": "node/7067911363"
      },
      "geometry": {
        "type": "Point",
        "coordinates": [
          76.8764721,
          52.3364162
        ]
      }
    },
    {
      "type": "Feature",
      "id": "node/7067942646",
      "properties": {
        "name": "Павлодар-Южный",
        "network": "КТЖ",
        "operator": "Павлодарское отделение",
        "public_transport": "station",
        "railway": "station",
        "train": "yes",
        "id": "node/7067942646"
      },
      "geometry": {
        "type": "Point",
        "coordinates": [
          77.0619112,
          52.2049761
        ]
      }
    },
    {
      "type": "Feature",
      "id": "node/7067947076",
      "properties": {
        "name": "Павлодар-Северный",
        "network": "КТЖ",
        "operator": "Павлодарское отделение",
        "public_transport": "station",
        "railway": "station",
        "train": "yes",
        "id": "node/7067947076"
      },
      "geometry": {
        "type": "Point",
        "coordinates": [
          76.8904629,
          52.3346327
        ]
      }
    },
    {
      "type": "Feature",
      "id": "node/7067967378",
      "properties": {
        "name": "Айтек",
        "network": "КТЖ",
        "operator": "Кызыл-Ординское отделение",
        "public_transport": "station",
        "railway": "halt",
        "train": "yes",
        "id": "node/7067967378"
      },
      "geometry": {
        "type": "Point",
        "coordinates": [
          65.1986719,
          45.0361967
        ]
      }
    },
    {
      "type": "Feature",
      "id": "node/7067981723",
      "properties": {
        "name": "82 км",
        "network": "КТЖ",
        "operator": "Карагандинское  отделение",
        "public_transport": "station",
        "railway": "halt",
        "train": "yes",
        "id": "node/7067981723"
      },
      "geometry": {
        "type": "Point",
        "coordinates": [
          71.7860124,
          48.697098
        ]
      }
    },
    {
      "type": "Feature",
      "id": "node/7068017831",
      "properties": {
        "name": "Актайлак",
        "network": "КТЖ",
        "operator": "Кызыл-Ординское отделение",
        "public_transport": "station",
        "railway": "halt",
        "train": "yes",
        "id": "node/7068017831"
      },
      "geometry": {
        "type": "Point",
        "coordinates": [
          65.3530142,
          44.9700282
        ]
      }
    },
    {
      "type": "Feature",
      "id": "node/7068034783",
      "properties": {
        "name": "Буребай",
        "network": "КТЖ",
        "operator": "Кызыл-Ординское отделение",
        "public_transport": "station",
        "railway": "station",
        "train": "yes",
        "id": "node/7068034783"
      },
      "geometry": {
        "type": "Point",
        "coordinates": [
          65.6753292,
          44.8021159
        ]
      }
    },
    {
      "type": "Feature",
      "id": "node/7069167083",
      "properties": {
        "name": "2364 км ПК2",
        "network": "КТЖ",
        "operator": "Кызыл-Ординское отделение",
        "public_transport": "station",
        "railway": "halt",
        "train": "yes",
        "id": "node/7069167083"
      },
      "geometry": {
        "type": "Point",
        "coordinates": [
          61.6120781,
          46.8435906
        ]
      }
    },
    {
      "type": "Feature",
      "id": "node/7069183330",
      "properties": {
        "name": "Тербенбес",
        "network": "КТЖ",
        "operator": "Кызыл-Ординское отделение",
        "public_transport": "station",
        "railway": "station",
        "train": "yes",
        "id": "node/7069183330"
      },
      "geometry": {
        "type": "Point",
        "coordinates": [
          61.24543,
          47.035877
        ]
      }
    },
    {
      "type": "Feature",
      "id": "node/7069203270",
      "properties": {
        "name": "Сарбеткей",
        "network": "КТЖ",
        "operator": "Кызыл-Ординское отделение",
        "public_transport": "station",
        "railway": "halt",
        "train": "yes",
        "id": "node/7069203270"
      },
      "geometry": {
        "type": "Point",
        "coordinates": [
          61.9405668,
          46.2798254
        ]
      }
    },
    {
      "type": "Feature",
      "id": "node/7069205294",
      "properties": {
        "name": "Кумсагыз",
        "network": "КТЖ",
        "operator": "Кызыл-Ординское отделение",
        "public_transport": "station",
        "railway": "halt",
        "train": "yes",
        "id": "node/7069205294"
      },
      "geometry": {
        "type": "Point",
        "coordinates": [
          61.3469949,
          46.9879235
        ]
      }
    },
    {
      "type": "Feature",
      "id": "node/7069207815",
      "properties": {
        "name": "Шырганак",
        "network": "КТЖ",
        "operator": "Кызыл-Ординское отделение",
        "public_transport": "station",
        "railway": "halt",
        "train": "yes",
        "id": "node/7069207815"
      },
      "geometry": {
        "type": "Point",
        "coordinates": [
          61.5297941,
          46.8978781
        ]
      }
    },
    {
      "type": "Feature",
      "id": "node/7069214468",
      "properties": {
        "name": "Кетиксуат",
        "network": "КТЖ",
        "operator": "Кызыл-Ординское отделение",
        "public_transport": "station",
        "railway": "halt",
        "train": "yes",
        "id": "node/7069214468"
      },
      "geometry": {
        "type": "Point",
        "coordinates": [
          61.9180441,
          46.3390636
        ]
      }
    },
    {
      "type": "Feature",
      "id": "node/7069216012",
      "properties": {
        "name": "Тасбогет",
        "network": "КТЖ",
        "operator": "Кызыл-Ординское отделение",
        "public_transport": "station",
        "railway": "station",
        "train": "yes",
        "id": "node/7069216012"
      },
      "geometry": {
        "type": "Point",
        "coordinates": [
          61.770965,
          46.6777779
        ]
      }
    },
    {
      "type": "Feature",
      "id": "node/7069220177",
      "properties": {
        "name": "Тубек",
        "network": "КТЖ",
        "operator": "Кызыл-Ординское отделение",
        "public_transport": "station",
        "railway": "halt",
        "train": "yes",
        "id": "node/7069220177"
      },
      "geometry": {
        "type": "Point",
        "coordinates": [
          62.8207139,
          45.7583327
        ]
      }
    },
    {
      "type": "Feature",
      "id": "node/7069241389",
      "properties": {
        "name": "Укилисай",
        "network": "КТЖ",
        "operator": "Кызыл-Ординское отделение",
        "public_transport": "station",
        "railway": "halt",
        "train": "yes",
        "id": "node/7069241389"
      },
      "geometry": {
        "type": "Point",
        "coordinates": [
          61.9183599,
          46.0981726
        ]
      }
    },
    {
      "type": "Feature",
      "id": "node/7069249239",
      "properties": {
        "name": "Алтай",
        "network": "КТЖ",
        "operator": "Кызыл-Ординское отделение",
        "public_transport": "station",
        "railway": "station",
        "train": "yes",
        "id": "node/7069249239"
      },
      "geometry": {
        "type": "Point",
        "coordinates": [
          62.2317987,
          45.8452018
        ]
      }
    },
    {
      "type": "Feature",
      "id": "node/7069273449",
      "properties": {
        "name": "Кызыласкер",
        "network": "КТЖ",
        "operator": "Кызыл-Ординское отделение",
        "public_transport": "station",
        "railway": "halt",
        "train": "yes",
        "id": "node/7069273449"
      },
      "geometry": {
        "type": "Point",
        "coordinates": [
          62.5227672,
          45.8400644
        ]
      }
    },
    {
      "type": "Feature",
      "id": "node/7069284856",
      "properties": {
        "name": "Акжар",
        "network": "КТЖ",
        "public_transport": "station",
        "railway": "station",
        "train": "yes",
        "id": "node/7069284856"
      },
      "geometry": {
        "type": "Point",
        "coordinates": [
          63.1214276,
          45.6880061
        ]
      }
    },
    {
      "type": "Feature",
      "id": "node/7069320659",
      "properties": {
        "name": "Кеме-Салган",
        "network": "КТЖ",
        "operator": "Кызыл-Ординское отделение",
        "public_transport": "station",
        "railway": "halt",
        "train": "yes",
        "id": "node/7069320659"
      },
      "geometry": {
        "type": "Point",
        "coordinates": [
          63.7475136,
          45.757944
        ]
      }
    },
    {
      "type": "Feature",
      "id": "node/7069354296",
      "properties": {
        "name": "2603 км ПК6",
        "network": "КТЖ",
        "operator": "Кызыл-Ординское отделение",
        "public_transport": "station",
        "railway": "halt",
        "train": "yes",
        "id": "node/7069354296"
      },
      "geometry": {
        "type": "Point",
        "coordinates": [
          63.4148311,
          45.67392
        ]
      }
    },
    {
      "type": "Feature",
      "id": "node/7069356768",
      "properties": {
        "name": "2612 км ПК5",
        "network": "КТЖ",
        "operator": "Кызыл-Ординское отделение",
        "public_transport": "station",
        "railway": "halt",
        "train": "yes",
        "id": "node/7069356768"
      },
      "geometry": {
        "type": "Point",
        "coordinates": [
          63.520683,
          45.7040296
        ]
      }
    },
    {
      "type": "Feature",
      "id": "node/7069383990",
      "properties": {
        "name": "Белтакыр",
        "network": "КТЖ",
        "operator": "Кызыл-Ординское отделение",
        "public_transport": "station",
        "railway": "station",
        "train": "yes",
        "id": "node/7069383990"
      },
      "geometry": {
        "type": "Point",
        "coordinates": [
          63.8408592,
          45.6965756
        ]
      }
    },
    {
      "type": "Feature",
      "id": "node/7069390016",
      "properties": {
        "name": "Кайршакты",
        "network": "КТЖ",
        "operator": "Кызыл-Ординское отделение",
        "public_transport": "station",
        "railway": "halt",
        "train": "yes",
        "id": "node/7069390016"
      },
      "geometry": {
        "type": "Point",
        "coordinates": [
          64.4433393,
          45.232023
        ]
      }
    },
    {
      "type": "Feature",
      "id": "node/7069392424",
      "properties": {
        "name": "№107-А",
        "network": "КТЖ",
        "operator": "Кызыл-Ординское отделение",
        "public_transport": "station",
        "railway": "station",
        "train": "yes",
        "id": "node/7069392424"
      },
      "geometry": {
        "type": "Point",
        "coordinates": [
          63.9583449,
          45.5859842
        ]
      }
    },
    {
      "type": "Feature",
      "id": "node/7069400516",
      "properties": {
        "name": "Коктонды",
        "network": "КТЖ",
        "operator": "Кызыл-Ординское отделение",
        "public_transport": "station",
        "railway": "halt",
        "train": "yes",
        "id": "node/7069400516"
      },
      "geometry": {
        "type": "Point",
        "coordinates": [
          64.5327448,
          45.1341106
        ]
      }
    },
    {
      "type": "Feature",
      "id": "node/7069406645",
      "properties": {
        "name": "Кабылкуль",
        "network": "КТЖ",
        "operator": "Кызыл-Ординское отделение",
        "public_transport": "station",
        "railway": "station",
        "train": "yes",
        "id": "node/7069406645"
      },
      "geometry": {
        "type": "Point",
        "coordinates": [
          64.9291232,
          45.0686271
        ]
      }
    },
    {
      "type": "Feature",
      "id": "node/7069407978",
      "properties": {
        "name": "Кзыл-Жарма",
        "network": "КТЖ",
        "operator": "Кызыл-Ординское отделение",
        "public_transport": "station",
        "railway": "halt",
        "train": "yes",
        "id": "node/7069407978"
      },
      "geometry": {
        "type": "Point",
        "coordinates": [
          65.4003553,
          44.9050483
        ]
      }
    },
    {
      "type": "Feature",
      "id": "node/7069418716",
      "properties": {
        "name": "Майлыкум",
        "network": "КТЖ",
        "operator": "Кызыл-Ординское отделение",
        "public_transport": "station",
        "railway": "halt",
        "train": "yes",
        "id": "node/7069418716"
      },
      "geometry": {
        "type": "Point",
        "coordinates": [
          65.093968,
          45.0329009
        ]
      }
    },
    {
      "type": "Feature",
      "id": "node/7069535834",
      "properties": {
        "name": "№ 65",
        "network": "КТЖ",
        "operator": "Актюбинское отделение",
        "public_transport": "station",
        "railway": "halt",
        "train": "yes",
        "id": "node/7069535834"
      },
      "geometry": {
        "type": "Point",
        "coordinates": [
          59.2463083,
          47.9662685
        ]
      }
    },
    {
      "type": "Feature",
      "id": "node/7069557345",
      "properties": {
        "name": "№ 64",
        "network": "КТЖ",
        "operator": "Актюбинское отделение",
        "public_transport": "station",
        "railway": "halt",
        "train": "yes",
        "id": "node/7069557345"
      },
      "geometry": {
        "type": "Point",
        "coordinates": [
          59.1068586,
          48.1030527
        ]
      }
    },
    {
      "type": "Feature",
      "id": "node/7069569833",
      "properties": {
        "name": "Кзылсаз",
        "network": "КТЖ",
        "operator": "Актюбинское отделение",
        "public_transport": "station",
        "railway": "halt",
        "train": "yes",
        "id": "node/7069569833"
      },
      "geometry": {
        "type": "Point",
        "coordinates": [
          58.7073966,
          48.3685743
        ]
      }
    },
    {
      "type": "Feature",
      "id": "node/7069791120",
      "properties": {
        "name": "Кулама",
        "network": "КТЖ",
        "operator": "Актюбинское отделение",
        "public_transport": "station",
        "railway": "halt",
        "train": "yes",
        "id": "node/7069791120"
      },
      "geometry": {
        "type": "Point",
        "coordinates": [
          58.4877578,
          48.579864
        ]
      }
    },
    {
      "type": "Feature",
      "id": "node/7069920565",
      "properties": {
        "name": "Кудык",
        "network": "КТЖ",
        "operator": "Актюбинское отделение",
        "public_transport": "station",
        "railway": "station",
        "train": "yes",
        "id": "node/7069920565"
      },
      "geometry": {
        "type": "Point",
        "coordinates": [
          58.0186262,
          48.936676
        ]
      }
    },
    {
      "type": "Feature",
      "id": "node/7069939961",
      "properties": {
        "name": "Бахтиозино",
        "network": "КТЖ",
        "operator": "Актюбинское отделение",
        "public_transport": "station",
        "railway": "halt",
        "train": "yes",
        "id": "node/7069939961"
      },
      "geometry": {
        "type": "Point",
        "coordinates": [
          57.9846192,
          48.9756829
        ]
      }
    },
    {
      "type": "Feature",
      "id": "node/7070236605",
      "properties": {
        "name": "Бухтарма",
        "network": "КТЖ",
        "operator": "Защитинское отделение",
        "public_transport": "station",
        "railway": "station",
        "train": "yes",
        "id": "node/7070236605"
      },
      "geometry": {
        "type": "Point",
        "coordinates": [
          83.6110377,
          49.6217625
        ]
      }
    },
    {
      "type": "Feature",
      "id": "node/7070314453",
      "properties": {
        "name": "№ 6",
        "network": "КТЖ",
        "operator": "Карагандинское отделение",
        "public_transport": "station",
        "railway": "station",
        "train": "yes",
        "id": "node/7070314453"
      },
      "geometry": {
        "type": "Point",
        "coordinates": [
          74.6371671,
          49.7403355
        ]
      }
    },
    {
      "type": "Feature",
      "id": "node/7070335526",
      "properties": {
        "name": "Ащису",
        "network": "КТЖ",
        "operator": "Карагандинское отделение",
        "public_transport": "station",
        "railway": "station",
        "train": "yes",
        "id": "node/7070335526"
      },
      "geometry": {
        "type": "Point",
        "coordinates": [
          74.1221283,
          49.9170538
        ]
      }
    },
    {
      "type": "Feature",
      "id": "node/7070349741",
      "properties": {
        "name": "Саумалколь",
        "network": "КТЖ",
        "operator": "Карагандинское отделение",
        "public_transport": "station",
        "railway": "station",
        "train": "yes",
        "id": "node/7070349741"
      },
      "geometry": {
        "type": "Point",
        "coordinates": [
          74.8712498,
          49.7570804
        ]
      }
    },
    {
      "type": "Feature",
      "id": "node/7070396835",
      "properties": {
        "name": "Убоган",
        "network": "КТЖ",
        "operator": "Кустанайское  отделение",
        "public_transport": "station",
        "railway": "station",
        "train": "yes",
        "id": "node/7070396835"
      },
      "geometry": {
        "type": "Point",
        "coordinates": [
          64.3956767,
          52.4438462
        ]
      }
    },
    {
      "type": "Feature",
      "id": "node/7070407160",
      "properties": {
        "name": "Казыкурт",
        "network": "КТЖ",
        "operator": "Шымкентское отделение",
        "public_transport": "station",
        "railway": "station",
        "train": "yes",
        "id": "node/7070407160"
      },
      "geometry": {
        "type": "Point",
        "coordinates": [
          69.6680239,
          42.2785268
        ]
      }
    },
    {
      "type": "Feature",
      "id": "node/7070409229",
      "properties": {
        "name": "Текесу",
        "network": "КТЖ",
        "operator": "Шымкентское отделение",
        "public_transport": "station",
        "railway": "station",
        "train": "yes",
        "id": "node/7070409229"
      },
      "geometry": {
        "type": "Point",
        "coordinates": [
          69.6593021,
          42.2525534
        ]
      }
    },
    {
      "type": "Feature",
      "id": "node/7070411722",
      "properties": {
        "name": "Тогус",
        "network": "КТЖ",
        "operator": "Шымкентское отделение",
        "public_transport": "station",
        "railway": "station",
        "train": "yes",
        "id": "node/7070411722"
      },
      "geometry": {
        "type": "Point",
        "coordinates": [
          69.8078462,
          42.2213556
        ]
      }
    },
    {
      "type": "Feature",
      "id": "node/7070413217",
      "properties": {
        "name": "Сайрам",
        "network": "КТЖ",
        "operator": "Шымкентское отделение",
        "public_transport": "station",
        "railway": "station",
        "train": "yes",
        "id": "node/7070413217"
      },
      "geometry": {
        "type": "Point",
        "coordinates": [
          69.7324292,
          42.2556677
        ]
      }
    },
    {
      "type": "Feature",
      "id": "node/7070428807",
      "properties": {
        "name": "5 км",
        "network": "КТЖ",
        "operator": "Шымкентское отделение",
        "public_transport": "station",
        "railway": "station",
        "train": "yes",
        "id": "node/7070428807"
      },
      "geometry": {
        "type": "Point",
        "coordinates": [
          69.6511755,
          42.2866882
        ]
      }
    },
    {
      "type": "Feature",
      "id": "node/7070458956",
      "properties": {
        "name": "Сункар",
        "network": "КТЖ",
        "operator": "Жамбыльское отделение",
        "public_transport": "station",
        "railway": "halt",
        "train": "yes",
        "id": "node/7070458956"
      },
      "geometry": {
        "type": "Point",
        "coordinates": [
          73.8378038,
          44.0771568
        ]
      }
    },
    {
      "type": "Feature",
      "id": "node/7070474230",
      "properties": {
        "name": "Тамак",
        "network": "КТЖ",
        "operator": "Мангистаусское отделение",
        "public_transport": "station",
        "railway": "station",
        "train": "yes",
        "id": "node/7070474230"
      },
      "geometry": {
        "type": "Point",
        "coordinates": [
          51.5016474,
          43.8522426
        ]
      }
    },
    {
      "type": "Feature",
      "id": "node/7071793484",
      "properties": {
        "name": "Жайрем",
        "network": "КТЖ",
        "operator": "Карагандинское отделение",
        "public_transport": "station",
        "railway": "station",
        "train": "yes",
        "id": "node/7071793484"
      },
      "geometry": {
        "type": "Point",
        "coordinates": [
          70.2280335,
          48.2993508
        ]
      }
    },
    {
      "type": "Feature",
      "id": "node/7071821628",
      "properties": {
        "name": "Дон",
        "network": "КТЖ",
        "operator": "Актюбинское отделение",
        "public_transport": "station",
        "railway": "station",
        "train": "yes",
        "id": "node/7071821628"
      },
      "geometry": {
        "type": "Point",
        "coordinates": [
          58.4533256,
          50.2605011
        ]
      }
    },
    {
      "type": "Feature",
      "id": "node/7071835518",
      "properties": {
        "name": "Васильковка",
        "network": "КТЖ",
        "operator": "Акмолинское отделение",
        "public_transport": "station",
        "railway": "station",
        "train": "yes",
        "id": "node/7071835518"
      },
      "geometry": {
        "type": "Point",
        "coordinates": [
          69.3805233,
          53.3510342
        ]
      }
    },
    {
      "type": "Feature",
      "id": "node/7071848145",
      "properties": {
        "name": "Семипалатинск-Пристань",
        "network": "КТЖ",
        "operator": "Семипалатинское отделение",
        "public_transport": "station",
        "railway": "station",
        "train": "yes",
        "id": "node/7071848145"
      },
      "geometry": {
        "type": "Point",
        "coordinates": [
          80.2185318,
          50.4199804
        ]
      }
    },
    {
      "type": "Feature",
      "id": "node/7071854828",
      "properties": {
        "name": "Семей-Грузовой",
        "network": "КТЖ",
        "operator": "Семипалатинское отделение",
        "public_transport": "station",
        "railway": "station",
        "train": "yes",
        "id": "node/7071854828"
      },
      "geometry": {
        "type": "Point",
        "coordinates": [
          80.3524392,
          50.3950428
        ]
      }
    },
    {
      "type": "Feature",
      "id": "node/7071870713",
      "properties": {
        "name": "Новоджамбульская",
        "network": "КТЖ",
        "operator": "Жамбыльское отделение",
        "public_transport": "station",
        "railway": "station",
        "train": "yes",
        "id": "node/7071870713"
      },
      "geometry": {
        "type": "Point",
        "coordinates": [
          71.1027366,
          42.9469447
        ]
      }
    },
    {
      "type": "Feature",
      "id": "node/7072015660",
      "properties": {
        "name": "Тегисжол",
        "network": "КТЖ",
        "operator": "Карагандинское отделение",
        "public_transport": "station",
        "railway": "station",
        "train": "yes",
        "id": "node/7072015660"
      },
      "geometry": {
        "type": "Point",
        "coordinates": [
          72.9794081,
          49.9550859
        ]
      }
    },
    {
      "type": "Feature",
      "id": "node/7072069215",
      "properties": {
        "name": "Бурма бп",
        "network": "КТЖ",
        "operator": "Карагандинское отделение",
        "public_transport": "station",
        "railway": "halt",
        "train": "yes",
        "id": "node/7072069215"
      },
      "geometry": {
        "type": "Point",
        "coordinates": [
          72.8438427,
          48.9350167
        ]
      }
    },
    {
      "type": "Feature",
      "id": "node/7072090174",
      "properties": {
        "name": "71 км",
        "network": "КТЖ",
        "operator": "Семипалатинское отделение",
        "public_transport": "station",
        "railway": "station",
        "train": "yes",
        "id": "node/7072090174"
      },
      "geometry": {
        "type": "Point",
        "coordinates": [
          79.3876025,
          50.5909659
        ]
      }
    },
    {
      "type": "Feature",
      "id": "node/7072098389",
      "properties": {
        "name": "Коргасын",
        "network": "КТЖ",
        "operator": "Шымкентское отделение",
        "public_transport": "station",
        "railway": "station",
        "train": "yes",
        "id": "node/7072098389"
      },
      "geometry": {
        "type": "Point",
        "coordinates": [
          69.543892,
          42.3145835
        ]
      }
    },
    {
      "type": "Feature",
      "id": "node/7072139034",
      "properties": {
        "name": "Коктерек",
        "network": "КТЖ",
        "operator": "Шымкентское отделение",
        "public_transport": "station",
        "railway": "station",
        "train": "yes",
        "id": "node/7072139034"
      },
      "geometry": {
        "type": "Point",
        "coordinates": [
          70.2208365,
          42.4968271
        ]
      }
    },
    {
      "type": "Feature",
      "id": "node/7072155558",
      "properties": {
        "name": "Сагыр",
        "network": "КТЖ",
        "operator": "Мангистаусское отделение",
        "public_transport": "station",
        "railway": "station",
        "train": "yes",
        "id": "node/7072155558"
      },
      "geometry": {
        "type": "Point",
        "coordinates": [
          57.7429797,
          46.3819476
        ]
      }
    },
    {
      "type": "Feature",
      "id": "node/7076190136",
      "properties": {
        "name": "594 км пп",
        "network": "КТЖ",
        "operator": "Семипалатинское отделение",
        "public_transport": "station",
        "railway": "halt",
        "train": "yes",
        "id": "node/7076190136"
      },
      "geometry": {
        "type": "Point",
        "coordinates": [
          80.7511641,
          50.8491864
        ]
      }
    },
    {
      "type": "Feature",
      "id": "node/7076942982",
      "properties": {
        "name": "Кампала",
        "public_transport": "station",
        "railway": "station",
        "train": "yes",
        "id": "node/7076942982"
      },
      "geometry": {
        "type": "Point",
        "coordinates": [
          58.1865938,
          46.6236477
        ]
      }
    },
    {
      "type": "Feature",
      "id": "node/7076944047",
      "properties": {
        "name": "Жанак",
        "network": "КТЖ",
        "operator": "Актюбинское",
        "public_transport": "station",
        "railway": "station",
        "train": "yes",
        "id": "node/7076944047"
      },
      "geometry": {
        "type": "Point",
        "coordinates": [
          58.4280299,
          46.7346329
        ]
      }
    },
    {
      "type": "Feature",
      "id": "node/7076958179",
      "properties": {
        "name": "Домбар",
        "network": "КТЖ",
        "operator": "Актюбинское отделение",
        "public_transport": "station",
        "railway": "station",
        "train": "yes",
        "id": "node/7076958179"
      },
      "geometry": {
        "type": "Point",
        "coordinates": [
          58.8537081,
          46.9774643
        ]
      }
    },
    {
      "type": "Feature",
      "id": "node/7076966073",
      "properties": {
        "name": "Шукыр",
        "network": "КТЖ",
        "operator": "Актюбинское отделение",
        "public_transport": "station",
        "railway": "station",
        "train": "yes",
        "id": "node/7076966073"
      },
      "geometry": {
        "type": "Point",
        "coordinates": [
          58.4921637,
          46.7677394
        ]
      }
    },
    {
      "type": "Feature",
      "id": "node/7076966076",
      "properties": {
        "name": "Санкыбай",
        "public_transport": "station",
        "railway": "station",
        "train": "yes",
        "id": "node/7076966076"
      },
      "geometry": {
        "type": "Point",
        "coordinates": [
          57.3765318,
          46.1659532
        ]
      }
    },
    {
      "type": "Feature",
      "id": "node/7077000760",
      "properties": {
        "name": "10 км",
        "public_transport": "station",
        "railway": "halt",
        "train": "yes",
        "id": "node/7077000760"
      },
      "geometry": {
        "type": "Point",
        "coordinates": [
          78.0211545,
          44.9717742
        ]
      }
    },
    {
      "type": "Feature",
      "id": "node/7077002141",
      "properties": {
        "name": "76 км",
        "public_transport": "station",
        "railway": "halt",
        "train": "yes",
        "id": "node/7077002141"
      },
      "geometry": {
        "type": "Point",
        "coordinates": [
          83.1148803,
          49.6880025
        ]
      }
    },
    {
      "type": "Feature",
      "id": "node/7077004149",
      "properties": {
        "name": "4 км",
        "public_transport": "station",
        "railway": "halt",
        "train": "yes",
        "id": "node/7077004149"
      },
      "geometry": {
        "type": "Point",
        "coordinates": [
          77.9442631,
          45.0047151
        ]
      }
    },
    {
      "type": "Feature",
      "id": "node/7077047649",
      "properties": {
        "name": "100 км",
        "public_transport": "station",
        "railway": "halt",
        "train": "yes",
        "id": "node/7077047649"
      },
      "geometry": {
        "type": "Point",
        "coordinates": [
          83.4346026,
          49.6759687
        ]
      }
    },
    {
      "type": "Feature",
      "id": "node/7077052482",
      "properties": {
        "name": "95 км",
        "public_transport": "station",
        "railway": "halt",
        "train": "yes",
        "id": "node/7077052482"
      },
      "geometry": {
        "type": "Point",
        "coordinates": [
          83.3764623,
          49.6777404
        ]
      }
    },
    {
      "type": "Feature",
      "id": "node/7077070170",
      "properties": {
        "name": "148 км",
        "public_transport": "station",
        "railway": "halt",
        "train": "yes",
        "id": "node/7077070170"
      },
      "geometry": {
        "type": "Point",
        "coordinates": [
          83.8769401,
          49.7202505
        ]
      }
    },
    {
      "type": "Feature",
      "id": "node/7077094316",
      "properties": {
        "name": "Конжар",
        "public_transport": "station",
        "railway": "halt",
        "train": "yes",
        "id": "node/7077094316"
      },
      "geometry": {
        "type": "Point",
        "coordinates": [
          57.5378491,
          49.3156829
        ]
      }
    },
    {
      "type": "Feature",
      "id": "node/7077131449",
      "properties": {
        "name": "Кумсай",
        "public_transport": "station",
        "railway": "halt",
        "train": "yes",
        "id": "node/7077131449"
      },
      "geometry": {
        "type": "Point",
        "coordinates": [
          57.6789464,
          49.2029923
        ]
      }
    },
    {
      "type": "Feature",
      "id": "node/7077161541",
      "properties": {
        "name": "Айрыктас",
        "public_transport": "station",
        "railway": "halt",
        "train": "yes",
        "id": "node/7077161541"
      },
      "geometry": {
        "type": "Point",
        "coordinates": [
          58.0729454,
          48.8591758
        ]
      }
    },
    {
      "type": "Feature",
      "id": "node/7077241232",
      "properties": {
        "name": "Нурдала",
        "public_transport": "station",
        "railway": "station",
        "train": "yes",
        "id": "node/7077241232"
      },
      "geometry": {
        "type": "Point",
        "coordinates": [
          68.1384406,
          49.1974085
        ]
      }
    },
    {
      "type": "Feature",
      "id": "node/7077255052",
      "properties": {
        "name": "Дорожный",
        "public_transport": "station",
        "railway": "station",
        "train": "yes",
        "id": "node/7077255052"
      },
      "geometry": {
        "type": "Point",
        "coordinates": [
          68.4417149,
          49.1283519
        ]
      }
    },
    {
      "type": "Feature",
      "id": "node/7077806219",
      "properties": {
        "name": "1080 км",
        "public_transport": "station",
        "railway": "halt",
        "train": "yes",
        "id": "node/7077806219"
      },
      "geometry": {
        "type": "Point",
        "coordinates": [
          59.3933593,
          50.400925
        ]
      }
    },
    {
      "type": "Feature",
      "id": "node/7077810339",
      "properties": {
        "name": "1152 бп",
        "public_transport": "station",
        "railway": "halt",
        "train": "yes",
        "id": "node/7077810339"
      },
      "geometry": {
        "type": "Point",
        "coordinates": [
          58.4497157,
          50.3405817
        ]
      }
    },
    {
      "type": "Feature",
      "id": "node/7077812141",
      "properties": {
        "name": "1037 км",
        "public_transport": "station",
        "railway": "halt",
        "train": "yes",
        "id": "node/7077812141"
      },
      "geometry": {
        "type": "Point",
        "coordinates": [
          59.9513317,
          50.4069022
        ]
      }
    },
    {
      "type": "Feature",
      "id": "node/7077817776",
      "properties": {
        "name": "1129 км",
        "public_transport": "station",
        "railway": "halt",
        "train": "yes",
        "id": "node/7077817776"
      },
      "geometry": {
        "type": "Point",
        "coordinates": [
          58.6752421,
          50.3717908
        ]
      }
    },
    {
      "type": "Feature",
      "id": "node/7077843617",
      "properties": {
        "name": "1070 км",
        "public_transport": "station",
        "railway": "halt",
        "train": "yes",
        "id": "node/7077843617"
      },
      "geometry": {
        "type": "Point",
        "coordinates": [
          59.5454048,
          50.3983756
        ]
      }
    },
    {
      "type": "Feature",
      "id": "node/7077853519",
      "properties": {
        "name": "1104 бп",
        "public_transport": "station",
        "railway": "halt",
        "train": "yes",
        "id": "node/7077853519"
      },
      "geometry": {
        "type": "Point",
        "coordinates": [
          59.0647941,
          50.3703592
        ]
      }
    },
    {
      "type": "Feature",
      "id": "node/7077856965",
      "properties": {
        "name": "1013 км",
        "public_transport": "station",
        "railway": "halt",
        "train": "yes",
        "id": "node/7077856965"
      },
      "geometry": {
        "type": "Point",
        "coordinates": [
          60.3064621,
          50.4204244
        ]
      }
    },
    {
      "type": "Feature",
      "id": "node/7077862694",
      "properties": {
        "name": "1050 км",
        "public_transport": "station",
        "railway": "halt",
        "train": "yes",
        "id": "node/7077862694"
      },
      "geometry": {
        "type": "Point",
        "coordinates": [
          59.7870873,
          50.3965267
        ]
      }
    },
    {
      "type": "Feature",
      "id": "node/7077873759",
      "properties": {
        "name": "1046 бп",
        "public_transport": "station",
        "railway": "halt",
        "train": "yes",
        "id": "node/7077873759"
      },
      "geometry": {
        "type": "Point",
        "coordinates": [
          59.7931749,
          50.3986162
        ]
      }
    },
    {
      "type": "Feature",
      "id": "node/7077874344",
      "properties": {
        "name": "1046 бп",
        "public_transport": "station",
        "railway": "halt",
        "train": "yes",
        "id": "node/7077874344"
      },
      "geometry": {
        "type": "Point",
        "coordinates": [
          59.8377908,
          50.4042762
        ]
      }
    },
    {
      "type": "Feature",
      "id": "node/7077887122",
      "properties": {
        "name": "758 км",
        "public_transport": "station",
        "railway": "halt",
        "train": "yes",
        "id": "node/7077887122"
      },
      "geometry": {
        "type": "Point",
        "coordinates": [
          72.916935,
          49.5943425
        ]
      }
    },
    {
      "type": "Feature",
      "id": "node/7077895934",
      "properties": {
        "name": "744 км",
        "public_transport": "station",
        "railway": "halt",
        "train": "yes",
        "id": "node/7077895934"
      },
      "geometry": {
        "type": "Point",
        "coordinates": [
          73.0151464,
          49.6970672
        ]
      }
    },
    {
      "type": "Feature",
      "id": "node/7077901545",
      "properties": {
        "name": "754 км",
        "public_transport": "station",
        "railway": "halt",
        "train": "yes",
        "id": "node/7077901545"
      },
      "geometry": {
        "type": "Point",
        "coordinates": [
          72.9315282,
          49.6076076
        ]
      }
    },
    {
      "type": "Feature",
      "id": "node/7077904595",
      "properties": {
        "name": "746 км",
        "public_transport": "station",
        "railway": "halt",
        "train": "yes",
        "id": "node/7077904595"
      },
      "geometry": {
        "type": "Point",
        "coordinates": [
          73.013941,
          49.6939098
        ]
      }
    },
    {
      "type": "Feature",
      "id": "node/7077904723",
      "properties": {
        "name": "748 км",
        "public_transport": "station",
        "railway": "halt",
        "train": "yes",
        "id": "node/7077904723"
      },
      "geometry": {
        "type": "Point",
        "coordinates": [
          72.9755342,
          49.648116
        ]
      }
    },
    {
      "type": "Feature",
      "id": "node/7077922539",
      "properties": {
        "name": "811 км",
        "public_transport": "station",
        "railway": "halt",
        "train": "yes",
        "id": "node/7077922539"
      },
      "geometry": {
        "type": "Point",
        "coordinates": [
          73.0309519,
          49.1805442
        ]
      }
    },
    {
      "type": "Feature",
      "id": "node/7077938900",
      "properties": {
        "name": "174 км",
        "public_transport": "station",
        "railway": "halt",
        "train": "yes",
        "id": "node/7077938900"
      },
      "geometry": {
        "type": "Point",
        "coordinates": [
          82.1666803,
          50.3522641
        ]
      }
    },
    {
      "type": "Feature",
      "id": "node/7079831120",
      "properties": {
        "name": "Шагылы",
        "network": "КТЖ",
        "operator": "Акмолинское отделение",
        "public_transport": "station",
        "railway": "halt",
        "train": "yes",
        "id": "node/7079831120"
      },
      "geometry": {
        "type": "Point",
        "coordinates": [
          69.6827958,
          54.1041849
        ]
      }
    },
    {
      "type": "Feature",
      "id": "node/7079895926",
      "properties": {
        "name": "Шагылы",
        "network": "КТЖ с",
        "operator": "Акмолинское отделение",
        "public_transport": "station",
        "railway": "halt",
        "train": "yes",
        "id": "node/7079895926"
      },
      "geometry": {
        "type": "Point",
        "coordinates": [
          69.6797757,
          54.1098514
        ]
      }
    },
    {
      "type": "Feature",
      "id": "node/7079921991",
      "properties": {
        "name": "Танабаевский",
        "network": "КТЖ",
        "operator": "Кустанайское отделение",
        "public_transport": "station",
        "railway": "halt",
        "train": "yes",
        "id": "node/7079921991"
      },
      "geometry": {
        "type": "Point",
        "coordinates": [
          64.7110469,
          53.2834055
        ]
      }
    },
    {
      "type": "Feature",
      "id": "node/7080005776",
      "properties": {
        "name": "Коскаракум",
        "network": "КТЖ",
        "operator": "Кызыл-Ординское отделение",
        "public_transport": "station",
        "railway": "halt",
        "train": "yes",
        "id": "node/7080005776"
      },
      "geometry": {
        "type": "Point",
        "coordinates": [
          66.4073295,
          44.3548519
        ]
      }
    },
    {
      "type": "Feature",
      "id": "node/7080018354",
      "properties": {
        "name": "№ 32",
        "network": "КТЖ",
        "operator": "Кызыл-Ординское отделение",
        "public_transport": "station",
        "railway": "halt",
        "train": "yes",
        "id": "node/7080018354"
      },
      "geometry": {
        "type": "Point",
        "coordinates": [
          68.1244768,
          43.3340682
        ]
      }
    },
    {
      "type": "Feature",
      "id": "node/7080019048",
      "properties": {
        "name": "№ 30",
        "network": "КТЖ",
        "operator": "Кызыл-Ординское отделение",
        "public_transport": "station",
        "railway": "station",
        "train": "yes",
        "id": "node/7080019048"
      },
      "geometry": {
        "type": "Point",
        "coordinates": [
          67.8367699,
          43.4888403
        ]
      }
    },
    {
      "type": "Feature",
      "id": "node/7080021604",
      "properties": {
        "name": "№ 21",
        "network": "КТЖ",
        "operator": "Кызыл-Ординское отделение",
        "public_transport": "station",
        "railway": "station",
        "train": "yes",
        "uic_ref": "2704935",
        "id": "node/7080021604"
      },
      "geometry": {
        "type": "Point",
        "coordinates": [
          66.6478202,
          44.2163456
        ]
      }
    },
    {
      "type": "Feature",
      "id": "node/7080022790",
      "properties": {
        "name": "14 км",
        "network": "КТЖ",
        "operator": "Жамбыльское отделение",
        "public_transport": "station",
        "railway": "halt",
        "train": "yes",
        "id": "node/7080022790"
      },
      "geometry": {
        "type": "Point",
        "coordinates": [
          71.3275142,
          42.9620957
        ]
      }
    },
    {
      "type": "Feature",
      "id": "node/7080029623",
      "properties": {
        "name": "19 км",
        "network": "КТЖ",
        "operator": "Жамбыльское отделение",
        "public_transport": "station",
        "railway": "halt",
        "train": "yes",
        "id": "node/7080029623"
      },
      "geometry": {
        "type": "Point",
        "coordinates": [
          71.2928214,
          42.9759545
        ]
      }
    },
    {
      "type": "Feature",
      "id": "node/7080052573",
      "properties": {
        "name": "35 км",
        "network": "КТЖ",
        "operator": "Жамбыльское отделение",
        "public_transport": "station",
        "railway": "halt",
        "train": "yes",
        "id": "node/7080052573"
      },
      "geometry": {
        "type": "Point",
        "coordinates": [
          71.1012546,
          43.0405717
        ]
      }
    },
    {
      "type": "Feature",
      "id": "node/7080061865",
      "properties": {
        "name": "27 км",
        "network": "КТЖ",
        "operator": "Жамбыльское отделение",
        "public_transport": "station",
        "railway": "halt",
        "train": "yes",
        "id": "node/7080061865"
      },
      "geometry": {
        "type": "Point",
        "coordinates": [
          71.2049783,
          43.0111337
        ]
      }
    },
    {
      "type": "Feature",
      "id": "node/7080065606",
      "properties": {
        "name": "41 км",
        "network": "КТЖ",
        "operator": "Жамбыльское отделение",
        "public_transport": "station",
        "railway": "halt",
        "train": "yes",
        "id": "node/7080065606"
      },
      "geometry": {
        "type": "Point",
        "coordinates": [
          70.9777693,
          43.063739
        ]
      }
    },
    {
      "type": "Feature",
      "id": "node/7080076450",
      "properties": {
        "name": "56 км",
        "network": "КТЖ",
        "operator": "Жамбыльское отделение",
        "public_transport": "station",
        "railway": "halt",
        "train": "yes",
        "id": "node/7080076450"
      },
      "geometry": {
        "type": "Point",
        "coordinates": [
          70.8671811,
          43.0965096
        ]
      }
    },
    {
      "type": "Feature",
      "id": "node/7080090095",
      "properties": {
        "name": "4 км пп",
        "network": "КТЖ",
        "operator": "Жамбыльское отделение",
        "public_transport": "station",
        "railway": "halt",
        "train": "yes",
        "id": "node/7080090095"
      },
      "geometry": {
        "type": "Point",
        "coordinates": [
          71.4064167,
          42.886118
        ]
      }
    },
    {
      "type": "Feature",
      "id": "node/7080100203",
      "properties": {
        "name": "150 км",
        "network": "КТЖ",
        "operator": "Кустанайское отделение",
        "public_transport": "station",
        "railway": "halt",
        "train": "yes",
        "id": "node/7080100203"
      },
      "geometry": {
        "type": "Point",
        "coordinates": [
          62.721767,
          52.6524908
        ]
      }
    },
    {
      "type": "Feature",
      "id": "node/7081817842",
      "properties": {
        "name": "№ 70",
        "network": "КТЖ",
        "operator": "Кустанайское отделение",
        "public_transport": "station",
        "railway": "halt",
        "train": "yes",
        "id": "node/7081817842"
      },
      "geometry": {
        "type": "Point",
        "coordinates": [
          63.8506275,
          52.4387424
        ]
      }
    },
    {
      "type": "Feature",
      "id": "node/7081964685",
      "properties": {
        "name": "Карашеген",
        "network": "КТЖ",
        "operator": "Кызыл-Ординское отделение",
        "public_transport": "station",
        "railway": "station",
        "train": "yes",
        "id": "node/7081964685"
      },
      "geometry": {
        "type": "Point",
        "coordinates": [
          61.5988362,
          47.0886346
        ]
      }
    },
    {
      "type": "Feature",
      "id": "node/7081966486",
      "properties": {
        "name": "19",
        "network": "КТЖ",
        "operator": "Кызыл-Ординское отделение",
        "public_transport": "station",
        "railway": "station",
        "train": "yes",
        "id": "node/7081966486"
      },
      "geometry": {
        "type": "Point",
        "coordinates": [
          61.3649041,
          47.0305385
        ]
      }
    },
    {
      "type": "Feature",
      "id": "node/7081973252",
      "properties": {
        "name": "Кособа",
        "network": "КТЖ",
        "operator": "Актюбинское отделение",
        "public_transport": "station",
        "railway": "halt",
        "train": "yes",
        "id": "node/7081973252"
      },
      "geometry": {
        "type": "Point",
        "coordinates": [
          60.1732259,
          47.6826663
        ]
      }
    },
    {
      "type": "Feature",
      "id": "node/7081989208",
      "properties": {
        "name": "Заря Востока",
        "network": "КТЖ",
        "operator": "Актюбинское отделение",
        "public_transport": "station",
        "railway": "halt",
        "train": "yes",
        "id": "node/7081989208"
      },
      "geometry": {
        "type": "Point",
        "coordinates": [
          60.9789349,
          47.3102407
        ]
      }
    },
    {
      "type": "Feature",
      "id": "node/7082076296",
      "properties": {
        "name": "Компанейское",
        "network": "КТЖ",
        "operator": "Карагандинское отделение",
        "public_transport": "station",
        "railway": "halt",
        "train": "yes",
        "id": "node/7082076296"
      },
      "geometry": {
        "type": "Point",
        "coordinates": [
          73.20738,
          49.9490635
        ]
      }
    },
    {
      "type": "Feature",
      "id": "node/7082083963",
      "properties": {
        "name": "723 км",
        "network": "КТЖ",
        "operator": "Карагандинское отделение",
        "public_transport": "station",
        "railway": "halt",
        "train": "yes",
        "id": "node/7082083963"
      },
      "geometry": {
        "type": "Point",
        "coordinates": [
          73.1684997,
          49.8448506
        ]
      }
    },
    {
      "type": "Feature",
      "id": "node/7082270815",
      "properties": {
        "name": "132 км",
        "network": "КТЖ",
        "operator": "Семипалатинское",
        "public_transport": "station",
        "railway": "halt",
        "train": "yes",
        "id": "node/7082270815"
      },
      "geometry": {
        "type": "Point",
        "coordinates": [
          78.5594339,
          50.7166059
        ]
      }
    },
    {
      "type": "Feature",
      "id": "node/7082272878",
      "properties": {
        "name": "3409 км",
        "network": "КТЖ",
        "operator": "Жамбыльское отделение",
        "public_transport": "station",
        "railway": "halt",
        "train": "yes",
        "id": "node/7082272878"
      },
      "geometry": {
        "type": "Point",
        "coordinates": [
          70.565121,
          42.4899219
        ]
      }
    },
    {
      "type": "Feature",
      "id": "node/7082281141",
      "properties": {
        "name": "Известковый",
        "network": "КТЖ",
        "operator": "Семипалатинское отделение",
        "public_transport": "station",
        "railway": "station",
        "train": "yes",
        "id": "node/7082281141"
      },
      "geometry": {
        "type": "Point",
        "coordinates": [
          78.6311042,
          50.6979245
        ]
      }
    },
    {
      "type": "Feature",
      "id": "node/7082306410",
      "properties": {
        "name": "109 км",
        "network": "КТЖ",
        "operator": "Семипалатинское отделение",
        "public_transport": "station",
        "railway": "halt",
        "train": "yes",
        "id": "node/7082306410"
      },
      "geometry": {
        "type": "Point",
        "coordinates": [
          78.6663841,
          50.6825709
        ]
      }
    },
    {
      "type": "Feature",
      "id": "node/7082321596",
      "properties": {
        "name": "91 км",
        "network": "КТЖ",
        "operator": "Семипалатинское отделение",
        "public_transport": "station",
        "railway": "halt",
        "train": "yes",
        "id": "node/7082321596"
      },
      "geometry": {
        "type": "Point",
        "coordinates": [
          78.7852471,
          50.6308201
        ]
      }
    },
    {
      "type": "Feature",
      "id": "node/7082333407",
      "properties": {
        "name": "91 км",
        "network": "КТЖ",
        "operator": "Семипалатинское отделение",
        "public_transport": "station",
        "railway": "halt",
        "train": "yes",
        "id": "node/7082333407"
      },
      "geometry": {
        "type": "Point",
        "coordinates": [
          79.1146908,
          50.6089881
        ]
      }
    },
    {
      "type": "Feature",
      "id": "node/7082342506",
      "properties": {
        "name": "Куль",
        "network": "КТЖ",
        "operator": "Семипалатинское отделение",
        "public_transport": "station",
        "railway": "station",
        "train": "yes",
        "id": "node/7082342506"
      },
      "geometry": {
        "type": "Point",
        "coordinates": [
          79.3758124,
          50.5918273
        ]
      }
    },
    {
      "type": "Feature",
      "id": "node/7083166025",
      "properties": {
        "name": "Жанасу",
        "network": "КТЖ",
        "operator": "Кустанайское отделение",
        "public_transport": "station",
        "railway": "halt",
        "train": "yes",
        "id": "node/7083166025"
      },
      "geometry": {
        "type": "Point",
        "coordinates": [
          64.9395338,
          53.3449538
        ]
      }
    },
    {
      "type": "Feature",
      "id": "node/7083169911",
      "properties": {
        "name": "111 км",
        "network": "КТЖ",
        "operator": "Акмолинское отделение",
        "public_transport": "station",
        "railway": "halt",
        "train": "yes",
        "id": "node/7083169911"
      },
      "geometry": {
        "type": "Point",
        "coordinates": [
          69.7524732,
          53.975783
        ]
      }
    },
    {
      "type": "Feature",
      "id": "node/7083238477",
      "properties": {
        "name": "17 км",
        "network": "КТЖ",
        "operator": "Карагандинское отделение",
        "public_transport": "station",
        "railway": "halt",
        "train": "yes",
        "id": "node/7083238477"
      },
      "geometry": {
        "type": "Point",
        "coordinates": [
          73.0269722,
          50.0664072
        ]
      }
    },
    {
      "type": "Feature",
      "id": "node/7083263399",
      "properties": {
        "name": "14 км",
        "network": "КТЖ",
        "operator": "Карагандинское отделение",
        "public_transport": "station",
        "railway": "halt",
        "train": "yes",
        "id": "node/7083263399"
      },
      "geometry": {
        "type": "Point",
        "coordinates": [
          73.0734382,
          50.0601942
        ]
      }
    },
    {
      "type": "Feature",
      "id": "node/7083691182",
      "properties": {
        "name": "№ 51",
        "network": "КТЖ",
        "operator": "Актюбинское отделение",
        "public_transport": "station",
        "railway": "halt",
        "train": "yes",
        "id": "node/7083691182"
      },
      "geometry": {
        "type": "Point",
        "coordinates": [
          57.7728315,
          49.1528873
        ]
      }
    },
    {
      "type": "Feature",
      "id": "node/7084508165",
      "properties": {
        "name": "43 км",
        "network": "КТЖ",
        "operator": "Карагандинское отделение",
        "public_transport": "station",
        "railway": "halt",
        "train": "yes",
        "id": "node/7084508165"
      },
      "geometry": {
        "type": "Point",
        "coordinates": [
          72.3167572,
          48.734356
        ]
      }
    },
    {
      "type": "Feature",
      "id": "node/7084511227",
      "properties": {
        "name": "Жангиз-Агач",
        "network": "КТЖ",
        "operator": "Актюбинское отделение",
        "public_transport": "station",
        "railway": "halt",
        "train": "yes",
        "id": "node/7084511227"
      },
      "geometry": {
        "type": "Point",
        "coordinates": [
          57.3159296,
          50.1190871
        ]
      }
    },
    {
      "type": "Feature",
      "id": "node/7084518331",
      "properties": {
        "name": "628 км",
        "network": "КТЖ",
        "operator": "Акмолинское отделение",
        "public_transport": "station",
        "railway": "halt",
        "train": "yes",
        "id": "node/7084518331"
      },
      "geometry": {
        "type": "Point",
        "coordinates": [
          69.0592751,
          51.7935446
        ]
      }
    },
    {
      "type": "Feature",
      "id": "node/7084525152",
      "properties": {
        "name": "297 км",
        "network": "КТЖ",
        "operator": "Кустанайское",
        "public_transport": "station",
        "railway": "halt",
        "train": "yes",
        "id": "node/7084525152"
      },
      "geometry": {
        "type": "Point",
        "coordinates": [
          63.7366681,
          53.2760625
        ]
      }
    },
    {
      "type": "Feature",
      "id": "node/7084525563",
      "properties": {
        "name": "№ 43",
        "network": "КТЖ",
        "operator": "Актюбинское отделение",
        "public_transport": "station",
        "railway": "halt",
        "train": "yes",
        "id": "node/7084525563"
      },
      "geometry": {
        "type": "Point",
        "coordinates": [
          57.3441908,
          49.9917358
        ]
      }
    },
    {
      "type": "Feature",
      "id": "node/7084527407",
      "properties": {
        "name": "№ 24",
        "network": "КТЖ",
        "operator": "Семипалатинское отделение",
        "public_transport": "station",
        "railway": "halt",
        "train": "yes",
        "id": "node/7084527407"
      },
      "geometry": {
        "type": "Point",
        "coordinates": [
          80.3274887,
          47.7614792
        ]
      }
    },
    {
      "type": "Feature",
      "id": "node/7084528168",
      "properties": {
        "name": "№ 45",
        "network": "КТЖ",
        "operator": "Актюбинское отделение",
        "public_transport": "station",
        "railway": "halt",
        "train": "yes",
        "id": "node/7084528168"
      },
      "geometry": {
        "type": "Point",
        "coordinates": [
          57.3223056,
          49.7444239
        ]
      }
    },
    {
      "type": "Feature",
      "id": "node/7084578950",
      "properties": {
        "name": "34 км",
        "network": "КТЖ",
        "operator": "Семипалатинское отделение",
        "public_transport": "station",
        "railway": "halt",
        "train": "yes",
        "id": "node/7084578950"
      },
      "geometry": {
        "type": "Point",
        "coordinates": [
          79.7894229,
          50.4135296
        ]
      }
    },
    {
      "type": "Feature",
      "id": "node/7084612728",
      "properties": {
        "name": "№ 21",
        "network": "КТЖ",
        "operator": "Семипалатинское отделение",
        "public_transport": "station",
        "railway": "halt",
        "train": "yes",
        "id": "node/7084612728"
      },
      "geometry": {
        "type": "Point",
        "coordinates": [
          80.4469345,
          47.972347
        ]
      }
    },
    {
      "type": "Feature",
      "id": "node/7084620521",
      "properties": {
        "name": "22 км",
        "network": "КТЖ",
        "operator": "Семипалатинское отделение",
        "public_transport": "station",
        "railway": "halt",
        "train": "yes",
        "id": "node/7084620521"
      },
      "geometry": {
        "type": "Point",
        "coordinates": [
          79.9520319,
          50.3918039
        ]
      }
    },
    {
      "type": "Feature",
      "id": "node/7084733168",
      "properties": {
        "name": "3227 км ПК2",
        "network": "КТЖ",
        "operator": "Шымкентское отделение",
        "public_transport": "station",
        "railway": "halt",
        "train": "yes",
        "id": "node/7084733168"
      },
      "geometry": {
        "type": "Point",
        "coordinates": [
          68.9679994,
          42.4291428
        ]
      }
    },
    {
      "type": "Feature",
      "id": "node/7084746080",
      "properties": {
        "name": "3392 км",
        "network": "КТЖ",
        "operator": "Жамбыльское отделение",
        "public_transport": "station",
        "railway": "halt",
        "train": "yes",
        "id": "node/7084746080"
      },
      "geometry": {
        "type": "Point",
        "coordinates": [
          70.3994441,
          42.4789703
        ]
      }
    },
    {
      "type": "Feature",
      "id": "node/7085686514",
      "properties": {
        "name": "215 км",
        "network": "КТЖ",
        "operator": "Актюбинское отделение",
        "public_transport": "station",
        "railway": "halt",
        "train": "yes",
        "id": "node/7085686514"
      },
      "geometry": {
        "type": "Point",
        "coordinates": [
          57.5944392,
          49.5862181
        ]
      }
    },
    {
      "type": "Feature",
      "id": "node/7085697659",
      "properties": {
        "name": "218 км",
        "network": "КТЖ",
        "operator": "Актюбинское отделение",
        "public_transport": "station",
        "railway": "halt",
        "train": "yes",
        "id": "node/7085697659"
      },
      "geometry": {
        "type": "Point",
        "coordinates": [
          57.590976,
          49.5688988
        ]
      }
    },
    {
      "type": "Feature",
      "id": "node/7085739612",
      "properties": {
        "name": "№ 118 бп",
        "network": "КТЖ",
        "operator": "Актюбинское отделение",
        "public_transport": "station",
        "railway": "halt",
        "train": "yes",
        "id": "node/7085739612"
      },
      "geometry": {
        "type": "Point",
        "coordinates": [
          58.2069133,
          50.2966181
        ]
      }
    },
    {
      "type": "Feature",
      "id": "node/7085755671",
      "properties": {
        "name": "№ 307",
        "network": "КТЖ",
        "operator": "Актюбинское отделение",
        "public_transport": "station",
        "railway": "halt",
        "train": "yes",
        "id": "node/7085755671"
      },
      "geometry": {
        "type": "Point",
        "coordinates": [
          58.2070358,
          50.2968606
        ]
      }
    },
    {
      "type": "Feature",
      "id": "node/7085794462",
      "properties": {
        "name": "№ 192 бп",
        "network": "КТЖ",
        "operator": "Актюбинское отделение",
        "public_transport": "station",
        "railway": "halt",
        "train": "yes",
        "id": "node/7085794462"
      },
      "geometry": {
        "type": "Point",
        "coordinates": [
          57.8405697,
          49.7140412
        ]
      }
    },
    {
      "type": "Feature",
      "id": "node/7085821132",
      "properties": {
        "name": "№ 311",
        "network": "КТЖ",
        "operator": "Актюбинское отделение",
        "public_transport": "station",
        "railway": "halt",
        "train": "yes",
        "id": "node/7085821132"
      },
      "geometry": {
        "type": "Point",
        "coordinates": [
          57.8538754,
          49.7243271
        ]
      }
    },
    {
      "type": "Feature",
      "id": "node/7085837204",
      "properties": {
        "name": "№ 310",
        "network": "КТЖ",
        "operator": "Актюбинское отделение",
        "public_transport": "station",
        "railway": "halt",
        "train": "yes",
        "id": "node/7085837204"
      },
      "geometry": {
        "type": "Point",
        "coordinates": [
          58.0542483,
          49.909944
        ]
      }
    },
    {
      "type": "Feature",
      "id": "node/7085837606",
      "properties": {
        "name": "№ 162",
        "network": "КТЖ",
        "operator": "Актюбинское отделение",
        "public_transport": "station",
        "railway": "halt",
        "train": "yes",
        "id": "node/7085837606"
      },
      "geometry": {
        "type": "Point",
        "coordinates": [
          58.0511799,
          49.9053566
        ]
      }
    },
    {
      "type": "Feature",
      "id": "node/7085854139",
      "properties": {
        "name": "№ 433 бп",
        "network": "КТЖ",
        "operator": "Павлодарское отделение",
        "public_transport": "station",
        "railway": "halt",
        "train": "yes",
        "id": "node/7085854139"
      },
      "geometry": {
        "type": "Point",
        "coordinates": [
          76.8962283,
          52.2918854
        ]
      }
    },
    {
      "type": "Feature",
      "id": "node/7085858204",
      "properties": {
        "name": "№ 434 бп",
        "network": "КТЖ",
        "operator": "Павлодарское отделение",
        "public_transport": "station",
        "railway": "halt",
        "train": "yes",
        "id": "node/7085858204"
      },
      "geometry": {
        "type": "Point",
        "coordinates": [
          76.915012,
          52.3012649
        ]
      }
    },
    {
      "type": "Feature",
      "id": "node/7085858358",
      "properties": {
        "name": "№ 415",
        "network": "КТЖ",
        "operator": "Павлодарское отделение",
        "public_transport": "station",
        "railway": "halt",
        "train": "yes",
        "id": "node/7085858358"
      },
      "geometry": {
        "type": "Point",
        "coordinates": [
          76.6808046,
          52.2112579
        ]
      }
    },
    {
      "type": "Feature",
      "id": "node/7085896599",
      "properties": {
        "name": "№ 22",
        "network": "КТЖ",
        "operator": "Кызыл-Ординское отделение",
        "public_transport": "station",
        "railway": "halt",
        "train": "yes",
        "id": "node/7085896599"
      },
      "geometry": {
        "type": "Point",
        "coordinates": [
          66.8208572,
          44.1289097
        ]
      }
    },
    {
      "type": "Feature",
      "id": "node/7085909977",
      "properties": {
        "name": "4031 км",
        "network": "КТЖ",
        "operator": "Алма-Атинское отделение",
        "public_transport": "station",
        "railway": "halt",
        "train": "yes",
        "id": "node/7085909977"
      },
      "geometry": {
        "type": "Point",
        "coordinates": [
          76.6703534,
          43.3707988
        ]
      }
    },
    {
      "type": "Feature",
      "id": "node/7085930882",
      "properties": {
        "name": "№ 24",
        "network": "КТЖ",
        "operator": "Семипалатинское отделение",
        "public_transport": "station",
        "railway": "halt",
        "train": "yes",
        "id": "node/7085930882"
      },
      "geometry": {
        "type": "Point",
        "coordinates": [
          80.319646,
          47.7557649
        ]
      }
    },
    {
      "type": "Feature",
      "id": "node/7085937405",
      "properties": {
        "name": "1097 км",
        "network": "КТЖ",
        "operator": "Актюбинское отделение",
        "public_transport": "station",
        "railway": "halt",
        "train": "yes",
        "id": "node/7085937405"
      },
      "geometry": {
        "type": "Point",
        "coordinates": [
          59.1551135,
          50.395687
        ]
      }
    },
    {
      "type": "Feature",
      "id": "node/7085948329",
      "properties": {
        "name": "№ 21",
        "network": "КТЖ",
        "operator": "Семипалатинское отделение",
        "public_transport": "station",
        "railway": "halt",
        "train": "yes",
        "id": "node/7085948329"
      },
      "geometry": {
        "type": "Point",
        "coordinates": [
          80.4219261,
          48.0135372
        ]
      }
    },
    {
      "type": "Feature",
      "id": "node/7086011753",
      "properties": {
        "name": "Ботай",
        "network": "КТЖ",
        "operator": "Акмолинское",
        "public_transport": "station",
        "railway": "halt",
        "train": "yes",
        "id": "node/7086011753"
      },
      "geometry": {
        "type": "Point",
        "coordinates": [
          67.7263655,
          53.2522533
        ]
      }
    },
    {
      "type": "Feature",
      "id": "node/7086039788",
      "properties": {
        "name": "Баянтай",
        "network": "КТЖ",
        "operator": "Акмолинское отделение",
        "public_transport": "station",
        "railway": "halt",
        "train": "yes",
        "id": "node/7086039788"
      },
      "geometry": {
        "type": "Point",
        "coordinates": [
          67.9266327,
          53.292017
        ]
      }
    },
    {
      "type": "Feature",
      "id": "node/7086080097",
      "properties": {
        "name": "185 км",
        "network": "КТЖ",
        "operator": "Алма-Атинское отделение",
        "public_transport": "station",
        "railway": "halt",
        "train": "yes",
        "id": "node/7086080097"
      },
      "geometry": {
        "type": "Point",
        "coordinates": [
          81.4863488,
          45.9739971
        ]
      }
    },
    {
      "type": "Feature",
      "id": "node/7086086252",
      "properties": {
        "name": "276 км",
        "network": "КТЖ",
        "operator": "Алма-Атинское отделение",
        "public_transport": "station",
        "railway": "halt",
        "train": "yes",
        "id": "node/7086086252"
      },
      "geometry": {
        "type": "Point",
        "coordinates": [
          82.3488888,
          45.4775771
        ]
      }
    },
    {
      "type": "Feature",
      "id": "node/7086409410",
      "properties": {
        "name": "Сулыжер",
        "network": "КТЖ",
        "operator": "Жамбыльское отделение",
        "public_transport": "station",
        "railway": "halt",
        "train": "yes",
        "id": "node/7086409410"
      },
      "geometry": {
        "type": "Point",
        "coordinates": [
          73.6000459,
          46.1911368
        ]
      }
    },
    {
      "type": "Feature",
      "id": "node/7086473120",
      "properties": {
        "name": "Сарыбулак",
        "network": "КТЖ",
        "operator": "Жамбыльское отделение",
        "public_transport": "station",
        "railway": "halt",
        "train": "yes",
        "id": "node/7086473120"
      },
      "geometry": {
        "type": "Point",
        "coordinates": [
          73.8104702,
          44.3906983
        ]
      }
    },
    {
      "type": "Feature",
      "id": "node/7086500905",
      "properties": {
        "name": "1119 км",
        "network": "КТЖ",
        "operator": "Карагандинское отделение",
        "public_transport": "station",
        "railway": "halt",
        "train": "yes",
        "id": "node/7086500905"
      },
      "geometry": {
        "type": "Point",
        "coordinates": [
          73.5199749,
          46.7712808
        ]
      }
    },
    {
      "type": "Feature",
      "id": "node/7086657181",
      "properties": {
        "name": "1612 км",
        "network": "КТЖ",
        "operator": "Алма-Атинское отделение",
        "public_transport": "station",
        "railway": "halt",
        "train": "yes",
        "id": "node/7086657181"
      },
      "geometry": {
        "type": "Point",
        "coordinates": [
          77.0487928,
          43.8528622
        ]
      }
    },
    {
      "type": "Feature",
      "id": "node/7086714010",
      "properties": {
        "name": "1653 км",
        "network": "КТЖ",
        "operator": "Алма-Атинское отделение",
        "public_transport": "station",
        "railway": "halt",
        "train": "yes",
        "id": "node/7086714010"
      },
      "geometry": {
        "type": "Point",
        "coordinates": [
          77.0674323,
          43.5416575
        ]
      }
    },
    {
      "type": "Feature",
      "id": "node/7086722843",
      "properties": {
        "name": "№ 5",
        "network": "КТЖ",
        "operator": "Мангистаусское отделение",
        "public_transport": "station",
        "railway": "halt",
        "train": "yes",
        "id": "node/7086722843"
      },
      "geometry": {
        "type": "Point",
        "coordinates": [
          54.2432734,
          44.6993148
        ]
      }
    },
    {
      "type": "Feature",
      "id": "node/7086730061",
      "properties": {
        "name": "№ 13",
        "network": "КТЖ",
        "operator": "Мангистаусское отделение",
        "public_transport": "station",
        "railway": "station",
        "train": "yes",
        "id": "node/7086730061"
      },
      "geometry": {
        "type": "Point",
        "coordinates": [
          52.2760617,
          44.205285
        ]
      }
    },
    {
      "type": "Feature",
      "id": "node/7086733128",
      "properties": {
        "name": "№ 3",
        "network": "КТЖ",
        "operator": "Мангистаусское отделение",
        "public_transport": "station",
        "railway": "halt",
        "train": "yes",
        "id": "node/7086733128"
      },
      "geometry": {
        "type": "Point",
        "coordinates": [
          54.8066207,
          44.9501963
        ]
      }
    },
    {
      "type": "Feature",
      "id": "node/7086747541",
      "properties": {
        "name": "№ 8",
        "network": "КТЖ",
        "operator": "Мангистаусское отделение",
        "public_transport": "station",
        "railway": "halt",
        "train": "yes",
        "id": "node/7086747541"
      },
      "geometry": {
        "type": "Point",
        "coordinates": [
          53.3804768,
          44.2939195
        ]
      }
    },
    {
      "type": "Feature",
      "id": "node/7086759546",
      "properties": {
        "name": "299 км",
        "name:ru": "299 км",
        "network": "КТЖ",
        "operator": "Защитинское отделение",
        "public_transport": "station",
        "railway": "halt",
        "train": "yes",
        "id": "node/7086759546"
      },
      "geometry": {
        "type": "Point",
        "coordinates": [
          83.1025974,
          50.2703984
        ]
      }
    },
    {
      "type": "Feature",
      "id": "node/7086774223",
      "properties": {
        "name": "307 км",
        "name:ru": "307 км",
        "network": "КТЖ",
        "operator": "Защитинское отделение",
        "public_transport": "station",
        "railway": "halt",
        "train": "yes",
        "id": "node/7086774223"
      },
      "geometry": {
        "type": "Point",
        "coordinates": [
          83.230731,
          50.2590065
        ]
      }
    },
    {
      "type": "Feature",
      "id": "node/7086788285",
      "properties": {
        "name": "282 км",
        "network": "КТЖ",
        "operator": "Защитинское отделение",
        "public_transport": "station",
        "railway": "halt",
        "train": "yes",
        "id": "node/7086788285"
      },
      "geometry": {
        "type": "Point",
        "coordinates": [
          82.9772997,
          50.1820435
        ]
      }
    },
    {
      "type": "Feature",
      "id": "node/7086814779",
      "properties": {
        "name": "552 км",
        "network": "КТЖ",
        "operator": "Защитинское отделение",
        "public_transport": "station",
        "railway": "halt",
        "train": "yes",
        "id": "node/7086814779"
      },
      "geometry": {
        "type": "Point",
        "coordinates": [
          81.0744115,
          51.1513567
        ]
      }
    },
    {
      "type": "Feature",
      "id": "node/7086842101",
      "properties": {
        "name": "376 км",
        "network": "КТЖ",
        "operator": "Акмолинское отделение",
        "public_transport": "station",
        "railway": "halt",
        "train": "yes",
        "id": "node/7086842101"
      },
      "geometry": {
        "type": "Point",
        "coordinates": [
          70.8220719,
          52.0560565
        ]
      }
    },
    {
      "type": "Feature",
      "id": "node/7086842603",
      "properties": {
        "name": "370 км",
        "network": "КТЖ",
        "operator": "Акмолинское отделение",
        "public_transport": "station",
        "railway": "halt",
        "train": "yes",
        "id": "node/7086842603"
      },
      "geometry": {
        "type": "Point",
        "coordinates": [
          70.6648941,
          52.1864297
        ]
      }
    },
    {
      "type": "Feature",
      "id": "node/7086857069",
      "properties": {
        "name": "333 км",
        "network": "КТЖ",
        "operator": "Акмолинское отделение",
        "public_transport": "station",
        "railway": "halt",
        "train": "yes",
        "id": "node/7086857069"
      },
      "geometry": {
        "type": "Point",
        "coordinates": [
          70.5229371,
          52.3671395
        ]
      }
    },
    {
      "type": "Feature",
      "id": "node/7086878607",
      "properties": {
        "name": "1228 км",
        "network": "КТЖ",
        "operator": "Уральское отделение",
        "public_transport": "station",
        "railway": "halt",
        "train": "yes",
        "id": "node/7086878607"
      },
      "geometry": {
        "type": "Point",
        "coordinates": [
          50.5599807,
          51.133131
        ]
      }
    },
    {
      "type": "Feature",
      "id": "node/7086883001",
      "properties": {
        "name": "402 км",
        "network": "КТЖ",
        "operator": "Акмолинское отделение",
        "public_transport": "station",
        "railway": "halt",
        "train": "yes",
        "id": "node/7086883001"
      },
      "geometry": {
        "type": "Point",
        "coordinates": [
          70.9753447,
          51.875646
        ]
      }
    },
    {
      "type": "Feature",
      "id": "node/7086926309",
      "properties": {
        "name": "1257 км",
        "network": "КТЖ",
        "operator": "Акмолинское отделение",
        "public_transport": "station",
        "railway": "halt",
        "train": "yes",
        "id": "node/7086926309"
      },
      "geometry": {
        "type": "Point",
        "coordinates": [
          50.929733,
          51.2380251
        ]
      }
    },
    {
      "type": "Feature",
      "id": "node/7086926873",
      "properties": {
        "name": "1338 км",
        "network": "КТЖ",
        "operator": "Акмолинское отделение",
        "public_transport": "station",
        "railway": "halt",
        "train": "yes",
        "id": "node/7086926873"
      },
      "geometry": {
        "type": "Point",
        "coordinates": [
          51.9196451,
          51.1891949
        ]
      }
    },
    {
      "type": "Feature",
      "id": "node/7086930226",
      "properties": {
        "name": "1473 км",
        "network": "КТЖ",
        "operator": "Акмолинское отделение",
        "public_transport": "station",
        "railway": "halt",
        "train": "yes",
        "id": "node/7086930226"
      },
      "geometry": {
        "type": "Point",
        "coordinates": [
          53.9101522,
          51.1058044
        ]
      }
    },
    {
      "type": "Feature",
      "id": "node/7087901139",
      "properties": {
        "name": "135 км",
        "network": "КТЖ",
        "operator": "Кустанайское отделение",
        "public_transport": "station",
        "railway": "halt",
        "train": "yes",
        "id": "node/7087901139"
      },
      "geometry": {
        "type": "Point",
        "coordinates": [
          62.3795518,
          52.7511036
        ]
      }
    },
    {
      "type": "Feature",
      "id": "node/7087901378",
      "properties": {
        "name": "135 км",
        "network": "КТЖ",
        "operator": "Кустанайское отделение",
        "public_transport": "station",
        "railway": "halt",
        "train": "yes",
        "id": "node/7087901378"
      },
      "geometry": {
        "type": "Point",
        "coordinates": [
          62.4902221,
          52.7194233
        ]
      }
    },
    {
      "type": "Feature",
      "id": "node/7087924256",
      "properties": {
        "name": "106 км",
        "network": "КТЖ",
        "operator": "Кустанайское отделение",
        "public_transport": "station",
        "railway": "halt",
        "train": "yes",
        "id": "node/7087924256"
      },
      "geometry": {
        "type": "Point",
        "coordinates": [
          62.096232,
          52.8212121
        ]
      }
    },
    {
      "type": "Feature",
      "id": "node/7087933029",
      "properties": {
        "name": "115 км",
        "network": "КТЖ",
        "operator": "Кустанайское отделение",
        "public_transport": "station",
        "railway": "halt",
        "train": "yes",
        "id": "node/7087933029"
      },
      "geometry": {
        "type": "Point",
        "coordinates": [
          62.1906674,
          52.8046452
        ]
      }
    },
    {
      "type": "Feature",
      "id": "node/7087977928",
      "properties": {
        "name": "89 км",
        "network": "КТЖ",
        "operator": "Кустанайское отделение",
        "public_transport": "station",
        "railway": "halt",
        "train": "yes",
        "id": "node/7087977928"
      },
      "geometry": {
        "type": "Point",
        "coordinates": [
          61.8446005,
          52.8748778
        ]
      }
    },
    {
      "type": "Feature",
      "id": "node/7088028608",
      "properties": {
        "name": "116 км",
        "network": "КТЖ",
        "operator": "Кустанайское отделение",
        "public_transport": "station",
        "railway": "halt",
        "train": "yes",
        "id": "node/7088028608"
      },
      "geometry": {
        "type": "Point",
        "coordinates": [
          62.222664,
          52.7957391
        ]
      }
    },
    {
      "type": "Feature",
      "id": "node/7088031758",
      "properties": {
        "name": "№ 1",
        "network": "КТЖ",
        "operator": "Алма-Атинское отделение",
        "public_transport": "station",
        "railway": "station",
        "train": "yes",
        "id": "node/7088031758"
      },
      "geometry": {
        "type": "Point",
        "coordinates": [
          77.600833,
          46.8370496
        ]
      }
    },
    {
      "type": "Feature",
      "id": "node/7088050109",
      "properties": {
        "name": "№ 2",
        "network": "КТЖ",
        "operator": "Алма-Атинское отделение",
        "public_transport": "station",
        "railway": "station",
        "train": "yes",
        "id": "node/7088050109"
      },
      "geometry": {
        "type": "Point",
        "coordinates": [
          77.6909235,
          46.8184727
        ]
      }
    },
    {
      "type": "Feature",
      "id": "node/7088099795",
      "properties": {
        "name": "Предузловая",
        "network": "КТЖ",
        "operator": "Алма-Атинское отделение",
        "public_transport": "station",
        "railway": "station",
        "train": "yes",
        "id": "node/7088099795"
      },
      "geometry": {
        "type": "Point",
        "coordinates": [
          79.6284258,
          46.9124223
        ]
      }
    },
    {
      "type": "Feature",
      "id": "node/7088135406",
      "properties": {
        "name": "№ 3",
        "network": "КТЖ",
        "operator": "Алма-Атинское отделение",
        "public_transport": "station",
        "railway": "station",
        "train": "yes",
        "id": "node/7088135406"
      },
      "geometry": {
        "type": "Point",
        "coordinates": [
          78.331683,
          46.8450069
        ]
      }
    },
    {
      "type": "Feature",
      "id": "node/7089699256",
      "properties": {
        "name": "174 км",
        "network": "КТЖ",
        "operator": "Защитинское отделение",
        "public_transport": "station",
        "railway": "halt",
        "train": "yes",
        "id": "node/7089699256"
      },
      "geometry": {
        "type": "Point",
        "coordinates": [
          84.1289011,
          49.8068595
        ]
      }
    },
    {
      "type": "Feature",
      "id": "node/7089749668",
      "properties": {
        "esr:user": "714300",
        "name": "Заводинка",
        "network": "КТЖ",
        "operator": "Защитинское отделение",
        "public_transport": "station",
        "railway": "station",
        "train": "yes",
        "uic_ref": "2700693",
        "id": "node/7089749668"
      },
      "geometry": {
        "type": "Point",
        "coordinates": [
          83.8288714,
          49.6707276
        ]
      }
    },
    {
      "type": "Feature",
      "id": "node/7110594829",
      "properties": {
        "historic:railway": "station",
        "name": "Жыргалы",
        "network": "КТЖ",
        "operator": "Семипалатинское отделение",
        "public_transport": "station",
        "train": "yes",
        "id": "node/7110594829"
      },
      "geometry": {
        "type": "Point",
        "coordinates": [
          80.2230941,
          47.6041443
        ]
      }
    },
    {
      "type": "Feature",
      "id": "node/7110619807",
      "properties": {
        "name": "№ 29",
        "network": "КТЖ",
        "operator": "Семипалатинское отделение",
        "public_transport": "station",
        "railway:historic": "station",
        "train": "yes",
        "id": "node/7110619807"
      },
      "geometry": {
        "type": "Point",
        "coordinates": [
          79.8976408,
          47.3457868
        ]
      }
    },
    {
      "type": "Feature",
      "id": "node/7111215119",
      "properties": {
        "historic:railway": "halt",
        "name": "№ 31",
        "network": "КТЖ",
        "operator": "Семипалатинское отделение",
        "public_transport": "station",
        "train": "yes",
        "id": "node/7111215119"
      },
      "geometry": {
        "type": "Point",
        "coordinates": [
          79.7073293,
          47.0135772
        ]
      }
    },
    {
      "type": "Feature",
      "id": "node/7111364268",
      "properties": {
        "name": "№ 303",
        "network": "КТЖ",
        "operator": "Актюбинское отделение",
        "public_transport": "station",
        "railway:historic": "halt",
        "train": "yes",
        "id": "node/7111364268"
      },
      "geometry": {
        "type": "Point",
        "coordinates": [
          58.4119397,
          50.8898986
        ]
      }
    },
    {
      "type": "Feature",
      "id": "node/7111380459",
      "properties": {
        "historic:railway": "halt",
        "name": "№ 305",
        "network": "КТЖ",
        "operator": "Актюбинское отделение",
        "public_transport": "station",
        "train": "yes",
        "id": "node/7111380459"
      },
      "geometry": {
        "type": "Point",
        "coordinates": [
          58.3361752,
          50.6711687
        ]
      }
    },
    {
      "type": "Feature",
      "id": "node/7111401466",
      "properties": {
        "name": "№ 306",
        "network": "КТЖ",
        "operator": "Актюбинское отделение",
        "public_transport": "station",
        "railway:historic": "halt",
        "train": "yes",
        "id": "node/7111401466"
      },
      "geometry": {
        "type": "Point",
        "coordinates": [
          58.2725994,
          50.4865455
        ]
      }
    },
    {
      "type": "Feature",
      "id": "node/7111531086",
      "properties": {
        "name": "Кошкин",
        "network": "КТЖ",
        "operator": "Актюбинское отделение",
        "public_transport": "station",
        "railway:historic": "station",
        "train": "yes",
        "id": "node/7111531086"
      },
      "geometry": {
        "type": "Point",
        "coordinates": [
          60.7817412,
          47.4469709
        ]
      }
    },
    {
      "type": "Feature",
      "id": "node/7111843428",
      "properties": {
        "name": "№73",
        "network": "КТЖ",
        "operator": "Актюбинское отделение",
        "public_transport": "station",
        "railway:historic": "station",
        "train": "yes",
        "id": "node/7111843428"
      },
      "geometry": {
        "type": "Point",
        "coordinates": [
          60.3423661,
          47.6570056
        ]
      }
    },
    {
      "type": "Feature",
      "id": "node/7112714520",
      "properties": {
        "name": "Бозарал",
        "network": "КТЖ",
        "operator": "Акмолинское отделение",
        "public_transport": "station",
        "railway:historic": "station",
        "train": "yes",
        "id": "node/7112714520"
      },
      "geometry": {
        "type": "Point",
        "coordinates": [
          69.4936291,
          54.4448379
        ]
      }
    },
    {
      "type": "Feature",
      "id": "node/7112727629",
      "properties": {
        "historic:railway": "station",
        "name": "Жалгизтау",
        "network": "КТЖ",
        "operator": "Акмолинское отделение",
        "public_transport": "station",
        "train": "yes",
        "id": "node/7112727629"
      },
      "geometry": {
        "type": "Point",
        "coordinates": [
          69.5068027,
          53.5091733
        ]
      }
    },
    {
      "type": "Feature",
      "id": "node/7112738493",
      "properties": {
        "historic:railway": "station",
        "name": "№ 10",
        "network": "КТЖ",
        "operator": "Акмолинское отделение",
        "public_transport": "station",
        "train": "yes",
        "id": "node/7112738493"
      },
      "geometry": {
        "type": "Point",
        "coordinates": [
          69.6632467,
          53.7815478
        ]
      }
    },
    {
      "type": "Feature",
      "id": "node/7112745376",
      "properties": {
        "name": "Совет(рзд)",
        "network": "КТЖ",
        "operator": "Акмолинское отделение",
        "public_transport": "station",
        "railway:historic": "station",
        "train": "yes",
        "id": "node/7112745376"
      },
      "geometry": {
        "type": "Point",
        "coordinates": [
          69.5919745,
          54.2733891
        ]
      }
    },
    {
      "type": "Feature",
      "id": "node/7112753845",
      "properties": {
        "name": "№ 12",
        "network": "КТЖ",
        "operator": "Акмолинское отделение",
        "public_transport": "station",
        "railway:historic": "station",
        "train": "yes",
        "id": "node/7112753845"
      },
      "geometry": {
        "type": "Point",
        "coordinates": [
          69.5722666,
          53.6258953
        ]
      }
    },
    {
      "type": "Feature",
      "id": "node/7112818799",
      "properties": {
        "name": "№ 45",
        "network": "КТЖ",
        "operator": "Карагандинское отделение",
        "public_transport": "station",
        "railway:historic": "station",
        "train": "yes",
        "id": "node/7112818799"
      },
      "geometry": {
        "type": "Point",
        "coordinates": [
          72.2338844,
          50.7676764
        ]
      }
    },
    {
      "type": "Feature",
      "id": "node/7112918676",
      "properties": {
        "historic:railway": "halt",
        "name": "Новый  Майкудук",
        "network": "КТЖ",
        "operator": "Карагандинское отделение",
        "public_transport": "station",
        "train": "yes",
        "id": "node/7112918676"
      },
      "geometry": {
        "type": "Point",
        "coordinates": [
          73.182141,
          49.8877639
        ]
      }
    },
    {
      "type": "Feature",
      "id": "node/7112939665",
      "properties": {
        "name": "697 км пост",
        "network": "КТЖ",
        "operator": "Карагандинское отделение",
        "public_transport": "station",
        "railway": "halt",
        "train": "yes",
        "id": "node/7112939665"
      },
      "geometry": {
        "type": "Point",
        "coordinates": [
          73.2236754,
          50.0759159
        ]
      }
    },
    {
      "type": "Feature",
      "id": "node/7112946017",
      "properties": {
        "historic:railway": "halt",
        "name": "Новый Майкудук",
        "network": "КТЖ",
        "operator": "Карагандинское отделение",
        "public_transport": "station",
        "train": "yes",
        "id": "node/7112946017"
      },
      "geometry": {
        "type": "Point",
        "coordinates": [
          73.1801738,
          49.8810104
        ]
      }
    },
    {
      "type": "Feature",
      "id": "node/7113114573",
      "properties": {
        "name": "1177 км",
        "network": "КТЖ",
        "operator": "Уральское отделение",
        "public_transport": "station",
        "railway": "halt",
        "train": "yes",
        "id": "node/7113114573"
      },
      "geometry": {
        "type": "Point",
        "coordinates": [
          49.9691015,
          51.1984739
        ]
      }
    },
    {
      "type": "Feature",
      "id": "node/7113140124",
      "properties": {
        "name": "№ 11",
        "network": "КТЖ",
        "operator": "Алмаатинское отделение",
        "public_transport": "station",
        "railway:historic": "station",
        "train": "yes",
        "id": "node/7113140124"
      },
      "geometry": {
        "type": "Point",
        "coordinates": [
          81.2945181,
          46.0533302
        ]
      }
    },
    {
      "type": "Feature",
      "id": "node/7113148629",
      "properties": {
        "name": "172 км",
        "network": "КТЖ",
        "operator": "Алма-Атинское отделение",
        "public_transport": "station",
        "railway:historic": "halt",
        "train": "yes",
        "id": "node/7113148629"
      },
      "geometry": {
        "type": "Point",
        "coordinates": [
          81.3919829,
          46.0089457
        ]
      }
    },
    {
      "type": "Feature",
      "id": "node/7113958580",
      "properties": {
        "name": "Жайдак(рзд)",
        "network": "КТЖ",
        "operator": "Жамбыльское отделение",
        "public_transport": "station",
        "railway:historic": "halt",
        "train": "yes",
        "id": "node/7113958580"
      },
      "geometry": {
        "type": "Point",
        "coordinates": [
          73.5216742,
          45.9400359
        ]
      }
    },
    {
      "type": "Feature",
      "id": "node/7113986202",
      "properties": {
        "name": "Лавровка",
        "network": "КТЖ",
        "operator": "Акмолинское отделение",
        "public_transport": "station",
        "railway:historic": "halt",
        "train": "yes",
        "id": "node/7113986202"
      },
      "geometry": {
        "type": "Point",
        "coordinates": [
          68.2427075,
          53.3173697
        ]
      }
    },
    {
      "type": "Feature",
      "id": "node/7184717429",
      "properties": {
        "name": "Колдар",
        "network": "КТЖ",
        "operator": "Алматинское отделение",
        "public_transport": "station",
        "railway": "halt",
        "train": "yes",
        "id": "node/7184717429"
      },
      "geometry": {
        "type": "Point",
        "coordinates": [
          79.7435214,
          46.8784814
        ]
      }
    },
    {
      "type": "Feature",
      "id": "node/7184822005",
      "properties": {
        "name": "Колдар",
        "network": "КТЖ",
        "operator": "Алмаатинское",
        "public_transport": "station",
        "railway": "halt",
        "train": "yes",
        "id": "node/7184822005"
      },
      "geometry": {
        "type": "Point",
        "coordinates": [
          79.7446319,
          46.8780304
        ]
      }
    },
    {
      "type": "Feature",
      "id": "node/7195340762",
      "properties": {
        "name": "Р(рзд)",
        "network": "КТЖ",
        "operator": "Мангистаусское отделение",
        "public_transport": "station",
        "railway": "station",
        "train": "yes",
        "id": "node/7195340762"
      },
      "geometry": {
        "type": "Point",
        "coordinates": [
          51.2993897,
          43.6368214
        ]
      }
    },
    {
      "type": "Feature",
      "id": "node/7195503687",
      "properties": {
        "name": "№ 7",
        "network": "КТЖ",
        "operator": "Мангистаусское отделение",
        "public_transport": "station",
        "railway": "station",
        "train": "yes",
        "id": "node/7195503687"
      },
      "geometry": {
        "type": "Point",
        "coordinates": [
          53.6782788,
          44.4083268
        ]
      }
    },
    {
      "type": "Feature",
      "id": "node/8451334214",
      "properties": {
        "name": "Токтамыз Остановка",
        "public_transport": "station",
        "railway": "halt",
        "train": "yes",
        "id": "node/8451334214"
      },
      "geometry": {
        "type": "Point",
        "coordinates": [
          68.4794165,
          43.5252115
        ]
      }
    },
    {
      "type": "Feature",
      "id": "node/8548583438",
      "properties": {
        "addr:city": "Кентау",
        "name": "7 Конечный",
        "public_transport": "station",
        "railway": "halt",
        "train": "yes",
        "id": "node/8548583438"
      },
      "geometry": {
        "type": "Point",
        "coordinates": [
          68.4794206,
          43.5038165
        ]
      }
    },
    {
      "type": "Feature",
      "id": "node/8563441953",
      "properties": {
        "addr:city": "Туркестан",
        "addr:street": "Тауке Хан пр.",
        "name": "Остановка Каспи Банка",
        "public_transport": "station",
        "railway": "halt",
        "train": "yes",
        "id": "node/8563441953"
      },
      "geometry": {
        "type": "Point",
        "coordinates": [
          68.2618476,
          43.3010736
        ]
      }
    },
    {
      "type": "Feature",
      "id": "node/8977338184",
      "properties": {
        "name": "Жинишке",
        "network": "КТЖ",
        "operator": "Актюбинское отделение",
        "public_transport": "station",
        "railway": "station",
        "train": "yes",
        "id": "node/8977338184"
      },
      "geometry": {
        "type": "Point",
        "coordinates": [
          57.1307771,
          50.3379439
        ]
      }
    },
    {
      "type": "Feature",
      "id": "node/9026521244",
      "properties": {
        "name": "Экибастуз-1",
        "name:ru": "Экибастуз-1",
        "network": "Павлодарское отделение КТЖ",
        "operator": "АО «КТЖ»",
        "public_transport": "station",
        "railway": "station",
        "train": "yes",
        "id": "node/9026521244"
      },
      "geometry": {
        "type": "Point",
        "coordinates": [
          75.3174081,
          51.751072
        ]
      }
    },
    {
      "type": "Feature",
      "id": "node/9039220854",
      "properties": {
        "name": "Промышленное",
        "network": "Атырауское отделение",
        "operator": "АО \"НК \"ҚТЖ\"",
        "public_transport": "station",
        "railway": "station",
        "train": "yes",
        "website": "https://www.railways.kz",
        "id": "node/9039220854"
      },
      "geometry": {
        "type": "Point",
        "coordinates": [
          51.9648329,
          47.0723066
        ]
      }
    },
    {
      "type": "Feature",
      "id": "node/9457364764",
      "properties": {
        "public_transport": "station",
        "railway": "halt",
        "train": "yes",
        "id": "node/9457364764"
      },
      "geometry": {
        "type": "Point",
        "coordinates": [
          78.4112116,
          44.9888054
        ]
      }
    }
  ]
}