{
  "type": "FeatureCollection",
  "features": [
    {
      "type": "Feature",
      "id": "node/31451577",
      "properties": {
        "esr:user": "122208",
        "name": "Matuizos",
        "name:lt": "Matuizos",
        "name:ru": "Матуйзос",
        "public_transport": "station",
        "railway": "station",
        "train": "yes",
        "uic_ref": "2401424",
        "wikidata": "Q56338576",
        "id": "node/31451577"
      },
      "geometry": {
        "type": "Point",
        "coordinates": [
          24.6860969,
          54.2747567
        ]
      }
    },
    {
      "type": "Feature",
      "id": "node/55333877",
      "properties": {
        "esr:user": "120912",
        "name": "Kariotiškės",
        "name:lt": "Kariotiškės",
        "name:ru": "Кариетишкес",
        "public_transport": "station",
        "railway": "halt",
        "train": "yes",
        "uic_ref": "2400064",
        "wikidata": "Q108607696",
        "id": "node/55333877"
      },
      "geometry": {
        "type": "Point",
        "coordinates": [
          25.0059503,
          54.6752097
        ]
      }
    },
    {
      "type": "Feature",
      "id": "node/55338309",
      "properties": {
        "esr:user": "120946",
        "name": "Lazdėnai",
        "name:lt": "Lazdėnai",
        "name:ru": "Лазденай",
        "public_transport": "station",
        "railway": "halt",
        "train": "yes",
        "uic_ref": "2400367",
        "wikidata": "Q108603183",
        "id": "node/55338309"
      },
      "geometry": {
        "type": "Point",
        "coordinates": [
          24.9420118,
          54.7490312
        ]
      }
    },
    {
      "type": "Feature",
      "id": "node/55338421",
      "properties": {
        "esr:user": "122903",
        "name": "Pravieniškės",
        "name:lt": "Pravieniškės",
        "name:ru": "Правенишкес",
        "public_transport": "station",
        "railway": "station",
        "train": "yes",
        "uic_ref": "2400365",
        "wikidata": "Q108602722",
        "id": "node/55338421"
      },
      "geometry": {
        "type": "Point",
        "coordinates": [
          24.2208195,
          54.9017033
        ]
      }
    },
    {
      "type": "Feature",
      "id": "node/71215047",
      "properties": {
        "esr:user": "123215",
        "name": "Pabališkiai",
        "name:lt": "Pabališkiai",
        "name:ru": "Пабалишкяй",
        "public_transport": "station",
        "railway": "halt",
        "train": "yes",
        "uic_ref": "2400005",
        "wikidata": "Q108651700",
        "id": "node/71215047"
      },
      "geometry": {
        "type": "Point",
        "coordinates": [
          23.6936286,
          54.7742103
        ]
      }
    },
    {
      "type": "Feature",
      "id": "node/71215051",
      "properties": {
        "esr:user": "123228",
        "name": "Jūrė",
        "name:lt": "Jūrė",
        "name:ru": "Юре",
        "public_transport": "station",
        "railway": "station",
        "train": "yes",
        "uic_ref": "2400360",
        "wikidata": "Q12659028",
        "id": "node/71215051"
      },
      "geometry": {
        "type": "Point",
        "coordinates": [
          23.5954933,
          54.7587503
        ]
      }
    },
    {
      "type": "Feature",
      "id": "node/99172829",
      "properties": {
        "esr:user": "108003",
        "name": "Klaipėda",
        "name:lt": "Klaipėda",
        "name:ru": "Клайпеда",
        "public_transport": "station",
        "railway": "station",
        "train": "yes",
        "uic_ref": "2400430",
        "id": "node/99172829"
      },
      "geometry": {
        "type": "Point",
        "coordinates": [
          21.1354905,
          55.7210059
        ]
      }
    },
    {
      "type": "Feature",
      "id": "node/257188896",
      "properties": {
        "esr:user": "122922",
        "name": "Palemonas",
        "name:lt": "Palemonas",
        "name:ru": "Палямонас",
        "public_transport": "station",
        "railway": "station",
        "train": "yes",
        "uic_ref": "2400364",
        "wikidata": "Q12668031",
        "id": "node/257188896"
      },
      "geometry": {
        "type": "Point",
        "coordinates": [
          24.0609598,
          54.914457
        ]
      }
    },
    {
      "type": "Feature",
      "id": "node/273461433",
      "properties": {
        "esr:user": "124038",
        "name": "Bebruliškė",
        "name:lt": "Bebruliškė",
        "name:ru": "Бябрулишке",
        "public_transport": "station",
        "railway": "halt",
        "train": "yes",
        "uic_ref": "2400029",
        "wikidata": "Q108652067",
        "id": "node/273461433"
      },
      "geometry": {
        "type": "Point",
        "coordinates": [
          23.4628004,
          54.7076242
        ]
      }
    },
    {
      "type": "Feature",
      "id": "node/296385684",
      "properties": {
        "esr:user": "121629",
        "name": "Marcinkonys",
        "name:lt": "Marcinkonys",
        "name:ru": "Марцинконис",
        "public_transport": "station",
        "railway": "station",
        "train": "yes",
        "uic_ref": "2401426",
        "wikidata": "Q25496876",
        "id": "node/296385684"
      },
      "geometry": {
        "type": "Point",
        "coordinates": [
          24.4078258,
          54.0525296
        ]
      }
    },
    {
      "type": "Feature",
      "id": "node/301943955",
      "properties": {
        "alt_name": "Bevandeniškiai",
        "esr:user": "120927",
        "name": "Sausiai",
        "name:lt": "Sausiai",
        "name:ru": "Саусяй",
        "public_transport": "station",
        "railway": "halt",
        "train": "yes",
        "uic_ref": "2400444",
        "wikidata": "Q108607709",
        "id": "node/301943955"
      },
      "geometry": {
        "type": "Point",
        "coordinates": [
          24.9935237,
          54.7010609
        ]
      }
    },
    {
      "type": "Feature",
      "id": "node/360353202",
      "properties": {
        "esr:user": "124006",
        "name": "Marijampolė",
        "name:de": "Mariampol",
        "name:lt": "Marijampolė",
        "name:pl": "Mariampol",
        "name:ru": "Мариямполе",
        "public_transport": "station",
        "railway": "station",
        "train": "yes",
        "uic_ref": "2400745",
        "wikidata": "Q4354897",
        "id": "node/360353202"
      },
      "geometry": {
        "type": "Point",
        "coordinates": [
          23.3648622,
          54.5574686
        ]
      }
    },
    {
      "type": "Feature",
      "id": "node/420356700",
      "properties": {
        "esr:user": "122509",
        "name": "Senieji Trakai",
        "name:lt": "Senieji Trakai",
        "name:ru": "Сянейи Тракай",
        "public_transport": "station",
        "railway": "station",
        "train": "yes",
        "uic_ref": "2401416",
        "wheelchair": "yes",
        "wikidata": "Q60860772",
        "id": "node/420356700"
      },
      "geometry": {
        "type": "Point",
        "coordinates": [
          24.9797532,
          54.612835
        ]
      }
    },
    {
      "type": "Feature",
      "id": "node/475195003",
      "properties": {
        "esr:user": "123408",
        "name": "Kazlų Rūda",
        "name:de": "Koselrode",
        "name:ja": "カズルー・ルーダ",
        "name:ka": "კაზლუ-რუდა",
        "name:lt": "Kazlų Rūda",
        "name:lv": "Kazlu Rūda",
        "name:pl": "Kozłowa Ruda",
        "name:ru": "Казлу-Руда",
        "name:uk": "Казлу-Руда",
        "name:zh": "卡茲盧魯達",
        "public_transport": "station",
        "railway": "station",
        "train": "yes",
        "uic_ref": "2400429",
        "wikidata": "Q5495124",
        "id": "node/475195003"
      },
      "geometry": {
        "type": "Point",
        "coordinates": [
          23.4995587,
          54.7486442
        ]
      }
    },
    {
      "type": "Feature",
      "id": "node/570118106",
      "properties": {
        "esr:user": "120804",
        "name": "Paneriai",
        "name:lt": "Paneriai",
        "name:ru": "Паняряй",
        "public_transport": "station",
        "railway": "station",
        "train": "yes",
        "uic_ref": "2400446",
        "wikidata": "Q15682274",
        "wikipedia": "lt:Panerių geležinkelio stotis",
        "id": "node/570118106"
      },
      "geometry": {
        "type": "Point",
        "coordinates": [
          25.1770706,
          54.6297181
        ]
      }
    },
    {
      "type": "Feature",
      "id": "node/582535727",
      "properties": {
        "esr:user": "121614",
        "name": "Zervynos",
        "name:lt": "Zervynos",
        "name:ru": "Зярвинос",
        "public_transport": "station",
        "railway": "halt",
        "train": "yes",
        "uic_ref": "2401425",
        "wikidata": "Q56338574",
        "id": "node/582535727"
      },
      "geometry": {
        "type": "Point",
        "coordinates": [
          24.4876797,
          54.1097081
        ]
      }
    },
    {
      "type": "Feature",
      "id": "node/748187296",
      "properties": {
        "esr:user": "120931",
        "name": "Rykantai",
        "name:lt": "Rykantai",
        "name:ru": "Рикантай",
        "public_transport": "station",
        "railway": "halt",
        "train": "yes",
        "uic_ref": "2400006",
        "wikidata": "Q108607337",
        "id": "node/748187296"
      },
      "geometry": {
        "type": "Point",
        "coordinates": [
          24.9829879,
          54.7166746
        ]
      }
    },
    {
      "type": "Feature",
      "id": "node/1071177772",
      "properties": {
        "esr:user": "124025",
        "name": "Vinčai",
        "name:lt": "Vinčai",
        "name:ru": "Винчяй",
        "public_transport": "station",
        "railway": "station",
        "train": "yes",
        "uic_ref": "2400063",
        "wikidata": "Q12677737",
        "id": "node/1071177772"
      },
      "geometry": {
        "type": "Point",
        "coordinates": [
          23.4416565,
          54.6736526
        ]
      }
    },
    {
      "type": "Feature",
      "id": "node/1087025439",
      "properties": {
        "esr:user": "122424",
        "name": "Miškiniai",
        "name:lt": "Miškiniai",
        "name:ru": "Мишкиняй",
        "public_transport": "station",
        "railway": "halt",
        "train": "yes",
        "uic_ref": "2401417",
        "wikidata": "Q60860768",
        "id": "node/1087025439"
      },
      "geometry": {
        "type": "Point",
        "coordinates": [
          24.9421822,
          54.5956935
        ]
      }
    },
    {
      "type": "Feature",
      "id": "node/1271048840",
      "properties": {
        "esr:user": "122418",
        "name": "Šklėriai",
        "name:lt": "Šklėriai",
        "name:ru": "Шклеряй",
        "public_transport": "station",
        "railway": "halt",
        "train": "yes",
        "uic_ref": "2401418",
        "wikidata": "Q60860146",
        "id": "node/1271048840"
      },
      "geometry": {
        "type": "Point",
        "coordinates": [
          24.8793836,
          54.5626049
        ]
      }
    },
    {
      "type": "Feature",
      "id": "node/1271048841",
      "properties": {
        "esr:user": "122212",
        "name": "Pamerkiai",
        "name:lt": "Pamerkiai",
        "name:ru": "Памяркяй",
        "public_transport": "station",
        "railway": "halt",
        "train": "yes",
        "uic_ref": "2401423",
        "wikidata": "Q60856392",
        "id": "node/1271048841"
      },
      "geometry": {
        "type": "Point",
        "coordinates": [
          24.7066049,
          54.314009
        ]
      }
    },
    {
      "type": "Feature",
      "id": "node/1271048842",
      "properties": {
        "esr:user": "122405",
        "name": "Rūdiškės",
        "name:lt": "Rūdiškės",
        "name:ru": "Рудишкес",
        "public_transport": "station",
        "railway": "station",
        "train": "yes",
        "uic_ref": "2401419",
        "wikidata": "Q31198796",
        "id": "node/1271048842"
      },
      "geometry": {
        "type": "Point",
        "coordinates": [
          24.8319447,
          54.5168531
        ]
      }
    },
    {
      "type": "Feature",
      "id": "node/1271048844",
      "properties": {
        "esr:user": "122320",
        "name": "Klepočiai",
        "name:lt": "Klepočiai",
        "name:ru": "Кляпочяй",
        "public_transport": "station",
        "railway": "halt",
        "train": "yes",
        "uic_ref": "2401420",
        "wikidata": "Q60860143",
        "id": "node/1271048844"
      },
      "geometry": {
        "type": "Point",
        "coordinates": [
          24.7786492,
          54.4508766
        ]
      }
    },
    {
      "type": "Feature",
      "id": "node/1291469621",
      "properties": {
        "esr:user": "124010",
        "name": "Būdviečiai",
        "name:lt": "Būdviečiai",
        "name:ru": "Будвечяй",
        "public_transport": "station",
        "railway": "halt",
        "train": "yes",
        "uic_ref": "2400030",
        "wikidata": "Q108652091",
        "id": "node/1291469621"
      },
      "geometry": {
        "type": "Point",
        "coordinates": [
          23.4135175,
          54.6150095
        ]
      }
    },
    {
      "type": "Feature",
      "id": "node/1291469622",
      "properties": {
        "esr:user": "123200",
        "name": "Mauručiai",
        "name:lt": "Mauručiai",
        "name:ru": "Мауручяй",
        "public_transport": "station",
        "railway": "station",
        "train": "yes",
        "uic_ref": "2400362",
        "wikidata": "Q16464144",
        "id": "node/1291469622"
      },
      "geometry": {
        "type": "Point",
        "coordinates": [
          23.7675476,
          54.7817022
        ]
      }
    },
    {
      "type": "Feature",
      "id": "node/1370770391",
      "properties": {
        "esr:user": "125704",
        "name": "Šiauliai",
        "name:lt": "Šiauliai",
        "name:ru": "Шяуляй",
        "public_transport": "station",
        "railway": "station",
        "train": "yes",
        "uic_ref": "2400420",
        "wikidata": "Q801693",
        "id": "node/1370770391"
      },
      "geometry": {
        "type": "Point",
        "coordinates": [
          23.3139116,
          55.9230702
        ]
      }
    },
    {
      "type": "Feature",
      "id": "node/1463020574",
      "properties": {
        "esr:user": "128469",
        "name": "Pavilnys",
        "name:be": "Павільніс",
        "name:lt": "Pavilnys",
        "name:ru": "Павильнис",
        "public_transport": "station",
        "railway": "station",
        "train": "yes",
        "uic_ref": "2401431",
        "wikidata": "Q15782402",
        "id": "node/1463020574"
      },
      "geometry": {
        "type": "Point",
        "coordinates": [
          25.3547743,
          54.6785486
        ]
      }
    },
    {
      "type": "Feature",
      "id": "node/1508359158",
      "properties": {
        "esr:user": "122918",
        "name": "Karčiupis",
        "name:lt": "Karčiupis",
        "name:ru": "Карчюпис",
        "public_transport": "station",
        "railway": "halt",
        "train": "yes",
        "uic_ref": "2400060",
        "wikidata": "Q16455505",
        "id": "node/1508359158"
      },
      "geometry": {
        "type": "Point",
        "coordinates": [
          24.1459671,
          54.9159216
        ]
      }
    },
    {
      "type": "Feature",
      "id": "node/1562292763",
      "properties": {
        "esr:user": "125121",
        "name": "Gudžiūnai",
        "name:lt": "Gudžiūnai",
        "name:ru": "Гуджюнай",
        "public_transport": "station",
        "railway": "station",
        "train": "yes",
        "uic_ref": "2400380",
        "id": "node/1562292763"
      },
      "geometry": {
        "type": "Point",
        "coordinates": [
          23.791114,
          55.5248817
        ]
      }
    },
    {
      "type": "Feature",
      "id": "node/1637232348",
      "properties": {
        "name": "Akmenė",
        "public_transport": "station",
        "railway": "station",
        "train": "yes",
        "id": "node/1637232348"
      },
      "geometry": {
        "type": "Point",
        "coordinates": [
          22.6957153,
          56.1957948
        ]
      }
    },
    {
      "type": "Feature",
      "id": "node/1659033632",
      "properties": {
        "name": "Zokniai",
        "name:lt": "Zokniai",
        "name:ru": "Зокняй",
        "public_transport": "station",
        "railway": "station",
        "train": "yes",
        "wikidata": "Q108653591",
        "id": "node/1659033632"
      },
      "geometry": {
        "type": "Point",
        "coordinates": [
          23.3639068,
          55.9003005
        ]
      }
    },
    {
      "type": "Feature",
      "id": "node/1915632941",
      "properties": {
        "name": "Pakruojis",
        "public_transport": "station",
        "railway": "yard",
        "train": "yes",
        "id": "node/1915632941"
      },
      "geometry": {
        "type": "Point",
        "coordinates": [
          23.8311936,
          55.9661574
        ]
      }
    },
    {
      "type": "Feature",
      "id": "node/2179585558",
      "properties": {
        "name": "Baltamiškis",
        "public_transport": "station",
        "railway": "halt",
        "train": "yes",
        "uic_ref": "2400007",
        "wikidata": "Q108603138",
        "id": "node/2179585558"
      },
      "geometry": {
        "type": "Point",
        "coordinates": [
          24.8810157,
          54.7620514
        ]
      }
    },
    {
      "type": "Feature",
      "id": "node/2225646507",
      "properties": {
        "esr:user": "106703",
        "name": "Tauragė",
        "public_transport": "station",
        "railway": "yard",
        "train": "yes",
        "uic_ref": "2401333",
        "id": "node/2225646507"
      },
      "geometry": {
        "type": "Point",
        "coordinates": [
          22.2853475,
          55.2376804
        ]
      }
    },
    {
      "type": "Feature",
      "id": "node/3161707936",
      "properties": {
        "esr:user": "124307",
        "name": "Kybartai",
        "name:de": "Kybartai",
        "name:lt": "Kybartai",
        "name:ru": "Кибартай",
        "old_name:de": "Wirballen",
        "public_transport": "station",
        "railway": "station",
        "train": "yes",
        "uic_ref": "2400433",
        "wikidata": "Q801041",
        "id": "node/3161707936"
      },
      "geometry": {
        "type": "Point",
        "coordinates": [
          22.7593479,
          54.6411488
        ]
      }
    },
    {
      "type": "Feature",
      "id": "node/3161710379",
      "properties": {
        "esr:user": "123126",
        "name": "Garliava",
        "name:lt": "Garliava",
        "name:ru": "Гарлява",
        "public_transport": "station",
        "railway": "halt",
        "train": "yes",
        "uic_ref": "2400004",
        "wikidata": "Q16451087",
        "id": "node/3161710379"
      },
      "geometry": {
        "type": "Point",
        "coordinates": [
          23.9048365,
          54.8117719
        ]
      }
    },
    {
      "type": "Feature",
      "id": "node/3161768151",
      "properties": {
        "esr:user": "107424",
        "name": "Tarvainiai",
        "name:lt": "Tarvainiai",
        "name:ru": "Тарвайняй",
        "public_transport": "station",
        "railway": "station",
        "train": "yes",
        "uic_ref": "2401391",
        "wikidata": "Q108551706",
        "id": "node/3161768151"
      },
      "geometry": {
        "type": "Point",
        "coordinates": [
          21.970696,
          55.9465842
        ]
      }
    },
    {
      "type": "Feature",
      "id": "node/3161769932",
      "properties": {
        "esr:user": "107617",
        "name": "Šateikiai",
        "name:lt": "Šateikiai",
        "name:ru": "Шатейкяй",
        "public_transport": "station",
        "railway": "station",
        "train": "yes",
        "uic_ref": "2401392",
        "wikidata": "Q108551616",
        "id": "node/3161769932"
      },
      "geometry": {
        "type": "Point",
        "coordinates": [
          21.6471046,
          55.9605822
        ]
      }
    },
    {
      "type": "Feature",
      "id": "node/3200258905",
      "properties": {
        "esr:user": "122803",
        "name": "Kaišiadorys",
        "name:lt": "Kaišiadorys",
        "name:ru": "Кайшядорис",
        "public_transport": "station",
        "railway": "station",
        "train": "yes",
        "uic_ref": "2400416",
        "wheelchair": "no",
        "wikidata": "Q800976",
        "id": "node/3200258905"
      },
      "geometry": {
        "type": "Point",
        "coordinates": [
          24.4607189,
          54.8632112
        ]
      }
    },
    {
      "type": "Feature",
      "id": "node/3805448718",
      "properties": {
        "name": "Dotnuva",
        "public_transport": "station",
        "railway": "station",
        "train": "yes",
        "id": "node/3805448718"
      },
      "geometry": {
        "type": "Point",
        "coordinates": [
          23.873211,
          55.403631
        ]
      }
    },
    {
      "type": "Feature",
      "id": "node/3805448866",
      "properties": {
        "name": "Tryškiai",
        "public_transport": "station",
        "railway": "station",
        "train": "yes",
        "wikidata": "Q108552379",
        "id": "node/3805448866"
      },
      "geometry": {
        "type": "Point",
        "coordinates": [
          22.5874585,
          55.9914041
        ]
      }
    },
    {
      "type": "Feature",
      "id": "node/5779632435",
      "properties": {
        "esr:user": "123802",
        "name": "Šeštokai",
        "name:de": "Schestoken",
        "name:lt": "Šeštokai",
        "name:pl": "Szostaków",
        "name:ru": "Шяштокай",
        "public_transport": "station",
        "railway": "station",
        "train": "yes",
        "uic_ref": "24123802",
        "wikidata": "Q15782145",
        "id": "node/5779632435"
      },
      "geometry": {
        "type": "Point",
        "coordinates": [
          23.4440652,
          54.3609278
        ]
      }
    },
    {
      "type": "Feature",
      "id": "node/6629286841",
      "properties": {
        "esr:user": "123107",
        "name": "Kaunas",
        "name:de": "Kaunas",
        "name:lt": "Kaunas",
        "name:pl": "Kowno",
        "name:ru": "Каунас",
        "public_transport": "station",
        "railway": "station",
        "train": "yes",
        "uic_ref": "2400440",
        "wheelchair": "limited",
        "wikidata": "Q800994",
        "wikipedia": "lt:Kauno geležinkelio stotis",
        "id": "node/6629286841"
      },
      "geometry": {
        "type": "Point",
        "coordinates": [
          23.9317431,
          54.886228
        ]
      }
    },
    {
      "type": "Feature",
      "id": "node/6638679732",
      "properties": {
        "name": "Bajorai",
        "public_transport": "station",
        "railway": "halt",
        "train": "yes",
        "id": "node/6638679732"
      },
      "geometry": {
        "type": "Point",
        "coordinates": [
          21.222024,
          55.8713894
        ]
      }
    },
    {
      "type": "Feature",
      "id": "node/6700062512",
      "properties": {
        "esr:user": "122710",
        "name": "Kaugonys",
        "name:lt": "Kaugonys",
        "name:ru": "Каугонис",
        "public_transport": "station",
        "railway": "halt",
        "train": "yes",
        "uic_ref": "2400008",
        "wikidata": "Q108603164",
        "id": "node/6700062512"
      },
      "geometry": {
        "type": "Point",
        "coordinates": [
          24.7130169,
          54.8150169
        ]
      }
    },
    {
      "type": "Feature",
      "id": "node/7526817630",
      "properties": {
        "addr:city": "Tauragė",
        "addr:contact": "yes",
        "addr:housenumber": "4",
        "addr:postcode": "72301",
        "addr:street": "Tremtinių kel.",
        "name": "Tauragės Geležinkelio stotis",
        "operator": "Lietuvos Geležinkeliai",
        "public_transport": "station",
        "railway": "station",
        "train": "yes",
        "id": "node/7526817630"
      },
      "geometry": {
        "type": "Point",
        "coordinates": [
          22.2851061,
          55.2377675
        ]
      }
    },
    {
      "type": "Feature",
      "id": "node/8570339670",
      "properties": {
        "name": "Viduklė",
        "public_transport": "station",
        "railway": "station",
        "train": "yes",
        "id": "node/8570339670"
      },
      "geometry": {
        "type": "Point",
        "coordinates": [
          22.846584,
          55.4145709
        ]
      }
    },
    {
      "type": "Feature",
      "id": "node/8570348681",
      "properties": {
        "name": "Tytuvėnai",
        "public_transport": "station",
        "railway": "station",
        "train": "yes",
        "wikidata": "Q108663414",
        "id": "node/8570348681"
      },
      "geometry": {
        "type": "Point",
        "coordinates": [
          23.155831,
          55.5967259
        ]
      }
    },
    {
      "type": "Feature",
      "id": "node/8570395076",
      "properties": {
        "name": "Jonaitiškiai",
        "public_transport": "station",
        "railway": "station",
        "train": "yes",
        "wikidata": "Q108662663",
        "id": "node/8570395076"
      },
      "geometry": {
        "type": "Point",
        "coordinates": [
          23.4103556,
          55.8163481
        ]
      }
    },
    {
      "type": "Feature",
      "id": "node/8581743982",
      "properties": {
        "name": "Lukšiai",
        "public_transport": "station",
        "railway": "station",
        "train": "yes",
        "id": "node/8581743982"
      },
      "geometry": {
        "type": "Point",
        "coordinates": [
          24.0846906,
          55.2211613
        ]
      }
    },
    {
      "type": "Feature",
      "id": "node/9094092055",
      "properties": {
        "name": "Plungė",
        "name:ay": "Pluñhi",
        "name:bat-smg": "Plongė",
        "name:be": "Плунге",
        "name:bg": "Плунге",
        "name:de": "Plungen",
        "name:fa": "پلونگه",
        "name:he": "פלונגה",
        "name:ja": "プルンゲ",
        "name:ka": "პლუნგე",
        "name:ko": "플룽게",
        "name:lt": "Plungė",
        "name:lv": "Pluņģe",
        "name:pl": "Płungiany",
        "name:ru": "Плунге",
        "name:sr": "Плунге",
        "name:uk": "Плунге",
        "name:zh": "普倫蓋",
        "public_transport": "station",
        "railway": "station",
        "train": "yes",
        "id": "node/9094092055"
      },
      "geometry": {
        "type": "Point",
        "coordinates": [
          21.8521084,
          55.9193031
        ]
      }
    },
    {
      "type": "Feature",
      "id": "node/9094118521",
      "properties": {
        "name": "Giruliai",
        "public_transport": "station",
        "railway": "station",
        "train": "yes",
        "wikidata": "Q108552128",
        "id": "node/9094118521"
      },
      "geometry": {
        "type": "Point",
        "coordinates": [
          21.0953542,
          55.7691484
        ]
      }
    }
  ]
}