{
  "type": "FeatureCollection",
  "features": [
    {
      "type": "Feature",
      "id": "node/25923526",
      "properties": {
        "elevator": "yes",
        "name": "Noertzange",
        "operator": "CFL",
        "public_transport": "station",
        "railway": "station",
        "railway:ref:DB": "XLNZ",
        "train": "yes",
        "uic_ref": "8270800",
        "wheelchair": "yes",
        "wikidata": "Q2455195",
        "id": "node/25923526"
      },
      "geometry": {
        "type": "Point",
        "coordinates": [
          6.050847,
          49.5080338
        ]
      }
    },
    {
      "type": "Feature",
      "id": "node/269302083",
      "properties": {
        "name": "Kayl",
        "operator": "CFL",
        "public_transport": "station",
        "railway": "station",
        "railway:ref:DB": "XLKA",
        "train": "yes",
        "uic_ref": "8270640",
        "wikidata": "Q2600448",
        "id": "node/269302083"
      },
      "geometry": {
        "type": "Point",
        "coordinates": [
          6.0352682,
          49.4857693
        ]
      }
    },
    {
      "type": "Feature",
      "id": "node/704409331",
      "properties": {
        "name": "Rodange",
        "name:de": "Rodingen",
        "name:lb": "Réiden op der Kor",
        "operator": "CFL",
        "public_transport": "station",
        "railway": "station",
        "railway:ref:DB": "XLRD",
        "train": "yes",
        "uic_ref": "8200940",
        "wikidata": "Q2805202",
        "id": "node/704409331"
      },
      "geometry": {
        "type": "Point",
        "coordinates": [
          5.8434508,
          49.5511235
        ]
      }
    },
    {
      "type": "Feature",
      "id": "node/3720303904",
      "properties": {
        "name": "Wecker",
        "operator": "CFL",
        "public_transport": "station",
        "railway": "station",
        "railway:ref:DB": "XLWK",
        "train": "yes",
        "uic_ref": "8271080",
        "wikidata": "Q2260012",
        "id": "node/3720303904"
      },
      "geometry": {
        "type": "Point",
        "coordinates": [
          6.3875875,
          49.700068
        ]
      }
    },
    {
      "type": "Feature",
      "id": "node/3733361647",
      "properties": {
        "name": "Dudelange-Usines",
        "operator": "CFL",
        "public_transport": "station",
        "railway": "station",
        "railway:ref:DB": "XLDU",
        "train": "yes",
        "uic_ref": "8270370",
        "wikidata": "Q1899959",
        "wikipedia": "lb:Gare Diddeleng-Schmelz",
        "id": "node/3733361647"
      },
      "geometry": {
        "type": "Point",
        "coordinates": [
          6.0793791,
          49.4726946
        ]
      }
    },
    {
      "type": "Feature",
      "id": "node/3733361648",
      "properties": {
        "name": "Dudelange-Centre",
        "name:de": "Düdelingen-Zentrum",
        "operator": "CFL",
        "public_transport": "station",
        "railway": "halt",
        "railway:ref:DB": "XLDC",
        "train": "yes",
        "uic_ref": "8200003",
        "wikidata": "Q2134921",
        "id": "node/3733361648"
      },
      "geometry": {
        "type": "Point",
        "coordinates": [
          6.0821383,
          49.4786928
        ]
      }
    },
    {
      "type": "Feature",
      "id": "node/4490714231",
      "properties": {
        "building": "train_station",
        "name": "Fond-de-Gras",
        "name:de": "Fond-de-Gras Bahnhof",
        "name:en": "Fond-de-Gras Railway Station",
        "operator": "AMTF",
        "public_transport": "station",
        "railway": "station",
        "train": "yes",
        "id": "node/4490714231"
      },
      "geometry": {
        "type": "Point",
        "coordinates": [
          5.8576847,
          49.534911
        ]
      }
    },
    {
      "type": "Feature",
      "id": "node/7840298315",
      "properties": {
        "name": "Esch-sur-Alzettte",
        "name:de": "Esch-sur-Alzette",
        "name:fr": "Esch-sur-Alzette",
        "name:it": "Ešas prie Alzeto",
        "name:lb": "Esch-Uelzecht",
        "name:ru": "Эш-сюр-Альзетт",
        "operator": "CFL",
        "public_transport": "station",
        "railway": "station",
        "railway:ref:DB": "XLEA",
        "train": "yes",
        "uic_ref": "8200640",
        "wheelchair": "yes",
        "id": "node/7840298315"
      },
      "geometry": {
        "type": "Point",
        "coordinates": [
          5.9850823,
          49.493909
        ]
      }
    }
  ]
}