{
  "type": "FeatureCollection",
  "features": [
    {
      "type": "Feature",
      "id": "node/26842969",
      "properties": {
        "name": "Ziemeļblāzma",
        "public_transport": "stop_position",
        "railway": "stop",
        "train": "yes",
        "id": "node/26842969"
      },
      "geometry": {
        "type": "Point",
        "coordinates": [
          24.114864,
          57.0359061
        ]
      }
    },
    {
      "type": "Feature",
      "id": "node/26890152",
      "properties": {
        "esr:user": "094135",
        "name": "Saulkalne",
        "name:lv": "Saulkalne",
        "name:ru": "Саулкалне",
        "public_transport": "station",
        "railway": "halt",
        "train": "yes",
        "uic_ref": "2500735",
        "wikidata": "Q15792532",
        "id": "node/26890152"
      },
      "geometry": {
        "type": "Point",
        "coordinates": [
          24.4358742,
          56.8495096
        ]
      }
    },
    {
      "type": "Feature",
      "id": "node/27132663",
      "properties": {
        "name": "Alotene",
        "public_transport": "station",
        "railway": "halt",
        "train": "yes",
        "uic_ref": "2500100",
        "wikidata": "Q15218528",
        "id": "node/27132663"
      },
      "geometry": {
        "type": "Point",
        "coordinates": [
          25.5850916,
          56.6331407
        ]
      }
    },
    {
      "type": "Feature",
      "id": "node/33326581",
      "properties": {
        "esr:user": "091118",
        "name": "Jaunolaine",
        "name:lv": "Jaunolaine",
        "name:ru": "Яунолайне",
        "public_transport": "station",
        "railway": "halt",
        "train": "yes",
        "uic_ref": "2500270",
        "id": "node/33326581"
      },
      "geometry": {
        "type": "Point",
        "coordinates": [
          23.9844623,
          56.8064878
        ]
      }
    },
    {
      "type": "Feature",
      "id": "node/34032910",
      "properties": {
        "esr:user": "095119",
        "name": "Sigulda",
        "name:de": "Segewold",
        "name:he": "סיגולדה",
        "name:ja": "スィグルダ",
        "name:ka": "სიგულდა",
        "name:ko": "시굴다",
        "name:lt": "Sigulda",
        "name:lv": "Sigulda",
        "name:ru": "Сигулда",
        "name:uk": "Сігулда",
        "name:zh": "錫古爾達",
        "public_transport": "station",
        "railway": "station",
        "train": "yes",
        "uic_ref": "2500346",
        "wheelchair": "yes",
        "wikidata": "Q4418683",
        "id": "node/34032910"
      },
      "geometry": {
        "type": "Point",
        "coordinates": [
          24.8555149,
          57.1531642
        ]
      }
    },
    {
      "type": "Feature",
      "id": "node/59769284",
      "properties": {
        "esr:user": "094559",
        "name": "Augšciems",
        "name:lv": "Augšciems",
        "name:ru": "Аугшциемс",
        "railway": "halt",
        "uic_ref": "2500697",
        "id": "node/59769284"
      },
      "geometry": {
        "type": "Point",
        "coordinates": [
          24.7859898,
          56.9485742
        ]
      }
    },
    {
      "type": "Feature",
      "id": "node/59834456",
      "properties": {
        "esr:user": "092801",
        "name": "Glūda",
        "name:lv": "Glūda",
        "name:ru": "Глуда",
        "railway": "station",
        "uic_ref": "2500275",
        "wikidata": "Q5573710",
        "id": "node/59834456"
      },
      "geometry": {
        "type": "Point",
        "coordinates": [
          23.4949129,
          56.5995153
        ]
      }
    },
    {
      "type": "Feature",
      "id": "node/60660175",
      "properties": {
        "esr:user": "095104",
        "name": "Līgatne",
        "name:lt": "Lygatnė",
        "name:lv": "Līgatne",
        "name:ru": "Лигатне",
        "public_transport": "station",
        "railway": "station",
        "train": "yes",
        "uic_ref": "2500170",
        "wheelchair": "no",
        "id": "node/60660175"
      },
      "geometry": {
        "type": "Point",
        "coordinates": [
          25.0239619,
          57.1842749
        ]
      }
    },
    {
      "type": "Feature",
      "id": "node/60660250",
      "properties": {
        "esr:user": "111107",
        "name": "Lode",
        "name:lv": "Lode",
        "name:ru": "Лоде",
        "public_transport": "station",
        "railway": "station",
        "uic_ref": "2500173",
        "id": "node/60660250"
      },
      "geometry": {
        "type": "Point",
        "coordinates": [
          25.4143294,
          57.3882564
        ]
      }
    },
    {
      "type": "Feature",
      "id": "node/60660342",
      "properties": {
        "esr:user": "095208",
        "name": "Inčukalns",
        "name:de": "Hinzenberg",
        "name:lv": "Inčukalns",
        "name:ru": "Инчукалнс",
        "public_transport": "station",
        "railway": "station",
        "train": "yes",
        "uic_ref": "2500347",
        "wikidata": "Q7263449",
        "id": "node/60660342"
      },
      "geometry": {
        "type": "Point",
        "coordinates": [
          24.68654,
          57.096265
        ]
      }
    },
    {
      "type": "Feature",
      "id": "node/60660344",
      "properties": {
        "esr:user": "095405",
        "name": "Krievupe",
        "name:lv": "Krievupe",
        "name:ru": "Криевупе",
        "public_transport": "station",
        "railway": "station",
        "train": "yes",
        "uic_ref": "2500167",
        "id": "node/60660344"
      },
      "geometry": {
        "type": "Point",
        "coordinates": [
          24.508867,
          57.0645733
        ]
      }
    },
    {
      "type": "Feature",
      "id": "node/60660345",
      "properties": {
        "esr:user": "095509",
        "name": "Garkalne",
        "name:lv": "Garkalne",
        "name:ru": "Гаркалне",
        "note": "Ropaži renamed to Garkalne",
        "old_name": "Ropaži",
        "public_transport": "station",
        "railway": "station",
        "train": "yes",
        "uic_ref": "2500166",
        "wikidata": "Q4133772",
        "id": "node/60660345"
      },
      "geometry": {
        "type": "Point",
        "coordinates": [
          24.4144193,
          57.0468866
        ]
      }
    },
    {
      "type": "Feature",
      "id": "node/60679244",
      "properties": {
        "esr:user": "093202",
        "name": "Brocēni",
        "name:de": "Berghof",
        "name:lt": "Bruocėnai",
        "name:lv": "Brocēni",
        "name:ru": "Броцены",
        "public_transport": "station",
        "railway": "station",
        "uic_ref": "2500453",
        "wikidata": "Q4972924",
        "wikipedia": "lv:Brocēni (stacija)",
        "id": "node/60679244"
      },
      "geometry": {
        "type": "Point",
        "coordinates": [
          22.5703344,
          56.6930915
        ]
      }
    },
    {
      "type": "Feature",
      "id": "node/60679278",
      "properties": {
        "esr:user": "097523",
        "name": "Pūre",
        "name:lv": "Pūre",
        "name:ru": "Пуре",
        "public_transport": "station",
        "railway": "station",
        "uic_ref": "2500258",
        "wikidata": "Q7265232",
        "id": "node/60679278"
      },
      "geometry": {
        "type": "Point",
        "coordinates": [
          22.895926,
          57.0623734
        ]
      }
    },
    {
      "type": "Feature",
      "id": "node/60679281",
      "properties": {
        "esr:user": "097805",
        "name": "Kandava",
        "name:lt": "Kandava",
        "name:lv": "Kandava",
        "name:ru": "Кандава",
        "public_transport": "station",
        "railway": "station",
        "uic_ref": "2500259",
        "wikidata": "Q6361344",
        "id": "node/60679281"
      },
      "geometry": {
        "type": "Point",
        "coordinates": [
          22.821207,
          57.0830655
        ]
      }
    },
    {
      "type": "Feature",
      "id": "node/60679285",
      "properties": {
        "esr:user": "097909",
        "name": "Sabile",
        "name:lt": "Sabilė",
        "name:lv": "Sabile",
        "name:ru": "Сабиле",
        "railway": "station",
        "uic_ref": "2500261",
        "id": "node/60679285"
      },
      "geometry": {
        "type": "Point",
        "coordinates": [
          22.6518553,
          57.1314915
        ]
      }
    },
    {
      "type": "Feature",
      "id": "node/60679289",
      "properties": {
        "esr:user": "098009",
        "name": "Stende",
        "name:de": "Stenden",
        "name:lt": "Stendė",
        "name:lv": "Stende",
        "name:ru": "Стенде",
        "railway": "station",
        "uic_ref": "2500463",
        "wikidata": "Q7607513",
        "wikipedia": "en:Stende Station",
        "id": "node/60679289"
      },
      "geometry": {
        "type": "Point",
        "coordinates": [
          22.538545,
          57.1436556
        ]
      }
    },
    {
      "type": "Feature",
      "id": "node/60679295",
      "properties": {
        "esr:user": "098013",
        "name": "Līči",
        "name:lv": "Līči",
        "name:ru": "Личи",
        "public_transport": "station",
        "railway": "station",
        "uic_ref": "2500262",
        "wikidata": "Q15219318",
        "id": "node/60679295"
      },
      "geometry": {
        "type": "Point",
        "coordinates": [
          22.4200404,
          57.1786125
        ]
      }
    },
    {
      "type": "Feature",
      "id": "node/60679336",
      "properties": {
        "esr:user": "098032",
        "name": "Usma",
        "name:lv": "Usma",
        "name:ru": "Усма",
        "railway": "station",
        "uic_ref": "2500264",
        "wikidata": "Q7902035",
        "id": "node/60679336"
      },
      "geometry": {
        "type": "Point",
        "coordinates": [
          22.1705452,
          57.250235
        ]
      }
    },
    {
      "type": "Feature",
      "id": "node/60679362",
      "properties": {
        "esr:user": "098102",
        "name": "Ugāle",
        "name:lv": "Ugāle",
        "name:ru": "Угале",
        "railway": "station",
        "uic_ref": "2500265",
        "wikidata": "Q7877954",
        "id": "node/60679362"
      },
      "geometry": {
        "type": "Point",
        "coordinates": [
          22.0123895,
          57.2819829
        ]
      }
    },
    {
      "type": "Feature",
      "id": "node/60683721",
      "properties": {
        "esr:user": "094402",
        "name": "Saurieši",
        "name:lv": "Saurieši",
        "name:ru": "Сауриеши",
        "public_transport": "station",
        "railway": "station",
        "uic_ref": "2500019",
        "wikidata": "Q15219726",
        "id": "node/60683721"
      },
      "geometry": {
        "type": "Point",
        "coordinates": [
          24.3620015,
          56.9170668
        ]
      }
    },
    {
      "type": "Feature",
      "id": "node/60684780",
      "properties": {
        "name": "Mārciena",
        "public_transport": "stop_position",
        "railway": "stop",
        "train": "yes",
        "uic_ref": "2500149",
        "id": "node/60684780"
      },
      "geometry": {
        "type": "Point",
        "coordinates": [
          26.0970285,
          56.771668
        ]
      }
    },
    {
      "type": "Feature",
      "id": "node/61846939",
      "properties": {
        "esr:user": "097646",
        "name": "Livberze",
        "name:lv": "Līvbērze",
        "name:ru": "Ливберзе",
        "railway": "station",
        "uic_ref": "2500113",
        "wikidata": "Q13645460",
        "id": "node/61846939"
      },
      "geometry": {
        "type": "Point",
        "coordinates": [
          23.4632631,
          56.7027427
        ]
      }
    },
    {
      "type": "Feature",
      "id": "node/180285876",
      "properties": {
        "name": "Gulbene",
        "name:de": "Schwanenburg",
        "name:lt": "Gulbenė",
        "name:ru": "Гулбене",
        "public_transport": "station",
        "railway": "station",
        "uic_ref": "2500348",
        "wikidata": "Q11243981",
        "id": "node/180285876"
      },
      "geometry": {
        "type": "Point",
        "coordinates": [
          26.7659153,
          57.1830868
        ]
      }
    },
    {
      "type": "Feature",
      "id": "node/180289941",
      "properties": {
        "name": "Birze",
        "public_transport": "stop_position",
        "railway": "halt",
        "train": "yes",
        "id": "node/180289941"
      },
      "geometry": {
        "type": "Point",
        "coordinates": [
          26.8018049,
          57.2022956
        ]
      }
    },
    {
      "type": "Feature",
      "id": "node/180302702",
      "properties": {
        "name": "Vējiņi",
        "public_transport": "stop_position",
        "railway": "halt",
        "train": "yes",
        "uic_ref": "2500328",
        "id": "node/180302702"
      },
      "geometry": {
        "type": "Point",
        "coordinates": [
          27.0313555,
          57.3590757
        ]
      }
    },
    {
      "type": "Feature",
      "id": "node/180317187",
      "properties": {
        "name": "Galgauska",
        "name:ru": "Галгауска",
        "railway": "halt",
        "uic_ref": "2500253",
        "id": "node/180317187"
      },
      "geometry": {
        "type": "Point",
        "coordinates": [
          26.5549975,
          57.1746195
        ]
      }
    },
    {
      "type": "Feature",
      "id": "node/185614111",
      "properties": {
        "name": "Krāslava",
        "name:de": "Kraslau",
        "name:lt": "Kraslava",
        "name:ru": "Краслава",
        "railway": "station",
        "uic_ref": "2500376",
        "id": "node/185614111"
      },
      "geometry": {
        "type": "Point",
        "coordinates": [
          27.1455632,
          55.9253312
        ]
      }
    },
    {
      "type": "Feature",
      "id": "node/194292068",
      "properties": {
        "name": "Indra",
        "name:ru": "Индра",
        "railway": "station",
        "uic_ref": "2500373",
        "wikidata": "Q65297719",
        "id": "node/194292068"
      },
      "geometry": {
        "type": "Point",
        "coordinates": [
          27.5412545,
          55.8763825
        ]
      }
    },
    {
      "type": "Feature",
      "id": "node/246519725",
      "properties": {
        "name": "Zolitūde",
        "name:ru": "Золитуде",
        "public_transport": "station",
        "railway": "halt",
        "train": "yes",
        "uic_ref": "2500801",
        "wikidata": "Q2329881",
        "id": "node/246519725"
      },
      "geometry": {
        "type": "Point",
        "coordinates": [
          24.0223682,
          56.9492348
        ]
      }
    },
    {
      "type": "Feature",
      "id": "node/252636397",
      "properties": {
        "alt_name:ru": "Вентспилс-1",
        "esr:user": "098206",
        "name": "Ventspils-1",
        "name:lv": "Ventspils-1",
        "name:ru": "Вентспилс",
        "railway": "station",
        "uic_ref": "2500375",
        "wheelchair": "no",
        "wikidata": "Q7920360",
        "id": "node/252636397"
      },
      "geometry": {
        "type": "Point",
        "coordinates": [
          21.5927986,
          57.3916955
        ]
      }
    },
    {
      "type": "Feature",
      "id": "node/259077739",
      "properties": {
        "name": "Depo",
        "name:ru": "Депо Засулаукс",
        "public_transport": "stop_position",
        "railway": "stop",
        "train": "yes",
        "id": "node/259077739"
      },
      "geometry": {
        "type": "Point",
        "coordinates": [
          24.0407684,
          56.9463063
        ]
      }
    },
    {
      "type": "Feature",
      "id": "node/262272927",
      "properties": {
        "name": "Egļupe",
        "name:ru": "Эгльупе",
        "public_transport": "station",
        "railway": "halt",
        "train": "yes",
        "uic_ref": "2500004",
        "wikidata": "Q4529781",
        "id": "node/262272927"
      },
      "geometry": {
        "type": "Point",
        "coordinates": [
          24.7409638,
          57.1073552
        ]
      }
    },
    {
      "type": "Feature",
      "id": "node/268563799",
      "properties": {
        "name": "Ķīšupe",
        "public_transport": "stop_position",
        "railway": "stop",
        "train": "yes",
        "id": "node/268563799"
      },
      "geometry": {
        "type": "Point",
        "coordinates": [
          24.4331424,
          57.2866542
        ]
      }
    },
    {
      "type": "Feature",
      "id": "node/268563803",
      "properties": {
        "alt_name:de": "Adjamünde",
        "esr:user": "090967",
        "name": "Skulte",
        "name:de": "Adiamünde",
        "name:ru": "Скулте",
        "public_transport": "station",
        "railway": "station",
        "train": "yes",
        "uic_ref": "2500694",
        "wikidata": "Q7537005",
        "id": "node/268563803"
      },
      "geometry": {
        "type": "Point",
        "coordinates": [
          24.462096,
          57.3327626
        ]
      }
    },
    {
      "type": "Feature",
      "id": "node/283359950",
      "properties": {
        "name": "Kārsava",
        "name:lt": "Karsava",
        "name:ru": "Карсава",
        "old_name:ru": "Корсовка",
        "railway": "station",
        "uic_ref": "2500390",
        "id": "node/283359950"
      },
      "geometry": {
        "type": "Point",
        "coordinates": [
          27.6941018,
          56.8155132
        ]
      }
    },
    {
      "type": "Feature",
      "id": "node/289953394",
      "properties": {
        "name": "Atgāzene",
        "name:ru": "Атгазене",
        "public_transport": "station",
        "railway": "halt",
        "train": "yes",
        "uic_ref": "2500840",
        "id": "node/289953394"
      },
      "geometry": {
        "type": "Point",
        "coordinates": [
          24.0797472,
          56.9171541
        ]
      }
    },
    {
      "type": "Feature",
      "id": "node/292129048",
      "properties": {
        "name": "Melturi",
        "public_transport": "stop_position",
        "railway": "stop",
        "train": "yes",
        "uic_ref": "2500467",
        "id": "node/292129048"
      },
      "geometry": {
        "type": "Point",
        "coordinates": [
          25.2344256,
          57.2075616
        ]
      }
    },
    {
      "type": "Feature",
      "id": "node/428850697",
      "properties": {
        "esr:user": "091103",
        "name": "Baloži",
        "name:lv": "Baloži",
        "name:ru": "Баложи",
        "public_transport": "station",
        "railway": "halt",
        "train": "yes",
        "uic_ref": "2500269",
        "wikidata": "Q4852504",
        "id": "node/428850697"
      },
      "geometry": {
        "type": "Point",
        "coordinates": [
          24.0476362,
          56.844383
        ]
      }
    },
    {
      "type": "Feature",
      "id": "node/428937629",
      "properties": {
        "esr:user": "097631",
        "name": "Džūkste",
        "name:lv": "Džūkste",
        "name:ru": "Джуксте",
        "railway": "halt",
        "uic_ref": "2500216",
        "id": "node/428937629"
      },
      "geometry": {
        "type": "Point",
        "coordinates": [
          23.3340858,
          56.8076006
        ]
      }
    },
    {
      "type": "Feature",
      "id": "node/434138830",
      "properties": {
        "esr:user": "093503",
        "name": "Kalvene",
        "name:lv": "Kalvene",
        "name:ru": "Калвене",
        "public_transport": "station",
        "railway": "station",
        "uic_ref": "2500286",
        "wikidata": "Q14400751",
        "id": "node/434138830"
      },
      "geometry": {
        "type": "Point",
        "coordinates": [
          21.6942101,
          56.62112
        ]
      }
    },
    {
      "type": "Feature",
      "id": "node/443688901",
      "properties": {
        "esr:user": "092407",
        "name": "Iecava",
        "name:de": "Eckau",
        "name:lv": "Iecava",
        "name:pl": "Ekawa",
        "name:ru": "Иецава",
        "railway": "station",
        "uic_ref": "2500698",
        "id": "node/443688901"
      },
      "geometry": {
        "type": "Point",
        "coordinates": [
          24.2348401,
          56.6286451
        ]
      }
    },
    {
      "type": "Feature",
      "id": "node/443688911",
      "properties": {
        "esr:user": "092303",
        "name": "Misa",
        "name:lv": "Misa",
        "name:ru": "Миса",
        "public_transport": "station",
        "railway": "station",
        "uic_ref": "2500742",
        "id": "node/443688911"
      },
      "geometry": {
        "type": "Point",
        "coordinates": [
          24.3933524,
          56.5918102
        ]
      }
    },
    {
      "type": "Feature",
      "id": "node/443688930",
      "properties": {
        "esr:user": "092515",
        "name": "Garoza",
        "name:lv": "Garoza",
        "name:ru": "Гароза",
        "public_transport": "station",
        "railway": "station",
        "uic_ref": "2500714",
        "id": "node/443688930"
      },
      "geometry": {
        "type": "Point",
        "coordinates": [
          23.9495761,
          56.6505691
        ]
      }
    },
    {
      "type": "Feature",
      "id": "node/447643520",
      "properties": {
        "esr:user": "090026",
        "name": "Rumbula",
        "name:lv": "Rumbula",
        "name:ru": "Румбула",
        "public_transport": "station",
        "railway": "halt",
        "train": "yes",
        "uic_ref": "2500024",
        "wikidata": "Q15792349",
        "id": "node/447643520"
      },
      "geometry": {
        "type": "Point",
        "coordinates": [
          24.2518884,
          56.8839755
        ]
      }
    },
    {
      "type": "Feature",
      "id": "node/466344712",
      "properties": {
        "esr:user": "091512",
        "name": "Dalbe",
        "name:lv": "Dalbe",
        "name:ru": "Далбе",
        "public_transport": "station",
        "railway": "halt",
        "train": "yes",
        "uic_ref": "2500877",
        "wikidata": "Q5210241",
        "id": "node/466344712"
      },
      "geometry": {
        "type": "Point",
        "coordinates": [
          23.8754708,
          56.7416576
        ]
      }
    },
    {
      "type": "Feature",
      "id": "node/467091568",
      "properties": {
        "esr:user": "096158",
        "name": "Kalngale",
        "name:lv": "Kalngale",
        "name:ru": "Калнгале",
        "public_transport": "station",
        "railway": "halt",
        "start_date": "1933",
        "train": "yes",
        "uic_ref": "2500865",
        "wikidata": "Q2913364",
        "wikipedia": "lv:Kalngale (stacija)",
        "id": "node/467091568"
      },
      "geometry": {
        "type": "Point",
        "coordinates": [
          24.151392,
          57.0859697
        ]
      }
    },
    {
      "type": "Feature",
      "id": "node/467137247",
      "properties": {
        "name": "Aizkraukle",
        "name:de": "Ascheraden",
        "name:lt": "Aizkrauklė",
        "name:lv": "Aizkraukle",
        "name:ru": "Айзкраукле",
        "public_transport": "stop_position",
        "railway": "stop",
        "train": "yes",
        "id": "node/467137247"
      },
      "geometry": {
        "type": "Point",
        "coordinates": [
          25.2744734,
          56.6227331
        ]
      }
    },
    {
      "type": "Feature",
      "id": "node/467137248",
      "properties": {
        "esr:user": "093912",
        "name": "Kaibala",
        "name:lv": "Kaibala",
        "name:ru": "Кайбала",
        "public_transport": "station",
        "railway": "halt",
        "train": "yes",
        "uic_ref": "2500017",
        "wikidata": "Q6347555",
        "id": "node/467137248"
      },
      "geometry": {
        "type": "Point",
        "coordinates": [
          24.8887286,
          56.7031751
        ]
      }
    },
    {
      "type": "Feature",
      "id": "node/467137251",
      "properties": {
        "esr:user": "090030",
        "name": "Dārziņi",
        "name:lv": "Dārziņi",
        "name:ru": "Дарзини",
        "public_transport": "station",
        "railway": "halt",
        "train": "yes",
        "uic_ref": "2500680",
        "wikidata": "Q15792422",
        "id": "node/467137251"
      },
      "geometry": {
        "type": "Point",
        "coordinates": [
          24.2807169,
          56.8701703
        ]
      }
    },
    {
      "type": "Feature",
      "id": "node/467137252",
      "properties": {
        "esr:user": "090011",
        "name": "Gaisma",
        "name:lv": "Gaisma",
        "name:ru": "Гайсма",
        "public_transport": "station",
        "railway": "halt",
        "train": "yes",
        "uic_ref": "2500875",
        "wikidata": "Q5517363",
        "id": "node/467137252"
      },
      "geometry": {
        "type": "Point",
        "coordinates": [
          24.2320485,
          56.8940575
        ]
      }
    },
    {
      "type": "Feature",
      "id": "node/467137257",
      "properties": {
        "esr:user": "095029",
        "name": "Vagonu parks",
        "name:lv": "Vagonu parks",
        "name:ru": "Вагонный парк",
        "public_transport": "station",
        "railway": "halt",
        "train": "yes",
        "uic_ref": "2500925",
        "id": "node/467137257"
      },
      "geometry": {
        "type": "Point",
        "coordinates": [
          24.155184,
          56.9428123
        ]
      }
    },
    {
      "type": "Feature",
      "id": "node/467137258",
      "properties": {
        "esr:user": "094012",
        "name": "Ķegums",
        "name:de": "Keggum",
        "name:lt": "Kegumas",
        "name:lv": "Ķegums",
        "name:ru": "Кегумс",
        "public_transport": "station",
        "railway": "halt",
        "train": "yes",
        "uic_ref": "2500103",
        "wikidata": "Q8080292",
        "id": "node/467137258"
      },
      "geometry": {
        "type": "Point",
        "coordinates": [
          24.725227,
          56.7420497
        ]
      }
    },
    {
      "type": "Feature",
      "id": "node/478939686",
      "properties": {
        "esr:user": "094120",
        "name": "Ikšķile",
        "name:de": "Uexküll",
        "name:fi": "Ykskylä",
        "name:lv": "Ikšķile",
        "name:ru": "Икшкиле",
        "public_transport": "station",
        "railway": "halt",
        "train": "yes",
        "uic_ref": "2501105",
        "id": "node/478939686"
      },
      "geometry": {
        "type": "Point",
        "coordinates": [
          24.5061429,
          56.8395343
        ]
      }
    },
    {
      "type": "Feature",
      "id": "node/480843792",
      "properties": {
        "esr:user": "111006",
        "name": "Valmiera",
        "name:de": "Wolmar",
        "name:lt": "Valmiera",
        "name:lv": "Valmiera",
        "name:ru": "Валмиера",
        "public_transport": "station",
        "railway": "station",
        "train": "yes",
        "uic_ref": "2500343",
        "wheelchair": "yes",
        "wikidata": "Q4102950",
        "id": "node/480843792"
      },
      "geometry": {
        "type": "Point",
        "coordinates": [
          25.4403565,
          57.5219786
        ]
      }
    },
    {
      "type": "Feature",
      "id": "node/482112794",
      "properties": {
        "local_ref": "3",
        "name": "Ogre",
        "public_transport": "stop_position",
        "railway": "stop",
        "source": "Ortofoto 1:10000, 2007 gads, © Latvijas Ģeotelpiskās informācijas aģentūra",
        "train": "yes",
        "id": "node/482112794"
      },
      "geometry": {
        "type": "Point",
        "coordinates": [
          24.6021975,
          56.815819
        ]
      }
    },
    {
      "type": "Feature",
      "id": "node/482112822",
      "properties": {
        "local_ref": "2",
        "name": "Ogre",
        "public_transport": "stop_position",
        "railway": "stop",
        "train": "yes",
        "id": "node/482112822"
      },
      "geometry": {
        "type": "Point",
        "coordinates": [
          24.6018432,
          56.8158482
        ]
      }
    },
    {
      "type": "Feature",
      "id": "node/560887854",
      "properties": {
        "name": "Lubāna",
        "name:lv": "Lubāna",
        "name:ru": "Лубана",
        "railway": "halt",
        "id": "node/560887854"
      },
      "geometry": {
        "type": "Point",
        "coordinates": [
          26.7072465,
          56.9055311
        ]
      }
    },
    {
      "type": "Feature",
      "id": "node/573215794",
      "properties": {
        "esr:user": "091902",
        "name": "Daugava",
        "name:lv": "Daugava",
        "name:ru": "Даугава",
        "railway": "station",
        "uic_ref": "2500901",
        "id": "node/573215794"
      },
      "geometry": {
        "type": "Point",
        "coordinates": [
          25.7194735,
          56.5380233
        ]
      }
    },
    {
      "type": "Feature",
      "id": "node/717658583",
      "properties": {
        "esr:user": "111114",
        "name": "Jāņamuiža",
        "name:lv": "Jāņamuiža",
        "name:ru": "Янямуйжа",
        "public_transport": "station",
        "railway": "station",
        "train": "yes",
        "uic_ref": "2500355",
        "id": "node/717658583"
      },
      "geometry": {
        "type": "Point",
        "coordinates": [
          25.3394989,
          57.3439226
        ]
      }
    },
    {
      "type": "Feature",
      "id": "node/840772245",
      "properties": {
        "esr:user": "099232",
        "name": "Alūksne",
        "name:de": "Marienburg",
        "name:he": "אלוקסנה",
        "name:lt": "Alūksnė",
        "name:lv": "Alūksne",
        "name:ru": "Алуксне",
        "public_transport": "stop_position",
        "railway": "station",
        "uic_ref": "2500061",
        "wikidata": "Q15218539",
        "id": "node/840772245"
      },
      "geometry": {
        "type": "Point",
        "coordinates": [
          27.0453648,
          57.4123249
        ]
      }
    },
    {
      "type": "Feature",
      "id": "node/976576847",
      "properties": {
        "name": "Vagonu parks",
        "public_transport": "stop_position",
        "railway": "stop",
        "train": "yes",
        "id": "node/976576847"
      },
      "geometry": {
        "type": "Point",
        "coordinates": [
          24.1561591,
          56.9442583
        ]
      }
    },
    {
      "type": "Feature",
      "id": "node/976576898",
      "properties": {
        "name": "Vagonu parks",
        "name:ru": "Вагонный парк",
        "public_transport": "station",
        "railway": "halt",
        "id": "node/976576898"
      },
      "geometry": {
        "type": "Point",
        "coordinates": [
          24.1560975,
          56.9442948
        ]
      }
    },
    {
      "type": "Feature",
      "id": "node/1029248351",
      "properties": {
        "name": "Torņakalns",
        "public_transport": "stop_position",
        "railway": "stop",
        "train": "yes",
        "id": "node/1029248351"
      },
      "geometry": {
        "type": "Point",
        "coordinates": [
          24.0896948,
          56.9334049
        ]
      }
    },
    {
      "type": "Feature",
      "id": "node/1097818655",
      "properties": {
        "name": "Ziemeļblāzma",
        "public_transport": "stop_position",
        "railway": "stop",
        "train": "yes",
        "id": "node/1097818655"
      },
      "geometry": {
        "type": "Point",
        "coordinates": [
          24.1147902,
          57.0358441
        ]
      }
    },
    {
      "type": "Feature",
      "id": "node/1288285230",
      "properties": {
        "name": "Paparde",
        "name:ru": "Папарде",
        "public_transport": "stop_position",
        "railway": "halt",
        "train": "yes",
        "uic_ref": "2500326",
        "id": "node/1288285230"
      },
      "geometry": {
        "type": "Point",
        "coordinates": [
          26.9971723,
          57.3070231
        ]
      }
    },
    {
      "type": "Feature",
      "id": "node/1288285670",
      "properties": {
        "name": "Dunduri",
        "name:ru": "Дундури",
        "public_transport": "stop_position",
        "railway": "halt",
        "train": "yes",
        "uic_ref": "2500325",
        "id": "node/1288285670"
      },
      "geometry": {
        "type": "Point",
        "coordinates": [
          26.9759032,
          57.293426
        ]
      }
    },
    {
      "type": "Feature",
      "id": "node/1288285690",
      "properties": {
        "name": "Stāmeriene",
        "name:ru": "Стамиериене",
        "public_transport": "station",
        "railway": "halt",
        "train": "yes",
        "uic_ref": "2500323",
        "id": "node/1288285690"
      },
      "geometry": {
        "type": "Point",
        "coordinates": [
          26.8830165,
          57.2358958
        ]
      }
    },
    {
      "type": "Feature",
      "id": "node/1319751401",
      "properties": {
        "name": "Saulkrasti",
        "public_transport": "stop_position",
        "railway": "stop",
        "train": "yes",
        "id": "node/1319751401"
      },
      "geometry": {
        "type": "Point",
        "coordinates": [
          24.426793,
          57.2693358
        ]
      }
    },
    {
      "type": "Feature",
      "id": "node/1386389051",
      "properties": {
        "name": "Sece",
        "name:ru": "Сеце",
        "public_transport": "station",
        "railway": "station",
        "uic_ref": "2500827",
        "id": "node/1386389051"
      },
      "geometry": {
        "type": "Point",
        "coordinates": [
          25.3681127,
          56.5100984
        ]
      }
    },
    {
      "type": "Feature",
      "id": "node/1386389199",
      "properties": {
        "name": "Menta",
        "name:ru": "Мента",
        "public_transport": "station",
        "railway": "station",
        "uic_ref": "2500842",
        "id": "node/1386389199"
      },
      "geometry": {
        "type": "Point",
        "coordinates": [
          25.0979531,
          56.5384549
        ]
      }
    },
    {
      "type": "Feature",
      "id": "node/1410180271",
      "properties": {
        "name": "Meitene",
        "name:lt": "Meitenė",
        "name:lv": "Meitene",
        "name:ru": "Мейтене",
        "railway": "station",
        "id": "node/1410180271"
      },
      "geometry": {
        "type": "Point",
        "coordinates": [
          23.6770716,
          56.408743
        ]
      }
    },
    {
      "type": "Feature",
      "id": "node/1427507094",
      "properties": {
        "name": "Taurkalne",
        "name:ru": "Тауркалне",
        "railway": "station",
        "uic_ref": "2500809",
        "id": "node/1427507094"
      },
      "geometry": {
        "type": "Point",
        "coordinates": [
          24.9356912,
          56.5615773
        ]
      }
    },
    {
      "type": "Feature",
      "id": "node/1427507098",
      "properties": {
        "name": "Lāčplēsis",
        "name:ru": "Лачплесис",
        "public_transport": "station",
        "railway": "station",
        "uic_ref": "2500866",
        "id": "node/1427507098"
      },
      "geometry": {
        "type": "Point",
        "coordinates": [
          24.7928115,
          56.575738
        ]
      }
    },
    {
      "type": "Feature",
      "id": "node/1427507162",
      "properties": {
        "name": "Vecumnieki",
        "name:ru": "Вецумниеки",
        "public_transport": "station",
        "railway": "station",
        "uic_ref": "2500763",
        "id": "node/1427507162"
      },
      "geometry": {
        "type": "Point",
        "coordinates": [
          24.5372776,
          56.5904245
        ]
      }
    },
    {
      "type": "Feature",
      "id": "node/1497220017",
      "properties": {
        "name": "Daudzeva",
        "name:ru": "Даудзева",
        "public_transport": "station",
        "railway": "station",
        "uic_ref": "2500793",
        "id": "node/1497220017"
      },
      "geometry": {
        "type": "Point",
        "coordinates": [
          25.2443129,
          56.508436
        ]
      }
    },
    {
      "type": "Feature",
      "id": "node/1497353160",
      "properties": {
        "name": "Sēlpils",
        "public_transport": "station",
        "railway": "station",
        "uic_ref": "2500825",
        "id": "node/1497353160"
      },
      "geometry": {
        "type": "Point",
        "coordinates": [
          25.6176323,
          56.5258262
        ]
      }
    },
    {
      "type": "Feature",
      "id": "node/1635780581",
      "properties": {
        "name": "Vagonu parks",
        "public_transport": "stop_position",
        "railway": "stop",
        "train": "yes",
        "id": "node/1635780581"
      },
      "geometry": {
        "type": "Point",
        "coordinates": [
          24.1552214,
          56.9427901
        ]
      }
    },
    {
      "type": "Feature",
      "id": "node/1636687673",
      "properties": {
        "name": "Asari",
        "name:ru": "Асари",
        "public_transport": "stop_position",
        "railway": "stop",
        "train": "yes",
        "id": "node/1636687673"
      },
      "geometry": {
        "type": "Point",
        "coordinates": [
          23.6911366,
          56.9573219
        ]
      }
    },
    {
      "type": "Feature",
      "id": "node/1636687684",
      "properties": {
        "name": "Dzintari",
        "name:ru": "Дзинтари",
        "public_transport": "stop_position",
        "railway": "stop",
        "train": "yes",
        "wikidata": "Q4160874",
        "wikipedia": "lv:Dzintari (stacija)",
        "id": "node/1636687684"
      },
      "geometry": {
        "type": "Point",
        "coordinates": [
          23.8232908,
          56.9739459
        ]
      }
    },
    {
      "type": "Feature",
      "id": "node/1636687692",
      "properties": {
        "name": "Kūdra",
        "name:ru": "Кудра",
        "public_transport": "stop_position",
        "railway": "stop",
        "train": "yes",
        "wikidata": "Q4244507",
        "wikipedia": "en:Kūdra Station",
        "id": "node/1636687692"
      },
      "geometry": {
        "type": "Point",
        "coordinates": [
          23.5457325,
          56.9286119
        ]
      }
    },
    {
      "type": "Feature",
      "id": "node/1636687709",
      "properties": {
        "name": "Pumpuri",
        "name:ru": "Пумпури",
        "public_transport": "stop_position",
        "railway": "stop",
        "source": "Jūrmalas Domes Pilsētplānošanas nodaļa",
        "train": "yes",
        "id": "node/1636687709"
      },
      "geometry": {
        "type": "Point",
        "coordinates": [
          23.7385906,
          56.9600419
        ]
      }
    },
    {
      "type": "Feature",
      "id": "node/1636687720",
      "properties": {
        "name": "Jaundubulti",
        "public_transport": "stop_position",
        "railway": "stop",
        "source": "Jūrmalas Domes Pilsētplānošanas nodaļa",
        "train": "yes",
        "id": "node/1636687720"
      },
      "geometry": {
        "type": "Point",
        "coordinates": [
          23.7586573,
          56.9610423
        ]
      }
    },
    {
      "type": "Feature",
      "id": "node/1636688628",
      "properties": {
        "local_ref": "3",
        "name": "Dubulti",
        "public_transport": "stop_position",
        "railway": "stop",
        "train": "yes",
        "id": "node/1636688628"
      },
      "geometry": {
        "type": "Point",
        "coordinates": [
          23.7766579,
          56.9694571
        ]
      }
    },
    {
      "type": "Feature",
      "id": "node/1636688642",
      "properties": {
        "local_ref": "1",
        "name": "Dubulti",
        "public_transport": "stop_position",
        "railway": "stop",
        "train": "yes",
        "id": "node/1636688642"
      },
      "geometry": {
        "type": "Point",
        "coordinates": [
          23.7770567,
          56.9698746
        ]
      }
    },
    {
      "type": "Feature",
      "id": "node/1636688807",
      "properties": {
        "name": "Majori",
        "name:ru": "Майори",
        "public_transport": "stop_position",
        "railway": "stop",
        "train": "yes",
        "id": "node/1636688807"
      },
      "geometry": {
        "type": "Point",
        "coordinates": [
          23.7971669,
          56.971218
        ]
      }
    },
    {
      "type": "Feature",
      "id": "node/1636688821",
      "properties": {
        "name": "Majori",
        "public_transport": "stop_position",
        "railway": "stop",
        "train": "yes",
        "id": "node/1636688821"
      },
      "geometry": {
        "type": "Point",
        "coordinates": [
          23.7976296,
          56.9712245
        ]
      }
    },
    {
      "type": "Feature",
      "id": "node/1636688923",
      "properties": {
        "name": "Priedaine",
        "public_transport": "stop_position",
        "railway": "stop",
        "train": "yes",
        "id": "node/1636688923"
      },
      "geometry": {
        "type": "Point",
        "coordinates": [
          23.8879737,
          56.9714203
        ]
      }
    },
    {
      "type": "Feature",
      "id": "node/1636689006",
      "properties": {
        "name": "Priedaine",
        "public_transport": "stop_position",
        "railway": "stop",
        "train": "yes",
        "id": "node/1636689006"
      },
      "geometry": {
        "type": "Point",
        "coordinates": [
          23.8866065,
          56.9719916
        ]
      }
    },
    {
      "type": "Feature",
      "id": "node/1636689136",
      "properties": {
        "name": "Lielupe",
        "public_transport": "stop_position",
        "railway": "stop",
        "train": "yes",
        "id": "node/1636689136"
      },
      "geometry": {
        "type": "Point",
        "coordinates": [
          23.8717789,
          56.981424
        ]
      }
    },
    {
      "type": "Feature",
      "id": "node/1636689234",
      "properties": {
        "name": "Lielupe",
        "public_transport": "stop_position",
        "railway": "stop",
        "train": "yes",
        "id": "node/1636689234"
      },
      "geometry": {
        "type": "Point",
        "coordinates": [
          23.8685573,
          56.9826848
        ]
      }
    },
    {
      "type": "Feature",
      "id": "node/1638215611",
      "properties": {
        "name": "Sloka",
        "name:de": "Schlock",
        "name:lt": "Sluoka",
        "name:lv": "Sloka",
        "name:ru": "Слока",
        "name:uk": "Слока",
        "public_transport": "stop_position",
        "railway": "stop",
        "train": "yes",
        "id": "node/1638215611"
      },
      "geometry": {
        "type": "Point",
        "coordinates": [
          23.6181437,
          56.9473794
        ]
      }
    },
    {
      "type": "Feature",
      "id": "node/1638215612",
      "properties": {
        "name": "Sloka",
        "name:lv": "Sloka",
        "name:ru": "Слока",
        "public_transport": "stop_position",
        "railway": "stop",
        "train": "yes",
        "id": "node/1638215612"
      },
      "geometry": {
        "type": "Point",
        "coordinates": [
          23.6182448,
          56.947325
        ]
      }
    },
    {
      "type": "Feature",
      "id": "node/1638292391",
      "properties": {
        "name": "Asari",
        "name:ru": "Асари",
        "public_transport": "stop_position",
        "railway": "stop",
        "train": "yes",
        "id": "node/1638292391"
      },
      "geometry": {
        "type": "Point",
        "coordinates": [
          23.6911074,
          56.9572343
        ]
      }
    },
    {
      "type": "Feature",
      "id": "node/1638292418",
      "properties": {
        "name": "Dzintari",
        "name:ru": "Дзинтари",
        "public_transport": "stop_position",
        "railway": "stop",
        "train": "yes",
        "id": "node/1638292418"
      },
      "geometry": {
        "type": "Point",
        "coordinates": [
          23.8202277,
          56.9731083
        ]
      }
    },
    {
      "type": "Feature",
      "id": "node/1638292424",
      "properties": {
        "name": "Jaundubulti",
        "public_transport": "stop_position",
        "railway": "stop",
        "source": "Jūrmalas Domes Pilsētplānošanas nodaļa",
        "train": "yes",
        "id": "node/1638292424"
      },
      "geometry": {
        "type": "Point",
        "coordinates": [
          23.7556576,
          56.9608563
        ]
      }
    },
    {
      "type": "Feature",
      "id": "node/1638292426",
      "properties": {
        "name": "Melluži",
        "name:lv": "Melluži",
        "name:ru": "Меллужи",
        "public_transport": "stop_position",
        "railway": "stop",
        "train": "yes",
        "id": "node/1638292426"
      },
      "geometry": {
        "type": "Point",
        "coordinates": [
          23.7121279,
          56.9586807
        ]
      }
    },
    {
      "type": "Feature",
      "id": "node/1638292428",
      "properties": {
        "name": "Melluži",
        "name:lv": "Melluži",
        "name:ru": "Меллужи",
        "public_transport": "stop_position",
        "railway": "stop",
        "train": "yes",
        "wikidata": "Q4289621",
        "wikipedia": "lv:Melluži (stacija)",
        "id": "node/1638292428"
      },
      "geometry": {
        "type": "Point",
        "coordinates": [
          23.7152411,
          56.9588728
        ]
      }
    },
    {
      "type": "Feature",
      "id": "node/1638292440",
      "properties": {
        "name": "Pumpuri",
        "name:ru": "Пумпури",
        "public_transport": "stop_position",
        "railway": "stop",
        "source": "Jūrmalas Domes Pilsētplānošanas nodaļa",
        "train": "yes",
        "wikidata": "Q4383717",
        "wikipedia": "lv:Pumpuri (stacija)",
        "id": "node/1638292440"
      },
      "geometry": {
        "type": "Point",
        "coordinates": [
          23.7359391,
          56.9598444
        ]
      }
    },
    {
      "type": "Feature",
      "id": "node/1638292441",
      "properties": {
        "name": "Vaivari",
        "name:lv": "Vaivari",
        "name:ru": "Вайвари",
        "public_transport": "stop_position",
        "railway": "stop",
        "train": "yes",
        "wheelchair": "yes",
        "id": "node/1638292441"
      },
      "geometry": {
        "type": "Point",
        "coordinates": [
          23.6687461,
          56.9549385
        ]
      }
    },
    {
      "type": "Feature",
      "id": "node/1638292446",
      "properties": {
        "name": "Vaivari",
        "name:lv": "Vaivari",
        "name:ru": "Вайвари",
        "public_transport": "stop_position",
        "railway": "stop",
        "train": "yes",
        "wheelchair": "yes",
        "id": "node/1638292446"
      },
      "geometry": {
        "type": "Point",
        "coordinates": [
          23.6687088,
          56.9549723
        ]
      }
    },
    {
      "type": "Feature",
      "id": "node/1638292533",
      "properties": {
        "name": "Ķemeri",
        "name:ru": "Кемери",
        "public_transport": "stop_position",
        "railway": "stop",
        "train": "yes",
        "id": "node/1638292533"
      },
      "geometry": {
        "type": "Point",
        "coordinates": [
          23.4894822,
          56.938282
        ]
      }
    },
    {
      "type": "Feature",
      "id": "node/1638292534",
      "properties": {
        "name": "Ķemeri",
        "name:lt": "Kemeriai",
        "name:ru": "Кемери",
        "public_transport": "stop_position",
        "railway": "stop",
        "train": "yes",
        "wikidata": "Q4208062",
        "wikipedia": "en:Ķemeri Station",
        "id": "node/1638292534"
      },
      "geometry": {
        "type": "Point",
        "coordinates": [
          23.4908453,
          56.9381253
        ]
      }
    },
    {
      "type": "Feature",
      "id": "node/1663546746",
      "properties": {
        "esr:user": "097353",
        "name": "Milzkalne",
        "name:lv": "Milzkalne",
        "name:ru": "Милзкалне",
        "public_transport": "station",
        "railway": "halt",
        "train": "yes",
        "uic_ref": "2500023",
        "wikidata": "Q4251783",
        "id": "node/1663546746"
      },
      "geometry": {
        "type": "Point",
        "coordinates": [
          23.2328464,
          56.9702063
        ]
      }
    },
    {
      "type": "Feature",
      "id": "node/1663546749",
      "properties": {
        "esr:user": "097330",
        "name": "Smārde",
        "name:lv": "Smārde",
        "name:ru": "Смарде",
        "public_transport": "stop_position",
        "railway": "stop",
        "train": "yes",
        "uic_ref": "2500870",
        "id": "node/1663546749"
      },
      "geometry": {
        "type": "Point",
        "coordinates": [
          23.3364761,
          56.9551873
        ]
      }
    },
    {
      "type": "Feature",
      "id": "node/1663547250",
      "properties": {
        "name": "Milzkalne",
        "public_transport": "stop_position",
        "railway": "stop",
        "train": "yes",
        "id": "node/1663547250"
      },
      "geometry": {
        "type": "Point",
        "coordinates": [
          23.2325942,
          56.9701795
        ]
      }
    },
    {
      "type": "Feature",
      "id": "node/1680449346",
      "properties": {
        "alt_name:ru": "Рига-Пасажиеру",
        "name": "Rīga-Pasažieru",
        "name:lv": "Rīga pasažieru",
        "name:ru": "Рига-пассажирская",
        "public_transport": "stop_position",
        "railway": "stop",
        "ref": "5",
        "train": "yes",
        "id": "node/1680449346"
      },
      "geometry": {
        "type": "Point",
        "coordinates": [
          24.1225231,
          56.9463474
        ]
      }
    },
    {
      "type": "Feature",
      "id": "node/1680449394",
      "properties": {
        "alt_name:ru": "Рига-Пасажиеру",
        "name": "Rīga-Pasažieru",
        "name:lv": "Rīga pasažieru",
        "name:ru": "Рига-пассажирская",
        "public_transport": "stop_position",
        "railway": "stop",
        "ref": "4",
        "train": "yes",
        "id": "node/1680449394"
      },
      "geometry": {
        "type": "Point",
        "coordinates": [
          24.1225203,
          56.9464116
        ]
      }
    },
    {
      "type": "Feature",
      "id": "node/1680449448",
      "properties": {
        "alt_name:ru": "Рига-Пасажиеру",
        "name": "Rīga-Pasažieru",
        "name:lv": "Rīga pasažieru",
        "name:ru": "Рига-пассажирская",
        "public_transport": "stop_position",
        "railway": "stop",
        "ref": "10",
        "train": "yes",
        "id": "node/1680449448"
      },
      "geometry": {
        "type": "Point",
        "coordinates": [
          24.1224887,
          56.9467275
        ]
      }
    },
    {
      "type": "Feature",
      "id": "node/1680449462",
      "properties": {
        "alt_name:ru": "Рига-Пасажиеру",
        "name": "Rīga-Pasažieru",
        "name:lv": "Rīga pasažieru",
        "name:ru": "Рига-пассажирская",
        "public_transport": "stop_position",
        "railway": "stop",
        "ref": "11",
        "train": "yes",
        "id": "node/1680449462"
      },
      "geometry": {
        "type": "Point",
        "coordinates": [
          24.1224893,
          56.9467845
        ]
      }
    },
    {
      "type": "Feature",
      "id": "node/1680452681",
      "properties": {
        "name": "Rīga-Pasažieru",
        "public_transport": "stop_position",
        "railway": "stop",
        "ref": "3",
        "train": "yes",
        "id": "node/1680452681"
      },
      "geometry": {
        "type": "Point",
        "coordinates": [
          24.1225124,
          56.9465301
        ]
      }
    },
    {
      "type": "Feature",
      "id": "node/1680452767",
      "properties": {
        "name": "Rīga-Pasažieru",
        "public_transport": "stop_position",
        "railway": "stop",
        "ref": "1",
        "train": "yes",
        "id": "node/1680452767"
      },
      "geometry": {
        "type": "Point",
        "coordinates": [
          24.1225032,
          56.9466281
        ]
      }
    },
    {
      "type": "Feature",
      "id": "node/1715831264",
      "properties": {
        "name": "Zemitāni",
        "name:ru": "Земитаны",
        "public_transport": "station",
        "railway": "station",
        "train": "yes",
        "uic_ref": "2500002",
        "wikidata": "Q2329864",
        "id": "node/1715831264"
      },
      "geometry": {
        "type": "Point",
        "coordinates": [
          24.1562997,
          56.9654952
        ]
      }
    },
    {
      "type": "Feature",
      "id": "node/1720452659",
      "properties": {
        "name": "Jaunolaine",
        "public_transport": "stop_position",
        "railway": "stop",
        "train": "yes",
        "id": "node/1720452659"
      },
      "geometry": {
        "type": "Point",
        "coordinates": [
          23.9855311,
          56.8070746
        ]
      }
    },
    {
      "type": "Feature",
      "id": "node/1720452660",
      "properties": {
        "name": "Jaunolaine",
        "public_transport": "stop_position",
        "railway": "stop",
        "train": "yes",
        "id": "node/1720452660"
      },
      "geometry": {
        "type": "Point",
        "coordinates": [
          23.9835514,
          56.8059759
        ]
      }
    },
    {
      "type": "Feature",
      "id": "node/1821160170",
      "properties": {
        "name": "Šķirotava",
        "public_transport": "stop_position",
        "railway": "stop",
        "train": "yes",
        "id": "node/1821160170"
      },
      "geometry": {
        "type": "Point",
        "coordinates": [
          24.210009,
          56.9052198
        ]
      }
    },
    {
      "type": "Feature",
      "id": "node/1821160841",
      "properties": {
        "name": "Jāņavārti",
        "public_transport": "stop_position",
        "railway": "stop",
        "train": "yes",
        "id": "node/1821160841"
      },
      "geometry": {
        "type": "Point",
        "coordinates": [
          24.186982,
          56.9182549
        ]
      }
    },
    {
      "type": "Feature",
      "id": "node/1851317135",
      "properties": {
        "name": "Zemitāni",
        "public_transport": "stop_position",
        "railway": "stop",
        "train": "yes",
        "id": "node/1851317135"
      },
      "geometry": {
        "type": "Point",
        "coordinates": [
          24.1564277,
          56.9646021
        ]
      }
    },
    {
      "type": "Feature",
      "id": "node/1851317137",
      "properties": {
        "name": "Zemitāni",
        "public_transport": "stop_position",
        "railway": "stop",
        "train": "yes",
        "id": "node/1851317137"
      },
      "geometry": {
        "type": "Point",
        "coordinates": [
          24.1559024,
          56.966055
        ]
      }
    },
    {
      "type": "Feature",
      "id": "node/1851317142",
      "properties": {
        "name": "Zemitāni",
        "public_transport": "stop_position",
        "railway": "stop",
        "train": "yes",
        "id": "node/1851317142"
      },
      "geometry": {
        "type": "Point",
        "coordinates": [
          24.1566178,
          56.9646166
        ]
      }
    },
    {
      "type": "Feature",
      "id": "node/1879110288",
      "properties": {
        "name": "Brasa",
        "name:ru": "Браса",
        "operator": "Pasažieru Vilciens",
        "public_transport": "station",
        "railway": "station",
        "train": "yes",
        "uic_ref": "2500055",
        "wheelchair": "yes",
        "id": "node/1879110288"
      },
      "geometry": {
        "type": "Point",
        "coordinates": [
          24.1459493,
          56.9778666
        ]
      }
    },
    {
      "type": "Feature",
      "id": "node/1879110371",
      "properties": {
        "name": "Mangaļi",
        "name:ru": "Мангали",
        "operator": "Pasažieru Vilciens",
        "public_transport": "station",
        "railway": "station",
        "train": "yes",
        "uic_ref": "2500075",
        "wikidata": "Q4280205",
        "id": "node/1879110371"
      },
      "geometry": {
        "type": "Point",
        "coordinates": [
          24.1296303,
          57.0185944
        ]
      }
    },
    {
      "type": "Feature",
      "id": "node/2004669638",
      "properties": {
        "name": "Vecdaugava",
        "name:lv": "Vecdaugava",
        "name:ru": "Вецдаугава",
        "public_transport": "station",
        "railway": "halt",
        "train": "yes",
        "uic_ref": "2500826",
        "id": "node/2004669638"
      },
      "geometry": {
        "type": "Point",
        "coordinates": [
          24.1071063,
          57.0571103
        ]
      }
    },
    {
      "type": "Feature",
      "id": "node/2004669640",
      "properties": {
        "name": "Vecdaugava",
        "public_transport": "stop_position",
        "railway": "stop",
        "train": "yes",
        "id": "node/2004669640"
      },
      "geometry": {
        "type": "Point",
        "coordinates": [
          24.1069918,
          57.0580338
        ]
      }
    },
    {
      "type": "Feature",
      "id": "node/2017901048",
      "properties": {
        "name": "Gauja",
        "name:ru": "Гауя",
        "platforms": "2",
        "public_transport": "station",
        "railway": "halt",
        "train": "yes",
        "uic_ref": "2500775",
        "id": "node/2017901048"
      },
      "geometry": {
        "type": "Point",
        "coordinates": [
          24.288925,
          57.1419959
        ]
      }
    },
    {
      "type": "Feature",
      "id": "node/2017901110",
      "properties": {
        "addr:district": "Ādažu novads",
        "addr:housenumber": "2",
        "addr:street": "Stacijas iela",
        "addr:subdistrict": "Carnikavas pagasts",
        "addr:village": "Carnikava",
        "internet_access": "wlan",
        "name": "Carnikava",
        "name:ru": "Царникава",
        "operator": "Pasažieru vilciens",
        "platforms": "3",
        "public_transport": "station",
        "railway": "station",
        "train": "yes",
        "uic_ref": "2501115",
        "website": "https://www.pv.lv/",
        "wikidata": "Q2329796",
        "id": "node/2017901110"
      },
      "geometry": {
        "type": "Point",
        "coordinates": [
          24.2788334,
          57.1279075
        ]
      }
    },
    {
      "type": "Feature",
      "id": "node/2017923683",
      "properties": {
        "name": "Lilaste",
        "name:ru": "Лиласте",
        "public_transport": "station",
        "railway": "station",
        "train": "yes",
        "uic_ref": "2501352",
        "wikidata": "Q2913258",
        "id": "node/2017923683"
      },
      "geometry": {
        "type": "Point",
        "coordinates": [
          24.33576,
          57.1816701
        ]
      }
    },
    {
      "type": "Feature",
      "id": "node/2090660029",
      "properties": {
        "name": "Ilmāja",
        "railway": "station",
        "uic_ref": "2500287",
        "wikidata": "Q6000852",
        "id": "node/2090660029"
      },
      "geometry": {
        "type": "Point",
        "coordinates": [
          21.5524491,
          56.5751762
        ]
      }
    },
    {
      "type": "Feature",
      "id": "node/2111363820",
      "properties": {
        "name": "Kalniena",
        "name:ru": "Калниене",
        "public_transport": "stop_position",
        "railway": "station",
        "train": "yes",
        "uic_ref": "2500324",
        "id": "node/2111363820"
      },
      "geometry": {
        "type": "Point",
        "coordinates": [
          26.9380672,
          57.2586958
        ]
      }
    },
    {
      "type": "Feature",
      "id": "node/2111363829",
      "properties": {
        "name": "Umernieki",
        "public_transport": "stop_position",
        "railway": "halt",
        "train": "yes",
        "uic_ref": "2500327",
        "id": "node/2111363829"
      },
      "geometry": {
        "type": "Point",
        "coordinates": [
          27.0165637,
          57.3372505
        ]
      }
    },
    {
      "type": "Feature",
      "id": "node/2181328158",
      "properties": {
        "name": "Muldakmens",
        "public_transport": "stop_position",
        "railway": "stop",
        "train": "yes",
        "id": "node/2181328158"
      },
      "geometry": {
        "type": "Point",
        "coordinates": [
          25.2065844,
          56.6310659
        ]
      }
    },
    {
      "type": "Feature",
      "id": "node/2249288587",
      "properties": {
        "name": "Kalsnava",
        "public_transport": "stop_position",
        "railway": "stop",
        "train": "yes",
        "uic_ref": "2500148",
        "id": "node/2249288587"
      },
      "geometry": {
        "type": "Point",
        "coordinates": [
          26.0186723,
          56.7337422
        ]
      }
    },
    {
      "type": "Feature",
      "id": "node/2361472091",
      "properties": {
        "name": "Pārogre",
        "public_transport": "stop_position",
        "railway": "stop",
        "train": "yes",
        "id": "node/2361472091"
      },
      "geometry": {
        "type": "Point",
        "coordinates": [
          24.6167891,
          56.8082059
        ]
      }
    },
    {
      "type": "Feature",
      "id": "node/2361472100",
      "properties": {
        "name": "Pārogre",
        "public_transport": "stop_position",
        "railway": "stop",
        "train": "yes",
        "id": "node/2361472100"
      },
      "geometry": {
        "type": "Point",
        "coordinates": [
          24.6147952,
          56.8094638
        ]
      }
    },
    {
      "type": "Feature",
      "id": "node/2361472123",
      "properties": {
        "name": "Jaunogre",
        "public_transport": "stop_position",
        "railway": "stop",
        "train": "yes",
        "id": "node/2361472123"
      },
      "geometry": {
        "type": "Point",
        "coordinates": [
          24.5800778,
          56.8222566
        ]
      }
    },
    {
      "type": "Feature",
      "id": "node/2361517256",
      "properties": {
        "name": "Saulkalne",
        "public_transport": "stop_position",
        "railway": "stop",
        "train": "yes",
        "id": "node/2361517256"
      },
      "geometry": {
        "type": "Point",
        "coordinates": [
          24.4344271,
          56.8496234
        ]
      }
    },
    {
      "type": "Feature",
      "id": "node/2371785261",
      "properties": {
        "name": "Zilupe",
        "public_transport": "stop_position",
        "railway": "stop",
        "train": "yes",
        "id": "node/2371785261"
      },
      "geometry": {
        "type": "Point",
        "coordinates": [
          28.1177798,
          56.3917113
        ]
      }
    },
    {
      "type": "Feature",
      "id": "node/2597402970",
      "properties": {
        "name": "Liepāja",
        "public_transport": "stop_position",
        "railway": "stop",
        "train": "yes",
        "id": "node/2597402970"
      },
      "geometry": {
        "type": "Point",
        "coordinates": [
          21.0165517,
          56.5241707
        ]
      }
    },
    {
      "type": "Feature",
      "id": "node/2611698917",
      "properties": {
        "name": "Garupe",
        "public_transport": "stop_position",
        "railway": "stop",
        "train": "yes",
        "id": "node/2611698917"
      },
      "geometry": {
        "type": "Point",
        "coordinates": [
          24.2467742,
          57.1147836
        ]
      }
    },
    {
      "type": "Feature",
      "id": "node/2792261350",
      "properties": {
        "alt_name": "Zasulauka depo",
        "name": "Depo",
        "public_transport": "station",
        "railway": "halt",
        "train": "yes",
        "uic_ref": "2500741",
        "wikidata": "Q4208049",
        "id": "node/2792261350"
      },
      "geometry": {
        "type": "Point",
        "coordinates": [
          24.0392014,
          56.9465407
        ]
      }
    },
    {
      "type": "Feature",
      "id": "node/2792261529",
      "properties": {
        "name": "Zasulauks",
        "public_transport": "stop_position",
        "railway": "stop",
        "train": "yes",
        "id": "node/2792261529"
      },
      "geometry": {
        "type": "Point",
        "coordinates": [
          24.0517023,
          56.9413696
        ]
      }
    },
    {
      "type": "Feature",
      "id": "node/2794446666",
      "properties": {
        "name": "Babīte",
        "name:de": "Babbit",
        "name:ru": "Бабите",
        "public_transport": "station",
        "railway": "halt",
        "train": "yes",
        "uic_ref": "2500685",
        "wikidata": "Q4074383",
        "id": "node/2794446666"
      },
      "geometry": {
        "type": "Point",
        "coordinates": [
          23.9532757,
          56.9572007
        ]
      }
    },
    {
      "type": "Feature",
      "id": "node/2794446672",
      "properties": {
        "name": "Imanta",
        "name:ru": "Иманта",
        "public_transport": "station",
        "railway": "halt",
        "train": "yes",
        "uic_ref": "2500015",
        "wikidata": "Q4200137",
        "id": "node/2794446672"
      },
      "geometry": {
        "type": "Point",
        "coordinates": [
          24.0009752,
          56.9502893
        ]
      }
    },
    {
      "type": "Feature",
      "id": "node/3018247789",
      "properties": {
        "name": "Šķirotava",
        "public_transport": "stop_position",
        "railway": "stop",
        "train": "yes",
        "id": "node/3018247789"
      },
      "geometry": {
        "type": "Point",
        "coordinates": [
          24.2124625,
          56.9040196
        ]
      }
    },
    {
      "type": "Feature",
      "id": "node/3092387458",
      "properties": {
        "name": "Zolitūde",
        "public_transport": "stop_position",
        "railway": "stop",
        "train": "yes",
        "id": "node/3092387458"
      },
      "geometry": {
        "type": "Point",
        "coordinates": [
          24.0204327,
          56.9494796
        ]
      }
    },
    {
      "type": "Feature",
      "id": "node/3097934525",
      "properties": {
        "name": "Torņakalns",
        "public_transport": "stop_position",
        "railway": "stop",
        "train": "yes",
        "id": "node/3097934525"
      },
      "geometry": {
        "type": "Point",
        "coordinates": [
          24.0885342,
          56.9319573
        ]
      }
    },
    {
      "type": "Feature",
      "id": "node/3097934589",
      "properties": {
        "name": "Torņakalns",
        "public_transport": "stop_position",
        "railway": "stop",
        "train": "yes",
        "id": "node/3097934589"
      },
      "geometry": {
        "type": "Point",
        "coordinates": [
          24.0884312,
          56.9319763
        ]
      }
    },
    {
      "type": "Feature",
      "id": "node/3097934699",
      "properties": {
        "name": "Torņakalns",
        "public_transport": "stop_position",
        "railway": "stop",
        "train": "yes",
        "id": "node/3097934699"
      },
      "geometry": {
        "type": "Point",
        "coordinates": [
          24.0900083,
          56.9333545
        ]
      }
    },
    {
      "type": "Feature",
      "id": "node/3107093802",
      "properties": {
        "name": "Biznesa augstskola \"Turība\"",
        "public_transport": "stop_position",
        "railway": "stop",
        "train": "yes",
        "id": "node/3107093802"
      },
      "geometry": {
        "type": "Point",
        "coordinates": [
          24.0771969,
          56.9106744
        ]
      }
    },
    {
      "type": "Feature",
      "id": "node/3107093803",
      "properties": {
        "name": "Biznesa augstskola \"Turība\"",
        "public_transport": "stop_position",
        "railway": "stop",
        "train": "yes",
        "id": "node/3107093803"
      },
      "geometry": {
        "type": "Point",
        "coordinates": [
          24.0771954,
          56.9104305
        ]
      }
    },
    {
      "type": "Feature",
      "id": "node/3107100186",
      "properties": {
        "name": "Atgāzene",
        "public_transport": "stop_position",
        "railway": "stop",
        "train": "yes",
        "id": "node/3107100186"
      },
      "geometry": {
        "type": "Point",
        "coordinates": [
          24.0797372,
          56.9170226
        ]
      }
    },
    {
      "type": "Feature",
      "id": "node/3145366385",
      "properties": {
        "name": "Jugla",
        "public_transport": "stop_position",
        "railway": "stop",
        "train": "yes",
        "id": "node/3145366385"
      },
      "geometry": {
        "type": "Point",
        "coordinates": [
          24.2339427,
          56.9918183
        ]
      }
    },
    {
      "type": "Feature",
      "id": "node/3177314332",
      "properties": {
        "name": "Madona",
        "public_transport": "stop_position",
        "railway": "stop",
        "train": "yes",
        "id": "node/3177314332"
      },
      "geometry": {
        "type": "Point",
        "coordinates": [
          26.2201862,
          56.850791
        ]
      }
    },
    {
      "type": "Feature",
      "id": "node/3236029244",
      "properties": {
        "name": "Vecāķi",
        "public_transport": "stop_position",
        "railway": "stop",
        "train": "yes",
        "id": "node/3236029244"
      },
      "geometry": {
        "type": "Point",
        "coordinates": [
          24.1168647,
          57.0752779
        ]
      }
    },
    {
      "type": "Feature",
      "id": "node/3394981506",
      "properties": {
        "esr:user": "117801",
        "name": "Veseta",
        "name:lv": "Veseta",
        "name:ru": "Весета",
        "public_transport": "station",
        "railway": "station",
        "id": "node/3394981506"
      },
      "geometry": {
        "type": "Point",
        "coordinates": [
          25.7928938,
          56.7295801
        ]
      }
    },
    {
      "type": "Feature",
      "id": "node/3830661966",
      "properties": {
        "name": "Rīga-Pasažieru",
        "public_transport": "stop_position",
        "railway": "stop",
        "ref": "12",
        "train": "yes",
        "id": "node/3830661966"
      },
      "geometry": {
        "type": "Point",
        "coordinates": [
          24.1233639,
          56.9468968
        ]
      }
    },
    {
      "type": "Feature",
      "id": "node/4624289692",
      "properties": {
        "name": "Dārziņi",
        "public_transport": "stop_position",
        "railway": "stop",
        "train": "yes",
        "id": "node/4624289692"
      },
      "geometry": {
        "type": "Point",
        "coordinates": [
          24.2816638,
          56.8699779
        ]
      }
    },
    {
      "type": "Feature",
      "id": "node/4917564064",
      "properties": {
        "name": "Pļaviņas",
        "public_transport": "stop_position",
        "railway": "stop",
        "train": "yes",
        "id": "node/4917564064"
      },
      "geometry": {
        "type": "Point",
        "coordinates": [
          25.7169933,
          56.6171713
        ]
      }
    },
    {
      "type": "Feature",
      "id": "node/4936656058",
      "properties": {
        "abandoned:railway": "halt",
        "esr:user": "116828",
        "name": "Jaungulbene",
        "name:lv": "Jaungulbene",
        "name:ru": "Яунгулбене",
        "public_transport": "station",
        "uic_ref": "2500153",
        "id": "node/4936656058"
      },
      "geometry": {
        "type": "Point",
        "coordinates": [
          26.6121344,
          57.071773
        ]
      }
    },
    {
      "type": "Feature",
      "id": "node/4936968087",
      "properties": {
        "name": "Pūriņi",
        "public_transport": "station",
        "railway": "halt",
        "train": "yes",
        "wikipedia": "lv:Pūriņi",
        "id": "node/4936968087"
      },
      "geometry": {
        "type": "Point",
        "coordinates": [
          26.8301112,
          57.21617
        ]
      }
    },
    {
      "type": "Feature",
      "id": "node/5109989222",
      "properties": {
        "historic": "yes",
        "name": "Baltava",
        "name:lv": "Baltava",
        "name:ru": "Балтава",
        "railway": "halt",
        "id": "node/5109989222"
      },
      "geometry": {
        "type": "Point",
        "coordinates": [
          25.4767499,
          56.88932
        ]
      }
    },
    {
      "type": "Feature",
      "id": "node/5284582706",
      "properties": {
        "description": "Historical railway building",
        "internet_access": "no",
        "internet_access:fee": "no",
        "name": "Lone",
        "network": "Not existing",
        "operator": "Historical",
        "public_transport": "station",
        "railway": "station",
        "train": "yes",
        "id": "node/5284582706"
      },
      "geometry": {
        "type": "Point",
        "coordinates": [
          25.4018411,
          56.2830496
        ]
      }
    },
    {
      "type": "Feature",
      "id": "node/5521345402",
      "properties": {
        "name": "Nīcgale",
        "public_transport": "stop_position",
        "railway": "stop",
        "train": "yes",
        "id": "node/5521345402"
      },
      "geometry": {
        "type": "Point",
        "coordinates": [
          26.3716295,
          56.1354778
        ]
      }
    },
    {
      "type": "Feature",
      "id": "node/5521356065",
      "properties": {
        "name": "Vabole",
        "public_transport": "stop_position",
        "railway": "stop",
        "train": "yes",
        "id": "node/5521356065"
      },
      "geometry": {
        "type": "Point",
        "coordinates": [
          26.4576862,
          56.0407259
        ]
      }
    },
    {
      "type": "Feature",
      "id": "node/5522263936",
      "properties": {
        "name": "Trepe",
        "public_transport": "stop_position",
        "railway": "stop",
        "train": "yes",
        "id": "node/5522263936"
      },
      "geometry": {
        "type": "Point",
        "coordinates": [
          26.0758494,
          56.4385394
        ]
      }
    },
    {
      "type": "Feature",
      "id": "node/5563938423",
      "properties": {
        "name": "Ilzēni",
        "public_transport": "stop_position",
        "railway": "stop",
        "train": "yes",
        "id": "node/5563938423"
      },
      "geometry": {
        "type": "Point",
        "coordinates": [
          27.4119177,
          56.6327495
        ]
      }
    },
    {
      "type": "Feature",
      "id": "node/5575564825",
      "properties": {
        "name": "Kūkas",
        "public_transport": "stop_position",
        "railway": "stop",
        "train": "yes",
        "id": "node/5575564825"
      },
      "geometry": {
        "type": "Point",
        "coordinates": [
          26.0598494,
          56.5401166
        ]
      }
    },
    {
      "type": "Feature",
      "id": "node/5576297181",
      "properties": {
        "name": "Sakstagals",
        "public_transport": "stop_position",
        "railway": "stop",
        "train": "yes",
        "id": "node/5576297181"
      },
      "geometry": {
        "type": "Point",
        "coordinates": [
          27.1521415,
          56.5364693
        ]
      }
    },
    {
      "type": "Feature",
      "id": "node/5783720034",
      "properties": {
        "esr:user": "098028",
        "name": "Spāre",
        "name:lv": "Spāre",
        "name:ru": "Спаре",
        "public_transport": "station",
        "railway": "station",
        "uic_ref": "2500263",
        "wikidata": "Q7581848",
        "id": "node/5783720034"
      },
      "geometry": {
        "type": "Point",
        "coordinates": [
          22.2655356,
          57.2153493
        ]
      }
    },
    {
      "type": "Feature",
      "id": "node/5849470186",
      "properties": {
        "internet_access": "no",
        "name": "Ciemupe",
        "operator": "Pasažieru vilciens",
        "public_transport": "station",
        "railway": "halt",
        "train": "yes",
        "id": "node/5849470186"
      },
      "geometry": {
        "type": "Point",
        "coordinates": [
          24.6541825,
          56.7817685
        ]
      }
    },
    {
      "type": "Feature",
      "id": "node/5944939837",
      "properties": {
        "name": "Strenči",
        "public_transport": "stop_position",
        "railway": "stop",
        "train": "yes",
        "id": "node/5944939837"
      },
      "geometry": {
        "type": "Point",
        "coordinates": [
          25.6992305,
          57.6340611
        ]
      }
    },
    {
      "type": "Feature",
      "id": "node/6721248227",
      "properties": {
        "name": "Nerza",
        "public_transport": "stop_position",
        "railway": "stop",
        "train": "yes",
        "id": "node/6721248227"
      },
      "geometry": {
        "type": "Point",
        "coordinates": [
          27.9594019,
          56.4307351
        ]
      }
    },
    {
      "type": "Feature",
      "id": "node/7019022323",
      "properties": {
        "name": "Aizkraukle",
        "name:de": "Ascheraden",
        "name:lt": "Aizkrauklė",
        "name:lv": "Aizkraukle",
        "name:ru": "Айзкраукле",
        "public_transport": "stop_position",
        "railway": "stop",
        "train": "yes",
        "id": "node/7019022323"
      },
      "geometry": {
        "type": "Point",
        "coordinates": [
          25.2744808,
          56.6227813
        ]
      }
    },
    {
      "type": "Feature",
      "id": "node/7019093027",
      "properties": {
        "esr:user": "093715",
        "name": "Muldakmens",
        "name:lv": "Muldakmens",
        "name:ru": "Мулдакменс",
        "public_transport": "station",
        "railway": "halt",
        "train": "yes",
        "uic_ref": "2500701",
        "id": "node/7019093027"
      },
      "geometry": {
        "type": "Point",
        "coordinates": [
          25.2067029,
          56.631076
        ]
      }
    },
    {
      "type": "Feature",
      "id": "node/7019093033",
      "properties": {
        "name": "Muldakmens",
        "name:lv": "Muldakmens",
        "name:ru": "Мулдакменс",
        "public_transport": "stop_position",
        "railway": "stop",
        "train": "yes",
        "id": "node/7019093033"
      },
      "geometry": {
        "type": "Point",
        "coordinates": [
          25.2065919,
          56.6311108
        ]
      }
    },
    {
      "type": "Feature",
      "id": "node/7207151274",
      "properties": {
        "name": "Koknese",
        "public_transport": "stop_position",
        "railway": "stop",
        "train": "yes",
        "id": "node/7207151274"
      },
      "geometry": {
        "type": "Point",
        "coordinates": [
          25.4379705,
          56.6511598
        ]
      }
    },
    {
      "type": "Feature",
      "id": "node/7447286011",
      "properties": {
        "local_ref": "1",
        "name": "Ogre",
        "public_transport": "stop_position",
        "railway": "stop",
        "train": "yes",
        "id": "node/7447286011"
      },
      "geometry": {
        "type": "Point",
        "coordinates": [
          24.6021386,
          56.8156449
        ]
      }
    },
    {
      "type": "Feature",
      "id": "node/7447286313",
      "properties": {
        "name": "Pļaviņas",
        "public_transport": "stop_position",
        "railway": "stop",
        "train": "yes",
        "id": "node/7447286313"
      },
      "geometry": {
        "type": "Point",
        "coordinates": [
          25.7170153,
          56.6171317
        ]
      }
    },
    {
      "type": "Feature",
      "id": "node/7524077062",
      "properties": {
        "name": "Jaunkalsnava",
        "public_transport": "stop_position",
        "railway": "stop",
        "train": "yes",
        "id": "node/7524077062"
      },
      "geometry": {
        "type": "Point",
        "coordinates": [
          25.9774249,
          56.6871362
        ]
      }
    },
    {
      "type": "Feature",
      "id": "node/7616350191",
      "properties": {
        "name": "Biznesa augstskola \"Turība\"",
        "public_transport": "station",
        "railway": "halt",
        "train": "yes",
        "id": "node/7616350191"
      },
      "geometry": {
        "type": "Point",
        "coordinates": [
          24.0772797,
          56.9107858
        ]
      }
    },
    {
      "type": "Feature",
      "id": "node/7616408151",
      "properties": {
        "name": "Mežvidi",
        "public_transport": "station",
        "railway": "halt",
        "train": "yes",
        "id": "node/7616408151"
      },
      "geometry": {
        "type": "Point",
        "coordinates": [
          27.5250981,
          56.6948056
        ]
      }
    },
    {
      "type": "Feature",
      "id": "node/7616437981",
      "properties": {
        "name": "Mežāre",
        "public_transport": "stop_position",
        "railway": "stop",
        "train": "yes",
        "id": "node/7616437981"
      },
      "geometry": {
        "type": "Point",
        "coordinates": [
          26.2513988,
          56.5418779
        ]
      }
    },
    {
      "type": "Feature",
      "id": "node/7623760243",
      "properties": {
        "name": "Elkšķene",
        "railway": "station",
        "wikidata": "Q18617004",
        "id": "node/7623760243"
      },
      "geometry": {
        "type": "Point",
        "coordinates": [
          21.778907,
          57.3544657
        ]
      }
    },
    {
      "type": "Feature",
      "id": "node/7623796061",
      "properties": {
        "esr:user": "090045",
        "name": "Dole",
        "name:lv": "Dole",
        "name:ru": "Доле",
        "public_transport": "station",
        "railway": "halt",
        "train": "yes",
        "uic_ref": "2500730",
        "wikidata": "Q15792475",
        "id": "node/7623796061"
      },
      "geometry": {
        "type": "Point",
        "coordinates": [
          24.3238181,
          56.8643491
        ]
      }
    },
    {
      "type": "Feature",
      "id": "node/7626840929",
      "properties": {
        "esr:user": "091620",
        "name": "Cukurfabrika",
        "name:lv": "Cukurfabrika",
        "name:ru": "Цукурфабрика",
        "public_transport": "station",
        "railway": "halt",
        "train": "yes",
        "uic_ref": "2500272",
        "wikidata": "Q5192839",
        "id": "node/7626840929"
      },
      "geometry": {
        "type": "Point",
        "coordinates": [
          23.7582329,
          56.65289
        ]
      }
    },
    {
      "type": "Feature",
      "id": "node/7626915645",
      "properties": {
        "name": "Cesvaine",
        "railway": "halt",
        "wikidata": "Q15218785",
        "id": "node/7626915645"
      },
      "geometry": {
        "type": "Point",
        "coordinates": [
          26.3317659,
          56.9581724
        ]
      }
    },
    {
      "type": "Feature",
      "id": "node/7626948261",
      "properties": {
        "name": "Bulduri",
        "name:ru": "Булдури",
        "public_transport": "station",
        "railway": "halt",
        "train": "yes",
        "wikidata": "Q2600136",
        "id": "node/7626948261"
      },
      "geometry": {
        "type": "Point",
        "coordinates": [
          23.8519856,
          56.9810595
        ]
      }
    },
    {
      "type": "Feature",
      "id": "node/7626973692",
      "properties": {
        "name": "Burzava",
        "public_transport": "station",
        "railway": "station",
        "id": "node/7626973692"
      },
      "geometry": {
        "type": "Point",
        "coordinates": [
          27.3454704,
          56.5867148
        ]
      }
    },
    {
      "type": "Feature",
      "id": "node/7658875060",
      "properties": {
        "name": "Ozolnieki",
        "public_transport": "station",
        "railway": "halt",
        "train": "yes",
        "id": "node/7658875060"
      },
      "geometry": {
        "type": "Point",
        "coordinates": [
          23.8057356,
          56.6860316
        ]
      }
    },
    {
      "type": "Feature",
      "id": "node/7683072950",
      "properties": {
        "name": "Dārziņi",
        "public_transport": "stop_position",
        "railway": "stop",
        "train": "yes",
        "id": "node/7683072950"
      },
      "geometry": {
        "type": "Point",
        "coordinates": [
          24.2791513,
          56.8705741
        ]
      }
    },
    {
      "type": "Feature",
      "id": "node/7732222251",
      "properties": {
        "alt_name": "Tukums 2",
        "name": "Tukums II",
        "public_transport": "stop_position",
        "railway": "stop",
        "train": "yes",
        "id": "node/7732222251"
      },
      "geometry": {
        "type": "Point",
        "coordinates": [
          23.1152878,
          56.9596639
        ]
      }
    },
    {
      "type": "Feature",
      "id": "node/7732222260",
      "properties": {
        "name": "Tukums-1",
        "public_transport": "stop_position",
        "railway": "stop",
        "train": "yes",
        "id": "node/7732222260"
      },
      "geometry": {
        "type": "Point",
        "coordinates": [
          23.1697492,
          56.9658334
        ]
      }
    },
    {
      "type": "Feature",
      "id": "node/7732222261",
      "properties": {
        "name": "Smārde",
        "public_transport": "station",
        "railway": "halt",
        "train": "yes",
        "wikidata": "Q4208054",
        "id": "node/7732222261"
      },
      "geometry": {
        "type": "Point",
        "coordinates": [
          23.3366698,
          56.9551415
        ]
      }
    },
    {
      "type": "Feature",
      "id": "node/7732222265",
      "properties": {
        "name": "Kūdra",
        "public_transport": "station",
        "railway": "halt",
        "train": "yes",
        "wikidata": "Q4244507",
        "wikipedia": "lv:Kūdra (stacija)",
        "id": "node/7732222265"
      },
      "geometry": {
        "type": "Point",
        "coordinates": [
          23.5459605,
          56.9286071
        ]
      }
    },
    {
      "type": "Feature",
      "id": "node/7732222267",
      "properties": {
        "name": "Vaivari",
        "public_transport": "station",
        "railway": "halt",
        "train": "yes",
        "wikidata": "Q4102442",
        "id": "node/7732222267"
      },
      "geometry": {
        "type": "Point",
        "coordinates": [
          23.6687844,
          56.9549653
        ]
      }
    },
    {
      "type": "Feature",
      "id": "node/7732222268",
      "properties": {
        "name": "Asari",
        "public_transport": "station",
        "railway": "halt",
        "train": "yes",
        "wikidata": "Q4071164",
        "wikipedia": "lv:Asari (stacija)",
        "id": "node/7732222268"
      },
      "geometry": {
        "type": "Point",
        "coordinates": [
          23.6904176,
          56.9572254
        ]
      }
    },
    {
      "type": "Feature",
      "id": "node/7732222269",
      "properties": {
        "name": "Melluži",
        "public_transport": "station",
        "railway": "halt",
        "train": "yes",
        "wikidata": "Q4289621",
        "wikipedia": "lv:Melluži (stacija)",
        "id": "node/7732222269"
      },
      "geometry": {
        "type": "Point",
        "coordinates": [
          23.7138375,
          56.9587846
        ]
      }
    },
    {
      "type": "Feature",
      "id": "node/7732222270",
      "properties": {
        "name": "Pumpuri",
        "public_transport": "station",
        "railway": "halt",
        "train": "yes",
        "wikidata": "Q4383717",
        "wikipedia": "lv:Pumpuri (stacija)",
        "id": "node/7732222270"
      },
      "geometry": {
        "type": "Point",
        "coordinates": [
          23.7371855,
          56.9599394
        ]
      }
    },
    {
      "type": "Feature",
      "id": "node/7732222271",
      "properties": {
        "name": "Jaundubulti",
        "public_transport": "station",
        "railway": "halt",
        "train": "yes",
        "wikidata": "Q4539641",
        "wikipedia": "lv:Jaundubulti (stacija)",
        "id": "node/7732222271"
      },
      "geometry": {
        "type": "Point",
        "coordinates": [
          23.7575111,
          56.9609659
        ]
      }
    },
    {
      "type": "Feature",
      "id": "node/7732222272",
      "properties": {
        "local_ref": "2",
        "name": "Dubulti",
        "public_transport": "stop_position",
        "railway": "stop",
        "train": "yes",
        "id": "node/7732222272"
      },
      "geometry": {
        "type": "Point",
        "coordinates": [
          23.7765496,
          56.9694954
        ]
      }
    },
    {
      "type": "Feature",
      "id": "node/7732222273",
      "properties": {
        "name": "Majori",
        "public_transport": "station",
        "railway": "halt",
        "train": "yes",
        "wikidata": "Q4274977",
        "wikipedia": "lv:Majori (stacija)",
        "id": "node/7732222273"
      },
      "geometry": {
        "type": "Point",
        "coordinates": [
          23.7967943,
          56.9713141
        ]
      }
    },
    {
      "type": "Feature",
      "id": "node/7732222274",
      "properties": {
        "name": "Dzintari",
        "public_transport": "station",
        "railway": "halt",
        "train": "yes",
        "wikidata": "Q4160874",
        "wikipedia": "lv:Dzintari (stacija)",
        "id": "node/7732222274"
      },
      "geometry": {
        "type": "Point",
        "coordinates": [
          23.8218431,
          56.973554
        ]
      }
    },
    {
      "type": "Feature",
      "id": "node/7732222275",
      "properties": {
        "name": "Bulduri",
        "public_transport": "stop_position",
        "railway": "stop",
        "train": "yes",
        "id": "node/7732222275"
      },
      "geometry": {
        "type": "Point",
        "coordinates": [
          23.851865,
          56.9810794
        ]
      }
    },
    {
      "type": "Feature",
      "id": "node/7732222276",
      "properties": {
        "name": "Lielupe",
        "public_transport": "station",
        "railway": "halt",
        "train": "yes",
        "id": "node/7732222276"
      },
      "geometry": {
        "type": "Point",
        "coordinates": [
          23.8703117,
          56.9820714
        ]
      }
    },
    {
      "type": "Feature",
      "id": "node/7732222278",
      "properties": {
        "name": "Babīte",
        "public_transport": "stop_position",
        "railway": "stop",
        "train": "yes",
        "id": "node/7732222278"
      },
      "geometry": {
        "type": "Point",
        "coordinates": [
          23.9545151,
          56.9569685
        ]
      }
    },
    {
      "type": "Feature",
      "id": "node/7732222279",
      "properties": {
        "name": "Imanta",
        "public_transport": "stop_position",
        "railway": "stop",
        "train": "yes",
        "id": "node/7732222279"
      },
      "geometry": {
        "type": "Point",
        "coordinates": [
          24.0008276,
          56.9503175
        ]
      }
    },
    {
      "type": "Feature",
      "id": "node/7732222280",
      "properties": {
        "name": "Zolitūde",
        "public_transport": "stop_position",
        "railway": "stop",
        "train": "yes",
        "id": "node/7732222280"
      },
      "geometry": {
        "type": "Point",
        "coordinates": [
          24.023986,
          56.948999
        ]
      }
    },
    {
      "type": "Feature",
      "id": "node/7732222282",
      "properties": {
        "name": "Zasulauks",
        "public_transport": "stop_position",
        "railway": "stop",
        "train": "yes",
        "id": "node/7732222282"
      },
      "geometry": {
        "type": "Point",
        "coordinates": [
          24.0525318,
          56.9405462
        ]
      }
    },
    {
      "type": "Feature",
      "id": "node/7734523874",
      "properties": {
        "name": "Depo",
        "public_transport": "stop_position",
        "railway": "stop",
        "train": "yes",
        "id": "node/7734523874"
      },
      "geometry": {
        "type": "Point",
        "coordinates": [
          24.038044,
          56.9467048
        ]
      }
    },
    {
      "type": "Feature",
      "id": "node/7734523875",
      "properties": {
        "name": "Imanta",
        "public_transport": "stop_position",
        "railway": "stop",
        "train": "yes",
        "id": "node/7734523875"
      },
      "geometry": {
        "type": "Point",
        "coordinates": [
          24.000823,
          56.9502791
        ]
      }
    },
    {
      "type": "Feature",
      "id": "node/7734523876",
      "properties": {
        "name": "Babīte",
        "public_transport": "stop_position",
        "railway": "stop",
        "train": "yes",
        "id": "node/7734523876"
      },
      "geometry": {
        "type": "Point",
        "coordinates": [
          23.9521412,
          56.9574236
        ]
      }
    },
    {
      "type": "Feature",
      "id": "node/7734523877",
      "properties": {
        "name": "Bulduri",
        "public_transport": "stop_position",
        "railway": "stop",
        "train": "yes",
        "id": "node/7734523877"
      },
      "geometry": {
        "type": "Point",
        "coordinates": [
          23.851921,
          56.9809973
        ]
      }
    },
    {
      "type": "Feature",
      "id": "node/7737926817",
      "properties": {
        "name": "Atgāzene",
        "public_transport": "stop_position",
        "railway": "stop",
        "train": "yes",
        "id": "node/7737926817"
      },
      "geometry": {
        "type": "Point",
        "coordinates": [
          24.0796373,
          56.9169997
        ]
      }
    },
    {
      "type": "Feature",
      "id": "node/7737926818",
      "properties": {
        "name": "Tīraine",
        "public_transport": "stop_position",
        "railway": "stop",
        "train": "yes",
        "id": "node/7737926818"
      },
      "geometry": {
        "type": "Point",
        "coordinates": [
          24.0742954,
          56.887836
        ]
      }
    },
    {
      "type": "Feature",
      "id": "node/7737926819",
      "properties": {
        "name": "Tīraine",
        "public_transport": "stop_position",
        "railway": "stop",
        "train": "yes",
        "id": "node/7737926819"
      },
      "geometry": {
        "type": "Point",
        "coordinates": [
          24.0735529,
          56.8860112
        ]
      }
    },
    {
      "type": "Feature",
      "id": "node/7737926820",
      "properties": {
        "name": "Tīraine",
        "public_transport": "station",
        "railway": "halt",
        "train": "yes",
        "id": "node/7737926820"
      },
      "geometry": {
        "type": "Point",
        "coordinates": [
          24.0739149,
          56.8868444
        ]
      }
    },
    {
      "type": "Feature",
      "id": "node/7737926821",
      "properties": {
        "name": "Baloži",
        "public_transport": "stop_position",
        "railway": "stop",
        "train": "yes",
        "id": "node/7737926821"
      },
      "geometry": {
        "type": "Point",
        "coordinates": [
          24.0475433,
          56.8443432
        ]
      }
    },
    {
      "type": "Feature",
      "id": "node/7737926822",
      "properties": {
        "name": "Baloži",
        "public_transport": "stop_position",
        "railway": "stop",
        "train": "yes",
        "id": "node/7737926822"
      },
      "geometry": {
        "type": "Point",
        "coordinates": [
          24.0476202,
          56.844319
        ]
      }
    },
    {
      "type": "Feature",
      "id": "node/7741865289",
      "properties": {
        "name": "Dalbe",
        "public_transport": "stop_position",
        "railway": "stop",
        "train": "yes",
        "id": "node/7741865289"
      },
      "geometry": {
        "type": "Point",
        "coordinates": [
          23.8766301,
          56.7424892
        ]
      }
    },
    {
      "type": "Feature",
      "id": "node/7741865290",
      "properties": {
        "name": "Dalbe",
        "public_transport": "stop_position",
        "railway": "stop",
        "train": "yes",
        "id": "node/7741865290"
      },
      "geometry": {
        "type": "Point",
        "coordinates": [
          23.8744303,
          56.7409026
        ]
      }
    },
    {
      "type": "Feature",
      "id": "node/7741865291",
      "properties": {
        "name": "Cena",
        "public_transport": "stop_position",
        "railway": "stop",
        "train": "yes",
        "id": "node/7741865291"
      },
      "geometry": {
        "type": "Point",
        "coordinates": [
          23.833121,
          56.7086329
        ]
      }
    },
    {
      "type": "Feature",
      "id": "node/7741865292",
      "properties": {
        "name": "Cena",
        "public_transport": "stop_position",
        "railway": "stop",
        "train": "yes",
        "id": "node/7741865292"
      },
      "geometry": {
        "type": "Point",
        "coordinates": [
          23.8330336,
          56.7086513
        ]
      }
    },
    {
      "type": "Feature",
      "id": "node/7741865293",
      "properties": {
        "name": "Ozolnieki",
        "public_transport": "stop_position",
        "railway": "stop",
        "train": "yes",
        "id": "node/7741865293"
      },
      "geometry": {
        "type": "Point",
        "coordinates": [
          23.8064704,
          56.6866723
        ]
      }
    },
    {
      "type": "Feature",
      "id": "node/7741865294",
      "properties": {
        "name": "Ozolnieki",
        "public_transport": "stop_position",
        "railway": "stop",
        "train": "yes",
        "id": "node/7741865294"
      },
      "geometry": {
        "type": "Point",
        "coordinates": [
          23.8049133,
          56.6853132
        ]
      }
    },
    {
      "type": "Feature",
      "id": "node/7741865295",
      "properties": {
        "name": "Cukurfabrika",
        "public_transport": "stop_position",
        "railway": "stop",
        "train": "yes",
        "id": "node/7741865295"
      },
      "geometry": {
        "type": "Point",
        "coordinates": [
          23.7582967,
          56.6528869
        ]
      }
    },
    {
      "type": "Feature",
      "id": "node/7741865296",
      "properties": {
        "name": "Cukurfabrika",
        "public_transport": "stop_position",
        "railway": "stop",
        "train": "yes",
        "id": "node/7741865296"
      },
      "geometry": {
        "type": "Point",
        "coordinates": [
          23.758103,
          56.6528596
        ]
      }
    },
    {
      "type": "Feature",
      "id": "node/7741865299",
      "properties": {
        "local_ref": "1",
        "name": "Jelgava",
        "public_transport": "stop_position",
        "railway": "stop",
        "train": "yes",
        "id": "node/7741865299"
      },
      "geometry": {
        "type": "Point",
        "coordinates": [
          23.7352555,
          56.6419657
        ]
      }
    },
    {
      "type": "Feature",
      "id": "node/7741865300",
      "properties": {
        "name": "Dobele",
        "public_transport": "stop_position",
        "railway": "stop",
        "train": "yes",
        "id": "node/7741865300"
      },
      "geometry": {
        "type": "Point",
        "coordinates": [
          23.2848399,
          56.6287513
        ]
      }
    },
    {
      "type": "Feature",
      "id": "node/7741865301",
      "properties": {
        "name": "Biksti",
        "public_transport": "stop_position",
        "railway": "stop",
        "train": "yes",
        "id": "node/7741865301"
      },
      "geometry": {
        "type": "Point",
        "coordinates": [
          22.9808522,
          56.6914797
        ]
      }
    },
    {
      "type": "Feature",
      "id": "node/7741865302",
      "properties": {
        "name": "Saldus",
        "public_transport": "stop_position",
        "railway": "stop",
        "train": "yes",
        "id": "node/7741865302"
      },
      "geometry": {
        "type": "Point",
        "coordinates": [
          22.4718757,
          56.6858228
        ]
      }
    },
    {
      "type": "Feature",
      "id": "node/7741865303",
      "properties": {
        "name": "Skrunda",
        "public_transport": "stop_position",
        "railway": "stop",
        "train": "yes",
        "id": "node/7741865303"
      },
      "geometry": {
        "type": "Point",
        "coordinates": [
          22.0125066,
          56.680586
        ]
      }
    },
    {
      "type": "Feature",
      "id": "node/7744835210",
      "properties": {
        "name": "Pureņi",
        "public_transport": "station",
        "railway": "station",
        "train": "yes",
        "id": "node/7744835210"
      },
      "geometry": {
        "type": "Point",
        "coordinates": [
          27.6034807,
          56.7511272
        ]
      }
    },
    {
      "type": "Feature",
      "id": "node/7775258295",
      "properties": {
        "name": "Olaine",
        "public_transport": "stop_position",
        "railway": "stop",
        "train": "yes",
        "id": "node/7775258295"
      },
      "geometry": {
        "type": "Point",
        "coordinates": [
          23.9465318,
          56.7864265
        ]
      }
    },
    {
      "type": "Feature",
      "id": "node/7775258296",
      "properties": {
        "local_ref": "33",
        "name": "Jelgava",
        "public_transport": "stop_position",
        "railway": "stop",
        "train": "yes",
        "id": "node/7775258296"
      },
      "geometry": {
        "type": "Point",
        "coordinates": [
          23.7351111,
          56.6420804
        ]
      }
    },
    {
      "type": "Feature",
      "id": "node/7775258297",
      "properties": {
        "local_ref": "32",
        "name": "Jelgava",
        "public_transport": "stop_position",
        "railway": "stop",
        "train": "yes",
        "id": "node/7775258297"
      },
      "geometry": {
        "type": "Point",
        "coordinates": [
          23.735171,
          56.6420412
        ]
      }
    },
    {
      "type": "Feature",
      "id": "node/7775259727",
      "properties": {
        "name": "Olaine",
        "public_transport": "stop_position",
        "railway": "stop",
        "train": "yes",
        "id": "node/7775259727"
      },
      "geometry": {
        "type": "Point",
        "coordinates": [
          23.9464363,
          56.7864997
        ]
      }
    },
    {
      "type": "Feature",
      "id": "node/7775614257",
      "properties": {
        "name": "Ķemeri",
        "public_transport": "stop_position",
        "railway": "stop",
        "train": "yes",
        "id": "node/7775614257"
      },
      "geometry": {
        "type": "Point",
        "coordinates": [
          23.4921035,
          56.9379933
        ]
      }
    },
    {
      "type": "Feature",
      "id": "node/7794268761",
      "properties": {
        "name": "Jaunogre",
        "public_transport": "stop_position",
        "railway": "stop",
        "train": "yes",
        "id": "node/7794268761"
      },
      "geometry": {
        "type": "Point",
        "coordinates": [
          24.5835129,
          56.8213957
        ]
      }
    },
    {
      "type": "Feature",
      "id": "node/7794268762",
      "properties": {
        "esr:user": "094116",
        "name": "Jaunogre",
        "name:lv": "Jaunogre",
        "name:ru": "Яуногре",
        "public_transport": "station",
        "railway": "halt",
        "source": "Ortofoto 1:10000, 2007 gads, © Latvijas Ģeotelpiskās informācijas aģentūra",
        "train": "yes",
        "uic_ref": "2500700",
        "wikidata": "Q6164842",
        "id": "node/7794268762"
      },
      "geometry": {
        "type": "Point",
        "coordinates": [
          24.5817629,
          56.82183
        ]
      }
    },
    {
      "type": "Feature",
      "id": "node/7794268763",
      "properties": {
        "name": "Ikšķile",
        "public_transport": "stop_position",
        "railway": "stop",
        "train": "yes",
        "id": "node/7794268763"
      },
      "geometry": {
        "type": "Point",
        "coordinates": [
          24.5076636,
          56.8392728
        ]
      }
    },
    {
      "type": "Feature",
      "id": "node/7794268764",
      "properties": {
        "name": "Ikšķile",
        "public_transport": "stop_position",
        "railway": "stop",
        "train": "yes",
        "id": "node/7794268764"
      },
      "geometry": {
        "type": "Point",
        "coordinates": [
          24.5048477,
          56.8397602
        ]
      }
    },
    {
      "type": "Feature",
      "id": "node/7794268765",
      "properties": {
        "name": "Saulkalne",
        "public_transport": "stop_position",
        "railway": "stop",
        "train": "yes",
        "id": "node/7794268765"
      },
      "geometry": {
        "type": "Point",
        "coordinates": [
          24.4369514,
          56.8494262
        ]
      }
    },
    {
      "type": "Feature",
      "id": "node/7794268766",
      "properties": {
        "name": "Salaspils",
        "public_transport": "stop_position",
        "railway": "stop",
        "train": "yes",
        "id": "node/7794268766"
      },
      "geometry": {
        "type": "Point",
        "coordinates": [
          24.3542733,
          56.860376
        ]
      }
    },
    {
      "type": "Feature",
      "id": "node/7794268767",
      "properties": {
        "name": "Salaspils",
        "public_transport": "stop_position",
        "railway": "stop",
        "train": "yes",
        "id": "node/7794268767"
      },
      "geometry": {
        "type": "Point",
        "coordinates": [
          24.3518081,
          56.8606405
        ]
      }
    },
    {
      "type": "Feature",
      "id": "node/7794268773",
      "properties": {
        "name": "Dole",
        "public_transport": "stop_position",
        "railway": "stop",
        "train": "yes",
        "id": "node/7794268773"
      },
      "geometry": {
        "type": "Point",
        "coordinates": [
          24.3254492,
          56.864155
        ]
      }
    },
    {
      "type": "Feature",
      "id": "node/7794268774",
      "properties": {
        "name": "Dole",
        "public_transport": "stop_position",
        "railway": "stop",
        "train": "yes",
        "id": "node/7794268774"
      },
      "geometry": {
        "type": "Point",
        "coordinates": [
          24.3220739,
          56.8645597
        ]
      }
    },
    {
      "type": "Feature",
      "id": "node/7794268775",
      "properties": {
        "name": "Rumbula",
        "public_transport": "stop_position",
        "railway": "stop",
        "train": "yes",
        "id": "node/7794268775"
      },
      "geometry": {
        "type": "Point",
        "coordinates": [
          24.2530915,
          56.8833946
        ]
      }
    },
    {
      "type": "Feature",
      "id": "node/7794268776",
      "properties": {
        "name": "Rumbula",
        "public_transport": "stop_position",
        "railway": "stop",
        "train": "yes",
        "id": "node/7794268776"
      },
      "geometry": {
        "type": "Point",
        "coordinates": [
          24.2508162,
          56.8845005
        ]
      }
    },
    {
      "type": "Feature",
      "id": "node/7794268777",
      "properties": {
        "name": "Gaisma",
        "public_transport": "stop_position",
        "railway": "stop",
        "train": "yes",
        "id": "node/7794268777"
      },
      "geometry": {
        "type": "Point",
        "coordinates": [
          24.2329996,
          56.8935974
        ]
      }
    },
    {
      "type": "Feature",
      "id": "node/7794268778",
      "properties": {
        "name": "Gaisma",
        "public_transport": "stop_position",
        "railway": "stop",
        "train": "yes",
        "id": "node/7794268778"
      },
      "geometry": {
        "type": "Point",
        "coordinates": [
          24.230697,
          56.8947189
        ]
      }
    },
    {
      "type": "Feature",
      "id": "node/7794271585",
      "properties": {
        "name": "Daugmale",
        "public_transport": "stop_position",
        "railway": "stop",
        "train": "yes",
        "id": "node/7794271585"
      },
      "geometry": {
        "type": "Point",
        "coordinates": [
          24.2012493,
          56.9097043
        ]
      }
    },
    {
      "type": "Feature",
      "id": "node/7794271586",
      "properties": {
        "name": "Daugmale",
        "public_transport": "stop_position",
        "railway": "stop",
        "train": "yes",
        "id": "node/7794271586"
      },
      "geometry": {
        "type": "Point",
        "coordinates": [
          24.1984067,
          56.9110951
        ]
      }
    },
    {
      "type": "Feature",
      "id": "node/7794271587",
      "properties": {
        "esr:user": "090055",
        "name": "Daugmale",
        "name:lv": "Daugmale",
        "name:ru": "Даугмале",
        "public_transport": "station",
        "railway": "halt",
        "train": "yes",
        "uic_ref": "2501110",
        "wikidata": "Q5227969",
        "id": "node/7794271587"
      },
      "geometry": {
        "type": "Point",
        "coordinates": [
          24.200014,
          56.910314
        ]
      }
    },
    {
      "type": "Feature",
      "id": "node/7794271593",
      "properties": {
        "name": "Jāņavārti",
        "public_transport": "stop_position",
        "railway": "stop",
        "train": "yes",
        "id": "node/7794271593"
      },
      "geometry": {
        "type": "Point",
        "coordinates": [
          24.1849023,
          56.9197898
        ]
      }
    },
    {
      "type": "Feature",
      "id": "node/7794420728",
      "properties": {
        "name": "Lielvārde",
        "public_transport": "stop_position",
        "railway": "stop",
        "train": "yes",
        "id": "node/7794420728"
      },
      "geometry": {
        "type": "Point",
        "coordinates": [
          24.8082993,
          56.7222225
        ]
      }
    },
    {
      "type": "Feature",
      "id": "node/7794420729",
      "properties": {
        "name": "Lielvārde",
        "public_transport": "stop_position",
        "railway": "stop",
        "train": "yes",
        "id": "node/7794420729"
      },
      "geometry": {
        "type": "Point",
        "coordinates": [
          24.8082786,
          56.7221689
        ]
      }
    },
    {
      "type": "Feature",
      "id": "node/7794420730",
      "properties": {
        "name": "Lielvārde",
        "public_transport": "stop_position",
        "railway": "stop",
        "train": "yes",
        "id": "node/7794420730"
      },
      "geometry": {
        "type": "Point",
        "coordinates": [
          24.8070045,
          56.7222741
        ]
      }
    },
    {
      "type": "Feature",
      "id": "node/7794420737",
      "properties": {
        "name": "Ķegums",
        "public_transport": "stop_position",
        "railway": "stop",
        "train": "yes",
        "id": "node/7794420737"
      },
      "geometry": {
        "type": "Point",
        "coordinates": [
          24.7251347,
          56.7421726
        ]
      }
    },
    {
      "type": "Feature",
      "id": "node/7794420738",
      "properties": {
        "name": "Ķegums",
        "public_transport": "stop_position",
        "railway": "stop",
        "train": "yes",
        "id": "node/7794420738"
      },
      "geometry": {
        "type": "Point",
        "coordinates": [
          24.7254073,
          56.7418521
        ]
      }
    },
    {
      "type": "Feature",
      "id": "node/7794420741",
      "properties": {
        "name": "Ciemupe",
        "public_transport": "stop_position",
        "railway": "stop",
        "train": "yes",
        "id": "node/7794420741"
      },
      "geometry": {
        "type": "Point",
        "coordinates": [
          24.6550717,
          56.7812689
        ]
      }
    },
    {
      "type": "Feature",
      "id": "node/7794420742",
      "properties": {
        "name": "Ciemupe",
        "public_transport": "stop_position",
        "railway": "stop",
        "train": "yes",
        "id": "node/7794420742"
      },
      "geometry": {
        "type": "Point",
        "coordinates": [
          24.653109,
          56.7823819
        ]
      }
    },
    {
      "type": "Feature",
      "id": "node/7794420745",
      "properties": {
        "esr:user": "094031",
        "name": "Pārogre",
        "name:lv": "Parogre",
        "name:ru": "Парогре",
        "public_transport": "station",
        "railway": "halt",
        "source": "Ortofoto 1:10000, 2007 gads, © Latvijas Ģeotelpiskās informācijas aģentūra",
        "train": "yes",
        "uic_ref": "2500760",
        "wikidata": "Q15276428",
        "id": "node/7794420745"
      },
      "geometry": {
        "type": "Point",
        "coordinates": [
          24.615745,
          56.8089078
        ]
      }
    },
    {
      "type": "Feature",
      "id": "node/7795289723",
      "properties": {
        "name": "Krustpils",
        "public_transport": "stop_position",
        "railway": "stop",
        "train": "yes",
        "id": "node/7795289723"
      },
      "geometry": {
        "type": "Point",
        "coordinates": [
          25.8588465,
          56.5214173
        ]
      }
    },
    {
      "type": "Feature",
      "id": "node/7795289724",
      "properties": {
        "name": "Krustpils",
        "public_transport": "stop_position",
        "railway": "stop",
        "train": "yes",
        "id": "node/7795289724"
      },
      "geometry": {
        "type": "Point",
        "coordinates": [
          25.8586968,
          56.5213682
        ]
      }
    },
    {
      "type": "Feature",
      "id": "node/7795289725",
      "properties": {
        "name": "Krustpils",
        "public_transport": "stop_position",
        "railway": "stop",
        "train": "yes",
        "id": "node/7795289725"
      },
      "geometry": {
        "type": "Point",
        "coordinates": [
          25.857633,
          56.5219787
        ]
      }
    },
    {
      "type": "Feature",
      "id": "node/7795289755",
      "properties": {
        "name": "Pļaviņas",
        "public_transport": "stop_position",
        "railway": "stop",
        "train": "yes",
        "id": "node/7795289755"
      },
      "geometry": {
        "type": "Point",
        "coordinates": [
          25.7169697,
          56.6172407
        ]
      }
    },
    {
      "type": "Feature",
      "id": "node/7795289762",
      "properties": {
        "name": "Alotene",
        "public_transport": "stop_position",
        "railway": "stop",
        "train": "yes",
        "id": "node/7795289762"
      },
      "geometry": {
        "type": "Point",
        "coordinates": [
          25.5850451,
          56.6331642
        ]
      }
    },
    {
      "type": "Feature",
      "id": "node/7795289763",
      "properties": {
        "name": "Alotene",
        "public_transport": "stop_position",
        "railway": "stop",
        "train": "yes",
        "id": "node/7795289763"
      },
      "geometry": {
        "type": "Point",
        "coordinates": [
          25.5849429,
          56.6331315
        ]
      }
    },
    {
      "type": "Feature",
      "id": "node/7795289768",
      "properties": {
        "name": "Koknese",
        "public_transport": "stop_position",
        "railway": "stop",
        "train": "yes",
        "id": "node/7795289768"
      },
      "geometry": {
        "type": "Point",
        "coordinates": [
          25.4407052,
          56.6507488
        ]
      }
    },
    {
      "type": "Feature",
      "id": "node/7795289775",
      "properties": {
        "name": "Aizkraukle",
        "public_transport": "stop_position",
        "railway": "stop",
        "train": "yes",
        "id": "node/7795289775"
      },
      "geometry": {
        "type": "Point",
        "coordinates": [
          25.2744365,
          56.6226201
        ]
      }
    },
    {
      "type": "Feature",
      "id": "node/7795289781",
      "properties": {
        "name": "Skrīveri",
        "public_transport": "stop_position",
        "railway": "stop",
        "train": "yes",
        "id": "node/7795289781"
      },
      "geometry": {
        "type": "Point",
        "coordinates": [
          25.1240592,
          56.6469692
        ]
      }
    },
    {
      "type": "Feature",
      "id": "node/7795289782",
      "properties": {
        "name": "Skrīveri",
        "public_transport": "stop_position",
        "railway": "stop",
        "train": "yes",
        "id": "node/7795289782"
      },
      "geometry": {
        "type": "Point",
        "coordinates": [
          25.1225271,
          56.6474247
        ]
      }
    },
    {
      "type": "Feature",
      "id": "node/7795313193",
      "properties": {
        "name": "Jumprava",
        "public_transport": "stop_position",
        "railway": "stop",
        "train": "yes",
        "id": "node/7795313193"
      },
      "geometry": {
        "type": "Point",
        "coordinates": [
          24.9692181,
          56.6799388
        ]
      }
    },
    {
      "type": "Feature",
      "id": "node/7795313194",
      "properties": {
        "name": "Jumprava",
        "public_transport": "stop_position",
        "railway": "stop",
        "train": "yes",
        "id": "node/7795313194"
      },
      "geometry": {
        "type": "Point",
        "coordinates": [
          24.9685462,
          56.6800607
        ]
      }
    },
    {
      "type": "Feature",
      "id": "node/7795313195",
      "properties": {
        "esr:user": "093927",
        "name": "Jumprava",
        "name:lv": "Jumprava",
        "name:ru": "Юмправа",
        "public_transport": "station",
        "railway": "halt",
        "train": "yes",
        "uic_ref": "2500102",
        "wikidata": "Q6311352",
        "id": "node/7795313195"
      },
      "geometry": {
        "type": "Point",
        "coordinates": [
          24.9692376,
          56.6798787
        ]
      }
    },
    {
      "type": "Feature",
      "id": "node/7795313196",
      "properties": {
        "name": "Kaibala",
        "public_transport": "stop_position",
        "railway": "stop",
        "train": "yes",
        "id": "node/7795313196"
      },
      "geometry": {
        "type": "Point",
        "coordinates": [
          24.8893938,
          56.7029536
        ]
      }
    },
    {
      "type": "Feature",
      "id": "node/7795313197",
      "properties": {
        "name": "Kaibala",
        "public_transport": "stop_position",
        "railway": "stop",
        "train": "yes",
        "id": "node/7795313197"
      },
      "geometry": {
        "type": "Point",
        "coordinates": [
          24.8877289,
          56.7034842
        ]
      }
    },
    {
      "type": "Feature",
      "id": "node/7795520033",
      "properties": {
        "name": "Daugavpils",
        "public_transport": "stop_position",
        "railway": "stop",
        "train": "yes",
        "id": "node/7795520033"
      },
      "geometry": {
        "type": "Point",
        "coordinates": [
          26.5281937,
          55.8746901
        ]
      }
    },
    {
      "type": "Feature",
      "id": "node/7795520040",
      "properties": {
        "name": "Līksna",
        "public_transport": "stop_position",
        "railway": "stop",
        "train": "yes",
        "id": "node/7795520040"
      },
      "geometry": {
        "type": "Point",
        "coordinates": [
          26.4527692,
          55.998025
        ]
      }
    },
    {
      "type": "Feature",
      "id": "node/7795520061",
      "properties": {
        "name": "Jersika",
        "public_transport": "stop_position",
        "railway": "stop",
        "train": "yes",
        "id": "node/7795520061"
      },
      "geometry": {
        "type": "Point",
        "coordinates": [
          26.2103268,
          56.2545592
        ]
      }
    },
    {
      "type": "Feature",
      "id": "node/7795520070",
      "properties": {
        "name": "Līvāni",
        "public_transport": "stop_position",
        "railway": "stop",
        "train": "yes",
        "id": "node/7795520070"
      },
      "geometry": {
        "type": "Point",
        "coordinates": [
          26.1804303,
          56.3512585
        ]
      }
    },
    {
      "type": "Feature",
      "id": "node/7796261645",
      "properties": {
        "name": "Tore",
        "railway": "station",
        "wikidata": "Q7825652",
        "id": "node/7796261645"
      },
      "geometry": {
        "type": "Point",
        "coordinates": [
          21.2538411,
          56.5312132
        ]
      }
    },
    {
      "type": "Feature",
      "id": "node/7796970157",
      "properties": {
        "name": "Viļāni",
        "public_transport": "stop_position",
        "railway": "stop",
        "train": "yes",
        "id": "node/7796970157"
      },
      "geometry": {
        "type": "Point",
        "coordinates": [
          26.9385241,
          56.5609806
        ]
      }
    },
    {
      "type": "Feature",
      "id": "node/7796970166",
      "properties": {
        "name": "Varakļāni",
        "public_transport": "stop_position",
        "railway": "stop",
        "train": "yes",
        "id": "node/7796970166"
      },
      "geometry": {
        "type": "Point",
        "coordinates": [
          26.7693687,
          56.560594
        ]
      }
    },
    {
      "type": "Feature",
      "id": "node/7796970175",
      "properties": {
        "name": "Stirniene",
        "public_transport": "stop_position",
        "railway": "stop",
        "train": "yes",
        "id": "node/7796970175"
      },
      "geometry": {
        "type": "Point",
        "coordinates": [
          26.6372457,
          56.5658215
        ]
      }
    },
    {
      "type": "Feature",
      "id": "node/7797185447",
      "properties": {
        "name": "Ludza",
        "public_transport": "stop_position",
        "railway": "stop",
        "train": "yes",
        "id": "node/7797185447"
      },
      "geometry": {
        "type": "Point",
        "coordinates": [
          27.7211051,
          56.5331776
        ]
      }
    },
    {
      "type": "Feature",
      "id": "node/7797185454",
      "properties": {
        "name": "Cirma",
        "public_transport": "stop_position",
        "railway": "stop",
        "train": "yes",
        "id": "node/7797185454"
      },
      "geometry": {
        "type": "Point",
        "coordinates": [
          27.53377,
          56.5337206
        ]
      }
    },
    {
      "type": "Feature",
      "id": "node/7797185473",
      "properties": {
        "name": "Rēzekne-2",
        "public_transport": "stop_position",
        "railway": "stop",
        "train": "yes",
        "id": "node/7797185473"
      },
      "geometry": {
        "type": "Point",
        "coordinates": [
          27.3466156,
          56.5198894
        ]
      }
    },
    {
      "type": "Feature",
      "id": "node/7797287993",
      "properties": {
        "name": "Briģi",
        "public_transport": "stop_position",
        "railway": "stop",
        "train": "yes",
        "id": "node/7797287993"
      },
      "geometry": {
        "type": "Point",
        "coordinates": [
          28.0526231,
          56.4147947
        ]
      }
    },
    {
      "type": "Feature",
      "id": "node/7797287997",
      "properties": {
        "esr:user": "112935",
        "name": "Briģi",
        "name:lv": "Briģi",
        "name:ru": "Бриги",
        "public_transport": "station",
        "railway": "halt",
        "train": "yes",
        "uic_ref": "2500350",
        "id": "node/7797287997"
      },
      "geometry": {
        "type": "Point",
        "coordinates": [
          28.0525938,
          56.4147872
        ]
      }
    },
    {
      "type": "Feature",
      "id": "node/7797288006",
      "properties": {
        "name": "Istalsna",
        "public_transport": "stop_position",
        "railway": "stop",
        "train": "yes",
        "id": "node/7797288006"
      },
      "geometry": {
        "type": "Point",
        "coordinates": [
          27.8292088,
          56.4822543
        ]
      }
    },
    {
      "type": "Feature",
      "id": "node/7797361187",
      "properties": {
        "name": "Taudejāņi",
        "public_transport": "stop_position",
        "railway": "stop",
        "train": "yes",
        "id": "node/7797361187"
      },
      "geometry": {
        "type": "Point",
        "coordinates": [
          27.4540881,
          56.5321859
        ]
      }
    },
    {
      "type": "Feature",
      "id": "node/7799314250",
      "properties": {
        "esr:user": "093409",
        "name": "Skrunda",
        "name:lv": "Skrunda",
        "name:ru": "Скрунда",
        "public_transport": "station",
        "railway": "station",
        "train": "yes",
        "uic_ref": "2500461",
        "wikidata": "Q7536677",
        "id": "node/7799314250"
      },
      "geometry": {
        "type": "Point",
        "coordinates": [
          22.0126929,
          56.6805803
        ]
      }
    },
    {
      "type": "Feature",
      "id": "node/7799371878",
      "properties": {
        "esr:user": "091809",
        "name": "Jelgava",
        "name:de": "Jelgava",
        "name:lt": "Jelgava",
        "name:lv": "Jelgava",
        "name:ru": "Елгава",
        "public_transport": "station",
        "railway": "station",
        "train": "yes",
        "uic_ref": "2500335",
        "wikidata": "Q5244309",
        "id": "node/7799371878"
      },
      "geometry": {
        "type": "Point",
        "coordinates": [
          23.7339107,
          56.641437
        ]
      }
    },
    {
      "type": "Feature",
      "id": "node/7799371879",
      "properties": {
        "esr:user": "092905",
        "name": "Dobele",
        "name:de": "Doblen",
        "name:lt": "Duobelė",
        "name:lv": "Dobele",
        "name:ru": "Добеле",
        "public_transport": "station",
        "railway": "station",
        "train": "yes",
        "uic_ref": "2500381",
        "wikidata": "Q5286564",
        "id": "node/7799371879"
      },
      "geometry": {
        "type": "Point",
        "coordinates": [
          23.2848922,
          56.6286382
        ]
      }
    },
    {
      "type": "Feature",
      "id": "node/7799371880",
      "properties": {
        "esr:user": "093039",
        "name": "Biksti",
        "name:lv": "Biksti",
        "name:ru": "Биксти",
        "public_transport": "station",
        "railway": "station",
        "train": "yes",
        "uic_ref": "2500278",
        "wikidata": "Q4907459",
        "id": "node/7799371880"
      },
      "geometry": {
        "type": "Point",
        "coordinates": [
          22.9809597,
          56.6914441
        ]
      }
    },
    {
      "type": "Feature",
      "id": "node/7799371881",
      "properties": {
        "name": "Saldus",
        "name:de": "Frauenburg",
        "name:lt": "Saldus",
        "name:ru": "Салдус",
        "name:zh": "薩爾杜斯",
        "public_transport": "station",
        "railway": "station",
        "train": "yes",
        "wikidata": "Q6111970",
        "id": "node/7799371881"
      },
      "geometry": {
        "type": "Point",
        "coordinates": [
          22.4719549,
          56.6857989
        ]
      }
    },
    {
      "type": "Feature",
      "id": "node/7799405223",
      "properties": {
        "alt_name:ru": "Рига-Пасажиеру",
        "esr:user": "090100",
        "gauge": "1520",
        "name": "Rīga-Pasažieru",
        "name:DB": "Riga-Passajirskaja",
        "name:de": "Riga Hauptbahnhof",
        "name:lv": "Rīga pasažieru",
        "name:ru": "Рига-пассажирская",
        "name:ru-Latn": "Riga-Passajirskaja",
        "public_transport": "station",
        "railway": "station",
        "railway:ref:DB": "ZTR",
        "uic_ref": "2500001",
        "wheelchair": "no",
        "wikidata": "Q2660080",
        "id": "node/7799405223"
      },
      "geometry": {
        "type": "Point",
        "coordinates": [
          24.1229108,
          56.9463999
        ]
      }
    },
    {
      "type": "Feature",
      "id": "node/7799405225",
      "properties": {
        "esr:user": "091008",
        "name": "Torņakalns",
        "name:de": "Thorensberg",
        "name:lv": "Torņakalns",
        "name:ru": "Торнякалнс",
        "public_transport": "station",
        "railway": "station",
        "train": "yes",
        "uic_ref": "2500003",
        "wikidata": "Q7827521",
        "wikipedia": "lv:Torņakalns (stacija)",
        "id": "node/7799405225"
      },
      "geometry": {
        "type": "Point",
        "coordinates": [
          24.0891593,
          56.9326665
        ]
      }
    },
    {
      "type": "Feature",
      "id": "node/7799405226",
      "properties": {
        "esr:user": "091508",
        "name": "Olaine",
        "name:de": "Olai",
        "name:lt": "Uolainė",
        "name:lv": "Olaine",
        "name:ru": "Олайне",
        "public_transport": "station",
        "railway": "station",
        "train": "yes",
        "uic_ref": "2500427",
        "wheelchair": "yes",
        "wikidata": "Q7083038",
        "id": "node/7799405226"
      },
      "geometry": {
        "type": "Point",
        "coordinates": [
          23.946611,
          56.7865359
        ]
      }
    },
    {
      "type": "Feature",
      "id": "node/7799405227",
      "properties": {
        "esr:user": "091601",
        "name": "Cena",
        "name:lv": "Cena",
        "name:ru": "Цена",
        "public_transport": "station",
        "railway": "station",
        "train": "yes",
        "uic_ref": "2500271",
        "wheelchair": "no",
        "wikidata": "Q5058775",
        "id": "node/7799405227"
      },
      "geometry": {
        "type": "Point",
        "coordinates": [
          23.8329847,
          56.7087036
        ]
      }
    },
    {
      "type": "Feature",
      "id": "node/7800554367",
      "properties": {
        "name": "Sloka",
        "name:lv": "Sloka",
        "name:ru": "Слока",
        "public_transport": "station",
        "railway": "station",
        "source": "Jūrmalas Domes Pilsētplānošanas nodaļa",
        "train": "yes",
        "wheelchair": "limited",
        "wikidata": "Q4423914",
        "wikipedia": "lv:Sloka (stacija)",
        "id": "node/7800554367"
      },
      "geometry": {
        "type": "Point",
        "coordinates": [
          23.6183433,
          56.9474052
        ]
      }
    },
    {
      "type": "Feature",
      "id": "node/7800554368",
      "properties": {
        "name": "Ķemeri",
        "name:ru": "Кемери",
        "public_transport": "station",
        "railway": "station",
        "source": "Jūrmalas Domes Pilsētplānošanas nodaļa",
        "train": "yes",
        "wikidata": "Q4208062",
        "wikipedia": "lv:Ķemeri (stacija)",
        "id": "node/7800554368"
      },
      "geometry": {
        "type": "Point",
        "coordinates": [
          23.4904404,
          56.9382389
        ]
      }
    },
    {
      "type": "Feature",
      "id": "node/7800554369",
      "properties": {
        "esr:user": "097364",
        "internet_access": "wlan",
        "internet_access:ssid": "Publiskais Internets",
        "name": "Tukums-1",
        "name:de": "Tuckum-1",
        "name:lt": "Tukumas-1",
        "name:lv": "Tukums-1",
        "name:ru": "Тукумс-1",
        "public_transport": "station",
        "railway": "station",
        "train": "yes",
        "uic_ref": "2500378",
        "wikidata": "Q4208039",
        "wikipedia": "lv:Tukums I",
        "id": "node/7800554369"
      },
      "geometry": {
        "type": "Point",
        "coordinates": [
          23.1697642,
          56.965796
        ]
      }
    },
    {
      "type": "Feature",
      "id": "node/7800554370",
      "properties": {
        "alt_name": "Tukums 2",
        "esr:user": "097504",
        "name": "Tukums II",
        "name:de": "Tuckum II",
        "name:lt": "Tukumas II",
        "name:lv": "Tukums II",
        "name:ru": "Тукумс II",
        "public_transport": "station",
        "railway": "station",
        "uic_ref": "2500256",
        "wikidata": "Q6111863",
        "wikipedia": "lv:Tukums II",
        "id": "node/7800554370"
      },
      "geometry": {
        "type": "Point",
        "coordinates": [
          23.115359,
          56.9596386
        ]
      }
    },
    {
      "type": "Feature",
      "id": "node/7800623829",
      "properties": {
        "alt_name:ru": "Дубулти",
        "name": "Dubulti",
        "name:ru": "Дубулты",
        "public_transport": "station",
        "railway": "station",
        "source": "Jūrmalas Domes Pilsētplānošanas nodaļa",
        "train": "yes",
        "wikidata": "Q4169903",
        "wikipedia": "lv:Dubulti (stacija)",
        "id": "node/7800623829"
      },
      "geometry": {
        "type": "Point",
        "coordinates": [
          23.7767275,
          56.9696556
        ]
      }
    },
    {
      "type": "Feature",
      "id": "node/7800645042",
      "properties": {
        "name": "Zasulauks",
        "name:de": "Sassenhof",
        "name:ru": "Засулаукс",
        "public_transport": "station",
        "railway": "station",
        "train": "yes",
        "uic_ref": "2500458",
        "wikidata": "Q2336005",
        "id": "node/7800645042"
      },
      "geometry": {
        "type": "Point",
        "coordinates": [
          24.0522052,
          56.9409622
        ]
      }
    },
    {
      "type": "Feature",
      "id": "node/7800645043",
      "properties": {
        "name": "Priedaine",
        "name:lv": "Priedaine",
        "name:ru": "Приедайне",
        "public_transport": "station",
        "railway": "station",
        "source": "Jūrmalas Domes Pilsētplānošanas nodaļa",
        "train": "yes",
        "wikidata": "Q4378191",
        "wikipedia": "lv:Priedaine (stacija)",
        "id": "node/7800645043"
      },
      "geometry": {
        "type": "Point",
        "coordinates": [
          23.8869427,
          56.9718965
        ]
      }
    },
    {
      "type": "Feature",
      "id": "node/7800729532",
      "properties": {
        "esr:user": "094101",
        "name": "Ogre",
        "name:lt": "Uogrė",
        "name:lv": "Ogre",
        "name:ru": "Огре",
        "public_transport": "station",
        "railway": "station",
        "source": "Ortofoto 1:10000, 2007 gads, © Latvijas Ģeotelpiskās informācijas aģentūra",
        "train": "yes",
        "uic_ref": "2500354",
        "wheelchair": "limited",
        "wikidata": "Q6112588",
        "id": "node/7800729532"
      },
      "geometry": {
        "type": "Point",
        "coordinates": [
          24.6020435,
          56.8157685
        ]
      }
    },
    {
      "type": "Feature",
      "id": "node/7800729533",
      "properties": {
        "name": "Salaspils",
        "name:de": "Kirchholm",
        "name:lt": "Salaspilis",
        "name:ru": "Саласпилс",
        "operator": "LDZ",
        "public_transport": "station",
        "railway": "station",
        "train": "yes",
        "uic_ref": "2500457",
        "id": "node/7800729533"
      },
      "geometry": {
        "type": "Point",
        "coordinates": [
          24.3531225,
          56.8604988
        ]
      }
    },
    {
      "type": "Feature",
      "id": "node/7800729534",
      "properties": {
        "esr:user": "090007",
        "name": "Šķirotava",
        "name:lv": "Šķirotava",
        "name:ru": "Шкиротава",
        "public_transport": "station",
        "railway": "station",
        "train": "yes",
        "uic_ref": "2500025",
        "wikidata": "Q8082938",
        "wikipedia": "lv:Šķirotava (stacija)",
        "id": "node/7800729534"
      },
      "geometry": {
        "type": "Point",
        "coordinates": [
          24.2110939,
          56.9046971
        ]
      }
    },
    {
      "type": "Feature",
      "id": "node/7800729535",
      "properties": {
        "esr:user": "090064",
        "name": "Jāņavārti",
        "name:lv": "Jāņavārti",
        "name:ru": "Яняварти",
        "public_transport": "station",
        "railway": "station",
        "train": "yes",
        "uic_ref": "2500045",
        "wikidata": "Q10500196",
        "id": "node/7800729535"
      },
      "geometry": {
        "type": "Point",
        "coordinates": [
          24.1859546,
          56.9190176
        ]
      }
    },
    {
      "type": "Feature",
      "id": "node/7800752441",
      "properties": {
        "esr:user": "094008",
        "name": "Lielvārde",
        "name:de": "Lennewarden",
        "name:lv": "Lielvārde",
        "name:ru": "Лиелварде",
        "public_transport": "station",
        "railway": "station",
        "train": "yes",
        "uic_ref": "2500101",
        "wikidata": "Q6112558",
        "id": "node/7800752441"
      },
      "geometry": {
        "type": "Point",
        "coordinates": [
          24.8077859,
          56.72221
        ]
      }
    },
    {
      "type": "Feature",
      "id": "node/7800795818",
      "properties": {
        "name": "Krustpils",
        "name:lt": "Krustpilis",
        "name:ru": "Крустпилс",
        "name:uk": "Крустпілс",
        "old_name": "Kreuzburg",
        "operator": "LDz",
        "public_transport": "station",
        "railway": "station",
        "start_date": "1861",
        "train": "yes",
        "uic_ref": "2500368",
        "wheelchair": "yes",
        "wikidata": "Q2068319",
        "wikipedia": "lv:Krustpils (stacija)",
        "id": "node/7800795818"
      },
      "geometry": {
        "type": "Point",
        "coordinates": [
          25.8582963,
          56.5216659
        ]
      }
    },
    {
      "type": "Feature",
      "id": "node/7800795819",
      "properties": {
        "name": "Pļaviņas",
        "name:ru": "Плявиняс",
        "public_transport": "station",
        "railway": "station",
        "train": "yes",
        "uic_ref": "2500349",
        "wikidata": "Q6111433",
        "id": "node/7800795819"
      },
      "geometry": {
        "type": "Point",
        "coordinates": [
          25.7168784,
          56.6171681
        ]
      }
    },
    {
      "type": "Feature",
      "id": "node/7800795820",
      "properties": {
        "esr:user": "093607",
        "name": "Koknese",
        "name:de": "Kokenhusen",
        "name:lv": "Koknese",
        "name:ru": "Кокнесе",
        "name:uk": "Кокнесе",
        "public_transport": "station",
        "railway": "station",
        "train": "yes",
        "uic_ref": "2500351",
        "wikidata": "Q6426695",
        "id": "node/7800795820"
      },
      "geometry": {
        "type": "Point",
        "coordinates": [
          25.4392666,
          56.6509809
        ]
      }
    },
    {
      "type": "Feature",
      "id": "node/7800795821",
      "properties": {
        "esr:user": "093700",
        "name": "Aizkraukle",
        "name:de": "Ascheraden",
        "name:lt": "Aizkrauklė",
        "name:lv": "Aizkraukle",
        "name:ru": "Айзкраукле",
        "public_transport": "station",
        "railway": "station",
        "train": "yes",
        "uic_ref": "2500352",
        "wikidata": "Q4699437",
        "id": "node/7800795821"
      },
      "geometry": {
        "type": "Point",
        "coordinates": [
          25.2746471,
          56.6226963
        ]
      }
    },
    {
      "type": "Feature",
      "id": "node/7800795822",
      "properties": {
        "name": "Skrīveri",
        "public_transport": "station",
        "railway": "station",
        "train": "yes",
        "uic_ref": "2500353",
        "wikidata": "Q7536838",
        "id": "node/7800795822"
      },
      "geometry": {
        "type": "Point",
        "coordinates": [
          25.123241,
          56.6471934
        ]
      }
    },
    {
      "type": "Feature",
      "id": "node/7800844381",
      "properties": {
        "alt_name:ru": "Даугавпилс-Шкирошанас",
        "name": "Daugavpils",
        "name:ar": "دوغفبلس",
        "name:be": "Даўгаўпілс",
        "name:be-tarask": "Дзьвінск",
        "name:de": "Dünaburg",
        "name:en": "Daugavpils",
        "name:fi": "Väinänlinna",
        "name:la": "Duneburgum",
        "name:lt": "Daugpilis",
        "name:pl": "Dyneburg",
        "name:ru": "Даугавпилс",
        "name:uk": "Даугавпілс",
        "name:yi": "דינעבורג",
        "public_transport": "station",
        "railway": "station",
        "train": "yes",
        "uic_ref": "2500410",
        "wikidata": "Q2653770",
        "id": "node/7800844381"
      },
      "geometry": {
        "type": "Point",
        "coordinates": [
          26.5283553,
          55.8746957
        ]
      }
    },
    {
      "type": "Feature",
      "id": "node/7800844382",
      "properties": {
        "esr:user": "114432",
        "name": "Līksna",
        "name:lv": "Līksna",
        "name:ru": "Ликсна",
        "public_transport": "station",
        "railway": "station",
        "train": "yes",
        "uic_ref": "2500118",
        "id": "node/7800844382"
      },
      "geometry": {
        "type": "Point",
        "coordinates": [
          26.4528314,
          55.9980045
        ]
      }
    },
    {
      "type": "Feature",
      "id": "node/7800844383",
      "properties": {
        "esr:user": "114428",
        "name": "Vabole",
        "name:lv": "Vabole",
        "name:ru": "Ваболе",
        "public_transport": "station",
        "railway": "station",
        "train": "yes",
        "uic_ref": "2500117",
        "id": "node/7800844383"
      },
      "geometry": {
        "type": "Point",
        "coordinates": [
          26.4576057,
          56.0407508
        ]
      }
    },
    {
      "type": "Feature",
      "id": "node/7800844384",
      "properties": {
        "esr:user": "114466",
        "name": "Nīcgale",
        "name:lv": "Nīcgale",
        "name:ru": "Ницгале",
        "public_transport": "station",
        "railway": "station",
        "train": "yes",
        "uic_ref": "2500116",
        "id": "node/7800844384"
      },
      "geometry": {
        "type": "Point",
        "coordinates": [
          26.3717334,
          56.1354471
        ]
      }
    },
    {
      "type": "Feature",
      "id": "node/7800848460",
      "properties": {
        "alt_name": "Rēzekne II",
        "name": "Rēzekne-2",
        "name:ru": "Резекне-2",
        "public_transport": "station",
        "railway": "station",
        "train": "yes",
        "uic_ref": "2500366",
        "wikidata": "Q11891612",
        "id": "node/7800848460"
      },
      "geometry": {
        "type": "Point",
        "coordinates": [
          27.3459849,
          56.5199784
        ]
      }
    },
    {
      "type": "Feature",
      "id": "node/7800848461",
      "properties": {
        "name": "Taudejāņi",
        "public_transport": "station",
        "railway": "station",
        "train": "yes",
        "id": "node/7800848461"
      },
      "geometry": {
        "type": "Point",
        "coordinates": [
          27.4540492,
          56.5321543
        ]
      }
    },
    {
      "type": "Feature",
      "id": "node/7800848462",
      "properties": {
        "esr:user": "113016",
        "name": "Cirma",
        "name:lv": "Cirma",
        "name:ru": "Цирма",
        "public_transport": "station",
        "railway": "station",
        "train": "yes",
        "uic_ref": "2500112",
        "id": "node/7800848462"
      },
      "geometry": {
        "type": "Point",
        "coordinates": [
          27.5338149,
          56.5336838
        ]
      }
    },
    {
      "type": "Feature",
      "id": "node/7800848463",
      "properties": {
        "name": "Ludza",
        "name:lt": "Ludza",
        "public_transport": "station",
        "railway": "station",
        "train": "yes",
        "uic_ref": "2500363",
        "wikidata": "Q16362771",
        "id": "node/7800848463"
      },
      "geometry": {
        "type": "Point",
        "coordinates": [
          27.7211554,
          56.533158
        ]
      }
    },
    {
      "type": "Feature",
      "id": "node/7800848464",
      "properties": {
        "esr:user": "112920",
        "name": "Istalsna",
        "name:lv": "Istalsna",
        "name:ru": "Исталсна",
        "public_transport": "station",
        "railway": "station",
        "train": "yes",
        "uic_ref": "2500362",
        "id": "node/7800848464"
      },
      "geometry": {
        "type": "Point",
        "coordinates": [
          27.8291278,
          56.4822458
        ]
      }
    },
    {
      "type": "Feature",
      "id": "node/7800848465",
      "properties": {
        "esr:user": "112916",
        "name": "Nerza",
        "name:lv": "Nerza",
        "name:ru": "Нерза",
        "public_transport": "station",
        "railway": "station",
        "train": "yes",
        "uic_ref": "2500361",
        "id": "node/7800848465"
      },
      "geometry": {
        "type": "Point",
        "coordinates": [
          27.959211,
          56.4308036
        ]
      }
    },
    {
      "type": "Feature",
      "id": "node/7800848466",
      "properties": {
        "esr:user": "112901",
        "name": "Zilupe",
        "name:de": "Rosenau",
        "name:lt": "Zilupė",
        "name:lv": "Zilupe",
        "name:ru": "Зилупе",
        "name:uk": "Зілупе",
        "public_transport": "station",
        "railway": "station",
        "train": "yes",
        "uic_ref": "2500415",
        "id": "node/7800848466"
      },
      "geometry": {
        "type": "Point",
        "coordinates": [
          28.1178674,
          56.3917485
        ]
      }
    },
    {
      "type": "Feature",
      "id": "node/7800852785",
      "properties": {
        "esr:user": "114318",
        "name": "Jersika",
        "name:lv": "Jersika",
        "name:ru": "Ерсика",
        "public_transport": "station",
        "railway": "station",
        "train": "yes",
        "uic_ref": "2500115",
        "id": "node/7800852785"
      },
      "geometry": {
        "type": "Point",
        "coordinates": [
          26.2103593,
          56.254546
        ]
      }
    },
    {
      "type": "Feature",
      "id": "node/7800852786",
      "properties": {
        "esr:user": "114305",
        "name": "Līvāni",
        "name:lv": "Līvāni",
        "name:ru": "Ливаны",
        "public_transport": "station",
        "railway": "station",
        "train": "yes",
        "uic_ref": "2500369",
        "id": "node/7800852786"
      },
      "geometry": {
        "type": "Point",
        "coordinates": [
          26.180671,
          56.3513216
        ]
      }
    },
    {
      "type": "Feature",
      "id": "node/7800852787",
      "properties": {
        "esr:user": "114220",
        "name": "Trepe",
        "name:lv": "Trepe",
        "name:ru": "Трепе",
        "public_transport": "station",
        "railway": "station",
        "train": "yes",
        "uic_ref": "2500114",
        "id": "node/7800852787"
      },
      "geometry": {
        "type": "Point",
        "coordinates": [
          26.0759172,
          56.438525
        ]
      }
    },
    {
      "type": "Feature",
      "id": "node/7800862648",
      "properties": {
        "name": "Viļāni",
        "public_transport": "station",
        "railway": "station",
        "train": "yes",
        "id": "node/7800862648"
      },
      "geometry": {
        "type": "Point",
        "coordinates": [
          26.9386689,
          56.5610158
        ]
      }
    },
    {
      "type": "Feature",
      "id": "node/7800862649",
      "properties": {
        "name": "Sakstagals",
        "public_transport": "station",
        "railway": "station",
        "train": "yes",
        "wikidata": "Q19896853",
        "id": "node/7800862649"
      },
      "geometry": {
        "type": "Point",
        "coordinates": [
          27.1520385,
          56.5364737
        ]
      }
    },
    {
      "type": "Feature",
      "id": "node/7800956041",
      "properties": {
        "name": "Kūkas",
        "public_transport": "station",
        "railway": "station",
        "train": "yes",
        "id": "node/7800956041"
      },
      "geometry": {
        "type": "Point",
        "coordinates": [
          26.0599022,
          56.54011
        ]
      }
    },
    {
      "type": "Feature",
      "id": "node/7800956042",
      "properties": {
        "name": "Mežāre",
        "public_transport": "station",
        "railway": "station",
        "train": "yes",
        "id": "node/7800956042"
      },
      "geometry": {
        "type": "Point",
        "coordinates": [
          26.2515377,
          56.5418585
        ]
      }
    },
    {
      "type": "Feature",
      "id": "node/7800956043",
      "properties": {
        "name": "Atašiene",
        "public_transport": "station",
        "railway": "station",
        "train": "yes",
        "id": "node/7800956043"
      },
      "geometry": {
        "type": "Point",
        "coordinates": [
          26.4082127,
          56.5300459
        ]
      }
    },
    {
      "type": "Feature",
      "id": "node/7800956044",
      "properties": {
        "name": "Stirniene",
        "public_transport": "station",
        "railway": "station",
        "train": "yes",
        "id": "node/7800956044"
      },
      "geometry": {
        "type": "Point",
        "coordinates": [
          26.6371755,
          56.5657897
        ]
      }
    },
    {
      "type": "Feature",
      "id": "node/7800956045",
      "properties": {
        "esr:user": "113815",
        "name": "Varakļāni",
        "name:lv": "Varakļāni",
        "name:ru": "Варакляны",
        "public_transport": "station",
        "railway": "station",
        "train": "yes",
        "uic_ref": "2500109",
        "id": "node/7800956045"
      },
      "geometry": {
        "type": "Point",
        "coordinates": [
          26.7694002,
          56.5605787
        ]
      }
    },
    {
      "type": "Feature",
      "id": "node/7801873739",
      "properties": {
        "name": "Madona",
        "name:de": "Madohn",
        "name:lt": "Maduona",
        "name:ru": "Мадона",
        "public_transport": "station",
        "railway": "station",
        "train": "yes",
        "uic_ref": "2500145",
        "wikidata": "Q15219327",
        "id": "node/7801873739"
      },
      "geometry": {
        "type": "Point",
        "coordinates": [
          26.2203005,
          56.8508458
        ]
      }
    },
    {
      "type": "Feature",
      "id": "node/7801873740",
      "properties": {
        "esr:user": "117303",
        "name": "Mārciena",
        "name:lv": "Mārciena",
        "name:ru": "Марциена",
        "public_transport": "station",
        "railway": "halt",
        "train": "yes",
        "uic_ref": "2500149",
        "wikidata": "Q15219409",
        "id": "node/7801873740"
      },
      "geometry": {
        "type": "Point",
        "coordinates": [
          26.0970757,
          56.7717378
        ]
      }
    },
    {
      "type": "Feature",
      "id": "node/7801873745",
      "properties": {
        "name": "Kalsnava",
        "public_transport": "station",
        "railway": "halt",
        "train": "yes",
        "uic_ref": "2500148",
        "wikidata": "Q15219083",
        "id": "node/7801873745"
      },
      "geometry": {
        "type": "Point",
        "coordinates": [
          26.0186409,
          56.73373
        ]
      }
    },
    {
      "type": "Feature",
      "id": "node/7801873747",
      "properties": {
        "esr:user": "117500",
        "name": "Jaunkalsnava",
        "name:lv": "Jaunkalsnava",
        "name:ru": "Яункалснава",
        "public_transport": "station",
        "railway": "station",
        "uic_ref": "2500147",
        "wikidata": "Q15219021",
        "id": "node/7801873747"
      },
      "geometry": {
        "type": "Point",
        "coordinates": [
          25.9773342,
          56.6871358
        ]
      }
    },
    {
      "type": "Feature",
      "id": "node/7803882002",
      "properties": {
        "name": "Čiekurkalns",
        "public_transport": "stop_position",
        "railway": "stop",
        "train": "yes",
        "id": "node/7803882002"
      },
      "geometry": {
        "type": "Point",
        "coordinates": [
          24.1686186,
          56.9802715
        ]
      }
    },
    {
      "type": "Feature",
      "id": "node/7803882003",
      "properties": {
        "name": "Čiekurkalns",
        "public_transport": "stop_position",
        "railway": "stop",
        "train": "yes",
        "id": "node/7803882003"
      },
      "geometry": {
        "type": "Point",
        "coordinates": [
          24.1685444,
          56.98032
        ]
      }
    },
    {
      "type": "Feature",
      "id": "node/7803882004",
      "properties": {
        "esr:user": "095800",
        "name": "Čiekurkalns",
        "name:de": "Schreyenbusch",
        "name:lv": "Čiekurkalns",
        "name:ru": "Чиекуркалнс",
        "public_transport": "station",
        "railway": "station",
        "train": "yes",
        "uic_ref": "2500163",
        "wikidata": "Q4515710",
        "id": "node/7803882004"
      },
      "geometry": {
        "type": "Point",
        "coordinates": [
          24.1685323,
          56.9802881
        ]
      }
    },
    {
      "type": "Feature",
      "id": "node/7803974017",
      "properties": {
        "name": "Vangaži",
        "public_transport": "stop_position",
        "railway": "stop",
        "train": "yes",
        "id": "node/7803974017"
      },
      "geometry": {
        "type": "Point",
        "coordinates": [
          24.5866642,
          57.0784329
        ]
      }
    },
    {
      "type": "Feature",
      "id": "node/7803974018",
      "properties": {
        "name": "Vangaži",
        "public_transport": "stop_position",
        "railway": "stop",
        "train": "yes",
        "id": "node/7803974018"
      },
      "geometry": {
        "type": "Point",
        "coordinates": [
          24.5866662,
          57.0783846
        ]
      }
    },
    {
      "type": "Feature",
      "id": "node/7803974019",
      "properties": {
        "esr:user": "095301",
        "name": "Vangaži",
        "name:de": "Wangasch",
        "name:lt": "Vangažiai",
        "name:lv": "Vangaži",
        "name:ru": "Вангажи",
        "public_transport": "station",
        "railway": "station",
        "train": "yes",
        "uic_ref": "2500168",
        "wikidata": "Q4103291",
        "id": "node/7803974019"
      },
      "geometry": {
        "type": "Point",
        "coordinates": [
          24.5866943,
          57.0784271
        ]
      }
    },
    {
      "type": "Feature",
      "id": "node/7803974026",
      "properties": {
        "name": "Krievupe",
        "public_transport": "stop_position",
        "railway": "stop",
        "train": "yes",
        "id": "node/7803974026"
      },
      "geometry": {
        "type": "Point",
        "coordinates": [
          24.5089045,
          57.0646057
        ]
      }
    },
    {
      "type": "Feature",
      "id": "node/7803974027",
      "properties": {
        "name": "Krievupe",
        "public_transport": "stop_position",
        "railway": "stop",
        "train": "yes",
        "id": "node/7803974027"
      },
      "geometry": {
        "type": "Point",
        "coordinates": [
          24.5089301,
          57.0645449
        ]
      }
    },
    {
      "type": "Feature",
      "id": "node/7803974028",
      "properties": {
        "name": "Garkalne",
        "public_transport": "stop_position",
        "railway": "stop",
        "train": "yes",
        "id": "node/7803974028"
      },
      "geometry": {
        "type": "Point",
        "coordinates": [
          24.4143595,
          57.0468996
        ]
      }
    },
    {
      "type": "Feature",
      "id": "node/7803974029",
      "properties": {
        "name": "Garkalne",
        "public_transport": "stop_position",
        "railway": "stop",
        "train": "yes",
        "id": "node/7803974029"
      },
      "geometry": {
        "type": "Point",
        "coordinates": [
          24.4144663,
          57.0468557
        ]
      }
    },
    {
      "type": "Feature",
      "id": "node/7803974030",
      "properties": {
        "name": "Jugla",
        "public_transport": "stop_position",
        "railway": "stop",
        "train": "yes",
        "id": "node/7803974030"
      },
      "geometry": {
        "type": "Point",
        "coordinates": [
          24.2363578,
          56.9925775
        ]
      }
    },
    {
      "type": "Feature",
      "id": "node/7803974031",
      "properties": {
        "esr:user": "095706",
        "name": "Jugla",
        "name:de": "Jägel",
        "name:lv": "Jugla",
        "name:ru": "Югла",
        "public_transport": "station",
        "railway": "station",
        "train": "yes",
        "uic_ref": "2500164",
        "wikidata": "Q4533643",
        "id": "node/7803974031"
      },
      "geometry": {
        "type": "Point",
        "coordinates": [
          24.2350441,
          56.9921661
        ]
      }
    },
    {
      "type": "Feature",
      "id": "node/7804039706",
      "properties": {
        "name": "Līgatne",
        "public_transport": "stop_position",
        "railway": "stop",
        "train": "yes",
        "id": "node/7804039706"
      },
      "geometry": {
        "type": "Point",
        "coordinates": [
          25.0239347,
          57.1842755
        ]
      }
    },
    {
      "type": "Feature",
      "id": "node/7804039709",
      "properties": {
        "name": "Sigulda",
        "public_transport": "stop_position",
        "railway": "stop",
        "train": "yes",
        "id": "node/7804039709"
      },
      "geometry": {
        "type": "Point",
        "coordinates": [
          24.855626,
          57.1530934
        ]
      }
    },
    {
      "type": "Feature",
      "id": "node/7804039710",
      "properties": {
        "name": "Sigulda",
        "public_transport": "stop_position",
        "railway": "stop",
        "train": "yes",
        "id": "node/7804039710"
      },
      "geometry": {
        "type": "Point",
        "coordinates": [
          24.8555954,
          57.1531488
        ]
      }
    },
    {
      "type": "Feature",
      "id": "node/7804039711",
      "properties": {
        "name": "Sigulda",
        "public_transport": "stop_position",
        "railway": "stop",
        "train": "yes",
        "id": "node/7804039711"
      },
      "geometry": {
        "type": "Point",
        "coordinates": [
          24.855571,
          57.1531939
        ]
      }
    },
    {
      "type": "Feature",
      "id": "node/7804039713",
      "properties": {
        "name": "Egļupe",
        "public_transport": "stop_position",
        "railway": "stop",
        "train": "yes",
        "id": "node/7804039713"
      },
      "geometry": {
        "type": "Point",
        "coordinates": [
          24.7410594,
          57.1073702
        ]
      }
    },
    {
      "type": "Feature",
      "id": "node/7804039714",
      "properties": {
        "name": "Egļupe",
        "public_transport": "stop_position",
        "railway": "stop",
        "train": "yes",
        "id": "node/7804039714"
      },
      "geometry": {
        "type": "Point",
        "coordinates": [
          24.7409534,
          57.1073766
        ]
      }
    },
    {
      "type": "Feature",
      "id": "node/7804066713",
      "properties": {
        "name": "Ieriķi",
        "public_transport": "stop_position",
        "railway": "stop",
        "train": "yes",
        "id": "node/7804066713"
      },
      "geometry": {
        "type": "Point",
        "coordinates": [
          25.1727528,
          57.1994952
        ]
      }
    },
    {
      "type": "Feature",
      "id": "node/7804066716",
      "properties": {
        "esr:user": "111307",
        "name": "Ieriķi",
        "name:lv": "Ieriķi",
        "name:ru": "Иерики",
        "public_transport": "station",
        "railway": "station",
        "train": "yes",
        "uic_ref": "2500174",
        "id": "node/7804066716"
      },
      "geometry": {
        "type": "Point",
        "coordinates": [
          25.1727864,
          57.1995089
        ]
      }
    },
    {
      "type": "Feature",
      "id": "node/7804086571",
      "properties": {
        "name": "Melturi",
        "name:ru": "Мелтури",
        "public_transport": "station",
        "railway": "halt",
        "train": "yes",
        "uic_ref": "2500467",
        "id": "node/7804086571"
      },
      "geometry": {
        "type": "Point",
        "coordinates": [
          25.2343968,
          57.2075489
        ]
      }
    },
    {
      "type": "Feature",
      "id": "node/7804291188",
      "properties": {
        "name": "Cēsis",
        "public_transport": "stop_position",
        "railway": "stop",
        "train": "yes",
        "id": "node/7804291188"
      },
      "geometry": {
        "type": "Point",
        "coordinates": [
          25.2831614,
          57.3139814
        ]
      }
    },
    {
      "type": "Feature",
      "id": "node/7804291193",
      "properties": {
        "esr:user": "111203",
        "name": "Cēsis",
        "name:de": "Wenden",
        "name:ee": "Võnnu",
        "name:et": "Võnnu",
        "name:lt": "Cėsys",
        "name:lv": "Cēsis",
        "name:ru": "Цесис",
        "public_transport": "station",
        "railway": "station",
        "source": "Ortofoto 1:10000, 2007.-2008. gads, © Latvijas Ģeotelpiskās informācijas aģentūra",
        "uic_ref": "2500344",
        "wikidata": "Q4505365",
        "id": "node/7804291193"
      },
      "geometry": {
        "type": "Point",
        "coordinates": [
          25.283162,
          57.3140258
        ]
      }
    },
    {
      "type": "Feature",
      "id": "node/7804291194",
      "properties": {
        "name": "Āraiši",
        "public_transport": "stop_position",
        "railway": "stop",
        "train": "yes",
        "id": "node/7804291194"
      },
      "geometry": {
        "type": "Point",
        "coordinates": [
          25.3012837,
          57.2380313
        ]
      }
    },
    {
      "type": "Feature",
      "id": "node/7804291197",
      "properties": {
        "esr:user": "111218",
        "name": "Āraiši",
        "name:lv": "Āraiši",
        "name:ru": "Арайши",
        "public_transport": "station",
        "railway": "station",
        "train": "yes",
        "uic_ref": "2500172",
        "id": "node/7804291197"
      },
      "geometry": {
        "type": "Point",
        "coordinates": [
          25.3012401,
          57.238102
        ]
      }
    },
    {
      "type": "Feature",
      "id": "node/7804350246",
      "properties": {
        "name": "Valmiera",
        "public_transport": "stop_position",
        "railway": "stop",
        "train": "yes",
        "id": "node/7804350246"
      },
      "geometry": {
        "type": "Point",
        "coordinates": [
          25.4413173,
          57.5226394
        ]
      }
    },
    {
      "type": "Feature",
      "id": "node/7804350255",
      "properties": {
        "name": "Valmiera",
        "public_transport": "stop_position",
        "railway": "stop",
        "train": "yes",
        "id": "node/7804350255"
      },
      "geometry": {
        "type": "Point",
        "coordinates": [
          25.4395871,
          57.521416
        ]
      }
    },
    {
      "type": "Feature",
      "id": "node/7804350256",
      "properties": {
        "esr:user": "111010",
        "name": "Bāle",
        "name:lv": "Bāle",
        "name:ru": "Бале",
        "railway": "station",
        "uic_ref": "2500171",
        "id": "node/7804350256"
      },
      "geometry": {
        "type": "Point",
        "coordinates": [
          25.4412353,
          57.4578447
        ]
      }
    },
    {
      "type": "Feature",
      "id": "node/7804350257",
      "properties": {
        "name": "Lode",
        "public_transport": "stop_position",
        "railway": "stop",
        "train": "yes",
        "uic_ref": "2500173",
        "id": "node/7804350257"
      },
      "geometry": {
        "type": "Point",
        "coordinates": [
          25.4141978,
          57.3881826
        ]
      }
    },
    {
      "type": "Feature",
      "id": "node/7804350258",
      "properties": {
        "name": "Jāņamuiža",
        "public_transport": "stop_position",
        "railway": "stop",
        "train": "yes",
        "id": "node/7804350258"
      },
      "geometry": {
        "type": "Point",
        "coordinates": [
          25.3394672,
          57.3438911
        ]
      }
    },
    {
      "type": "Feature",
      "id": "node/7804438000",
      "properties": {
        "name": "Lugaži",
        "public_transport": "stop_position",
        "railway": "stop",
        "train": "yes",
        "id": "node/7804438000"
      },
      "geometry": {
        "type": "Point",
        "coordinates": [
          26.0029038,
          57.7541896
        ]
      }
    },
    {
      "type": "Feature",
      "id": "node/7804438003",
      "properties": {
        "esr:user": "110817",
        "name": "Lugaži",
        "name:lv": "Lugaži",
        "name:ru": "Лугажи",
        "public_transport": "station",
        "railway": "station",
        "train": "yes",
        "uic_ref": "2500178",
        "id": "node/7804438003"
      },
      "geometry": {
        "type": "Point",
        "coordinates": [
          26.0027075,
          57.7540786
        ]
      }
    },
    {
      "type": "Feature",
      "id": "node/7804438004",
      "properties": {
        "esr:user": "110821",
        "name": "Saule",
        "name:lv": "Saule",
        "name:ru": "Сауле",
        "railway": "station",
        "uic_ref": "2500177",
        "id": "node/7804438004"
      },
      "geometry": {
        "type": "Point",
        "coordinates": [
          25.893268,
          57.693753
        ]
      }
    },
    {
      "type": "Feature",
      "id": "node/7804438005",
      "properties": {
        "name": "Strenči",
        "name:de": "Stackeln",
        "name:lt": "Strenčiai",
        "name:ru": "Стренчи",
        "public_transport": "station",
        "railway": "station",
        "train": "yes",
        "uic_ref": "2500342",
        "wikidata": "Q4443877",
        "id": "node/7804438005"
      },
      "geometry": {
        "type": "Point",
        "coordinates": [
          25.6983304,
          57.6339601
        ]
      }
    },
    {
      "type": "Feature",
      "id": "node/7804438008",
      "properties": {
        "esr:user": "110910",
        "name": "Brenguļi",
        "name:lv": "Brenguļi",
        "name:ru": "Бренгули",
        "public_transport": "station",
        "railway": "station",
        "uic_ref": "2500175",
        "id": "node/7804438008"
      },
      "geometry": {
        "type": "Point",
        "coordinates": [
          25.5580831,
          57.5585468
        ]
      }
    },
    {
      "type": "Feature",
      "id": "node/7806111490",
      "properties": {
        "name": "Saulkrasti",
        "public_transport": "stop_position",
        "railway": "stop",
        "train": "yes",
        "id": "node/7806111490"
      },
      "geometry": {
        "type": "Point",
        "coordinates": [
          24.4269479,
          57.269459
        ]
      }
    },
    {
      "type": "Feature",
      "id": "node/7806111493",
      "properties": {
        "name": "Saulkrasti",
        "name:de": "Neubad",
        "name:lt": "Saulkrastai",
        "name:ru": "Саулкрасти",
        "public_transport": "station",
        "railway": "station",
        "train": "yes",
        "uic_ref": "2500065",
        "wikidata": "Q7427376",
        "id": "node/7806111493"
      },
      "geometry": {
        "type": "Point",
        "coordinates": [
          24.4268513,
          57.2694052
        ]
      }
    },
    {
      "type": "Feature",
      "id": "node/7806111495",
      "properties": {
        "name": "Ķīšupe",
        "name:ru": "Кишупе",
        "public_transport": "station",
        "railway": "halt",
        "train": "yes",
        "uic_ref": "2500007",
        "wikidata": "Q14481670",
        "id": "node/7806111495"
      },
      "geometry": {
        "type": "Point",
        "coordinates": [
          24.4330855,
          57.2866023
        ]
      }
    },
    {
      "type": "Feature",
      "id": "node/7806111496",
      "properties": {
        "name": "Zvejniekciems",
        "public_transport": "stop_position",
        "railway": "stop",
        "train": "yes",
        "id": "node/7806111496"
      },
      "geometry": {
        "type": "Point",
        "coordinates": [
          24.4424717,
          57.3065162
        ]
      }
    },
    {
      "type": "Feature",
      "id": "node/7806111498",
      "properties": {
        "name": "Zvejniekciems",
        "name:de": "Fischerort",
        "name:ru": "Звейниекциемс",
        "public_transport": "station",
        "railway": "halt",
        "train": "yes",
        "uic_ref": "2500880",
        "wikidata": "Q2912928",
        "id": "node/7806111498"
      },
      "geometry": {
        "type": "Point",
        "coordinates": [
          24.4424767,
          57.3065829
        ]
      }
    },
    {
      "type": "Feature",
      "id": "node/7806111499",
      "properties": {
        "name": "Skulte",
        "public_transport": "stop_position",
        "railway": "stop",
        "train": "yes",
        "id": "node/7806111499"
      },
      "geometry": {
        "type": "Point",
        "coordinates": [
          24.4620358,
          57.3326527
        ]
      }
    },
    {
      "type": "Feature",
      "id": "node/7806244311",
      "properties": {
        "name": "Lilaste",
        "public_transport": "stop_position",
        "railway": "stop",
        "train": "yes",
        "id": "node/7806244311"
      },
      "geometry": {
        "type": "Point",
        "coordinates": [
          24.3347451,
          57.1812787
        ]
      }
    },
    {
      "type": "Feature",
      "id": "node/7806244312",
      "properties": {
        "name": "Lilaste",
        "public_transport": "stop_position",
        "railway": "stop",
        "train": "yes",
        "id": "node/7806244312"
      },
      "geometry": {
        "type": "Point",
        "coordinates": [
          24.3363675,
          57.1819359
        ]
      }
    },
    {
      "type": "Feature",
      "id": "node/7806244313",
      "properties": {
        "name": "Inčupe",
        "public_transport": "stop_position",
        "railway": "stop",
        "train": "yes",
        "id": "node/7806244313"
      },
      "geometry": {
        "type": "Point",
        "coordinates": [
          24.397163,
          57.2238201
        ]
      }
    },
    {
      "type": "Feature",
      "id": "node/7806244317",
      "properties": {
        "name": "Inčupe",
        "public_transport": "stop_position",
        "railway": "stop",
        "train": "yes",
        "id": "node/7806244317"
      },
      "geometry": {
        "type": "Point",
        "coordinates": [
          24.3982324,
          57.2255231
        ]
      }
    },
    {
      "type": "Feature",
      "id": "node/7806244324",
      "properties": {
        "alt_name:ru": "Ингупе",
        "esr:user": "096022",
        "name": "Inčupe",
        "name:lv": "Inčupe",
        "name:ru": "Инчупе",
        "public_transport": "station",
        "railway": "halt",
        "train": "yes",
        "uic_ref": "2500031",
        "wikidata": "Q14467613",
        "id": "node/7806244324"
      },
      "geometry": {
        "type": "Point",
        "coordinates": [
          24.3976972,
          57.2246529
        ]
      }
    },
    {
      "type": "Feature",
      "id": "node/7806244325",
      "properties": {
        "name": "Pabaži",
        "public_transport": "stop_position",
        "railway": "stop",
        "train": "yes",
        "id": "node/7806244325"
      },
      "geometry": {
        "type": "Point",
        "coordinates": [
          24.4077035,
          57.2414241
        ]
      }
    },
    {
      "type": "Feature",
      "id": "node/7806244326",
      "properties": {
        "name": "Pabaži",
        "public_transport": "stop_position",
        "railway": "stop",
        "train": "yes",
        "id": "node/7806244326"
      },
      "geometry": {
        "type": "Point",
        "coordinates": [
          24.4087738,
          57.2426837
        ]
      }
    },
    {
      "type": "Feature",
      "id": "node/7806244332",
      "properties": {
        "esr:user": "096018",
        "name": "Pabaži",
        "name:lv": "Pabaži",
        "name:ru": "Пабажи",
        "public_transport": "station",
        "railway": "halt",
        "train": "yes",
        "uic_ref": "2500785",
        "wikidata": "Q7121525",
        "id": "node/7806244332"
      },
      "geometry": {
        "type": "Point",
        "coordinates": [
          24.4083001,
          57.242135
        ]
      }
    },
    {
      "type": "Feature",
      "id": "node/7806298998",
      "properties": {
        "name": "Carnikava",
        "public_transport": "stop_position",
        "railway": "stop",
        "train": "yes",
        "id": "node/7806298998"
      },
      "geometry": {
        "type": "Point",
        "coordinates": [
          24.277846,
          57.1270268
        ]
      }
    },
    {
      "type": "Feature",
      "id": "node/7806298999",
      "properties": {
        "name": "Carnikava",
        "public_transport": "stop_position",
        "railway": "stop",
        "train": "yes",
        "id": "node/7806298999"
      },
      "geometry": {
        "type": "Point",
        "coordinates": [
          24.2792429,
          57.1282842
        ]
      }
    },
    {
      "type": "Feature",
      "id": "node/7806299000",
      "properties": {
        "name": "Gauja",
        "public_transport": "stop_position",
        "railway": "stop",
        "train": "yes",
        "id": "node/7806299000"
      },
      "geometry": {
        "type": "Point",
        "coordinates": [
          24.2891943,
          57.1421527
        ]
      }
    },
    {
      "type": "Feature",
      "id": "node/7806299001",
      "properties": {
        "name": "Gauja",
        "public_transport": "stop_position",
        "railway": "stop",
        "train": "yes",
        "id": "node/7806299001"
      },
      "geometry": {
        "type": "Point",
        "coordinates": [
          24.2898681,
          57.142458
        ]
      }
    },
    {
      "type": "Feature",
      "id": "node/7806361310",
      "properties": {
        "name": "Vecāķi",
        "public_transport": "stop_position",
        "railway": "stop",
        "train": "yes",
        "id": "node/7806361310"
      },
      "geometry": {
        "type": "Point",
        "coordinates": [
          24.1142111,
          57.0740985
        ]
      }
    },
    {
      "type": "Feature",
      "id": "node/7806361311",
      "properties": {
        "esr:user": "096164",
        "name": "Vecāķi",
        "name:lv": "Vecāķi",
        "name:ru": "Вецаки",
        "public_transport": "station",
        "railway": "station",
        "train": "yes",
        "uic_ref": "2501100",
        "wikidata": "Q4110150",
        "wikipedia": "lv:Vecāķi (stacija)",
        "id": "node/7806361311"
      },
      "geometry": {
        "type": "Point",
        "coordinates": [
          24.1155461,
          57.0747113
        ]
      }
    },
    {
      "type": "Feature",
      "id": "node/7806361312",
      "properties": {
        "name": "Kalngale",
        "public_transport": "stop_position",
        "railway": "stop",
        "train": "yes",
        "id": "node/7806361312"
      },
      "geometry": {
        "type": "Point",
        "coordinates": [
          24.1496777,
          57.0856717
        ]
      }
    },
    {
      "type": "Feature",
      "id": "node/7806361313",
      "properties": {
        "name": "Kalngale",
        "public_transport": "stop_position",
        "railway": "stop",
        "train": "yes",
        "id": "node/7806361313"
      },
      "geometry": {
        "type": "Point",
        "coordinates": [
          24.1526789,
          57.0861923
        ]
      }
    },
    {
      "type": "Feature",
      "id": "node/7806361314",
      "properties": {
        "name": "Garciems",
        "public_transport": "stop_position",
        "railway": "stop",
        "train": "yes",
        "id": "node/7806361314"
      },
      "geometry": {
        "type": "Point",
        "coordinates": [
          24.2041976,
          57.1014031
        ]
      }
    },
    {
      "type": "Feature",
      "id": "node/7806361315",
      "properties": {
        "name": "Garciems",
        "public_transport": "stop_position",
        "railway": "stop",
        "train": "yes",
        "id": "node/7806361315"
      },
      "geometry": {
        "type": "Point",
        "coordinates": [
          24.2070215,
          57.1023511
        ]
      }
    },
    {
      "type": "Feature",
      "id": "node/7806361320",
      "properties": {
        "esr:user": "096145",
        "name": "Garciems",
        "name:lv": "Garciems",
        "name:ru": "Гарциемс",
        "public_transport": "station",
        "railway": "halt",
        "train": "yes",
        "uic_ref": "2500815",
        "website": "https://www.pv.lv/",
        "wikidata": "Q2913118",
        "wikipedia": "lv:Garciems (stacija)",
        "id": "node/7806361320"
      },
      "geometry": {
        "type": "Point",
        "coordinates": [
          24.2055334,
          57.1018531
        ]
      }
    },
    {
      "type": "Feature",
      "id": "node/7806361321",
      "properties": {
        "name": "Garupe",
        "public_transport": "stop_position",
        "railway": "stop",
        "train": "yes",
        "id": "node/7806361321"
      },
      "geometry": {
        "type": "Point",
        "coordinates": [
          24.2445223,
          57.1140429
        ]
      }
    },
    {
      "type": "Feature",
      "id": "node/7806361327",
      "properties": {
        "esr:user": "096130",
        "name": "Garupe",
        "name:lv": "Garupe",
        "name:ru": "Гарупе",
        "public_transport": "station",
        "railway": "halt",
        "train": "yes",
        "uic_ref": "2500032",
        "wikidata": "Q2913356",
        "id": "node/7806361327"
      },
      "geometry": {
        "type": "Point",
        "coordinates": [
          24.2458006,
          57.1144674
        ]
      }
    },
    {
      "type": "Feature",
      "id": "node/7806389350",
      "properties": {
        "esr:user": "096304",
        "name": "Ziemeļblāzma",
        "name:lv": "Ziemeļblāzma",
        "name:ru": "Зиемельблазма",
        "public_transport": "station",
        "railway": "station",
        "train": "yes",
        "uic_ref": "2500035",
        "id": "node/7806389350"
      },
      "geometry": {
        "type": "Point",
        "coordinates": [
          24.1136575,
          57.0362361
        ]
      }
    },
    {
      "type": "Feature",
      "id": "node/7806389351",
      "properties": {
        "name": "Vecdaugava",
        "public_transport": "stop_position",
        "railway": "stop",
        "train": "yes",
        "id": "node/7806389351"
      },
      "geometry": {
        "type": "Point",
        "coordinates": [
          24.1072235,
          57.0562775
        ]
      }
    },
    {
      "type": "Feature",
      "id": "node/7806433185",
      "properties": {
        "name": "Mangaļi",
        "public_transport": "stop_position",
        "railway": "stop",
        "train": "yes",
        "id": "node/7806433185"
      },
      "geometry": {
        "type": "Point",
        "coordinates": [
          24.1293302,
          57.0183273
        ]
      }
    },
    {
      "type": "Feature",
      "id": "node/7806433186",
      "properties": {
        "name": "Mangaļi",
        "public_transport": "stop_position",
        "railway": "stop",
        "train": "yes",
        "id": "node/7806433186"
      },
      "geometry": {
        "type": "Point",
        "coordinates": [
          24.1300949,
          57.0189284
        ]
      }
    },
    {
      "type": "Feature",
      "id": "node/7806657157",
      "properties": {
        "name": "Brasa",
        "public_transport": "stop_position",
        "railway": "stop",
        "train": "yes",
        "id": "node/7806657157"
      },
      "geometry": {
        "type": "Point",
        "coordinates": [
          24.1468786,
          56.9769913
        ]
      }
    },
    {
      "type": "Feature",
      "id": "node/7806657158",
      "properties": {
        "name": "Brasa",
        "public_transport": "stop_position",
        "railway": "stop",
        "train": "yes",
        "id": "node/7806657158"
      },
      "geometry": {
        "type": "Point",
        "coordinates": [
          24.1450546,
          56.9787135
        ]
      }
    },
    {
      "type": "Feature",
      "id": "node/7806657160",
      "properties": {
        "name": "Sarkandaugava",
        "public_transport": "stop_position",
        "railway": "stop",
        "train": "yes",
        "id": "node/7806657160"
      },
      "geometry": {
        "type": "Point",
        "coordinates": [
          24.1330299,
          56.9939228
        ]
      }
    },
    {
      "type": "Feature",
      "id": "node/7806657161",
      "properties": {
        "name": "Sarkandaugava",
        "public_transport": "stop_position",
        "railway": "stop",
        "train": "yes",
        "id": "node/7806657161"
      },
      "geometry": {
        "type": "Point",
        "coordinates": [
          24.1351175,
          56.9922131
        ]
      }
    },
    {
      "type": "Feature",
      "id": "node/7806657162",
      "properties": {
        "name": "Sarkandaugava",
        "name:de": "Rote Düna",
        "name:ru": "Саркандаугава",
        "operator": "Pasažieru Vilciens",
        "public_transport": "station",
        "railway": "station",
        "train": "yes",
        "uic_ref": "2500080",
        "wheelchair": "no",
        "wikidata": "Q6112351",
        "id": "node/7806657162"
      },
      "geometry": {
        "type": "Point",
        "coordinates": [
          24.1341975,
          56.9929622
        ]
      }
    },
    {
      "type": "Feature",
      "id": "node/8545073820",
      "properties": {
        "alt_name": "Tukums 2",
        "name": "Tukums II",
        "public_transport": "stop_position",
        "railway": "stop",
        "train": "yes",
        "id": "node/8545073820"
      },
      "geometry": {
        "type": "Point",
        "coordinates": [
          23.115291,
          56.9597083
        ]
      }
    },
    {
      "type": "Feature",
      "id": "node/8612649597",
      "properties": {
        "name": "Slampe",
        "public_transport": "station",
        "railway": "station",
        "id": "node/8612649597"
      },
      "geometry": {
        "type": "Point",
        "coordinates": [
          23.2908453,
          56.8441328
        ]
      }
    },
    {
      "type": "Feature",
      "id": "node/8613669592",
      "properties": {
        "name": "Zālīte",
        "name:ru": "Залите",
        "public_transport": "station",
        "railway": "station",
        "id": "node/8613669592"
      },
      "geometry": {
        "type": "Point",
        "coordinates": [
          24.0855503,
          56.6414702
        ]
      }
    },
    {
      "type": "Feature",
      "id": "node/8999399963",
      "properties": {
        "name": "Sieksāte",
        "railway": "station",
        "wikidata": "Q15219737",
        "id": "node/8999399963"
      },
      "geometry": {
        "type": "Point",
        "coordinates": [
          21.9318091,
          56.6819151
        ]
      }
    },
    {
      "type": "Feature",
      "id": "node/9087715792",
      "properties": {
        "name": "Ventspils II",
        "public_transport": "station",
        "railway": "station",
        "wikidata": "Q7920356",
        "id": "node/9087715792"
      },
      "geometry": {
        "type": "Point",
        "coordinates": [
          21.6699824,
          57.3843461
        ]
      }
    },
    {
      "type": "Feature",
      "id": "node/9087748468",
      "properties": {
        "name": "Bene",
        "public_transport": "station",
        "railway": "station",
        "wikidata": "Q55286127",
        "id": "node/9087748468"
      },
      "geometry": {
        "type": "Point",
        "coordinates": [
          23.0687638,
          56.4802125
        ]
      }
    },
    {
      "type": "Feature",
      "id": "node/9087748531",
      "properties": {
        "name": "Zvāre",
        "railway": "station",
        "wikidata": "Q8075605",
        "id": "node/9087748531"
      },
      "geometry": {
        "type": "Point",
        "coordinates": [
          23.001443,
          57.0186589
        ]
      }
    },
    {
      "type": "Feature",
      "id": "node/9156040653",
      "properties": {
        "name": "Acone",
        "railway": "halt",
        "id": "node/9156040653"
      },
      "geometry": {
        "type": "Point",
        "coordinates": [
          24.2990273,
          56.9210012
        ]
      }
    },
    {
      "type": "Feature",
      "id": "node/9156040654",
      "properties": {
        "name": "Rīga-Preču",
        "old_name": "Rīga-Preču II",
        "railway": "station",
        "id": "node/9156040654"
      },
      "geometry": {
        "type": "Point",
        "coordinates": [
          24.2239201,
          56.9199998
        ]
      }
    }
  ]
}