{
  "type": "FeatureCollection",
  "features": [
    {
      "type": "Feature",
      "id": "node/635975802",
      "properties": {
        "name": "بوناكة",
        "name:ar": "بوناكة",
        "operator": "المكتب الوطني للسكك الحديدية",
        "operator:ar": "المكتب الوطني للسكك الحديدية",
        "operator:website": "https://www.oncf.ma/ar/",
        "operator:wikidata": "Q1815809",
        "operator:wikipedia": "ar:المكتب الوطني للسكك الحديدية (المغرب)",
        "operator:wikipedia:ar": "المكتب الوطني للسكك الحديدية (المغرب)",
        "public_transport": "station",
        "railway": "station",
        "train": "yes",
        "id": "node/635975802"
      },
      "geometry": {
        "type": "Point",
        "coordinates": [
          -7.9464996,
          31.9225948
        ]
      }
    },
    {
      "type": "Feature",
      "id": "node/635977791",
      "properties": {
        "name": "Settat ⵙⵟⵟⴰⵜ سطات",
        "name:ar": "سطات",
        "name:ber": "ⵙⵟⵟⴰⵜ",
        "name:fr": "Settat",
        "public_transport": "station",
        "railway": "station",
        "train": "yes",
        "id": "node/635977791"
      },
      "geometry": {
        "type": "Point",
        "coordinates": [
          -7.6235292,
          32.9939424
        ]
      }
    },
    {
      "type": "Feature",
      "id": "node/694673717",
      "properties": {
        "name": "Ain Taoujdate عين تاوجطات",
        "name:ar": "عين تاوجطات",
        "name:fr": "Ain Taoujdate",
        "public_transport": "station",
        "railway": "station",
        "train": "yes",
        "id": "node/694673717"
      },
      "geometry": {
        "type": "Point",
        "coordinates": [
          -5.2136072,
          33.9339601
        ]
      }
    },
    {
      "type": "Feature",
      "id": "node/1104663583",
      "properties": {
        "name": "Fès-Médina",
        "public_transport": "station",
        "railway": "station",
        "train": "yes",
        "id": "node/1104663583"
      },
      "geometry": {
        "type": "Point",
        "coordinates": [
          -4.9580471,
          34.0619721
        ]
      }
    },
    {
      "type": "Feature",
      "id": "node/1245964366",
      "properties": {
        "internet_access": "wlan",
        "name": "Marrakech مراكش",
        "name:ar": "مراكش",
        "name:en": "Marrakech",
        "name:fr": "Marrakech",
        "operator": "ONCF",
        "public_transport": "station",
        "railway": "station",
        "train": "yes",
        "wheelchair": "yes",
        "id": "node/1245964366"
      },
      "geometry": {
        "type": "Point",
        "coordinates": [
          -8.01758,
          31.6304831
        ]
      }
    },
    {
      "type": "Feature",
      "id": "node/1480478880",
      "properties": {
        "name": "Bab Tissera",
        "public_transport": "station",
        "railway": "station",
        "train": "yes",
        "id": "node/1480478880"
      },
      "geometry": {
        "type": "Point",
        "coordinates": [
          -5.7097711,
          34.1596946
        ]
      }
    },
    {
      "type": "Feature",
      "id": "node/1480599791",
      "properties": {
        "name": "Souk el Arba du Gharb",
        "public_transport": "station",
        "railway": "station",
        "train": "yes",
        "id": "node/1480599791"
      },
      "geometry": {
        "type": "Point",
        "coordinates": [
          -5.9985515,
          34.6846113
        ]
      }
    },
    {
      "type": "Feature",
      "id": "node/1480989522",
      "properties": {
        "name": "Matmata مطماطة",
        "name:ar": "مطماطة",
        "name:fr": "Matmata",
        "public_transport": "station",
        "railway": "station",
        "train": "yes",
        "id": "node/1480989522"
      },
      "geometry": {
        "type": "Point",
        "coordinates": [
          -4.517263,
          34.1166503
        ]
      }
    },
    {
      "type": "Feature",
      "id": "node/1481054778",
      "properties": {
        "public_transport": "station",
        "railway": "station",
        "train": "yes",
        "id": "node/1481054778"
      },
      "geometry": {
        "type": "Point",
        "coordinates": [
          -3.1450542,
          34.322228
        ]
      }
    },
    {
      "type": "Feature",
      "id": "node/1481071911",
      "properties": {
        "name": "Beni Oukil",
        "name:fr": "Beni Oukil",
        "public_transport": "station",
        "railway": "station",
        "train": "yes",
        "id": "node/1481071911"
      },
      "geometry": {
        "type": "Point",
        "coordinates": [
          -2.0525739,
          34.6288968
        ]
      }
    },
    {
      "type": "Feature",
      "id": "node/1481325942",
      "properties": {
        "disused:railway": "station",
        "name": "Tendrara",
        "public_transport": "station",
        "railway": "halt",
        "train": "yes",
        "id": "node/1481325942"
      },
      "geometry": {
        "type": "Point",
        "coordinates": [
          -1.9440481,
          33.0410677
        ]
      }
    },
    {
      "type": "Feature",
      "id": "node/1558144707",
      "properties": {
        "name": "Guercif جرسيف",
        "name:ar": "جرسيف",
        "name:az-Arab": "جرسیف",
        "name:azb": "جرسیف",
        "name:de": "Guersif",
        "name:en": "Guersif",
        "name:es": "Guersif",
        "name:fa": "جرسیف",
        "name:fr": "Guercif",
        "name:ks": "جرسیف",
        "name:ur": "جرسیف",
        "public_transport": "station",
        "railway": "station",
        "train": "yes",
        "id": "node/1558144707"
      },
      "geometry": {
        "type": "Point",
        "coordinates": [
          -3.3495027,
          34.229515
        ]
      }
    },
    {
      "type": "Feature",
      "id": "node/1588103622",
      "properties": {
        "internet_access": "wlan",
        "name": "Meknès",
        "name:ar": "محطة مكناس",
        "name:fr": "Meknès",
        "operator": "ONCF",
        "platforms": "2",
        "public_transport": "station",
        "railway": "station",
        "train": "yes",
        "id": "node/1588103622"
      },
      "geometry": {
        "type": "Point",
        "coordinates": [
          -5.5317426,
          33.8965745
        ]
      }
    },
    {
      "type": "Feature",
      "id": "node/1664263860",
      "properties": {
        "name": "Ras El Ma",
        "public_transport": "station",
        "railway": "station",
        "train": "yes",
        "id": "node/1664263860"
      },
      "geometry": {
        "type": "Point",
        "coordinates": [
          -5.1073314,
          33.9892376
        ]
      }
    },
    {
      "type": "Feature",
      "id": "node/1686960811",
      "properties": {
        "name": "Asilah",
        "public_transport": "station",
        "railway": "station",
        "train": "yes",
        "id": "node/1686960811"
      },
      "geometry": {
        "type": "Point",
        "coordinates": [
          -6.0237859,
          35.4824366
        ]
      }
    },
    {
      "type": "Feature",
      "id": "node/1698212199",
      "properties": {
        "name": "Taza تازة",
        "name:ar": "تازة",
        "name:ary": "تازة",
        "name:arz": "تازة",
        "name:az-Arab": "تازه",
        "name:azb": "تازه",
        "name:de": "Taza",
        "name:es": "Taza",
        "name:fr": "Taza",
        "name:kab-Arab": "تازة",
        "name:kk-Arab": "تازا",
        "name:ur": "تازہ",
        "public_transport": "station",
        "railway": "station",
        "train": "yes",
        "id": "node/1698212199"
      },
      "geometry": {
        "type": "Point",
        "coordinates": [
          -4.0084037,
          34.2331025
        ]
      }
    },
    {
      "type": "Feature",
      "id": "node/1871674762",
      "properties": {
        "name": "Ain Dalia",
        "public_transport": "station",
        "railway": "station",
        "train": "yes",
        "id": "node/1871674762"
      },
      "geometry": {
        "type": "Point",
        "coordinates": [
          -5.8219093,
          35.6613733
        ]
      }
    },
    {
      "type": "Feature",
      "id": "node/2163661965",
      "properties": {
        "name": "Mechraa Bel Ksiri",
        "public_transport": "station",
        "railway": "station",
        "train": "yes",
        "id": "node/2163661965"
      },
      "geometry": {
        "type": "Point",
        "coordinates": [
          -5.9615006,
          34.5774048
        ]
      }
    },
    {
      "type": "Feature",
      "id": "node/2191690280",
      "properties": {
        "name": "Kceibya",
        "public_transport": "station",
        "railway": "station",
        "train": "yes",
        "id": "node/2191690280"
      },
      "geometry": {
        "type": "Point",
        "coordinates": [
          -6.0688202,
          34.2910183
        ]
      }
    },
    {
      "type": "Feature",
      "id": "node/2194536439",
      "properties": {
        "name": "Khemisset Chaouia اخميسات الشاوية",
        "name:ar": "اخميسات الشاوية",
        "name:fr": "Gare de Khemisset Chaouia",
        "public_transport": "station",
        "railway": "station",
        "train": "yes",
        "id": "node/2194536439"
      },
      "geometry": {
        "type": "Point",
        "coordinates": [
          -7.7233354,
          32.827535
        ]
      }
    },
    {
      "type": "Feature",
      "id": "node/2194543435",
      "properties": {
        "name": "Machraa Ben Abbou مشرع بن عبو",
        "name:ar": "مشرع بن عبو",
        "name:fr": "Machraa Ben Abbou",
        "public_transport": "station",
        "railway": "station",
        "train": "yes",
        "id": "node/2194543435"
      },
      "geometry": {
        "type": "Point",
        "coordinates": [
          -7.7874079,
          32.6531853
        ]
      }
    },
    {
      "type": "Feature",
      "id": "node/2202533379",
      "properties": {
        "name": "Mrizigue",
        "public_transport": "station",
        "railway": "station",
        "train": "yes",
        "id": "node/2202533379"
      },
      "geometry": {
        "type": "Point",
        "coordinates": [
          -7.0978417,
          32.8459259
        ]
      }
    },
    {
      "type": "Feature",
      "id": "node/2297934615",
      "properties": {
        "addr:city": "Beni Enzar بني انصار",
        "addr:city:ar": "بني انصار",
        "addr:city:es": "Beni Enzar",
        "alt_name": "Nador Port",
        "alt_name:es": "Nador-Puerto",
        "name": "Beni Ensar Port",
        "name:es": "Beni Enzar-Puerto",
        "public_transport": "station",
        "railway": "station",
        "train": "yes",
        "id": "node/2297934615"
      },
      "geometry": {
        "type": "Point",
        "coordinates": [
          -2.9305738,
          35.2653506
        ]
      }
    },
    {
      "type": "Feature",
      "id": "node/2328486902",
      "properties": {
        "name": "Sidi Kacem",
        "public_transport": "station",
        "railway": "station",
        "train": "yes",
        "wikidata": "Q3097739",
        "id": "node/2328486902"
      },
      "geometry": {
        "type": "Point",
        "coordinates": [
          -5.7188349,
          34.2309805
        ]
      }
    },
    {
      "type": "Feature",
      "id": "node/2328486906",
      "properties": {
        "public_transport": "station",
        "railway": "station",
        "train": "yes",
        "id": "node/2328486906"
      },
      "geometry": {
        "type": "Point",
        "coordinates": [
          -5.9777419,
          34.7636096
        ]
      }
    },
    {
      "type": "Feature",
      "id": "node/2429582026",
      "properties": {
        "alt_name": "Gare de Casa port",
        "name": "Casa Port",
        "name:ar": "ميناء الدار البيضاء",
        "name:he": "נמל קזבלנקה",
        "public_transport": "station",
        "railway": "station",
        "train": "yes",
        "wikidata": "Q3096139",
        "id": "node/2429582026"
      },
      "geometry": {
        "type": "Point",
        "coordinates": [
          -7.6123131,
          33.5993825
        ]
      }
    },
    {
      "type": "Feature",
      "id": "node/2576518018",
      "properties": {
        "public_transport": "station",
        "railway": "station",
        "train": "yes",
        "id": "node/2576518018"
      },
      "geometry": {
        "type": "Point",
        "coordinates": [
          -3.7307618,
          34.2388198
        ]
      }
    },
    {
      "type": "Feature",
      "id": "node/2926335303",
      "properties": {
        "name": "Khouribga",
        "public_transport": "station",
        "railway": "station",
        "train": "yes",
        "id": "node/2926335303"
      },
      "geometry": {
        "type": "Point",
        "coordinates": [
          -6.9089034,
          32.8834836
        ]
      }
    },
    {
      "type": "Feature",
      "id": "node/2928483869",
      "properties": {
        "name": "Laglaf",
        "public_transport": "station",
        "railway": "station",
        "train": "yes",
        "id": "node/2928483869"
      },
      "geometry": {
        "type": "Point",
        "coordinates": [
          -6.7219897,
          32.9199818
        ]
      }
    },
    {
      "type": "Feature",
      "id": "node/2990165305",
      "properties": {
        "name": "Souaken",
        "public_transport": "station",
        "railway": "station",
        "train": "yes",
        "id": "node/2990165305"
      },
      "geometry": {
        "type": "Point",
        "coordinates": [
          -5.9529181,
          35.1169787
        ]
      }
    },
    {
      "type": "Feature",
      "id": "node/2990165307",
      "properties": {
        "name": "Ksar-el-Kebir القصر الكبير",
        "name:ar": "القصر الكبير",
        "name:fr": "El Ksar El Kebir",
        "public_transport": "station",
        "railway": "station",
        "train": "yes",
        "id": "node/2990165307"
      },
      "geometry": {
        "type": "Point",
        "coordinates": [
          -5.9060442,
          35.0098665
        ]
      }
    },
    {
      "type": "Feature",
      "id": "node/2990165308",
      "properties": {
        "name": "Arbaoua",
        "public_transport": "station",
        "railway": "station",
        "train": "yes",
        "id": "node/2990165308"
      },
      "geometry": {
        "type": "Point",
        "coordinates": [
          -5.9263693,
          34.891723
        ]
      }
    },
    {
      "type": "Feature",
      "id": "node/3104119901",
      "properties": {
        "name": "Oujda وجدة",
        "name:ar": "وجدة",
        "name:fr": "Oujda",
        "public_transport": "station",
        "railway": "station",
        "train": "yes",
        "wheelchair": "no",
        "wikidata": "Q3095848",
        "id": "node/3104119901"
      },
      "geometry": {
        "type": "Point",
        "coordinates": [
          -1.9243026,
          34.6806701
        ]
      }
    },
    {
      "type": "Feature",
      "id": "node/3140744037",
      "properties": {
        "public_transport": "station",
        "railway": "station",
        "train": "yes",
        "id": "node/3140744037"
      },
      "geometry": {
        "type": "Point",
        "coordinates": [
          -3.0425806,
          34.3519044
        ]
      }
    },
    {
      "type": "Feature",
      "id": "node/3154623889",
      "properties": {
        "amenity": "bus_station",
        "name": "Touabaa",
        "public_transport": "station",
        "railway": "station",
        "train": "yes",
        "id": "node/3154623889"
      },
      "geometry": {
        "type": "Point",
        "coordinates": [
          -4.7063384,
          34.0997428
        ]
      }
    },
    {
      "type": "Feature",
      "id": "node/3523721044",
      "properties": {
        "addr:city": "نزالة العظم",
        "addr:city:ar": "نزالة العظم",
        "alt_name:ar": "انزالت لعظم;نزالت لعظم",
        "name": "نزالة العظم",
        "name:ar": "نزالة العظم",
        "operator": "المكتب الوطني للسكك الحديدية",
        "operator:ar": "المكتب الوطني للسكك الحديدية",
        "operator:website": "https://www.oncf.ma/ar/",
        "operator:wikidata": "Q1815809",
        "operator:wikipedia": "ar:المكتب الوطني للسكك الحديدية (المغرب)",
        "operator:wikipedia:ar": "المكتب الوطني للسكك الحديدية (المغرب)",
        "public_transport": "station",
        "railway": "station",
        "train": "yes",
        "id": "node/3523721044"
      },
      "geometry": {
        "type": "Point",
        "coordinates": [
          -7.9542608,
          32.0948939
        ]
      }
    },
    {
      "type": "Feature",
      "id": "node/3827702078",
      "properties": {
        "name": "Berrechid برشيد",
        "name:ar": "برشيد",
        "name:fr": "Berrechid",
        "public_transport": "station",
        "railway": "station",
        "train": "yes",
        "id": "node/3827702078"
      },
      "geometry": {
        "type": "Point",
        "coordinates": [
          -7.5924531,
          33.2602048
        ]
      }
    },
    {
      "type": "Feature",
      "id": "node/3827703993",
      "properties": {
        "name": "Sidi el Aïdi سيدي العايدي",
        "name:ar": "سيدي العايدي",
        "name:fr": "Sidi el Aïdi",
        "public_transport": "station",
        "railway": "station",
        "train": "yes",
        "id": "node/3827703993"
      },
      "geometry": {
        "type": "Point",
        "coordinates": [
          -7.6263358,
          33.1272171
        ]
      }
    },
    {
      "type": "Feature",
      "id": "node/3827704696",
      "properties": {
        "addr:city": "وادي زم",
        "addr:city:ar": "وادي زم",
        "loc_name:ar": "واد زم",
        "name": "Oued Zem وادي زم",
        "name:ar": "وادي زم",
        "name:azb": "وادی زم",
        "name:fa": "وادی زم",
        "name:fr": "Oued Zem",
        "name:ks": "وادی زم",
        "name:ur": "وادی زم",
        "operator": "المكتب الوطني للسكك الحديدية",
        "operator:ar": "المكتب الوطني للسكك الحديدية",
        "operator:website": "https://www.oncf.ma/ar/",
        "operator:wikidata": "Q1815809",
        "operator:wikipedia": "ar:المكتب الوطني للسكك الحديدية (المغرب)",
        "operator:wikipedia:ar": "المكتب الوطني للسكك الحديدية (المغرب)",
        "public_transport": "station",
        "railway": "station",
        "train": "yes",
        "id": "node/3827704696"
      },
      "geometry": {
        "type": "Point",
        "coordinates": [
          -6.5633494,
          32.8650224
        ]
      }
    },
    {
      "type": "Feature",
      "id": "node/4215515532",
      "properties": {
        "addr:city": "النواصر",
        "addr:city:ar": "النواصر",
        "addr:city:es": "Nawácir",
        "addr:postcode": "27000",
        "name": "النواصر",
        "name:ar": "النواصر",
        "name:es": "Nawácir",
        "name:ur": "نواصر",
        "public_transport": "station",
        "railway": "station",
        "train": "yes",
        "id": "node/4215515532"
      },
      "geometry": {
        "type": "Point",
        "coordinates": [
          -7.623807,
          33.3742682
        ]
      }
    },
    {
      "type": "Feature",
      "id": "node/5539076778",
      "properties": {
        "public_transport": "station",
        "railway": "station",
        "train": "yes",
        "id": "node/5539076778"
      },
      "geometry": {
        "type": "Point",
        "coordinates": [
          -7.5532634,
          33.0765423
        ]
      }
    },
    {
      "type": "Feature",
      "id": "node/5604704331",
      "properties": {
        "name": "Anfa Sud",
        "proposed": "station",
        "public_transport": "station",
        "railway": "proposed",
        "train": "yes",
        "id": "node/5604704331"
      },
      "geometry": {
        "type": "Point",
        "coordinates": [
          -7.6571082,
          33.5532527
        ]
      }
    },
    {
      "type": "Feature",
      "id": "node/5604704357",
      "properties": {
        "name": "Anfa Centre",
        "proposed": "station",
        "public_transport": "station",
        "railway": "proposed",
        "train": "yes",
        "id": "node/5604704357"
      },
      "geometry": {
        "type": "Point",
        "coordinates": [
          -7.6586212,
          33.5632426
        ]
      }
    },
    {
      "type": "Feature",
      "id": "node/5885873689",
      "properties": {
        "name": "Bab Marzouka",
        "public_transport": "station",
        "railway": "station",
        "train": "yes",
        "id": "node/5885873689"
      },
      "geometry": {
        "type": "Point",
        "coordinates": [
          -4.1444623,
          34.2088185
        ]
      }
    },
    {
      "type": "Feature",
      "id": "node/6205364396",
      "properties": {
        "proposed": "station",
        "public_transport": "station",
        "railway": "proposed",
        "train": "yes",
        "id": "node/6205364396"
      },
      "geometry": {
        "type": "Point",
        "coordinates": [
          -7.6479067,
          33.5719544
        ]
      }
    },
    {
      "type": "Feature",
      "id": "node/6205364422",
      "properties": {
        "name": "Place des Nations-Unies",
        "proposed": "station",
        "public_transport": "station",
        "railway": "proposed",
        "train": "yes",
        "id": "node/6205364422"
      },
      "geometry": {
        "type": "Point",
        "coordinates": [
          -7.6183219,
          33.595345
        ]
      }
    },
    {
      "type": "Feature",
      "id": "node/6205371669",
      "properties": {
        "proposed": "station",
        "public_transport": "station",
        "railway": "proposed",
        "train": "yes",
        "id": "node/6205371669"
      },
      "geometry": {
        "type": "Point",
        "coordinates": [
          -7.6519513,
          33.5501636
        ]
      }
    },
    {
      "type": "Feature",
      "id": "node/6205371670",
      "properties": {
        "proposed": "station",
        "public_transport": "station",
        "railway": "proposed",
        "train": "yes",
        "id": "node/6205371670"
      },
      "geometry": {
        "type": "Point",
        "coordinates": [
          -7.6361947,
          33.579126
        ]
      }
    },
    {
      "type": "Feature",
      "id": "node/6205371671",
      "properties": {
        "proposed": "station",
        "public_transport": "station",
        "railway": "proposed",
        "train": "yes",
        "id": "node/6205371671"
      },
      "geometry": {
        "type": "Point",
        "coordinates": [
          -7.6295962,
          33.5855888
        ]
      }
    },
    {
      "type": "Feature",
      "id": "node/6205371672",
      "properties": {
        "proposed": "station",
        "public_transport": "station",
        "railway": "proposed",
        "train": "yes",
        "id": "node/6205371672"
      },
      "geometry": {
        "type": "Point",
        "coordinates": [
          -7.6258831,
          33.5896049
        ]
      }
    },
    {
      "type": "Feature",
      "id": "node/6205371673",
      "properties": {
        "proposed": "station",
        "public_transport": "station",
        "railway": "proposed",
        "train": "yes",
        "id": "node/6205371673"
      },
      "geometry": {
        "type": "Point",
        "coordinates": [
          -7.5732731,
          33.6061756
        ]
      }
    },
    {
      "type": "Feature",
      "id": "node/6613014002",
      "properties": {
        "name": "Sidi Hajjaj",
        "public_transport": "station",
        "railway": "station",
        "train": "yes",
        "id": "node/6613014002"
      },
      "geometry": {
        "type": "Point",
        "coordinates": [
          -7.2656575,
          32.9114429
        ]
      }
    },
    {
      "type": "Feature",
      "id": "node/6842454582",
      "properties": {
        "name": "Oued Amlil",
        "public_transport": "station",
        "railway": "station",
        "train": "yes",
        "id": "node/6842454582"
      },
      "geometry": {
        "type": "Point",
        "coordinates": [
          -4.2813955,
          34.1887623
        ]
      }
    },
    {
      "type": "Feature",
      "id": "node/6877632385",
      "properties": {
        "name": "Ain sbit",
        "public_transport": "station",
        "railway": "station",
        "train": "yes",
        "id": "node/6877632385"
      },
      "geometry": {
        "type": "Point",
        "coordinates": [
          -4.7810666,
          34.0595434
        ]
      }
    },
    {
      "type": "Feature",
      "id": "node/7029585210",
      "properties": {
        "addr:city": "msaada",
        "name": "M'Saada",
        "public_transport": "station",
        "railway": "station",
        "train": "yes",
        "id": "node/7029585210"
      },
      "geometry": {
        "type": "Point",
        "coordinates": [
          -5.7976666,
          34.3406926
        ]
      }
    },
    {
      "type": "Feature",
      "id": "node/7029613411",
      "properties": {
        "name": "Oued Rdom",
        "public_transport": "station",
        "railway": "station",
        "train": "yes",
        "id": "node/7029613411"
      },
      "geometry": {
        "type": "Point",
        "coordinates": [
          -5.6488534,
          34.0690844
        ]
      }
    },
    {
      "type": "Feature",
      "id": "node/7055155496",
      "properties": {
        "name": "Casa Voyageurs",
        "operator": "ONCF",
        "public_transport": "station",
        "railway": "station",
        "train": "yes",
        "wikidata": "Q2448793",
        "id": "node/7055155496"
      },
      "geometry": {
        "type": "Point",
        "coordinates": [
          -7.5896849,
          33.5903553
        ]
      }
    },
    {
      "type": "Feature",
      "id": "node/9412715250",
      "properties": {
        "name": "Safi",
        "public_transport": "station",
        "railway": "station",
        "train": "yes",
        "id": "node/9412715250"
      },
      "geometry": {
        "type": "Point",
        "coordinates": [
          -9.2444566,
          32.2854082
        ]
      }
    },
    {
      "type": "Feature",
      "id": "node/9412821588",
      "properties": {
        "public_transport": "station",
        "railway": "station",
        "train": "yes",
        "id": "node/9412821588"
      },
      "geometry": {
        "type": "Point",
        "coordinates": [
          -9.1372908,
          32.2312544
        ]
      }
    },
    {
      "type": "Feature",
      "id": "node/9412821622",
      "properties": {
        "name": "Bouguedra",
        "public_transport": "station",
        "railway": "station",
        "train": "yes",
        "id": "node/9412821622"
      },
      "geometry": {
        "type": "Point",
        "coordinates": [
          -8.9789339,
          32.2618096
        ]
      }
    },
    {
      "type": "Feature",
      "id": "node/9412862638",
      "properties": {
        "public_transport": "station",
        "railway": "station",
        "train": "yes",
        "id": "node/9412862638"
      },
      "geometry": {
        "type": "Point",
        "coordinates": [
          -8.7562658,
          32.2636437
        ]
      }
    },
    {
      "type": "Feature",
      "id": "node/9418261276",
      "properties": {
        "public_transport": "station",
        "railway": "station",
        "train": "yes",
        "id": "node/9418261276"
      },
      "geometry": {
        "type": "Point",
        "coordinates": [
          -7.995337,
          31.7898838
        ]
      }
    },
    {
      "type": "Feature",
      "id": "node/9418298546",
      "properties": {
        "name": "Tangier Morora",
        "public_transport": "station",
        "railway": "station",
        "train": "yes",
        "id": "node/9418298546"
      },
      "geometry": {
        "type": "Point",
        "coordinates": [
          -5.7887846,
          35.7501673
        ]
      }
    },
    {
      "type": "Feature",
      "id": "node/9425004014",
      "properties": {
        "name": "Tanger-Maritime",
        "public_transport": "station",
        "railway": "station",
        "train": "yes",
        "id": "node/9425004014"
      },
      "geometry": {
        "type": "Point",
        "coordinates": [
          -5.4998128,
          35.8846138
        ]
      }
    },
    {
      "type": "Feature",
      "id": "node/9425177171",
      "properties": {
        "disused:railway": "station",
        "public_transport": "station",
        "railway": "halt",
        "train": "yes",
        "id": "node/9425177171"
      },
      "geometry": {
        "type": "Point",
        "coordinates": [
          -1.9953967,
          32.7664621
        ]
      }
    },
    {
      "type": "Feature",
      "id": "node/9425572299",
      "properties": {
        "public_transport": "station",
        "railway": "station",
        "train": "yes",
        "id": "node/9425572299"
      },
      "geometry": {
        "type": "Point",
        "coordinates": [
          -1.9685052,
          33.3283953
        ]
      }
    },
    {
      "type": "Feature",
      "id": "node/9428450287",
      "properties": {
        "public_transport": "station",
        "railway": "station",
        "train": "yes",
        "id": "node/9428450287"
      },
      "geometry": {
        "type": "Point",
        "coordinates": [
          -3.5409783,
          34.198848
        ]
      }
    },
    {
      "type": "Feature",
      "id": "node/9444230872",
      "properties": {
        "name": "Sabaa Aiyoun",
        "public_transport": "station",
        "railway": "station",
        "train": "yes",
        "id": "node/9444230872"
      },
      "geometry": {
        "type": "Point",
        "coordinates": [
          -5.3756955,
          33.9016034
        ]
      }
    },
    {
      "type": "Feature",
      "id": "node/9444332085",
      "properties": {
        "name": "Meknès - Al Amir Abdelkader",
        "public_transport": "station",
        "railway": "halt",
        "train": "yes",
        "id": "node/9444332085"
      },
      "geometry": {
        "type": "Point",
        "coordinates": [
          -5.5451334,
          33.8992372
        ]
      }
    },
    {
      "type": "Feature",
      "id": "node/9447140239",
      "properties": {
        "name": "Ouarzigha",
        "public_transport": "station",
        "railway": "station",
        "train": "yes",
        "id": "node/9447140239"
      },
      "geometry": {
        "type": "Point",
        "coordinates": [
          -5.5448096,
          33.9342348
        ]
      }
    },
    {
      "type": "Feature",
      "id": "node/9450090824",
      "properties": {
        "name": "Sidi Slimane",
        "public_transport": "station",
        "railway": "halt",
        "train": "yes",
        "id": "node/9450090824"
      },
      "geometry": {
        "type": "Point",
        "coordinates": [
          -5.9220989,
          34.2698391
        ]
      }
    },
    {
      "type": "Feature",
      "id": "node/9450411188",
      "properties": {
        "name": "Sidi Yahya",
        "public_transport": "station",
        "railway": "station",
        "train": "yes",
        "id": "node/9450411188"
      },
      "geometry": {
        "type": "Point",
        "coordinates": [
          -6.3082072,
          34.312248
        ]
      }
    },
    {
      "type": "Feature",
      "id": "node/9450431709",
      "properties": {
        "name": "Kenitra Medina",
        "public_transport": "station",
        "railway": "station",
        "train": "yes",
        "id": "node/9450431709"
      },
      "geometry": {
        "type": "Point",
        "coordinates": [
          -6.5681577,
          34.2653209
        ]
      }
    },
    {
      "type": "Feature",
      "id": "node/9450518206",
      "properties": {
        "name": "Kénitra",
        "public_transport": "station",
        "railway": "station",
        "train": "yes",
        "id": "node/9450518206"
      },
      "geometry": {
        "type": "Point",
        "coordinates": [
          -6.5803175,
          34.2520136
        ]
      }
    },
    {
      "type": "Feature",
      "id": "node/9452205026",
      "properties": {
        "name": "Lalla Yettou",
        "public_transport": "station",
        "railway": "station",
        "train": "yes",
        "id": "node/9452205026"
      },
      "geometry": {
        "type": "Point",
        "coordinates": [
          -6.203943,
          34.3430301
        ]
      }
    },
    {
      "type": "Feature",
      "id": "node/9452234731",
      "properties": {
        "name": "Dar Gueddari",
        "public_transport": "station",
        "railway": "station",
        "train": "yes",
        "id": "node/9452234731"
      },
      "geometry": {
        "type": "Point",
        "coordinates": [
          -6.1030625,
          34.4299619
        ]
      }
    },
    {
      "type": "Feature",
      "id": "node/9452240954",
      "properties": {
        "name": "Oulad Khitib",
        "public_transport": "station",
        "railway": "station",
        "train": "yes",
        "id": "node/9452240954"
      },
      "geometry": {
        "type": "Point",
        "coordinates": [
          -6.0112996,
          34.4751895
        ]
      }
    },
    {
      "type": "Feature",
      "id": "node/9455086473",
      "properties": {
        "name": "Tlata Rissana",
        "public_transport": "station",
        "railway": "station",
        "train": "yes",
        "id": "node/9455086473"
      },
      "geometry": {
        "type": "Point",
        "coordinates": [
          -5.9447754,
          35.2189933
        ]
      }
    },
    {
      "type": "Feature",
      "id": "node/9455233114",
      "properties": {
        "name": "Tnine Sidi El Yamani",
        "public_transport": "station",
        "railway": "station",
        "train": "yes",
        "id": "node/9455233114"
      },
      "geometry": {
        "type": "Point",
        "coordinates": [
          -5.980485,
          35.3404052
        ]
      }
    },
    {
      "type": "Feature",
      "id": "node/9455603264",
      "properties": {
        "name": "Aqba Hamra",
        "public_transport": "station",
        "railway": "station",
        "train": "yes",
        "id": "node/9455603264"
      },
      "geometry": {
        "type": "Point",
        "coordinates": [
          -5.9159127,
          35.6126104
        ]
      }
    },
    {
      "type": "Feature",
      "id": "node/9463275905",
      "properties": {
        "name": "Tamadroust",
        "public_transport": "station",
        "railway": "station",
        "train": "yes",
        "id": "node/9463275905"
      },
      "geometry": {
        "type": "Point",
        "coordinates": [
          -7.4801636,
          33.0073479
        ]
      }
    },
    {
      "type": "Feature",
      "id": "node/9463351931",
      "properties": {
        "name": "Ras Al Ain",
        "public_transport": "station",
        "railway": "station",
        "train": "yes",
        "id": "node/9463351931"
      },
      "geometry": {
        "type": "Point",
        "coordinates": [
          -7.3914998,
          32.9777524
        ]
      }
    },
    {
      "type": "Feature",
      "id": "node/9465580022",
      "properties": {
        "public_transport": "station",
        "railway": "station",
        "train": "yes",
        "id": "node/9465580022"
      },
      "geometry": {
        "type": "Point",
        "coordinates": [
          -6.6262457,
          32.8951562
        ]
      }
    },
    {
      "type": "Feature",
      "id": "node/9468848548",
      "properties": {
        "name": "Imefoute",
        "public_transport": "station",
        "railway": "station",
        "train": "yes",
        "id": "node/9468848548"
      },
      "geometry": {
        "type": "Point",
        "coordinates": [
          -7.7722546,
          32.7485173
        ]
      }
    }
  ]
}