{
  "type": "FeatureCollection",
  "features": [
    {
      "type": "Feature",
      "id": "node/289897536",
      "properties": {
        "internet_access": "wlan",
        "name": "Ungheni",
        "name:ru": "Унгены",
        "operator": "Calea Ferată din Moldova (CFM)",
        "public_transport": "station",
        "railway": "station",
        "train": "yes",
        "uic_ref": "2300145",
        "wikidata": "Q20429826",
        "id": "node/289897536"
      },
      "geometry": {
        "type": "Point",
        "coordinates": [
          27.7998692,
          47.2034975
        ]
      }
    },
    {
      "type": "Feature",
      "id": "node/333196840",
      "properties": {
        "esr:user": "398707",
        "name": "Taraclia",
        "name:bg": "Тараклия",
        "name:gag": "Taraklı",
        "name:gag-cyr": "Тараклы",
        "name:lt": "Taraklija",
        "name:ru": "Тараклия",
        "name:uk": "Тараклія",
        "operator": "Calea Ferată din Moldova",
        "public_transport": "station",
        "railway": "station",
        "train": "yes",
        "uic_ref": "2300616",
        "wikidata": "Q91344439",
        "id": "node/333196840"
      },
      "geometry": {
        "type": "Point",
        "coordinates": [
          28.6501249,
          45.9248343
        ]
      }
    },
    {
      "type": "Feature",
      "id": "node/415964911",
      "properties": {
        "addr:city": "Chișinău",
        "name": "Chișinău",
        "name:af": "Chișinău",
        "name:als": "Kischinau",
        "name:am": "ኪሺንው",
        "name:ar": "كيشيناو",
        "name:ast": "Quixináu",
        "name:bg": "Кишинев",
        "name:de": "Kischinau",
        "name:hu": "KisJenő",
        "name:pl": "Kiszyniów",
        "name:ro": "Chișinău",
        "name:ru": "Кишинёв",
        "operator": "Calea Ferată din Moldova",
        "public_transport": "station",
        "railway": "station",
        "train": "yes",
        "uic_ref": "2300000",
        "id": "node/415964911"
      },
      "geometry": {
        "type": "Point",
        "coordinates": [
          28.8602002,
          47.013054
        ]
      }
    },
    {
      "type": "Feature",
      "id": "node/490607682",
      "properties": {
        "name": "Cahul",
        "name:ru": "Кагул",
        "operator": "CFM",
        "public_transport": "station",
        "railway": "station",
        "train": "yes",
        "uic_ref": "2301588",
        "id": "node/490607682"
      },
      "geometry": {
        "type": "Point",
        "coordinates": [
          28.1928887,
          45.9225188
        ]
      }
    },
    {
      "type": "Feature",
      "id": "node/493346024",
      "properties": {
        "esr:user": "394301",
        "name": "Vălcineț",
        "name:ru": "Вэлчинец",
        "operator": "CFM",
        "public_transport": "station",
        "railway": "station",
        "train": "yes",
        "uic_ref": "2300547",
        "wikidata": "Q83373519",
        "id": "node/493346024"
      },
      "geometry": {
        "type": "Point",
        "coordinates": [
          27.7361088,
          48.4505221
        ]
      }
    },
    {
      "type": "Feature",
      "id": "node/636902885",
      "properties": {
        "name": "Florești",
        "name:ru": "Флорешть",
        "public_transport": "station",
        "railway": "station",
        "train": "yes",
        "uic_ref": "2300466",
        "id": "node/636902885"
      },
      "geometry": {
        "type": "Point",
        "coordinates": [
          28.3073422,
          47.8854552
        ]
      }
    },
    {
      "type": "Feature",
      "id": "node/650729154",
      "properties": {
        "esr:user": "391500",
        "name": "Strășeni",
        "name:ru": "Страшены",
        "operator": "CFM",
        "public_transport": "station",
        "railway": "station",
        "train": "yes",
        "uic_ref": "2300589",
        "id": "node/650729154"
      },
      "geometry": {
        "type": "Point",
        "coordinates": [
          28.6200305,
          47.1499755
        ]
      }
    },
    {
      "type": "Feature",
      "id": "node/836083540",
      "properties": {
        "name": "Basarabeasca",
        "name:ru": "Бессарабская",
        "name:uk": "Бесарабська",
        "operator": "Calea Ferată din Moldova",
        "public_transport": "station",
        "railway": "station",
        "train": "yes",
        "uic_ref": "2300611",
        "wikidata": "Q19706096",
        "wikipedia": "ro:Gara Basarabeasca",
        "id": "node/836083540"
      },
      "geometry": {
        "type": "Point",
        "coordinates": [
          28.9839414,
          46.3272086
        ]
      }
    },
    {
      "type": "Feature",
      "id": "node/1196720448",
      "properties": {
        "esr:user": "398800",
        "name": "Ciadîr-Lunga",
        "name:gag": "Çadır-Lunga",
        "name:ru": "Чадыр-Лунга",
        "operator": "CFM",
        "public_transport": "station",
        "railway": "station",
        "train": "yes",
        "uic_ref": "2300614",
        "wikidata": "Q91345094",
        "id": "node/1196720448"
      },
      "geometry": {
        "type": "Point",
        "coordinates": [
          28.8374349,
          46.0758639
        ]
      }
    },
    {
      "type": "Feature",
      "id": "node/1210715124",
      "properties": {
        "esr:user": "398904",
        "name": "Abaclia",
        "name:ru": "Абаклия",
        "operator": "Calea Ferată din Moldova",
        "public_transport": "station",
        "railway": "station",
        "train": "yes",
        "uic_ref": "2300580",
        "id": "node/1210715124"
      },
      "geometry": {
        "type": "Point",
        "coordinates": [
          28.8987845,
          46.3592045
        ]
      }
    },
    {
      "type": "Feature",
      "id": "node/1774020188",
      "properties": {
        "name": "Colibași",
        "name:ru": "Колибаш",
        "operator": "CFM",
        "public_transport": "station",
        "railway": "station",
        "train": "yes",
        "id": "node/1774020188"
      },
      "geometry": {
        "type": "Point",
        "coordinates": [
          28.1719061,
          45.7190842
        ]
      }
    },
    {
      "type": "Feature",
      "id": "node/2291472492",
      "properties": {
        "name": "Gîrbova",
        "name:ru": "Гырбово",
        "network": "Calea Ferată din Moldova (CFM)",
        "operator": "Sediul Î.S. \"Calea Ferată din Moldova\" (CFM)",
        "public_transport": "station",
        "railway": "station",
        "train": "yes",
        "uic_ref": "2301581",
        "wikidata": "Q91624421",
        "id": "node/2291472492"
      },
      "geometry": {
        "type": "Point",
        "coordinates": [
          27.5983978,
          48.4122024
        ]
      }
    },
    {
      "type": "Feature",
      "id": "node/2291476836",
      "properties": {
        "name": "Grinăuți",
        "name:ru": "Гринауцы",
        "network": "CFM",
        "operator": "CFM",
        "public_transport": "station",
        "railway": "station",
        "train": "yes",
        "uic_ref": "2300535",
        "id": "node/2291476836"
      },
      "geometry": {
        "type": "Point",
        "coordinates": [
          27.5015668,
          48.3192323
        ]
      }
    },
    {
      "type": "Feature",
      "id": "node/2292162997",
      "properties": {
        "name": "Unchitești",
        "name:ru": "Ункитешты",
        "operator": "CFM",
        "public_transport": "station",
        "railway": "station",
        "train": "yes",
        "uic_ref": "2300566",
        "wikidata": "Q4475960",
        "id": "node/2292162997"
      },
      "geometry": {
        "type": "Point",
        "coordinates": [
          28.4899157,
          47.9075112
        ]
      }
    },
    {
      "type": "Feature",
      "id": "node/2292177576",
      "properties": {
        "name": "Bucovăț",
        "name:ru": "Быковец",
        "operator": "CFM",
        "public_transport": "station",
        "railway": "station",
        "ref": "http://www.railway.md",
        "train": "yes",
        "uic_ref": "2300588",
        "id": "node/2292177576"
      },
      "geometry": {
        "type": "Point",
        "coordinates": [
          28.4569995,
          47.1873901
        ]
      }
    },
    {
      "type": "Feature",
      "id": "node/2292221308",
      "properties": {
        "esr:user": "398904",
        "name": "Abaclia",
        "name:ru": "Абаклия",
        "operator": "Calea Ferată din Moldova",
        "public_transport": "station",
        "railway": "station",
        "train": "yes",
        "uic_ref": "2300580",
        "id": "node/2292221308"
      },
      "geometry": {
        "type": "Point",
        "coordinates": [
          28.8986543,
          46.3587613
        ]
      }
    },
    {
      "type": "Feature",
      "id": "node/2292882785",
      "properties": {
        "name": "Iargara",
        "name:ru": "Яргара",
        "operator": "CFM",
        "public_transport": "station",
        "railway": "station",
        "train": "yes",
        "id": "node/2292882785"
      },
      "geometry": {
        "type": "Point",
        "coordinates": [
          28.4318522,
          46.4235598
        ]
      }
    },
    {
      "type": "Feature",
      "id": "node/2292892066",
      "properties": {
        "name": "Prut-2",
        "name:ru": "Прут-2",
        "operator": "CFM",
        "public_transport": "station",
        "railway": "station",
        "train": "yes",
        "id": "node/2292892066"
      },
      "geometry": {
        "type": "Point",
        "coordinates": [
          28.1885866,
          46.2731391
        ]
      }
    },
    {
      "type": "Feature",
      "id": "node/2292894902",
      "properties": {
        "name": "Prut",
        "name:ru": "Прут",
        "operator": "CFM",
        "public_transport": "station",
        "railway": "station",
        "train": "yes",
        "uic_ref": "2301585",
        "id": "node/2292894902"
      },
      "geometry": {
        "type": "Point",
        "coordinates": [
          28.2333876,
          46.2831351
        ]
      }
    },
    {
      "type": "Feature",
      "id": "node/2292918885",
      "properties": {
        "esr:user": "398726",
        "name": "Chiriutnea (Corten)",
        "name:ru": "Кирютня (Кортен)",
        "operator": "CFM",
        "public_transport": "station",
        "railway": "station",
        "train": "yes",
        "uic_ref": "2300615",
        "id": "node/2292918885"
      },
      "geometry": {
        "type": "Point",
        "coordinates": [
          28.769385,
          46.0056143
        ]
      }
    },
    {
      "type": "Feature",
      "id": "node/2292925224",
      "properties": {
        "name": "208 Km",
        "name:ar": "Разъезд 208 км",
        "operator": "CFM",
        "public_transport": "station",
        "railway": "station",
        "train": "yes",
        "uic_ref": "2300107",
        "id": "node/2292925224"
      },
      "geometry": {
        "type": "Point",
        "coordinates": [
          28.6001886,
          45.833152
        ]
      }
    },
    {
      "type": "Feature",
      "id": "node/2292933287",
      "properties": {
        "esr:user": "398505",
        "name": "Greceni",
        "name:ru": "Гречены",
        "operator": "CFM",
        "public_transport": "station",
        "railway": "station",
        "train": "yes",
        "uic_ref": "2300618",
        "wikidata": "Q91342309",
        "id": "node/2292933287"
      },
      "geometry": {
        "type": "Point",
        "coordinates": [
          28.5322045,
          45.7592077
        ]
      }
    },
    {
      "type": "Feature",
      "id": "node/2292937579",
      "properties": {
        "name": "Etulia",
        "name:bg": "Етулия",
        "name:gag": "Tülüküü",
        "name:gag-cyr": "Тӱлӱкӱӱ",
        "name:ro": "Etulia",
        "name:ru": "Этулия",
        "operator": "CFM",
        "public_transport": "station",
        "railway": "station",
        "train": "yes",
        "uic_ref": "2300619",
        "wikidata": "Q2066839",
        "wikipedia": "ru:Етулия (железнодорожная станция)",
        "id": "node/2292937579"
      },
      "geometry": {
        "type": "Point",
        "coordinates": [
          28.4294748,
          45.545864
        ]
      }
    },
    {
      "type": "Feature",
      "id": "node/6630800100",
      "properties": {
        "esr:user": "398853",
        "name": "Culma",
        "name:ru": "Кульма",
        "operator": "CFM",
        "public_transport": "station",
        "railway": "station",
        "train": "yes",
        "uic_ref": "2300539",
        "wikidata": "Q25394738",
        "wikipedia": "ru:Кульма (станция)",
        "id": "node/6630800100"
      },
      "geometry": {
        "type": "Point",
        "coordinates": [
          28.9311649,
          46.2612052
        ]
      }
    },
    {
      "type": "Feature",
      "id": "node/6630990439",
      "properties": {
        "esr:user": "394212",
        "name": "Naslavcea",
        "name:ru": "Наславча",
        "public_transport": "station",
        "railway": "station",
        "train": "yes",
        "uic_ref": "2301575",
        "wikidata": "Q91623836",
        "id": "node/6630990439"
      },
      "geometry": {
        "type": "Point",
        "coordinates": [
          27.5760883,
          48.4391779
        ]
      }
    },
    {
      "type": "Feature",
      "id": "node/6713036073",
      "properties": {
        "name": "Vulcănești",
        "name:gag": "Valkaneș",
        "name:gag-cyr": "Валканеш",
        "name:ru": "Вулканешты",
        "operator": "CFM",
        "public_transport": "station",
        "railway": "station",
        "train": "yes",
        "wikidata": "Q91468219",
        "id": "node/6713036073"
      },
      "geometry": {
        "type": "Point",
        "coordinates": [
          28.4829653,
          45.6847652
        ]
      }
    },
    {
      "type": "Feature",
      "id": "node/7772947019",
      "properties": {
        "name": "Revaca",
        "name:ru": "Ревака",
        "public_transport": "station",
        "railway": "station",
        "train": "yes",
        "wikidata": "Q56367124",
        "id": "node/7772947019"
      },
      "geometry": {
        "type": "Point",
        "coordinates": [
          28.9326095,
          46.9494623
        ]
      }
    },
    {
      "type": "Feature",
      "id": "node/7942054857",
      "properties": {
        "name": "Mărculești",
        "name:ru": "Маркулешты",
        "operator": "CFM",
        "public_transport": "station",
        "railway": "station",
        "train": "yes",
        "uic_ref": "2300571",
        "id": "node/7942054857"
      },
      "geometry": {
        "type": "Point",
        "coordinates": [
          28.2301165,
          47.8732572
        ]
      }
    },
    {
      "type": "Feature",
      "id": "node/7958563308",
      "properties": {
        "name": "Mateuți",
        "name:ru": "Матеуцы",
        "operator": "CFM",
        "public_transport": "station",
        "railway": "station",
        "train": "yes",
        "uic_ref": "2300626",
        "id": "node/7958563308"
      },
      "geometry": {
        "type": "Point",
        "coordinates": [
          28.9489313,
          47.7985578
        ]
      }
    }
  ]
}