{
  "type": "FeatureCollection",
  "features": [
    {
      "type": "Feature",
      "id": "node/277596515",
      "properties": {
        "name": "Хайрхан",
        "name:en": "Khairkhan",
        "railway": "station",
        "id": "node/277596515"
      },
      "geometry": {
        "type": "Point",
        "coordinates": [
          107.1897197,
          47.6507936
        ]
      }
    },
    {
      "type": "Feature",
      "id": "node/277596614",
      "properties": {
        "name": "Хоолт",
        "name:en": "Khoolt",
        "railway": "station",
        "id": "node/277596614"
      },
      "geometry": {
        "type": "Point",
        "coordinates": [
          107.2217016,
          47.6113299
        ]
      }
    },
    {
      "type": "Feature",
      "id": "node/277596711",
      "properties": {
        "name": "Цагаан хяр",
        "name:en": "Tsagaan-khyar",
        "railway": "station",
        "id": "node/277596711"
      },
      "geometry": {
        "type": "Point",
        "coordinates": [
          107.289875,
          47.563657
        ]
      }
    },
    {
      "type": "Feature",
      "id": "node/277598264",
      "properties": {
        "name": "Чойр",
        "name:de": "Tschoir",
        "name:en": "Choir",
        "name:es": "Choyr",
        "name:fr": "Choyr",
        "name:it": "Čojr",
        "name:ja": "チョイル",
        "name:ru": "Чойр",
        "public_transport": "station",
        "railway": "station",
        "uic_ref": "3100006",
        "id": "node/277598264"
      },
      "geometry": {
        "type": "Point",
        "coordinates": [
          108.3570695,
          46.3577971
        ]
      }
    },
    {
      "type": "Feature",
      "id": "node/277598863",
      "properties": {
        "name": "31-р зөрлөг",
        "railway": "halt",
        "id": "node/277598863"
      },
      "geometry": {
        "type": "Point",
        "coordinates": [
          109.5946119,
          45.5006005
        ]
      }
    },
    {
      "type": "Feature",
      "id": "node/277600601",
      "properties": {
        "name": "Замын-Үүд",
        "name:en": "Zamyn-Üüd",
        "name:ja": "ザミンウード",
        "name:ru": "Замын-Ууд",
        "name:zh": "扎门乌德",
        "railway": "station",
        "uic_ref": "3100002",
        "id": "node/277600601"
      },
      "geometry": {
        "type": "Point",
        "coordinates": [
          111.9078261,
          43.7190824
        ]
      }
    },
    {
      "type": "Feature",
      "id": "node/293951506",
      "properties": {
        "name": "Багануур",
        "name:en": "Baganuur",
        "name:ja": "バガヌール",
        "railway": "station",
        "id": "node/293951506"
      },
      "geometry": {
        "type": "Point",
        "coordinates": [
          108.3708671,
          47.7608956
        ]
      }
    },
    {
      "type": "Feature",
      "id": "node/300430416",
      "properties": {
        "name": "Хойт зөрлөг",
        "name:en": "Khoit",
        "railway": "station",
        "id": "node/300430416"
      },
      "geometry": {
        "type": "Point",
        "coordinates": [
          106.1353899,
          50.3070654
        ]
      }
    },
    {
      "type": "Feature",
      "id": "node/300430547",
      "properties": {
        "name": "Сүхбаатар",
        "name:en": "Sükhbaatar",
        "name:mn": "Сүхбаатар",
        "name:ru": "Сухэ-Батор",
        "railway": "station",
        "uic_ref": "3100004",
        "id": "node/300430547"
      },
      "geometry": {
        "type": "Point",
        "coordinates": [
          106.1988951,
          50.236365
        ]
      }
    },
    {
      "type": "Feature",
      "id": "node/414757069",
      "properties": {
        "name": "Бэрх",
        "name:en": "Berkh",
        "railway": "station",
        "id": "node/414757069"
      },
      "geometry": {
        "type": "Point",
        "coordinates": [
          106.3357307,
          48.8542977
        ]
      }
    },
    {
      "type": "Feature",
      "id": "node/414757097",
      "properties": {
        "name": "Зүүнхараа",
        "name:en": "Züünkharaa",
        "name:ja": "ズーンハラ",
        "name:mn": "Зүүнхараа",
        "railway": "station",
        "uic_ref": "3100003",
        "id": "node/414757097"
      },
      "geometry": {
        "type": "Point",
        "coordinates": [
          106.4544636,
          48.8568195
        ]
      }
    },
    {
      "type": "Feature",
      "id": "node/414757540",
      "properties": {
        "name": "Давааны",
        "public_transport": "station",
        "railway": "station",
        "wheelchair": "yes",
        "id": "node/414757540"
      },
      "geometry": {
        "type": "Point",
        "coordinates": [
          106.5357049,
          47.9350536
        ]
      }
    },
    {
      "type": "Feature",
      "id": "node/566997277",
      "properties": {
        "alt_name": "Ulaanbaatar",
        "name": "Улаанбаатар",
        "name:en": "Ulan Bator",
        "name:mn": "Улаанбаатар",
        "name:ru": "Улан-Батор",
        "railway": "station",
        "uic_ref": "3100005",
        "wikidata": "Q800161",
        "id": "node/566997277"
      },
      "geometry": {
        "type": "Point",
        "coordinates": [
          106.8841436,
          47.9080281
        ]
      }
    },
    {
      "type": "Feature",
      "id": "node/1317293612",
      "properties": {
        "name": "Баянбуурал",
        "railway": "halt",
        "id": "node/1317293612"
      },
      "geometry": {
        "type": "Point",
        "coordinates": [
          106.8053774,
          48.4747237
        ]
      }
    },
    {
      "type": "Feature",
      "id": "node/1317293828",
      "properties": {
        "name": "Толгойт",
        "railway": "station",
        "wikidata": "Q20094075",
        "id": "node/1317293828"
      },
      "geometry": {
        "type": "Point",
        "coordinates": [
          106.7786407,
          47.9083204
        ]
      }
    },
    {
      "type": "Feature",
      "id": "node/1317293863",
      "properties": {
        "name": "Batsümber",
        "name:mn": "Батсүмбэр",
        "railway": "halt",
        "id": "node/1317293863"
      },
      "geometry": {
        "type": "Point",
        "coordinates": [
          106.7483445,
          48.3632936
        ]
      }
    },
    {
      "type": "Feature",
      "id": "node/1851150803",
      "properties": {
        "name": "Баянтүмэн",
        "name:ru": "Баянтумен",
        "railway": "station",
        "id": "node/1851150803"
      },
      "geometry": {
        "type": "Point",
        "coordinates": [
          114.5649384,
          48.1135794
        ]
      }
    },
    {
      "type": "Feature",
      "id": "node/1885432107",
      "properties": {
        "name": "Эрдэнэт",
        "name:en": "Erdenet",
        "name:ja": "エルデネト",
        "public_transport": "station",
        "railway": "station",
        "id": "node/1885432107"
      },
      "geometry": {
        "type": "Point",
        "coordinates": [
          104.1626796,
          49.0590389
        ]
      }
    },
    {
      "type": "Feature",
      "id": "node/1960876291",
      "properties": {
        "name": "Шатанга",
        "name:en": "Shatanga",
        "railway": "station",
        "id": "node/1960876291"
      },
      "geometry": {
        "type": "Point",
        "coordinates": [
          106.8077999,
          48.5212484
        ]
      }
    },
    {
      "type": "Feature",
      "id": "node/2074399164",
      "properties": {
        "name": "Шарын гол өртөө",
        "name:en": "Sharyngol",
        "name:ja": "シャリンゴル",
        "railway": "station",
        "id": "node/2074399164"
      },
      "geometry": {
        "type": "Point",
        "coordinates": [
          106.4306411,
          49.2341912
        ]
      }
    },
    {
      "type": "Feature",
      "id": "node/2167067829",
      "properties": {
        "name": "Бор-Өндөр төмөр замын өртөө",
        "railway": "station",
        "id": "node/2167067829"
      },
      "geometry": {
        "type": "Point",
        "coordinates": [
          109.4317612,
          46.2497978
        ]
      }
    },
    {
      "type": "Feature",
      "id": "node/2198903845",
      "properties": {
        "railway": "station",
        "id": "node/2198903845"
      },
      "geometry": {
        "type": "Point",
        "coordinates": [
          106.6295472,
          49.7912122
        ]
      }
    },
    {
      "type": "Feature",
      "id": "node/2198903923",
      "properties": {
        "railway": "station",
        "id": "node/2198903923"
      },
      "geometry": {
        "type": "Point",
        "coordinates": [
          106.9167152,
          49.7840845
        ]
      }
    },
    {
      "type": "Feature",
      "id": "node/2198903952",
      "properties": {
        "railway": "station",
        "id": "node/2198903952"
      },
      "geometry": {
        "type": "Point",
        "coordinates": [
          106.2495104,
          49.9093891
        ]
      }
    },
    {
      "type": "Feature",
      "id": "node/2309313306",
      "properties": {
        "name": "Бэлэндалай зөрлөг",
        "name:en": "Belendalai",
        "railway": "station",
        "id": "node/2309313306"
      },
      "geometry": {
        "type": "Point",
        "coordinates": [
          105.4085281,
          49.0447674
        ]
      }
    },
    {
      "type": "Feature",
      "id": "node/2309313575",
      "properties": {
        "name": "Салхит",
        "name:en": "Salkhit",
        "railway": "station",
        "uic_ref": "3100009",
        "id": "node/2309313575"
      },
      "geometry": {
        "type": "Point",
        "coordinates": [
          105.8681619,
          49.1977626
        ]
      }
    },
    {
      "type": "Feature",
      "id": "node/2314495849",
      "properties": {
        "name": "Дулаан",
        "name:en": "Dulaan",
        "railway": "station",
        "id": "node/2314495849"
      },
      "geometry": {
        "type": "Point",
        "coordinates": [
          106.1324336,
          50.0188328
        ]
      }
    },
    {
      "type": "Feature",
      "id": "node/2364173606",
      "properties": {
        "railway": "station",
        "id": "node/2364173606"
      },
      "geometry": {
        "type": "Point",
        "coordinates": [
          106.4362561,
          49.2292617
        ]
      }
    },
    {
      "type": "Feature",
      "id": "node/2456371705",
      "properties": {
        "name": "Багахангай",
        "name:en": "Bagakhangai",
        "railway": "station",
        "id": "node/2456371705"
      },
      "geometry": {
        "type": "Point",
        "coordinates": [
          107.484142,
          47.3534668
        ]
      }
    },
    {
      "type": "Feature",
      "id": "node/2456809539",
      "properties": {
        "name": "Өргөн",
        "name:en": "Urgun",
        "name:zh": "额尔根",
        "railway": "station",
        "id": "node/2456809539"
      },
      "geometry": {
        "type": "Point",
        "coordinates": [
          110.7725307,
          44.7237255
        ]
      }
    },
    {
      "type": "Feature",
      "id": "node/2472141711",
      "properties": {
        "name": "Замын-Үүд 2",
        "name:en": "Zamynuud-2",
        "name:zh": "扎门乌德2",
        "railway": "station",
        "id": "node/2472141711"
      },
      "geometry": {
        "type": "Point",
        "coordinates": [
          111.8850026,
          43.7357991
        ]
      }
    },
    {
      "type": "Feature",
      "id": "node/2472141712",
      "properties": {
        "name": "Шаргын-Овоо",
        "name:en": "Shargyn-ovoo",
        "name:zh": "沙尔金敖包",
        "railway": "station",
        "id": "node/2472141712"
      },
      "geometry": {
        "type": "Point",
        "coordinates": [
          111.7425978,
          43.8415362
        ]
      }
    },
    {
      "type": "Feature",
      "id": "node/2472141713",
      "properties": {
        "name": "Нартын хошуу",
        "name:en": "Nartynkhoshuu",
        "name:zh": "纳特霍舒",
        "railway": "station",
        "id": "node/2472141713"
      },
      "geometry": {
        "type": "Point",
        "coordinates": [
          111.5690263,
          43.9776436
        ]
      }
    },
    {
      "type": "Feature",
      "id": "node/2472141726",
      "properties": {
        "name": "Авгын гол",
        "name:en": "Avgyingol",
        "name:zh": "阿金郭勒",
        "railway": "station",
        "id": "node/2472141726"
      },
      "geometry": {
        "type": "Point",
        "coordinates": [
          111.3953794,
          44.1050708
        ]
      }
    },
    {
      "type": "Feature",
      "id": "node/2472141731",
      "properties": {
        "name": "Сумангийнзоо",
        "name:en": "Sumangiinzoo",
        "name:zh": "苏曼沁祖",
        "railway": "station",
        "id": "node/2472141731"
      },
      "geometry": {
        "type": "Point",
        "coordinates": [
          111.2742451,
          44.1801392
        ]
      }
    },
    {
      "type": "Feature",
      "id": "node/2472141734",
      "properties": {
        "name": "Цагаанхад",
        "name:en": "Tsagaankhyar",
        "name:zh": "查干罕德",
        "railway": "station",
        "id": "node/2472141734"
      },
      "geometry": {
        "type": "Point",
        "coordinates": [
          111.17461,
          44.2532496
        ]
      }
    },
    {
      "type": "Feature",
      "id": "node/2472141743",
      "properties": {
        "name": "Улаан-Уул",
        "name:en": "Ulaanuul",
        "name:zh": "乌兰乌拉",
        "railway": "station",
        "id": "node/2472141743"
      },
      "geometry": {
        "type": "Point",
        "coordinates": [
          111.0988366,
          44.4452697
        ]
      }
    },
    {
      "type": "Feature",
      "id": "node/2472141744",
      "properties": {
        "name": "Зүүнбаян өртөө",
        "name:en": "Zuunbayan",
        "railway": "station",
        "id": "node/2472141744"
      },
      "geometry": {
        "type": "Point",
        "coordinates": [
          110.0628348,
          44.5188731
        ]
      }
    },
    {
      "type": "Feature",
      "id": "node/2472141745",
      "properties": {
        "name": "Долоодын хөндий",
        "name:en": "Doloodynkhundii",
        "name:zh": "多伦德昆迪",
        "railway": "station",
        "id": "node/2472141745"
      },
      "geometry": {
        "type": "Point",
        "coordinates": [
          110.9755431,
          44.5876332
        ]
      }
    },
    {
      "type": "Feature",
      "id": "node/2472141758",
      "properties": {
        "name": "Түшлэг",
        "name:en": "Tushleg",
        "name:zh": "图什勒格",
        "railway": "station",
        "id": "node/2472141758"
      },
      "geometry": {
        "type": "Point",
        "coordinates": [
          110.3985144,
          44.7880382
        ]
      }
    },
    {
      "type": "Feature",
      "id": "node/2472141763",
      "properties": {
        "name": "Агьсүмбэт",
        "name:en": "Agisumbet",
        "railway": "station",
        "id": "node/2472141763"
      },
      "geometry": {
        "type": "Point",
        "coordinates": [
          109.9647368,
          45.1508324
        ]
      }
    },
    {
      "type": "Feature",
      "id": "node/2472141768",
      "properties": {
        "name": "Улхын-Овоо",
        "name:en": "Ulkhyn-ovoo",
        "railway": "station",
        "id": "node/2472141768"
      },
      "geometry": {
        "type": "Point",
        "coordinates": [
          109.759293,
          45.3290748
        ]
      }
    },
    {
      "type": "Feature",
      "id": "node/2472141781",
      "properties": {
        "name": "Алтганы гол",
        "name:en": "Altganygol",
        "railway": "station",
        "id": "node/2472141781"
      },
      "geometry": {
        "type": "Point",
        "coordinates": [
          109.549755,
          45.6383798
        ]
      }
    },
    {
      "type": "Feature",
      "id": "node/2472141786",
      "properties": {
        "name": "Айраг",
        "name:en": "Airag",
        "railway": "station",
        "id": "node/2472141786"
      },
      "geometry": {
        "type": "Point",
        "coordinates": [
          109.3067263,
          45.8000808
        ]
      }
    },
    {
      "type": "Feature",
      "id": "node/2472141787",
      "properties": {
        "name": "Цомог",
        "name:en": "Tsomog",
        "railway": "station",
        "id": "node/2472141787"
      },
      "geometry": {
        "type": "Point",
        "coordinates": [
          109.0654669,
          45.9180188
        ]
      }
    },
    {
      "type": "Feature",
      "id": "node/2472141788",
      "properties": {
        "name": "Олон овоо",
        "name:en": "Olon-ovoo",
        "railway": "station",
        "id": "node/2472141788"
      },
      "geometry": {
        "type": "Point",
        "coordinates": [
          108.9496745,
          45.953145
        ]
      }
    },
    {
      "type": "Feature",
      "id": "node/2472141793",
      "properties": {
        "name": "Өлзийт",
        "name:en": "Ulziit",
        "railway": "station",
        "id": "node/2472141793"
      },
      "geometry": {
        "type": "Point",
        "coordinates": [
          108.8005531,
          46.0132982
        ]
      }
    },
    {
      "type": "Feature",
      "id": "node/2472141802",
      "properties": {
        "name": "Шивээговь 22-р зөрлөг",
        "name:en": "Shiveegobi train station",
        "railway": "station",
        "id": "node/2472141802"
      },
      "geometry": {
        "type": "Point",
        "coordinates": [
          108.660072,
          46.1368318
        ]
      }
    },
    {
      "type": "Feature",
      "id": "node/2472141809",
      "properties": {
        "name": "Шивээ-Овоо 21-р зөрлөг",
        "name:en": "Shivee-ovoo train station",
        "railway": "station",
        "id": "node/2472141809"
      },
      "geometry": {
        "type": "Point",
        "coordinates": [
          108.5323552,
          46.2023961
        ]
      }
    },
    {
      "type": "Feature",
      "id": "node/2472141810",
      "properties": {
        "name": "Лүн",
        "name:en": "Lun",
        "public_transport": "station",
        "railway": "station",
        "id": "node/2472141810"
      },
      "geometry": {
        "type": "Point",
        "coordinates": [
          108.2647819,
          46.5864555
        ]
      }
    },
    {
      "type": "Feature",
      "id": "node/2472141811",
      "properties": {
        "name": "Оорцог энгэр",
        "name:en": "Oortsog-enger",
        "public_transport": "station",
        "railway": "station",
        "id": "node/2472141811"
      },
      "geometry": {
        "type": "Point",
        "coordinates": [
          108.0327078,
          46.7131421
        ]
      }
    },
    {
      "type": "Feature",
      "id": "node/2472141812",
      "properties": {
        "name": "Наран-Элгэн",
        "name:en": "Naran-elgen",
        "railway": "station",
        "id": "node/2472141812"
      },
      "geometry": {
        "type": "Point",
        "coordinates": [
          107.7751017,
          46.8560838
        ]
      }
    },
    {
      "type": "Feature",
      "id": "node/2472141813",
      "properties": {
        "name": "Агуйт",
        "name:en": "Agiut",
        "railway": "station",
        "id": "node/2472141813"
      },
      "geometry": {
        "type": "Point",
        "coordinates": [
          107.6433221,
          47.044508
        ]
      }
    },
    {
      "type": "Feature",
      "id": "node/2472141822",
      "properties": {
        "name": "Мааньт",
        "name:en": "Maanyt",
        "railway": "station",
        "id": "node/2472141822"
      },
      "geometry": {
        "type": "Point",
        "coordinates": [
          107.5333499,
          47.2505278
        ]
      }
    },
    {
      "type": "Feature",
      "id": "node/2472141827",
      "properties": {
        "name:en": "Bulagtai",
        "railway": "station",
        "id": "node/2472141827"
      },
      "geometry": {
        "type": "Point",
        "coordinates": [
          107.8892983,
          47.4252774
        ]
      }
    },
    {
      "type": "Feature",
      "id": "node/2472141832",
      "properties": {
        "name": "Хангай",
        "name:en": "Khangai",
        "railway": "station",
        "id": "node/2472141832"
      },
      "geometry": {
        "type": "Point",
        "coordinates": [
          107.3857111,
          47.4408731
        ]
      }
    },
    {
      "type": "Feature",
      "id": "node/2472141843",
      "properties": {
        "name": "Чулуут",
        "name:en": "Chuluut",
        "railway": "station",
        "id": "node/2472141843"
      },
      "geometry": {
        "type": "Point",
        "coordinates": [
          107.3626098,
          47.519521
        ]
      }
    },
    {
      "type": "Feature",
      "id": "node/2472141846",
      "properties": {
        "name": "Баян",
        "name:en": "Bayan",
        "railway": "station",
        "id": "node/2472141846"
      },
      "geometry": {
        "type": "Point",
        "coordinates": [
          107.2072667,
          47.7024082
        ]
      }
    },
    {
      "type": "Feature",
      "id": "node/2472141857",
      "properties": {
        "name": "Бумбат",
        "name:en": "Bumbat",
        "railway": "station",
        "id": "node/2472141857"
      },
      "geometry": {
        "type": "Point",
        "coordinates": [
          107.1706377,
          47.7886403
        ]
      }
    },
    {
      "type": "Feature",
      "id": "node/2472141874",
      "properties": {
        "name": "Хонхор",
        "name:en": "Khonkhor",
        "railway": "station",
        "wikidata": "Q25447057",
        "id": "node/2472141874"
      },
      "geometry": {
        "type": "Point",
        "coordinates": [
          107.1642708,
          47.8141757
        ]
      }
    },
    {
      "type": "Feature",
      "id": "node/2472141879",
      "properties": {
        "name": "Туул",
        "name:en": "Tuul",
        "railway": "station",
        "id": "node/2472141879"
      },
      "geometry": {
        "type": "Point",
        "coordinates": [
          107.0910524,
          47.8749389
        ]
      }
    },
    {
      "type": "Feature",
      "id": "node/2472141880",
      "properties": {
        "name": "Эмээлт",
        "name:en": "Emeelt",
        "railway": "station",
        "wikidata": "Q20076692",
        "id": "node/2472141880"
      },
      "geometry": {
        "type": "Point",
        "coordinates": [
          106.5996437,
          47.8869565
        ]
      }
    },
    {
      "type": "Feature",
      "id": "node/2472141886",
      "properties": {
        "name": "Улаанбаатар - 2",
        "name:en": "Ulaanbaatar-2",
        "railway": "station",
        "id": "node/2472141886"
      },
      "geometry": {
        "type": "Point",
        "coordinates": [
          106.8479472,
          47.9085756
        ]
      }
    },
    {
      "type": "Feature",
      "id": "node/2472141891",
      "properties": {
        "alt_name": "Arshaant",
        "name": "Рашаант",
        "name:en": "Rashaant",
        "railway": "station",
        "wikidata": "Q20072847",
        "id": "node/2472141891"
      },
      "geometry": {
        "type": "Point",
        "coordinates": [
          106.5677084,
          48.0618567
        ]
      }
    },
    {
      "type": "Feature",
      "id": "node/2472141898",
      "properties": {
        "name": "Ногоонтолгой",
        "name:en": "Nogoontolgoi",
        "railway": "station",
        "id": "node/2472141898"
      },
      "geometry": {
        "type": "Point",
        "coordinates": [
          106.7118556,
          48.1965473
        ]
      }
    },
    {
      "type": "Feature",
      "id": "node/2472141909",
      "properties": {
        "name": "Түнх",
        "name:en": "Tunkh",
        "railway": "station",
        "id": "node/2472141909"
      },
      "geometry": {
        "type": "Point",
        "coordinates": [
          106.7637621,
          48.6437887
        ]
      }
    },
    {
      "type": "Feature",
      "id": "node/2472141914",
      "properties": {
        "name": "Үнэгт",
        "name:en": "Unegt",
        "railway": "station",
        "id": "node/2472141914"
      },
      "geometry": {
        "type": "Point",
        "coordinates": [
          106.7128363,
          48.7974513
        ]
      }
    },
    {
      "type": "Feature",
      "id": "node/2472141926",
      "properties": {
        "name": "Хангал зөрлөгийн байр",
        "name:en": "Khangal",
        "railway": "station",
        "id": "node/2472141926"
      },
      "geometry": {
        "type": "Point",
        "coordinates": [
          104.5787569,
          48.8698253
        ]
      }
    },
    {
      "type": "Feature",
      "id": "node/2472141931",
      "properties": {
        "name": "Баруунхараа",
        "railway": "station",
        "id": "node/2472141931"
      },
      "geometry": {
        "type": "Point",
        "coordinates": [
          106.091651,
          48.9027795
        ]
      }
    },
    {
      "type": "Feature",
      "id": "node/2472141935",
      "properties": {
        "name": "Орхонтуул зөрлөг",
        "name:en": "Orkhontuul",
        "railway": "station",
        "id": "node/2472141935"
      },
      "geometry": {
        "type": "Point",
        "coordinates": [
          104.9821538,
          48.944743
        ]
      }
    },
    {
      "type": "Feature",
      "id": "node/2472141936",
      "properties": {
        "name": "Улаантолгой зөрлөг",
        "name:en": "Ulaantolgoi",
        "railway": "station",
        "id": "node/2472141936"
      },
      "geometry": {
        "type": "Point",
        "coordinates": [
          104.4037761,
          49.0335714
        ]
      }
    },
    {
      "type": "Feature",
      "id": "node/2472141941",
      "properties": {
        "name": "Номгон зөрлөг",
        "name:en": "Nomgon",
        "railway": "station",
        "id": "node/2472141941"
      },
      "geometry": {
        "type": "Point",
        "coordinates": [
          105.9240482,
          49.0366551
        ]
      }
    },
    {
      "type": "Feature",
      "id": "node/2472141950",
      "properties": {
        "name": "Хөтөл өртөө",
        "name:en": "Khutul",
        "railway": "station",
        "id": "node/2472141950"
      },
      "geometry": {
        "type": "Point",
        "coordinates": [
          105.5788553,
          49.0980586
        ]
      }
    },
    {
      "type": "Feature",
      "id": "node/2472141958",
      "properties": {
        "name": "Эрхэт",
        "name:en": "Erkhet",
        "railway": "station",
        "id": "node/2472141958"
      },
      "geometry": {
        "type": "Point",
        "coordinates": [
          105.8906614,
          49.1175061
        ]
      }
    },
    {
      "type": "Feature",
      "id": "node/2472141973",
      "properties": {
        "name": "Цайдам",
        "name:en": "Tsaidam",
        "railway": "station",
        "id": "node/2472141973"
      },
      "geometry": {
        "type": "Point",
        "coordinates": [
          105.9158761,
          49.2987597
        ]
      }
    },
    {
      "type": "Feature",
      "id": "node/2472141981",
      "properties": {
        "name": "Дархан 2",
        "name:en": "Darkhan-2",
        "railway": "station",
        "id": "node/2472141981"
      },
      "geometry": {
        "type": "Point",
        "coordinates": [
          105.9405462,
          49.4316537
        ]
      }
    },
    {
      "type": "Feature",
      "id": "node/2472142003",
      "properties": {
        "name": "Энхтал",
        "name:en": "Enkhtal",
        "railway": "station",
        "id": "node/2472142003"
      },
      "geometry": {
        "type": "Point",
        "coordinates": [
          105.9300869,
          49.6870671
        ]
      }
    },
    {
      "type": "Feature",
      "id": "node/2472142006",
      "properties": {
        "name": "Орхон",
        "name:en": "Orkhon",
        "railway": "station",
        "id": "node/2472142006"
      },
      "geometry": {
        "type": "Point",
        "coordinates": [
          106.1351593,
          49.8350145
        ]
      }
    },
    {
      "type": "Feature",
      "id": "node/2472142010",
      "properties": {
        "name": "Ерөө",
        "name:en": "Yuroo",
        "railway": "station",
        "id": "node/2472142010"
      },
      "geometry": {
        "type": "Point",
        "coordinates": [
          106.155138,
          49.923419
        ]
      }
    },
    {
      "type": "Feature",
      "id": "node/2472142026",
      "properties": {
        "name": "34-р цэг",
        "name:en": "34 station",
        "railway": "station",
        "id": "node/2472142026"
      },
      "geometry": {
        "type": "Point",
        "coordinates": [
          106.1937986,
          50.1379316
        ]
      }
    },
    {
      "type": "Feature",
      "id": "node/2472827374",
      "properties": {
        "railway": "station",
        "id": "node/2472827374"
      },
      "geometry": {
        "type": "Point",
        "coordinates": [
          115.2032235,
          48.8192956
        ]
      }
    },
    {
      "type": "Feature",
      "id": "node/3523636727",
      "properties": {
        "name": "264-н цэг",
        "name:en": "264 station",
        "railway": "station",
        "id": "node/3523636727"
      },
      "geometry": {
        "type": "Point",
        "coordinates": [
          106.7318232,
          48.7040757
        ]
      }
    },
    {
      "type": "Feature",
      "id": "node/3889012492",
      "properties": {
        "name": "Зүүнбаян өртөө",
        "railway": "station",
        "id": "node/3889012492"
      },
      "geometry": {
        "type": "Point",
        "coordinates": [
          110.0623457,
          44.5189854
        ]
      }
    },
    {
      "type": "Feature",
      "id": "node/3912267439",
      "properties": {
        "name": "Номт",
        "name:zh": "诺木特",
        "railway": "station",
        "id": "node/3912267439"
      },
      "geometry": {
        "type": "Point",
        "coordinates": [
          111.2438253,
          44.346319
        ]
      }
    },
    {
      "type": "Feature",
      "id": "node/4055188480",
      "properties": {
        "name": "Мандал",
        "railway": "halt",
        "id": "node/4055188480"
      },
      "geometry": {
        "type": "Point",
        "coordinates": [
          106.7631685,
          48.4363052
        ]
      }
    },
    {
      "type": "Feature",
      "id": "node/6897736067",
      "properties": {
        "addr:street": "Ард Аюуш",
        "description": "автобусны буудал",
        "name": "Дэнж",
        "public_transport": "station",
        "id": "node/6897736067"
      },
      "geometry": {
        "type": "Point",
        "coordinates": [
          106.8546845,
          47.9198603
        ]
      }
    },
    {
      "type": "Feature",
      "id": "node/6897746372",
      "properties": {
        "addr:street": "Ард Аюуш",
        "description": "автобусны буудал",
        "name": "Гэмтэл засал",
        "public_transport": "station",
        "id": "node/6897746372"
      },
      "geometry": {
        "type": "Point",
        "coordinates": [
          106.8574058,
          47.9214029
        ]
      }
    },
    {
      "type": "Feature",
      "id": "node/8299183454",
      "properties": {
        "name": "Дархан Өртөө",
        "public_transport": "station",
        "railway": "station",
        "train": "yes",
        "id": "node/8299183454"
      },
      "geometry": {
        "type": "Point",
        "coordinates": [
          105.9305926,
          49.4847703
        ]
      }
    },
    {
      "type": "Feature",
      "id": "node/8301672403",
      "properties": {
        "public_transport": "station",
        "railway": "station",
        "train": "yes",
        "id": "node/8301672403"
      },
      "geometry": {
        "type": "Point",
        "coordinates": [
          106.1358739,
          49.8349945
        ]
      }
    }
  ]
}