{
  "type": "FeatureCollection",
  "features": [
    {
      "type": "Feature",
      "id": "node/259997361",
      "properties": {
        "name": "Рипањ",
        "name:sr": "Рипањ",
        "name:sr-Latn": "Ripanj",
        "public_transport": "station",
        "railway": "station",
        "train": "yes",
        "wikidata": "Q31182308",
        "wikipedia": "sr:Железничка станица Рипањ",
        "id": "node/259997361"
      },
      "geometry": {
        "type": "Point",
        "coordinates": [
          20.5070117,
          44.6623552
        ]
      }
    },
    {
      "type": "Feature",
      "id": "node/313235244",
      "properties": {
        "name": "Барајево центар",
        "name:sr": "Барајево Центар",
        "name:sr-Latn": "Barajevo Centar",
        "public_transport": "station",
        "railway": "halt",
        "train": "yes",
        "id": "node/313235244"
      },
      "geometry": {
        "type": "Point",
        "coordinates": [
          20.4121206,
          44.5772798
        ]
      }
    },
    {
      "type": "Feature",
      "id": "node/408156503",
      "properties": {
        "name": "Палојска Росуља",
        "name:sr": "Палојска Росуља",
        "name:sr-Latn": "Palojska Rosulja",
        "public_transport": "station",
        "railway": "halt",
        "train": "yes",
        "id": "node/408156503"
      },
      "geometry": {
        "type": "Point",
        "coordinates": [
          22.1196968,
          42.8606831
        ]
      }
    },
    {
      "type": "Feature",
      "id": "node/475574716",
      "properties": {
        "name": "Велика Плана",
        "name:en": "Velika Plana",
        "name:sr": "Велика Плана",
        "name:sr-Latn": "Velika Plana",
        "public_transport": "station",
        "railway": "station",
        "train": "yes",
        "id": "node/475574716"
      },
      "geometry": {
        "type": "Point",
        "coordinates": [
          21.0826417,
          44.3251661
        ]
      }
    },
    {
      "type": "Feature",
      "id": "node/552820285",
      "properties": {
        "name": "Земун",
        "name:de": "Semlin",
        "name:en": "Zemun",
        "name:hu": "Zimony",
        "name:sr": "Земун",
        "name:sr-Latn": "Zemun",
        "public_transport": "station",
        "railway": "station",
        "train": "yes",
        "wikidata": "Q3098106",
        "wikipedia": "sr:Железничка станица Земун",
        "id": "node/552820285"
      },
      "geometry": {
        "type": "Point",
        "coordinates": [
          20.3723703,
          44.8369302
        ]
      }
    },
    {
      "type": "Feature",
      "id": "node/708674537",
      "properties": {
        "name": "Зајечар",
        "name:bg": "Зайчар",
        "name:de": "Zaječar",
        "name:en": "Zajecar",
        "name:ro": "Zăiceari",
        "name:ru": "Заечар",
        "name:sr": "Зајечар",
        "name:sr-Latn": "Zaječar",
        "old_name:de": "Zatitscher",
        "public_transport": "station",
        "railway": "station",
        "train": "yes",
        "id": "node/708674537"
      },
      "geometry": {
        "type": "Point",
        "coordinates": [
          22.2731175,
          43.9050608
        ]
      }
    },
    {
      "type": "Feature",
      "id": "node/893439322",
      "properties": {
        "name": "Суботица",
        "name:hu": "Szabadka",
        "name:pl": "Subotica",
        "name:sr": "Суботица",
        "name:sr-Latn": "Subotica",
        "public_transport": "station",
        "railway": "station",
        "railway:ref": "SUB",
        "train": "yes",
        "id": "node/893439322"
      },
      "geometry": {
        "type": "Point",
        "coordinates": [
          19.6712504,
          46.1019634
        ]
      }
    },
    {
      "type": "Feature",
      "id": "node/1241388523",
      "properties": {
        "name": "Селеуш",
        "public_transport": "station",
        "railway": "station",
        "train": "yes",
        "id": "node/1241388523"
      },
      "geometry": {
        "type": "Point",
        "coordinates": [
          20.9193579,
          45.1300119
        ]
      }
    },
    {
      "type": "Feature",
      "id": "node/1430378581",
      "properties": {
        "name": "Шид",
        "name:bs": "Šid",
        "name:de": "Schid",
        "name:en": "Šid",
        "name:hu": "Sid",
        "name:ru": "Шид",
        "name:sr": "Шид",
        "name:sr-Latn": "Šid",
        "public_transport": "station",
        "railway": "station",
        "train": "yes",
        "id": "node/1430378581"
      },
      "geometry": {
        "type": "Point",
        "coordinates": [
          19.2215461,
          45.1175468
        ]
      }
    },
    {
      "type": "Feature",
      "id": "node/1461569187",
      "properties": {
        "addr:city": "Кикинда",
        "addr:housenumber": "11",
        "addr:postcode": "23300",
        "addr:street": "Ослобођења",
        "internet_access": "no",
        "light_rail": "yes",
        "name": "Кикинда",
        "name:de": "Großkikinda",
        "name:en": "Kikinda",
        "name:hu": "Nagykikinda",
        "name:ro": "Chichinda Mare",
        "name:ru": "Кикинда",
        "name:sk": "Kikinda",
        "name:sr": "Кикинда",
        "name:sr-Latn": "Kikinda",
        "public_transport": "station",
        "railway": "station",
        "station": "light_rail",
        "train": "yes",
        "wikidata": "Q87913253",
        "id": "node/1461569187"
      },
      "geometry": {
        "type": "Point",
        "coordinates": [
          20.4890184,
          45.8380556
        ]
      }
    },
    {
      "type": "Feature",
      "id": "node/1490393823",
      "properties": {
        "name": "Рибари",
        "name:sr": "Рибари",
        "name:sr-Latn": "Ribari",
        "public_transport": "station",
        "railway": "halt",
        "train": "yes",
        "id": "node/1490393823"
      },
      "geometry": {
        "type": "Point",
        "coordinates": [
          19.4207474,
          44.7165271
        ]
      }
    },
    {
      "type": "Feature",
      "id": "node/1511614871",
      "properties": {
        "name": "Матејевац",
        "name:sr": "Матејевац",
        "name:sr-Latn": "Matejevac",
        "public_transport": "station",
        "railway": "station",
        "train": "yes",
        "id": "node/1511614871"
      },
      "geometry": {
        "type": "Point",
        "coordinates": [
          21.9560094,
          43.3492214
        ]
      }
    },
    {
      "type": "Feature",
      "id": "node/1511615074",
      "properties": {
        "name": "Грамада",
        "name:sr": "Грамада",
        "name:sr-Latn": "Gramada",
        "public_transport": "station",
        "railway": "station",
        "train": "yes",
        "id": "node/1511615074"
      },
      "geometry": {
        "type": "Point",
        "coordinates": [
          22.0479152,
          43.3777182
        ]
      }
    },
    {
      "type": "Feature",
      "id": "node/1539700442",
      "properties": {
        "name": "Горње Зуниче",
        "name:sr": "Горње Зуниче",
        "name:sr-Latn": "Gornje Zuniče",
        "public_transport": "station",
        "railway": "halt",
        "train": "yes",
        "id": "node/1539700442"
      },
      "geometry": {
        "type": "Point",
        "coordinates": [
          22.2715736,
          43.6004411
        ]
      }
    },
    {
      "type": "Feature",
      "id": "node/1539700448",
      "properties": {
        "name": "Доње Зуниче",
        "name:sr": "Доње Зуниче",
        "name:sr-Latn": "Donje Zuniče",
        "public_transport": "station",
        "railway": "halt",
        "train": "yes",
        "id": "node/1539700448"
      },
      "geometry": {
        "type": "Point",
        "coordinates": [
          22.2738397,
          43.6241516
        ]
      }
    },
    {
      "type": "Feature",
      "id": "node/1615549536",
      "properties": {
        "disused:railway": "station",
        "internet_access": "no",
        "name": "Волуја",
        "name:en": "Voluja",
        "name:sr": "Волуја",
        "name:sr-Latn": "Voluja",
        "operator": "Železnice Srbije",
        "public_transport": "station",
        "railway": "station",
        "train": "yes",
        "id": "node/1615549536"
      },
      "geometry": {
        "type": "Point",
        "coordinates": [
          21.7787428,
          44.4836999
        ]
      }
    },
    {
      "type": "Feature",
      "id": "node/1630610882",
      "properties": {
        "name": "Липница",
        "name:sr": "Липница",
        "name:sr-Latn": "Lipnica",
        "public_transport": "station",
        "railway": "halt",
        "train": "yes",
        "id": "node/1630610882"
      },
      "geometry": {
        "type": "Point",
        "coordinates": [
          19.2704512,
          44.57242
        ]
      }
    },
    {
      "type": "Feature",
      "id": "node/1774008857",
      "properties": {
        "addr:city": "Куршумлија",
        "addr:postcode": "18430",
        "addr:street": "4 Juli",
        "internet_access": "no",
        "name": "Куршумлија",
        "name:en": "Kursumlija",
        "name:sr": "Куршумлија",
        "name:sr-Latn": "Kuršumlija",
        "network": "Kursumlija-Prokuplje",
        "operator": "Kursumlija",
        "public_transport": "station",
        "railway": "station",
        "train": "yes",
        "wheelchair": "no",
        "id": "node/1774008857"
      },
      "geometry": {
        "type": "Point",
        "coordinates": [
          21.2692552,
          43.1341928
        ]
      }
    },
    {
      "type": "Feature",
      "id": "node/1780090063",
      "properties": {
        "disused:railway": "halt",
        "name": "Будисава",
        "name:en": "Budisava",
        "name:sr": "Будисава",
        "name:sr-Latn": "Budisava",
        "public_transport": "station",
        "railway": "station",
        "train": "yes",
        "id": "node/1780090063"
      },
      "geometry": {
        "type": "Point",
        "coordinates": [
          19.9964954,
          45.28707
        ]
      }
    },
    {
      "type": "Feature",
      "id": "node/1843615537",
      "properties": {
        "name": "Враново",
        "name:sr": "Враново",
        "name:sr-Latn": "Vranovo",
        "public_transport": "station",
        "railway": "halt",
        "train": "yes",
        "id": "node/1843615537"
      },
      "geometry": {
        "type": "Point",
        "coordinates": [
          20.9885633,
          44.5975088
        ]
      }
    },
    {
      "type": "Feature",
      "id": "node/1843632704",
      "properties": {
        "name": "Бели Поток",
        "name:sr": "Бели Поток",
        "name:sr-Latn": "Beli Potok",
        "public_transport": "station",
        "railway": "station",
        "train": "yes",
        "wikidata": "Q31182719",
        "wikipedia": "sr:Железничка станица Бели Поток",
        "id": "node/1843632704"
      },
      "geometry": {
        "type": "Point",
        "coordinates": [
          20.5197461,
          44.7148806
        ]
      }
    },
    {
      "type": "Feature",
      "id": "node/1843645943",
      "properties": {
        "internet_access": "no",
        "name": "Бела Река",
        "name:sr": "Бела Река",
        "name:sr-Latn": "Bela Reka",
        "public_transport": "station",
        "railway": "station",
        "train": "yes",
        "wikidata": "Q31182299",
        "wikipedia": "sr:Железничка станица Бела река",
        "id": "node/1843645943"
      },
      "geometry": {
        "type": "Point",
        "coordinates": [
          20.4727183,
          44.656235
        ]
      }
    },
    {
      "type": "Feature",
      "id": "node/1845354018",
      "properties": {
        "name": "Хаџићево",
        "name:sr": "Хаџићево",
        "name:sr-Latn": "Hadžićevo",
        "operator": "Железнице Србије",
        "public_transport": "station",
        "railway": "halt",
        "train": "yes",
        "id": "node/1845354018"
      },
      "geometry": {
        "type": "Point",
        "coordinates": [
          22.0504174,
          43.398072
        ]
      }
    },
    {
      "type": "Feature",
      "id": "node/1845356833",
      "properties": {
        "name": "Подвис",
        "name:sr": "Подвис",
        "name:sr-Latn": "Podvis",
        "public_transport": "station",
        "railway": "halt",
        "train": "yes",
        "id": "node/1845356833"
      },
      "geometry": {
        "type": "Point",
        "coordinates": [
          22.1884094,
          43.5454818
        ]
      }
    },
    {
      "type": "Feature",
      "id": "node/1845357864",
      "properties": {
        "name": "Ргоште",
        "name:en": "Rgoste",
        "name:sr": "Ргоште",
        "name:sr-Latn": "Rgošte",
        "public_transport": "station",
        "railway": "halt",
        "train": "yes",
        "id": "node/1845357864"
      },
      "geometry": {
        "type": "Point",
        "coordinates": [
          22.2082742,
          43.5511315
        ]
      }
    },
    {
      "type": "Feature",
      "id": "node/1845360219",
      "properties": {
        "name": "Минићево",
        "name:sr": "Минићево",
        "name:sr-Latn": "Minićevo",
        "public_transport": "station",
        "railway": "station",
        "train": "yes",
        "id": "node/1845360219"
      },
      "geometry": {
        "type": "Point",
        "coordinates": [
          22.2896741,
          43.684035
        ]
      }
    },
    {
      "type": "Feature",
      "id": "node/1845362038",
      "properties": {
        "name": "Селачка Река",
        "name:sr": "Селачка Река",
        "name:sr-Latn": "Selačka Reka",
        "public_transport": "station",
        "railway": "halt",
        "train": "yes",
        "id": "node/1845362038"
      },
      "geometry": {
        "type": "Point",
        "coordinates": [
          22.3006673,
          43.7079811
        ]
      }
    },
    {
      "type": "Feature",
      "id": "node/1845363387",
      "properties": {
        "name": "Мали Извор",
        "name:sr": "Мали Извор",
        "name:sr-Latn": "Mali Izvor",
        "public_transport": "station",
        "railway": "halt",
        "train": "yes",
        "id": "node/1845363387"
      },
      "geometry": {
        "type": "Point",
        "coordinates": [
          22.3052835,
          43.7290685
        ]
      }
    },
    {
      "type": "Feature",
      "id": "node/1845364117",
      "properties": {
        "name": "Вратарница",
        "name:sr": "Вратарница",
        "name:sr-Latn": "Vratarnica",
        "public_transport": "station",
        "railway": "halt",
        "train": "yes",
        "id": "node/1845364117"
      },
      "geometry": {
        "type": "Point",
        "coordinates": [
          22.3029899,
          43.7989026
        ]
      }
    },
    {
      "type": "Feature",
      "id": "node/1845365669",
      "properties": {
        "name": "Грљан",
        "name:en": "Grljan",
        "name:sr": "Грљан",
        "name:sr-Latn": "Grljan",
        "public_transport": "station",
        "railway": "station",
        "train": "yes",
        "id": "node/1845365669"
      },
      "geometry": {
        "type": "Point",
        "coordinates": [
          22.2901492,
          43.8558898
        ]
      }
    },
    {
      "type": "Feature",
      "id": "node/1845369183",
      "properties": {
        "name": "Тимок",
        "name:sr": "Тимок",
        "name:sr-Latn": "Timok",
        "public_transport": "station",
        "railway": "halt",
        "train": "yes",
        "id": "node/1845369183"
      },
      "geometry": {
        "type": "Point",
        "coordinates": [
          22.2906088,
          43.8942498
        ]
      }
    },
    {
      "type": "Feature",
      "id": "node/1845430910",
      "properties": {
        "name": "Топлички Бадњевац",
        "name:sr": "Топлички Бадњевац",
        "name:sr-Latn": "Toplički Badnjevac",
        "public_transport": "station",
        "railway": "halt",
        "train": "yes",
        "id": "node/1845430910"
      },
      "geometry": {
        "type": "Point",
        "coordinates": [
          21.786639,
          43.1836607
        ]
      }
    },
    {
      "type": "Feature",
      "id": "node/1895448241",
      "properties": {
        "name": "Зуце",
        "name:sr": "Зуце",
        "name:sr-Latn": "Zuce",
        "public_transport": "station",
        "railway": "halt",
        "train": "yes",
        "id": "node/1895448241"
      },
      "geometry": {
        "type": "Point",
        "coordinates": [
          20.5644298,
          44.7052835
        ]
      }
    },
    {
      "type": "Feature",
      "id": "node/2188973500",
      "properties": {
        "name": "Ковин",
        "public_transport": "station",
        "railway": "station",
        "train": "yes",
        "id": "node/2188973500"
      },
      "geometry": {
        "type": "Point",
        "coordinates": [
          20.9660503,
          44.7518269
        ]
      }
    },
    {
      "type": "Feature",
      "id": "node/2188973537",
      "properties": {
        "name": "Баваниште",
        "public_transport": "station",
        "railway": "station",
        "train": "yes",
        "id": "node/2188973537"
      },
      "geometry": {
        "type": "Point",
        "coordinates": [
          20.8916612,
          44.8101539
        ]
      }
    },
    {
      "type": "Feature",
      "id": "node/2201237969",
      "properties": {
        "name": "Јасеновик",
        "name:sr": "Јасеновик",
        "name:sr-Latn": "Jasenovik",
        "public_transport": "station",
        "railway": "halt",
        "train": "yes",
        "id": "node/2201237969"
      },
      "geometry": {
        "type": "Point",
        "coordinates": [
          22.0291205,
          43.3639327
        ]
      }
    },
    {
      "type": "Feature",
      "id": "node/2201324286",
      "properties": {
        "name": "Сврљишки Миљковац",
        "name:sr": "Сврљишки Миљковац",
        "name:sr-Latn": "Svrljiški Miljkovac",
        "public_transport": "station",
        "railway": "halt",
        "train": "yes",
        "id": "node/2201324286"
      },
      "geometry": {
        "type": "Point",
        "coordinates": [
          22.1348821,
          43.4893019
        ]
      }
    },
    {
      "type": "Feature",
      "id": "node/2513603015",
      "properties": {
        "name": "Kosovska Mitrovica Sever",
        "name:sq": "Mitrovicë Veriore",
        "name:sr": "Косовска Митровица Север",
        "name:sr-Latn": "Kosovska Mitrovica Sever",
        "public_transport": "station",
        "railway": "halt",
        "train": "yes",
        "wikidata": "Q102104809",
        "id": "node/2513603015"
      },
      "geometry": {
        "type": "Point",
        "coordinates": [
          20.8706446,
          42.8997923
        ]
      }
    },
    {
      "type": "Feature",
      "id": "node/3613910219",
      "properties": {
        "name": "Перлез",
        "name:en": "Perlez",
        "name:sr": "Перлез",
        "name:sr-Latn": "Perlez",
        "public_transport": "station",
        "railway": "yard",
        "train": "yes",
        "id": "node/3613910219"
      },
      "geometry": {
        "type": "Point",
        "coordinates": [
          20.38409,
          45.1991288
        ]
      }
    },
    {
      "type": "Feature",
      "id": "node/3814453688",
      "properties": {
        "name": "Оџаци",
        "name:en": "Odzaci",
        "name:hu": "Hódság",
        "name:sr": "Оџаци",
        "name:sr-Latn": "Odžaci",
        "public_transport": "station",
        "railway": "station",
        "train": "yes",
        "id": "node/3814453688"
      },
      "geometry": {
        "type": "Point",
        "coordinates": [
          19.2737473,
          45.5144084
        ]
      }
    },
    {
      "type": "Feature",
      "id": "node/4829337898",
      "properties": {
        "name": "Fushë Kosovë",
        "name:sr": "Косово Поље",
        "name:sr-Latn": "Kosovo Polje",
        "public_transport": "station",
        "railway": "station",
        "train": "yes",
        "id": "node/4829337898"
      },
      "geometry": {
        "type": "Point",
        "coordinates": [
          21.0809567,
          42.6348137
        ]
      }
    },
    {
      "type": "Feature",
      "id": "node/5038359221",
      "properties": {
        "name": "Seperant",
        "name:en": "Seperant",
        "name:sq": "Seperant",
        "public_transport": "station",
        "railway": "halt",
        "train": "yes",
        "id": "node/5038359221"
      },
      "geometry": {
        "type": "Point",
        "coordinates": [
          20.3873241,
          42.6582763
        ]
      }
    },
    {
      "type": "Feature",
      "id": "node/5884494190",
      "properties": {
        "name": "Лозница",
        "name:sr": "Лозница",
        "name:sr-Latn": "Loznica",
        "public_transport": "station",
        "railway": "station",
        "train": "yes",
        "id": "node/5884494190"
      },
      "geometry": {
        "type": "Point",
        "coordinates": [
          19.215995,
          44.5354651
        ]
      }
    },
    {
      "type": "Feature",
      "id": "node/5884494194",
      "properties": {
        "name": "Јадарска Стража",
        "name:sr": "Јадарска Стража",
        "name:sr-Latn": "Jadarska Straža",
        "public_transport": "station",
        "railway": "halt",
        "train": "yes",
        "id": "node/5884494194"
      },
      "geometry": {
        "type": "Point",
        "coordinates": [
          19.3039286,
          44.624331
        ]
      }
    },
    {
      "type": "Feature",
      "id": "node/5884494195",
      "properties": {
        "name": "Лешница",
        "name:sr": "Лешница",
        "name:sr-Latn": "Lešnica",
        "public_transport": "station",
        "railway": "station",
        "train": "yes",
        "id": "node/5884494195"
      },
      "geometry": {
        "type": "Point",
        "coordinates": [
          19.3212032,
          44.656531
        ]
      }
    },
    {
      "type": "Feature",
      "id": "node/5884494196",
      "properties": {
        "name": "Подрињско Ново Село",
        "name:sr": "Подрињско Ново Село",
        "name:sr-Latn": "Podrinjsko Novo Selo",
        "public_transport": "station",
        "railway": "halt",
        "train": "yes",
        "id": "node/5884494196"
      },
      "geometry": {
        "type": "Point",
        "coordinates": [
          19.3421735,
          44.6733199
        ]
      }
    },
    {
      "type": "Feature",
      "id": "node/5884494197",
      "properties": {
        "name": "Прњавор Мачвански",
        "name:sr": "Прњавор Мачвански",
        "name:sr-Latn": "Prnjavor Mačvanski",
        "public_transport": "station",
        "railway": "station",
        "train": "yes",
        "id": "node/5884494197"
      },
      "geometry": {
        "type": "Point",
        "coordinates": [
          19.3770188,
          44.6965335
        ]
      }
    },
    {
      "type": "Feature",
      "id": "node/5884494199",
      "properties": {
        "name": "Петловача",
        "name:sr": "Петловача",
        "name:sr-Latn": "Petlovača",
        "public_transport": "station",
        "railway": "station",
        "train": "yes",
        "id": "node/5884494199"
      },
      "geometry": {
        "type": "Point",
        "coordinates": [
          19.4481723,
          44.7285369
        ]
      }
    },
    {
      "type": "Feature",
      "id": "node/5884494200",
      "properties": {
        "internet_access": "no",
        "internet_access:fee": "no",
        "name": "Дубље Мачванско",
        "name:sr": "Дубље Мачванско",
        "name:sr-Latn": "Dublje Mačvansko",
        "public_transport": "station",
        "railway": "halt",
        "train": "yes",
        "id": "node/5884494200"
      },
      "geometry": {
        "type": "Point",
        "coordinates": [
          19.5355028,
          44.7565523
        ]
      }
    },
    {
      "type": "Feature",
      "id": "node/5884494201",
      "properties": {
        "name": "Штитар",
        "name:sr": "Штитар",
        "name:sr-Latn": "Štitar",
        "public_transport": "station",
        "railway": "station",
        "train": "yes",
        "id": "node/5884494201"
      },
      "geometry": {
        "type": "Point",
        "coordinates": [
          19.6102468,
          44.7802584
        ]
      }
    },
    {
      "type": "Feature",
      "id": "node/5884494202",
      "properties": {
        "name": "Мајур",
        "name:sr": "Мајур",
        "name:sr-Latn": "Majur",
        "public_transport": "station",
        "railway": "halt",
        "train": "yes",
        "id": "node/5884494202"
      },
      "geometry": {
        "type": "Point",
        "coordinates": [
          19.6556438,
          44.7718413
        ]
      }
    },
    {
      "type": "Feature",
      "id": "node/5911266553",
      "properties": {
        "name": "Кнежевац",
        "name:en": "Knezevac",
        "name:sr": "Кнежевац",
        "name:sr-Latn": "Kneževac",
        "public_transport": "station",
        "railway": "station",
        "train": "yes",
        "wikidata": "Q3096695",
        "wikipedia": "sr:Железничка станица Кнежевац",
        "id": "node/5911266553"
      },
      "geometry": {
        "type": "Point",
        "coordinates": [
          20.4312026,
          44.7316219
        ]
      }
    },
    {
      "type": "Feature",
      "id": "node/5911266560",
      "properties": {
        "name": "Кијево",
        "name:en": "Kijevo",
        "name:sr": "Кијево",
        "name:sr-Latn": "Kijevo",
        "public_transport": "station",
        "railway": "station",
        "train": "yes",
        "wikidata": "Q3096686",
        "wikipedia": "sr:Железничка станица Кијево",
        "id": "node/5911266560"
      },
      "geometry": {
        "type": "Point",
        "coordinates": [
          20.4370655,
          44.7232688
        ]
      }
    },
    {
      "type": "Feature",
      "id": "node/6011121099",
      "properties": {
        "name": "Римски Шанчеви",
        "name:en": "Rimski Sancevi",
        "name:sr": "Римски Шанчеви",
        "name:sr-Latn": "Rimski Šančevi",
        "public_transport": "station",
        "railway": "yard",
        "train": "yes",
        "id": "node/6011121099"
      },
      "geometry": {
        "type": "Point",
        "coordinates": [
          19.832877,
          45.319176
        ]
      }
    },
    {
      "type": "Feature",
      "id": "node/6011121100",
      "properties": {
        "name": "Каћ",
        "name:en": "Kac",
        "name:sr": "Каћ",
        "name:sr-Latn": "Kać",
        "public_transport": "station",
        "railway": "yard",
        "train": "yes",
        "id": "node/6011121100"
      },
      "geometry": {
        "type": "Point",
        "coordinates": [
          19.9448952,
          45.3081479
        ]
      }
    },
    {
      "type": "Feature",
      "id": "node/6011121102",
      "properties": {
        "name": "Шајкаш",
        "name:en": "Sajkas",
        "name:sr": "Шајкаш",
        "name:sr-Latn": "Šajkaš",
        "public_transport": "station",
        "railway": "yard",
        "train": "yes",
        "id": "node/6011121102"
      },
      "geometry": {
        "type": "Point",
        "coordinates": [
          20.0797702,
          45.2644257
        ]
      }
    },
    {
      "type": "Feature",
      "id": "node/6011121103",
      "properties": {
        "name": "Вилово–Гардиновци",
        "name:en": "Vilovo–Gardinovci",
        "name:sr": "Вилово–Гардиновци",
        "name:sr-Latn": "Vilovo–Gardinovci",
        "public_transport": "station",
        "railway": "yard",
        "train": "yes",
        "id": "node/6011121103"
      },
      "geometry": {
        "type": "Point",
        "coordinates": [
          20.1498108,
          45.2395417
        ]
      }
    },
    {
      "type": "Feature",
      "id": "node/6011121104",
      "properties": {
        "disused:railway": "halt",
        "name": "Лок",
        "name:en": "Lok",
        "name:sr": "Лок",
        "name:sr-Latn": "Lok",
        "public_transport": "station",
        "train": "yes",
        "id": "node/6011121104"
      },
      "geometry": {
        "type": "Point",
        "coordinates": [
          20.2081063,
          45.2123119
        ]
      }
    },
    {
      "type": "Feature",
      "id": "node/6011121105",
      "properties": {
        "disused:railway": "halt",
        "name": "Доњи Тител",
        "name:en": "Donji Titel",
        "name:sr": "Доњи Тител",
        "name:sr-Latn": "Donji Titel",
        "public_transport": "station",
        "train": "yes",
        "id": "node/6011121105"
      },
      "geometry": {
        "type": "Point",
        "coordinates": [
          20.2961568,
          45.1999662
        ]
      }
    },
    {
      "type": "Feature",
      "id": "node/6011121106",
      "properties": {
        "disused:railway": "halt",
        "name": "Тител",
        "name:en": "Titel",
        "name:sr": "Тител",
        "name:sr-Latn": "Titel",
        "public_transport": "station",
        "train": "yes",
        "id": "node/6011121106"
      },
      "geometry": {
        "type": "Point",
        "coordinates": [
          20.2758017,
          45.2047657
        ]
      }
    },
    {
      "type": "Feature",
      "id": "node/6011121107",
      "properties": {
        "disused:railway": "halt",
        "name": "Книћанин",
        "name:en": "Knicanin",
        "name:sr": "Книћанин",
        "name:sr-Latn": "Knićanin",
        "public_transport": "station",
        "train": "yes",
        "id": "node/6011121107"
      },
      "geometry": {
        "type": "Point",
        "coordinates": [
          20.3270376,
          45.1961442
        ]
      }
    },
    {
      "type": "Feature",
      "id": "node/6269933951",
      "properties": {
        "construction:railway": "station",
        "name": "Бешка",
        "name:en": "Beska",
        "name:sr": "Бешка",
        "name:sr-Latn": "Beška",
        "public_transport": "station",
        "train": "yes",
        "id": "node/6269933951"
      },
      "geometry": {
        "type": "Point",
        "coordinates": [
          20.0409051,
          45.141466
        ]
      }
    },
    {
      "type": "Feature",
      "id": "node/6720139220",
      "properties": {
        "name": "Ћићевац",
        "public_transport": "station",
        "railway": "station",
        "train": "yes",
        "id": "node/6720139220"
      },
      "geometry": {
        "type": "Point",
        "coordinates": [
          21.4380553,
          43.7204508
        ]
      }
    },
    {
      "type": "Feature",
      "id": "node/6902194212",
      "properties": {
        "name": "Рипањ колонија",
        "name:sr-Latn": "Ripanj kolonija",
        "public_transport": "station",
        "railway": "halt",
        "train": "yes",
        "id": "node/6902194212"
      },
      "geometry": {
        "type": "Point",
        "coordinates": [
          20.4950157,
          44.6683305
        ]
      }
    },
    {
      "type": "Feature",
      "id": "node/7821345462",
      "properties": {
        "name": "Батајница",
        "name:sr": "Батајница",
        "name:sr-Latn": "Batajnica",
        "operator": "Железнице Србије",
        "public_transport": "station",
        "railway": "station",
        "train": "yes",
        "wikidata": "Q3095917",
        "wikipedia": "sr:Железничка станица Батајница",
        "id": "node/7821345462"
      },
      "geometry": {
        "type": "Point",
        "coordinates": [
          20.2719915,
          44.8992475
        ]
      }
    },
    {
      "type": "Feature",
      "id": "node/7821346701",
      "properties": {
        "name": "Нови Београд",
        "name:de": "Neu-Belgrad",
        "name:en": "New Belgrade",
        "name:pl": "Nowy Belgrad",
        "name:ru": "Новый Белград",
        "name:sr": "Нови Београд",
        "name:sr-Latn": "Novi Beograd",
        "network": "БГ:Воз",
        "operator": "Железнице Србије",
        "public_transport": "station",
        "railway": "station",
        "train": "yes",
        "wikidata": "Q801271",
        "wikipedia": "sr:Железничка станица Нови Београд",
        "id": "node/7821346701"
      },
      "geometry": {
        "type": "Point",
        "coordinates": [
          20.4178455,
          44.8069189
        ]
      }
    },
    {
      "type": "Feature",
      "id": "node/7821356922",
      "properties": {
        "loc_name": "код Вука",
        "loc_name:sr": "код Вука",
        "loc_name:sr-Latn": "kod Vuka",
        "name": "Вуков споменик",
        "name:ru": "Памятник Вуку",
        "name:sr": "Вуков споменик",
        "name:sr-Latn": "Vukov spomenik",
        "network": "БГ:Воз",
        "operator": "Железнице Србије",
        "public_transport": "station",
        "railway": "station",
        "train": "yes",
        "wikidata": "Q781667",
        "wikipedia": "sr:Железничка станица Вуков споменик",
        "id": "node/7821356922"
      },
      "geometry": {
        "type": "Point",
        "coordinates": [
          20.4776373,
          44.8051519
        ]
      }
    },
    {
      "type": "Feature",
      "id": "node/7821365420",
      "properties": {
        "internet_access": "no",
        "name": "Тошин бунар",
        "name:en": "Tosin Bunar",
        "name:sr": "Тошин бунар",
        "name:sr-Latn": "Tošin bunar",
        "network": "БГ:Воз",
        "operator": "Железнице Србије",
        "public_transport": "station",
        "railway": "station",
        "train": "yes",
        "wikidata": "Q3097901",
        "wikipedia": "sr:Железничка станица Тошин бунар",
        "id": "node/7821365420"
      },
      "geometry": {
        "type": "Point",
        "coordinates": [
          20.397005,
          44.8164763
        ]
      }
    },
    {
      "type": "Feature",
      "id": "node/7825940182",
      "properties": {
        "name": "Смедерево",
        "name:en": "Smederevo",
        "name:sr": "Смедерево",
        "name:sr-Latn": "Smederevo",
        "public_transport": "station",
        "railway": "station",
        "train": "yes",
        "id": "node/7825940182"
      },
      "geometry": {
        "type": "Point",
        "coordinates": [
          20.926878,
          44.6678003
        ]
      }
    },
    {
      "type": "Feature",
      "id": "node/7932358019",
      "properties": {
        "name": "Влашко Поље",
        "name:sr": "Влашко Поље",
        "name:sr-Latn": "Vlaško Polje",
        "public_transport": "station",
        "railway": "station",
        "train": "yes",
        "wikidata": "Q31182321",
        "wikipedia": "sr:Железничка станица Влашко Поље",
        "id": "node/7932358019"
      },
      "geometry": {
        "type": "Point",
        "coordinates": [
          20.660348,
          44.4805787
        ]
      }
    },
    {
      "type": "Feature",
      "id": "node/8116988206",
      "properties": {
        "name": "Мраморак",
        "public_transport": "station",
        "railway": "station",
        "train": "yes",
        "id": "node/8116988206"
      },
      "geometry": {
        "type": "Point",
        "coordinates": [
          20.9963082,
          44.8573741
        ]
      }
    },
    {
      "type": "Feature",
      "id": "node/8116988208",
      "properties": {
        "name": "Локве",
        "public_transport": "station",
        "railway": "station",
        "train": "yes",
        "id": "node/8116988208"
      },
      "geometry": {
        "type": "Point",
        "coordinates": [
          21.0189344,
          45.1618155
        ]
      }
    },
    {
      "type": "Feature",
      "id": "node/8116988209",
      "properties": {
        "name": "Иланџа",
        "public_transport": "station",
        "railway": "station",
        "train": "yes",
        "id": "node/8116988209"
      },
      "geometry": {
        "type": "Point",
        "coordinates": [
          20.9269079,
          45.1706117
        ]
      }
    },
    {
      "type": "Feature",
      "id": "node/8442610542",
      "properties": {
        "name": "Сврљиг",
        "name:sr": "Сврљиг",
        "name:sr-Latn": "Svrljig",
        "public_transport": "station",
        "railway": "station",
        "train": "yes",
        "id": "node/8442610542"
      },
      "geometry": {
        "type": "Point",
        "coordinates": [
          22.1181103,
          43.4142983
        ]
      }
    },
    {
      "type": "Feature",
      "id": "node/8450378188",
      "properties": {
        "name": "Палилула",
        "name:sr-Latn": "Palilula",
        "public_transport": "station",
        "railway": "halt",
        "train": "yes",
        "id": "node/8450378188"
      },
      "geometry": {
        "type": "Point",
        "coordinates": [
          22.1111404,
          43.4892077
        ]
      }
    },
    {
      "type": "Feature",
      "id": "node/8603667666",
      "properties": {
        "name": "Нишевац",
        "name:sr-Latn": "Niševac",
        "public_transport": "station",
        "railway": "halt",
        "train": "yes",
        "id": "node/8603667666"
      },
      "geometry": {
        "type": "Point",
        "coordinates": [
          22.1025392,
          43.4585801
        ]
      }
    },
    {
      "type": "Feature",
      "id": "node/9196347550",
      "properties": {
        "name": "Зрењанин теретна",
        "name:sr": "Зрењанин теретна",
        "name:sr-Latn": "Zrenjanin teretna",
        "public_transport": "station",
        "railway": "station",
        "train": "yes",
        "id": "node/9196347550"
      },
      "geometry": {
        "type": "Point",
        "coordinates": [
          20.3736828,
          45.3860931
        ]
      }
    },
    {
      "type": "Feature",
      "id": "node/9318350715",
      "properties": {
        "name": "Клење",
        "name:sr": "Клење",
        "name:sr-Latn": "Klenje",
        "public_transport": "station",
        "railway": "station",
        "train": "yes",
        "id": "node/9318350715"
      },
      "geometry": {
        "type": "Point",
        "coordinates": [
          20.5328266,
          44.6417284
        ]
      }
    },
    {
      "type": "Feature",
      "id": "node/9357818924",
      "properties": {
        "name": "Лесковац Колубарски",
        "name:sr": "Лесковац Колубарски",
        "name:sr-Latn": "Leskovac Kolubarski",
        "public_transport": "station",
        "railway": "halt",
        "train": "yes",
        "id": "node/9357818924"
      },
      "geometry": {
        "type": "Point",
        "coordinates": [
          20.3422352,
          44.5084434
        ]
      }
    },
    {
      "type": "Feature",
      "id": "node/9458933086",
      "properties": {
        "name": "Камендин",
        "network": "БГ Воз",
        "operator": "Железнице Србије",
        "public_transport": "station",
        "railway": "station",
        "train": "yes",
        "id": "node/9458933086"
      },
      "geometry": {
        "type": "Point",
        "coordinates": [
          20.3208108,
          44.8670104
        ]
      }
    },
    {
      "type": "Feature",
      "id": "node/9458938411",
      "properties": {
        "name": "Алтина",
        "name:en": "Altina",
        "network": "БГ Воз",
        "public_transport": "station",
        "railway": "station",
        "train": "yes",
        "id": "node/9458938411"
      },
      "geometry": {
        "type": "Point",
        "coordinates": [
          20.3456303,
          44.8504051
        ]
      }
    },
    {
      "type": "Feature",
      "id": "node/9489937936",
      "properties": {
        "name": "Krnjača",
        "name:sr": "Крњача",
        "public_transport": "station",
        "railway": "station",
        "train": "yes",
        "id": "node/9489937936"
      },
      "geometry": {
        "type": "Point",
        "coordinates": [
          20.5054488,
          44.8479293
        ]
      }
    }
  ]
}