{
  "type": "FeatureCollection",
  "features": [
    {
      "type": "Feature",
      "id": "node/187317212",
      "properties": {
        "addr:city": "القامشلي",
        "int_name": "Kamechli",
        "name": "القامشلي",
        "name:ar": "القامشلي",
        "name:arc": "ܩܡܫܠܝ",
        "name:en": "Qamishli",
        "name:ru": "Камишлия",
        "name:syc": "ܩܡܫܠܝ",
        "name:ur": "قامشلی",
        "public_transport": "station",
        "railway": "station",
        "uic_ref": "9733215",
        "id": "node/187317212"
      },
      "geometry": {
        "type": "Point",
        "coordinates": [
          41.254631,
          37.0538688
        ]
      }
    },
    {
      "type": "Feature",
      "id": "node/187321770",
      "properties": {
        "railway": "stop",
        "source": "Bing Sat",
        "id": "node/187321770"
      },
      "geometry": {
        "type": "Point",
        "coordinates": [
          41.5414105,
          36.9931235
        ]
      }
    },
    {
      "type": "Feature",
      "id": "node/540037219",
      "properties": {
        "alt_name": "حلب",
        "name": "حلب",
        "name:ar": "حلب",
        "name:ar1": "حلب",
        "name:en": "Aleppo",
        "name:ku": "Heleb",
        "name:lt": "Alepas",
        "railway": "station",
        "id": "node/540037219"
      },
      "geometry": {
        "type": "Point",
        "coordinates": [
          37.1474587,
          36.2143232
        ]
      }
    },
    {
      "type": "Feature",
      "id": "node/567054393",
      "properties": {
        "alt_name": "محطة إزرع",
        "int_name": "Ezraa Station",
        "is_in": "Syria, الجمهورية العربية السورية ، سوريا",
        "name": "محطة إزرع",
        "name:ar": "محطة إزرع",
        "name:ar1": "محطة إزرع",
        "name:de": "Mahattat Izra`",
        "name:en": "Mahattat Izra`",
        "name:fr": "Mahattat Izra`",
        "railway": "station",
        "id": "node/567054393"
      },
      "geometry": {
        "type": "Point",
        "coordinates": [
          36.238489,
          32.8549134
        ]
      }
    },
    {
      "type": "Feature",
      "id": "node/567096376",
      "properties": {
        "alt_name": "محطة محجة",
        "int_name": "Mahajeh, Mouhajje, Mouhajjé, Station of Mouhajjei, Maḩaţţat Maḩajjah",
        "is_in": "Syria, الجمهورية العربية السورية ، سوريا",
        "name": "محطة محجة",
        "name:ar": "محطة محجة",
        "name:ar1": "محطة محجة",
        "name:de": "Mahattat Mahajjah",
        "name:en": "Mahattat Mahajjah",
        "name:fr": "Mahattat Mahajjah",
        "railway": "station",
        "id": "node/567096376"
      },
      "geometry": {
        "type": "Point",
        "coordinates": [
          36.2212337,
          32.9664223
        ]
      }
    },
    {
      "type": "Feature",
      "id": "node/567096388",
      "properties": {
        "alt_name": "محطة خبب",
        "int_name": "Khabab Station, Maḩaţţat Khabab",
        "is_in": "Syria, الجمهورية العربية السورية ، سوريا",
        "name": "محطة خبب",
        "name:ar": "محطة خبب",
        "name:ar1": "محطة خبب",
        "name:de": "Mahattat Khabab",
        "name:en": "Mahattat Khabab",
        "name:fr": "Mahattat Khabab",
        "railway": "station",
        "id": "node/567096388"
      },
      "geometry": {
        "type": "Point",
        "coordinates": [
          36.2502265,
          33.034859
        ]
      }
    },
    {
      "type": "Feature",
      "id": "node/567096498",
      "properties": {
        "alt_name": "محطة الجباب",
        "int_name": "Jebab Station, Jebâb Station, Maḩaţţat al Jibāb",
        "is_in": "Syria, الجمهورية العربية السورية ، سوريا",
        "name": "محطة الجباب",
        "name:ar": "محطة الجباب",
        "name:ar1": "محطة الجباب",
        "name:de": "Mahattat al Jibab",
        "name:en": "Mahattat al Jibab",
        "name:fr": "Mahattat al Jibab",
        "railway": "station",
        "id": "node/567096498"
      },
      "geometry": {
        "type": "Point",
        "coordinates": [
          36.2666667,
          33.0833333
        ]
      }
    },
    {
      "type": "Feature",
      "id": "node/567215085",
      "properties": {
        "alt_name": "محطة باب الحديد",
        "is_in": "Syria, الجمهورية العربية السورية ، سوريا",
        "name": "محطة باب الحديد",
        "name:alt": "Maḩaţţat Bāb al Ḩadīd",
        "name:ar": "محطة باب الحديد",
        "name:ar1": "محطة باب الحديد",
        "name:de": "Mahattat Bab al Hadid",
        "name:en": "Mahattat Bab al Hadid",
        "name:fr": "Mahattat Bab al Hadid",
        "railway": "station",
        "id": "node/567215085"
      },
      "geometry": {
        "type": "Point",
        "coordinates": [
          41.8355539,
          36.8867965
        ]
      }
    },
    {
      "type": "Feature",
      "id": "node/567215225",
      "properties": {
        "alt_name": "محطة دمير قابو",
        "int_name": "Demir Kapou Railroad Station, Demir Kapu, Station de Demir Qapou, Station de Démîr Qapou, Maḩaţţat Damīr Qābū",
        "is_in": "Syria, الجمهورية العربية السورية ، سوريا",
        "name": "محطة دمير قابو",
        "name:ar": "محطة دمير قابو",
        "name:ar1": "محطة دمير قابو",
        "name:de": "Mahattat Damir Qabu",
        "name:en": "Mahattat Damir Qabu",
        "name:fr": "Mahattat Damir Qabu",
        "name:ru": "Демир-Капу",
        "railway": "station",
        "id": "node/567215225"
      },
      "geometry": {
        "type": "Point",
        "coordinates": [
          41.783831,
          36.9069085
        ]
      }
    },
    {
      "type": "Feature",
      "id": "node/567215559",
      "properties": {
        "alt_name": "محطة قبور البيض",
        "int_name": "Kuber el Bid, Station de Qoubour el Bid, Station de Qouboûr el Bîd, Maḩaţţat Qubūr al Bīḑ",
        "is_in": "Syria, الجمهورية العربية السورية ، سوريا",
        "name": "محطة قبور البيض",
        "name:ar": "محطة قبور البيض",
        "name:ar1": "محطة قبور البيض",
        "name:de": "Mahattat Qubur al Bid",
        "name:en": "Mahattat Qubur al Bid",
        "name:fr": "Mahattat Qubur al Bid",
        "name:ru": "Кубур-эль-Бид",
        "railway": "station",
        "id": "node/567215559"
      },
      "geometry": {
        "type": "Point",
        "coordinates": [
          41.5416667,
          36.9930556
        ]
      }
    },
    {
      "type": "Feature",
      "id": "node/571213475",
      "properties": {
        "alt_name": "محطة قورت قولاق",
        "int_name": "Kourt Koulak Station, Kurt Kulak, Qourt Qoulaq Station, Qourte Qoulaq Station, Qourte Qoûlaq Station, Maḩaţţat Qūrt Qūlāq",
        "name": "محطة قورت قولاق",
        "name:ar": "محطة قورت قولاق",
        "name:ar1": "محطة قورت قولاق",
        "name:de": "Mahattat Qurt Qulaq",
        "name:en": "Mahattat Qurt Qulaq",
        "name:fr": "Mahattat Qurt Qulaq",
        "name:ru": "Курткулак",
        "railway": "station",
        "id": "node/571213475"
      },
      "geometry": {
        "type": "Point",
        "coordinates": [
          36.8576564,
          36.5696906
        ]
      }
    },
    {
      "type": "Feature",
      "id": "node/572538309",
      "properties": {
        "alt_name": "محطة تلاجين",
        "int_name": "Station Tell Ejine, Station Tell Ejîne, Tallajine Station, Tallâjîné Station, Tell Edjine Station, Tell Ejin, Maḩaţţat Tallājīn",
        "is_in": "Syria, الجمهورية العربية السورية ، سوريا",
        "name": "محطة تلاجين",
        "name:ar": "محطة تلاجين",
        "name:ar1": "محطة تلاجين",
        "name:de": "Mahattat Tallajin",
        "name:en": "Mahattat Tallajin",
        "name:fr": "Mahattat Tallajin",
        "railway": "station",
        "id": "node/572538309"
      },
      "geometry": {
        "type": "Point",
        "coordinates": [
          37.0339671,
          35.8334679
        ]
      }
    },
    {
      "type": "Feature",
      "id": "node/572541288",
      "properties": {
        "alt_name": "محطة العوجاء",
        "int_name": "Al `Awjah, El Aodje Station, El Aodjé Station, El Awja, Mahattat al `Awjah, Maḩaţţat al `Awjah, Station El Aaouje, Station El Aaoujé, Maḩaţţat al `Awjā'",
        "is_in": "Syria, الجمهورية العربية السورية ، سوريا",
        "name": "محطة العوجاء",
        "name:ar": "محطة العوجاء",
        "name:ar1": "محطة العوجاء",
        "name:de": "Mahattat al `Awja'",
        "name:en": "Mahattat al `Awja'",
        "name:fr": "Mahattat al `Awja'",
        "railway": "station",
        "id": "node/572541288"
      },
      "geometry": {
        "type": "Point",
        "coordinates": [
          37,
          35.65
        ]
      }
    },
    {
      "type": "Feature",
      "id": "node/573515742",
      "properties": {
        "int_name": "Kom Gharz; Koum Rharz Station; Koûm Rharz Station; Maḩaţţat Kawm Gharz",
        "is_in": "Syria, الجمهورية العربية السورية ، سوريا",
        "name": "محطة كوم غرز",
        "name:ar": "محطة كوم غرز",
        "name:de": "Mahattat Kawm Gharz",
        "name:en": "Mahattat Kawm Gharz",
        "name:fr": "Mahattat Kawm Gharz",
        "railway": "station",
        "id": "node/573515742"
      },
      "geometry": {
        "type": "Point",
        "coordinates": [
          36.1562526,
          32.6027954
        ]
      }
    },
    {
      "type": "Feature",
      "id": "node/573515963",
      "properties": {
        "addr:city": "المزيريب",
        "addr:city:ar": "المزيريب",
        "alt_name": "محطة مزيريب",
        "alt_name:ar": "محطة مزيريب",
        "alt_name:en": "Mezerib;Station de Mzairib;Station de Mzaïrib;Maḩaţţat al Muzayrīb",
        "name": "محطة المزيريب",
        "name:ar": "محطة المزيريب",
        "name:de": "Mahattat al Muzayrib",
        "name:en": "Mahattat al Muzayrib",
        "name:fr": "Mahattat al Muzayrib",
        "public_transport": "station",
        "railway": "station",
        "id": "node/573515963"
      },
      "geometry": {
        "type": "Point",
        "coordinates": [
          36.0126686,
          32.6882971
        ]
      }
    },
    {
      "type": "Feature",
      "id": "node/573532407",
      "properties": {
        "alt_name": "Al Qusayr;Al Quşayr;Kuseir;Qoussair Station;Qoussaïr Station;Maḩaţţat al Quşayr",
        "name": "محطة القصير",
        "name:ar": "محطة القصير",
        "name:de": "Mahattat al Qusayr",
        "name:en": "Mahattat al Qusayr",
        "name:fr": "Mahattat al Qusayr",
        "railway": "station",
        "id": "node/573532407"
      },
      "geometry": {
        "type": "Point",
        "coordinates": [
          36.5841936,
          34.5116382
        ]
      }
    },
    {
      "type": "Feature",
      "id": "node/573535590",
      "properties": {
        "alt_name": "محطة أم الرجيم",
        "int_name": "Oum er Rjim Station, Oum er Rjîm Station, Oumm er Rjim Station, Oumm er Rjîm Station, Oumm er Roujam Station, Oumm er Roujâm Station, Umerdjim, Umm ar Rujam, Umm er Rejim, Umm er Rejm Station, Ummerjim, Maḩaţţat Umm ar Rajīm",
        "is_in": "Syria, الجمهورية العربية السورية ، سوريا",
        "name": "محطة أم الرجيم",
        "name:ar": "محطة أم الرجيم",
        "name:ar1": "محطة أم الرجيم",
        "name:de": "Mahattat Umm ar Rajim",
        "name:en": "Mahattat Umm ar Rajim",
        "name:fr": "Mahattat Umm ar Rajim",
        "railway": "station",
        "id": "node/573535590"
      },
      "geometry": {
        "type": "Point",
        "coordinates": [
          36.9666667,
          35.5166667
        ]
      }
    },
    {
      "type": "Feature",
      "id": "node/993839756",
      "properties": {
        "name": "محطة الحامي",
        "name:ar": "محطة الحامي",
        "name:en": "El Hamah Station",
        "railway": "station",
        "id": "node/993839756"
      },
      "geometry": {
        "type": "Point",
        "coordinates": [
          36.2199284,
          33.5522108
        ]
      }
    },
    {
      "type": "Feature",
      "id": "node/993839758",
      "properties": {
        "name": "محطة عين الفيجة",
        "name:ar": "محطة عين الفيجة",
        "name:en": "Ain el Fijeh Station",
        "railway": "station",
        "id": "node/993839758"
      },
      "geometry": {
        "type": "Point",
        "coordinates": [
          36.1816887,
          33.6143312
        ]
      }
    },
    {
      "type": "Feature",
      "id": "node/993839759",
      "properties": {
        "railway": "station",
        "id": "node/993839759"
      },
      "geometry": {
        "type": "Point",
        "coordinates": [
          36.1074183,
          33.6251705
        ]
      }
    },
    {
      "type": "Feature",
      "id": "node/1075264598",
      "properties": {
        "name": "محطة قطار درعا",
        "name:en": "Daraa Train Station",
        "public_transport": "station",
        "railway": "station",
        "id": "node/1075264598"
      },
      "geometry": {
        "type": "Point",
        "coordinates": [
          36.1080621,
          32.62498
        ]
      }
    },
    {
      "type": "Feature",
      "id": "node/1100140292",
      "properties": {
        "name": "داريا",
        "railway": "station",
        "id": "node/1100140292"
      },
      "geometry": {
        "type": "Point",
        "coordinates": [
          36.2292289,
          33.4541205
        ]
      }
    },
    {
      "type": "Feature",
      "id": "node/1100377444",
      "properties": {
        "name": "ضمير",
        "railway": "station",
        "id": "node/1100377444"
      },
      "geometry": {
        "type": "Point",
        "coordinates": [
          36.6870275,
          33.6337884
        ]
      }
    },
    {
      "type": "Feature",
      "id": "node/1101824367",
      "properties": {
        "name": "حماة",
        "name:de": "Hama",
        "name:en": "Hama",
        "railway": "station",
        "id": "node/1101824367"
      },
      "geometry": {
        "type": "Point",
        "coordinates": [
          36.7282376,
          35.1293005
        ]
      }
    },
    {
      "type": "Feature",
      "id": "node/1177211920",
      "properties": {
        "name": "بصرى",
        "railway": "station",
        "id": "node/1177211920"
      },
      "geometry": {
        "type": "Point",
        "coordinates": [
          36.4676092,
          32.5189457
        ]
      }
    },
    {
      "type": "Feature",
      "id": "node/1177211938",
      "properties": {
        "name": "نصيب",
        "railway": "halt",
        "id": "node/1177211938"
      },
      "geometry": {
        "type": "Point",
        "coordinates": [
          36.1906141,
          32.5497985
        ]
      }
    },
    {
      "type": "Feature",
      "id": "node/1375169752",
      "properties": {
        "addr:city": "اليعربية",
        "addr:city:ar": "اليعربية",
        "name": "اليعربية",
        "name:ar": "اليعربية",
        "name:en": "Yaaroubia",
        "public_transport": "station",
        "railway": "station",
        "id": "node/1375169752"
      },
      "geometry": {
        "type": "Point",
        "coordinates": [
          42.0635009,
          36.8069803
        ]
      }
    },
    {
      "type": "Feature",
      "id": "node/1468755661",
      "properties": {
        "railway": "halt",
        "source": "Bing Sat",
        "id": "node/1468755661"
      },
      "geometry": {
        "type": "Point",
        "coordinates": [
          37.9760952,
          35.9226615
        ]
      }
    },
    {
      "type": "Feature",
      "id": "node/1565476762",
      "properties": {
        "railway": "station",
        "id": "node/1565476762"
      },
      "geometry": {
        "type": "Point",
        "coordinates": [
          40.1619803,
          35.3532284
        ]
      }
    },
    {
      "type": "Feature",
      "id": "node/1583993278",
      "properties": {
        "railway": "station",
        "id": "node/1583993278"
      },
      "geometry": {
        "type": "Point",
        "coordinates": [
          37.0695703,
          34.2595752
        ]
      }
    },
    {
      "type": "Feature",
      "id": "node/1631816650",
      "properties": {
        "name": "محطة حمص",
        "name:ar": "محطة حمص",
        "name:en": "Homs station",
        "operator": "General Establishment of Syrian Railways",
        "public_transport": "station",
        "railway": "station",
        "id": "node/1631816650"
      },
      "geometry": {
        "type": "Point",
        "coordinates": [
          36.7030568,
          34.7218468
        ]
      }
    },
    {
      "type": "Feature",
      "id": "node/1726887499",
      "properties": {
        "railway": "station",
        "id": "node/1726887499"
      },
      "geometry": {
        "type": "Point",
        "coordinates": [
          36.4579865,
          34.6711163
        ]
      }
    },
    {
      "type": "Feature",
      "id": "node/1782892851",
      "properties": {
        "name:ru": "Хасеке",
        "railway": "station",
        "id": "node/1782892851"
      },
      "geometry": {
        "type": "Point",
        "coordinates": [
          40.7335507,
          36.5073035
        ]
      }
    },
    {
      "type": "Feature",
      "id": "node/1795359233",
      "properties": {
        "railway": "station",
        "id": "node/1795359233"
      },
      "geometry": {
        "type": "Point",
        "coordinates": [
          36.1469723,
          33.4259253
        ]
      }
    },
    {
      "type": "Feature",
      "id": "node/1795361258",
      "properties": {
        "railway": "station",
        "id": "node/1795361258"
      },
      "geometry": {
        "type": "Point",
        "coordinates": [
          36.0910998,
          33.4815591
        ]
      }
    },
    {
      "type": "Feature",
      "id": "node/1824865684",
      "properties": {
        "name": "محطة جباب",
        "railway": "station",
        "id": "node/1824865684"
      },
      "geometry": {
        "type": "Point",
        "coordinates": [
          36.2784026,
          33.0889995
        ]
      }
    },
    {
      "type": "Feature",
      "id": "node/2035519544",
      "properties": {
        "addr:city": "ميدان إكبس",
        "alt_name:ar": "ميدان أكبس",
        "name": "ميدان إكبس",
        "name:ar": "ميدان إكبس",
        "name:ru": "Мейдан-Экбес",
        "name:tr": "Meydanekbez",
        "railway": "station",
        "id": "node/2035519544"
      },
      "geometry": {
        "type": "Point",
        "coordinates": [
          36.674605,
          36.8209957
        ]
      }
    },
    {
      "type": "Feature",
      "id": "node/2050120442",
      "properties": {
        "int_name": "Raju",
        "name": "راجو",
        "name:en": "Raju",
        "name:ru": "Раджу",
        "public_transport": "station",
        "railway": "station",
        "id": "node/2050120442"
      },
      "geometry": {
        "type": "Point",
        "coordinates": [
          36.6580048,
          36.674007
        ]
      }
    },
    {
      "type": "Feature",
      "id": "node/2139239173",
      "properties": {
        "railway": "station",
        "id": "node/2139239173"
      },
      "geometry": {
        "type": "Point",
        "coordinates": [
          39.010287,
          35.9664516
        ]
      }
    },
    {
      "type": "Feature",
      "id": "node/2175145615",
      "properties": {
        "railway": "station",
        "id": "node/2175145615"
      },
      "geometry": {
        "type": "Point",
        "coordinates": [
          36.3734937,
          33.1336059
        ]
      }
    },
    {
      "type": "Feature",
      "id": "node/2337504612",
      "properties": {
        "railway": "halt",
        "id": "node/2337504612"
      },
      "geometry": {
        "type": "Point",
        "coordinates": [
          38.5431138,
          35.7866138
        ]
      }
    },
    {
      "type": "Feature",
      "id": "node/2356912011",
      "properties": {
        "int_name": "Qatana",
        "name": "قطنا",
        "name:ar": "قطنا",
        "name:lt": "Katana",
        "railway": "station",
        "id": "node/2356912011"
      },
      "geometry": {
        "type": "Point",
        "coordinates": [
          36.0704026,
          33.4404806
        ]
      }
    },
    {
      "type": "Feature",
      "id": "node/2358298563",
      "properties": {
        "name": "الحميدية",
        "railway": "halt",
        "id": "node/2358298563"
      },
      "geometry": {
        "type": "Point",
        "coordinates": [
          37.1250229,
          35.9716589
        ]
      }
    },
    {
      "type": "Feature",
      "id": "node/2607733324",
      "properties": {
        "railway": "halt",
        "id": "node/2607733324"
      },
      "geometry": {
        "type": "Point",
        "coordinates": [
          36.5519016,
          33.5493214
        ]
      }
    },
    {
      "type": "Feature",
      "id": "node/2608323511",
      "properties": {
        "railway": "halt",
        "id": "node/2608323511"
      },
      "geometry": {
        "type": "Point",
        "coordinates": [
          38.6830459,
          35.8119782
        ]
      }
    },
    {
      "type": "Feature",
      "id": "node/2609283166",
      "properties": {
        "alt_name": "محطة قطمة",
        "int_name": "Katma, Qatma Station, Qâtma Station, Maḩaţţat Qaţmah",
        "name": "محطة قطمة",
        "name:ar": "محطة قطمة",
        "name:ar1": "محطة قطمة",
        "name:de": "Mahattat Qatmah",
        "name:en": "Mahattat Qatmah",
        "name:fr": "Mahattat Qatmah",
        "name:ru": "Катма",
        "railway": "station",
        "id": "node/2609283166"
      },
      "geometry": {
        "type": "Point",
        "coordinates": [
          36.9756217,
          36.5842968
        ]
      }
    },
    {
      "type": "Feature",
      "id": "node/2610209519",
      "properties": {
        "alt_name": "محطة الحمدانية",
        "int_name": "Hamdanie, Hamdaniya, Hamdaniye Station, Hamdaniyeh, Hamdanié, Hamdânîye Station, Maḩaţţat al Ḩamdānīyah",
        "is_in": "Syria, الجمهورية العربية السورية ، سوريا",
        "name": "محطة الحمدانية",
        "name:ar": "محطة الحمدانية",
        "name:ar1": "محطة الحمدانية",
        "name:de": "Mahattat al Hamdaniyah",
        "name:en": "Mahattat al Hamdaniyah",
        "name:fr": "Mahattat al Hamdaniyah",
        "railway": "station",
        "id": "node/2610209519"
      },
      "geometry": {
        "type": "Point",
        "coordinates": [
          36.8651149,
          35.4321648
        ]
      }
    },
    {
      "type": "Feature",
      "id": "node/2610209532",
      "properties": {
        "alt_name": "محطة كوكب",
        "int_name": "Kaoukab Gare, Kevkeb, Maḩaţţat Kawkab",
        "is_in": "Syria, الجمهورية العربية السورية ، سوريا",
        "name": "محطة كوكب",
        "name:ar": "محطة كوكب",
        "name:ar1": "محطة كوكب",
        "name:de": "Mahattat Kawkab",
        "name:en": "Mahattat Kawkab",
        "name:fr": "Mahattat Kawkab",
        "railway": "station",
        "id": "node/2610209532"
      },
      "geometry": {
        "type": "Point",
        "coordinates": [
          36.8015992,
          35.3168153
        ]
      }
    },
    {
      "type": "Feature",
      "id": "node/2616459619",
      "properties": {
        "alt_name": "محطة قطينة",
        "int_name": "Kattine Station, Kattineh, Kattiné Station, Kmem, Station de Qattine, Station de Qattîné, Maḩaţţat Qaţţīnah",
        "is_in": "Syria, الجمهورية العربية السورية ، سوريا",
        "name": "محطة قطينة",
        "name:ar": "محطة قطينة",
        "name:ar1": "محطة قطينة",
        "name:de": "Mahattat Qattinah",
        "name:en": "Mahattat Qattinah",
        "name:fr": "Mahattat Qattinah",
        "railway": "station",
        "id": "node/2616459619"
      },
      "geometry": {
        "type": "Point",
        "coordinates": [
          36.631007,
          34.6450848
        ]
      }
    },
    {
      "type": "Feature",
      "id": "node/3009120117",
      "properties": {
        "railway": "station",
        "id": "node/3009120117"
      },
      "geometry": {
        "type": "Point",
        "coordinates": [
          37.9018342,
          34.1970133
        ]
      }
    },
    {
      "type": "Feature",
      "id": "node/3501809550",
      "properties": {
        "name": "الوضيحي",
        "name:en": "Wudeihi",
        "public_transport": "station",
        "railway": "station",
        "id": "node/3501809550"
      },
      "geometry": {
        "type": "Point",
        "coordinates": [
          37.1427053,
          36.1644891
        ]
      }
    },
    {
      "type": "Feature",
      "id": "node/3501813422",
      "properties": {
        "name": "أبو الضهور",
        "name:en": "Abu Adh Dhuhur",
        "railway": "station",
        "id": "node/3501813422"
      },
      "geometry": {
        "type": "Point",
        "coordinates": [
          37.0475262,
          35.7355802
        ]
      }
    },
    {
      "type": "Feature",
      "id": "node/3501818741",
      "properties": {
        "railway": "station",
        "id": "node/3501818741"
      },
      "geometry": {
        "type": "Point",
        "coordinates": [
          36.9995787,
          35.5905656
        ]
      }
    },
    {
      "type": "Feature",
      "id": "node/3503629911",
      "properties": {
        "name": "كفر بهم",
        "name:en": "Kafr Buhum",
        "railway": "station",
        "id": "node/3503629911"
      },
      "geometry": {
        "type": "Point",
        "coordinates": [
          36.693884,
          35.0687413
        ]
      }
    },
    {
      "type": "Feature",
      "id": "node/3503645198",
      "properties": {
        "name": "حر بنفسه",
        "name:en": "Hirbnafsah",
        "railway": "station",
        "id": "node/3503645198"
      },
      "geometry": {
        "type": "Point",
        "coordinates": [
          36.643762,
          34.9365137
        ]
      }
    },
    {
      "type": "Feature",
      "id": "node/3679312067",
      "properties": {
        "name": "محطة قطار جسر الشغور",
        "railway": "station",
        "id": "node/3679312067"
      },
      "geometry": {
        "type": "Point",
        "coordinates": [
          36.3056073,
          35.8213368
        ]
      }
    },
    {
      "type": "Feature",
      "id": "node/3775701084",
      "properties": {
        "railway": "station",
        "id": "node/3775701084"
      },
      "geometry": {
        "type": "Point",
        "coordinates": [
          38.0109006,
          34.2345651
        ]
      }
    },
    {
      "type": "Feature",
      "id": "node/3927967911",
      "properties": {
        "railway": "halt",
        "id": "node/3927967911"
      },
      "geometry": {
        "type": "Point",
        "coordinates": [
          36.712364,
          35.2329906
        ]
      }
    },
    {
      "type": "Feature",
      "id": "node/4501618418",
      "properties": {
        "int_name": "Tall Rif‘at",
        "name": "تل رفعت",
        "name:ru": "Телль-Рифъат",
        "railway": "station",
        "id": "node/4501618418"
      },
      "geometry": {
        "type": "Point",
        "coordinates": [
          37.0889203,
          36.4732157
        ]
      }
    },
    {
      "type": "Feature",
      "id": "node/4519763227",
      "properties": {
        "name:ru": "Кабака",
        "railway": "station",
        "id": "node/4519763227"
      },
      "geometry": {
        "type": "Point",
        "coordinates": [
          40.9671759,
          36.803687
        ]
      }
    },
    {
      "type": "Feature",
      "id": "node/4519763228",
      "properties": {
        "railway": "station",
        "id": "node/4519763228"
      },
      "geometry": {
        "type": "Point",
        "coordinates": [
          41.1195388,
          36.9470255
        ]
      }
    },
    {
      "type": "Feature",
      "id": "node/4577413033",
      "properties": {
        "name": "القديمة- تل زيوان",
        "name:ar": "القديمة- تل زيوان",
        "railway": "station",
        "uic_ref": "9707564",
        "id": "node/4577413033"
      },
      "geometry": {
        "type": "Point",
        "coordinates": [
          41.2496016,
          37.0726724
        ]
      }
    },
    {
      "type": "Feature",
      "id": "node/4672230696",
      "properties": {
        "railway": "station",
        "id": "node/4672230696"
      },
      "geometry": {
        "type": "Point",
        "coordinates": [
          39.2816231,
          35.899879
        ]
      }
    },
    {
      "type": "Feature",
      "id": "node/4672234236",
      "properties": {
        "railway": "station",
        "id": "node/4672234236"
      },
      "geometry": {
        "type": "Point",
        "coordinates": [
          39.4402372,
          35.8418466
        ]
      }
    },
    {
      "type": "Feature",
      "id": "node/4672297265",
      "properties": {
        "railway": "station",
        "id": "node/4672297265"
      },
      "geometry": {
        "type": "Point",
        "coordinates": [
          39.8406677,
          35.6817389
        ]
      }
    },
    {
      "type": "Feature",
      "id": "node/4672297312",
      "properties": {
        "railway": "station",
        "id": "node/4672297312"
      },
      "geometry": {
        "type": "Point",
        "coordinates": [
          39.9441733,
          35.5826758
        ]
      }
    },
    {
      "type": "Feature",
      "id": "node/4857713631",
      "properties": {
        "alt_name": "محطة كوكب",
        "int_name": "Kaoukab Gare, Kevkeb, Maḩaţţat Kawkab",
        "is_in": "Syria, الجمهورية العربية السورية ، سوريا",
        "name": "محطة كوكب",
        "name:ar": "محطة كوكب",
        "name:ar1": "محطة كوكب",
        "name:de": "Mahattat Kawkab",
        "name:en": "Mahattat Kawkab",
        "name:fr": "Mahattat Kawkab",
        "railway": "station",
        "id": "node/4857713631"
      },
      "geometry": {
        "type": "Point",
        "coordinates": [
          36.8014227,
          35.3169373
        ]
      }
    },
    {
      "type": "Feature",
      "id": "node/4951152421",
      "properties": {
        "alt_name": "محطة تلاجين",
        "int_name": "Station Tell Ejine, Station Tell Ejîne, Tallajine Station, Tallâjîné Station, Tell Edjine Station, Tell Ejin, Maḩaţţat Tallājīn",
        "is_in": "Syria, الجمهورية العربية السورية ، سوريا",
        "name": "محطة تلاجين",
        "name:ar": "محطة تلاجين",
        "name:ar1": "محطة تلاجين",
        "name:de": "Mahattat Tallajin",
        "name:en": "Mahattat Tallajin",
        "name:fr": "Mahattat Tallajin",
        "railway": "station",
        "id": "node/4951152421"
      },
      "geometry": {
        "type": "Point",
        "coordinates": [
          37.033735,
          35.8334816
        ]
      }
    },
    {
      "type": "Feature",
      "id": "node/4951152432",
      "properties": {
        "name": "أبو الضهور",
        "name:en": "Abu Adh Dhuhur",
        "railway": "station",
        "id": "node/4951152432"
      },
      "geometry": {
        "type": "Point",
        "coordinates": [
          37.0473201,
          35.7356324
        ]
      }
    },
    {
      "type": "Feature",
      "id": "node/4951152435",
      "properties": {
        "railway": "station",
        "id": "node/4951152435"
      },
      "geometry": {
        "type": "Point",
        "coordinates": [
          36.9993668,
          35.5905993
        ]
      }
    },
    {
      "type": "Feature",
      "id": "node/4951529237",
      "properties": {
        "name": "أبو الضهور",
        "name:en": "Abu Adh Dhuhur",
        "railway": "station",
        "id": "node/4951529237"
      },
      "geometry": {
        "type": "Point",
        "coordinates": [
          37.0471839,
          35.7356669
        ]
      }
    },
    {
      "type": "Feature",
      "id": "node/4951529238",
      "properties": {
        "railway": "station",
        "id": "node/4951529238"
      },
      "geometry": {
        "type": "Point",
        "coordinates": [
          36.9992268,
          35.5906216
        ]
      }
    },
    {
      "type": "Feature",
      "id": "node/4951529265",
      "properties": {
        "alt_name": "محطة الحمدانية",
        "int_name": "Hamdanie, Hamdaniya, Hamdaniye Station, Hamdaniyeh, Hamdanié, Hamdânîye Station, Maḩaţţat al Ḩamdānīyah",
        "is_in": "Syria, الجمهورية العربية السورية ، سوريا",
        "name": "محطة الحمدانية",
        "name:ar": "محطة الحمدانية",
        "name:ar1": "محطة الحمدانية",
        "name:de": "Mahattat al Hamdaniyah",
        "name:en": "Mahattat al Hamdaniyah",
        "name:fr": "Mahattat al Hamdaniyah",
        "railway": "station",
        "id": "node/4951529265"
      },
      "geometry": {
        "type": "Point",
        "coordinates": [
          36.8649131,
          35.4324168
        ]
      }
    },
    {
      "type": "Feature",
      "id": "node/4951530626",
      "properties": {
        "name": "أبو الضهور",
        "name:en": "Abu Adh Dhuhur",
        "railway": "station",
        "id": "node/4951530626"
      },
      "geometry": {
        "type": "Point",
        "coordinates": [
          37.0472889,
          35.7356403
        ]
      }
    },
    {
      "type": "Feature",
      "id": "node/4951530674",
      "properties": {
        "railway": "station",
        "id": "node/4951530674"
      },
      "geometry": {
        "type": "Point",
        "coordinates": [
          36.9993348,
          35.5906044
        ]
      }
    },
    {
      "type": "Feature",
      "id": "node/5680650278",
      "properties": {
        "addr:city": "طرطوس",
        "name": "طرطوس",
        "name:ar": "طرطوس",
        "public_transport": "station",
        "railway": "station",
        "train": "yes",
        "id": "node/5680650278"
      },
      "geometry": {
        "type": "Point",
        "coordinates": [
          35.8907535,
          34.890657
        ]
      }
    },
    {
      "type": "Feature",
      "id": "node/5757069671",
      "properties": {
        "alt_name": "Mahattat al Qadam",
        "name": "محطة القدم",
        "name:de": "Damaskus Kadam",
        "name:en": "Damascus Kadam",
        "public_transport": "station",
        "railway": "station",
        "train": "yes",
        "id": "node/5757069671"
      },
      "geometry": {
        "type": "Point",
        "coordinates": [
          36.290909,
          33.4764527
        ]
      }
    },
    {
      "type": "Feature",
      "id": "node/6064953133",
      "properties": {
        "public_transport": "station",
        "railway": "station",
        "train": "yes",
        "id": "node/6064953133"
      },
      "geometry": {
        "type": "Point",
        "coordinates": [
          39.0102618,
          35.966193
        ]
      }
    }
  ]
}