{
  "type": "FeatureCollection",
  "features": [
    {
      "type": "Feature",
      "id": "node/286953142",
      "properties": {
        "railway": "stop",
        "id": "node/286953142"
      },
      "geometry": {
        "type": "Point",
        "coordinates": [
          10.1392673,
          36.8062771
        ]
      }
    },
    {
      "type": "Feature",
      "id": "node/286953363",
      "properties": {
        "railway": "stop",
        "id": "node/286953363"
      },
      "geometry": {
        "type": "Point",
        "coordinates": [
          10.1009621,
          36.8161806
        ]
      }
    },
    {
      "type": "Feature",
      "id": "node/286953871",
      "properties": {
        "railway": "stop",
        "id": "node/286953871"
      },
      "geometry": {
        "type": "Point",
        "coordinates": [
          9.9848705,
          36.8373647
        ]
      }
    },
    {
      "type": "Feature",
      "id": "node/289116984",
      "properties": {
        "public_transport": "stop_position",
        "railway": "halt",
        "train": "yes",
        "id": "node/289116984"
      },
      "geometry": {
        "type": "Point",
        "coordinates": [
          10.8080507,
          35.7600971
        ]
      }
    },
    {
      "type": "Feature",
      "id": "node/558822525",
      "properties": {
        "addr:city": "سوسة",
        "name": "سوسة باب الجديد",
        "name:ar": "سوسة باب الجديد",
        "name:fr": "Sousse Bab Djedid",
        "operator": "الشركة الوطنية للسكك الحديدية التونسية",
        "operator:ar": "الشركة الوطنية للسكك الحديدية التونسية",
        "operator:website": "http://www.sncft.com.tn/Ar/",
        "operator:wikidata": "Q2297197",
        "operator:wikipedia": "ar:الشركة الوطنية للسكك الحديدية التونسية",
        "operator:wikipedia:ar": "الشركة الوطنية للسكك الحديدية التونسية",
        "public_transport": "station",
        "railway": "station",
        "stop_id": "231A",
        "id": "node/558822525"
      },
      "geometry": {
        "type": "Point",
        "coordinates": [
          10.641517,
          35.8228601
        ]
      }
    },
    {
      "type": "Feature",
      "id": "node/694068569",
      "properties": {
        "gtfs_id": "222",
        "name": "مقرون",
        "name:ar": "مقرون",
        "name:fr": "Magroun",
        "operator": "الشركة الوطنية للسكك الحديدية التونسية",
        "operator:ar": "الشركة الوطنية للسكك الحديدية التونسية",
        "operator:website": "http://www.sncft.com.tn/Ar/",
        "operator:wikidata": "Q2297197",
        "operator:wikipedia": "ar:الشركة الوطنية للسكك الحديدية التونسية",
        "operator:wikipedia:ar": "الشركة الوطنية للسكك الحديدية التونسية",
        "public_transport": "halt",
        "railway": "halt",
        "route_ref": "31;42",
        "train": "yes",
        "id": "node/694068569"
      },
      "geometry": {
        "type": "Point",
        "coordinates": [
          8.3949018,
          34.3330797
        ]
      }
    },
    {
      "type": "Feature",
      "id": "node/1195329123",
      "properties": {
        "addr:city": "رادس",
        "name": "رادس",
        "name:ar": "رادس",
        "name:fr": "Radès",
        "public_transport": "station",
        "railway": "station",
        "stop_id": "146Y",
        "id": "node/1195329123"
      },
      "geometry": {
        "type": "Point",
        "coordinates": [
          10.2704839,
          36.7685947
        ]
      }
    },
    {
      "type": "Feature",
      "id": "node/1203111942",
      "properties": {
        "name": "برج السدرية",
        "name:ar": "برج السدرية",
        "name:fr": "Borj Cédria",
        "railway": "stop",
        "id": "node/1203111942"
      },
      "geometry": {
        "type": "Point",
        "coordinates": [
          10.3966801,
          36.7039644
        ]
      }
    },
    {
      "type": "Feature",
      "id": "node/1203240634",
      "properties": {
        "name": "حمام الأنف",
        "name:ar": "حمام الأنف",
        "name:fr": "Hammam-Lif",
        "public_transport": "stop_position",
        "railway": "stop",
        "train": "yes",
        "id": "node/1203240634"
      },
      "geometry": {
        "type": "Point",
        "coordinates": [
          10.3346963,
          36.7294199
        ]
      }
    },
    {
      "type": "Feature",
      "id": "node/1203241792",
      "properties": {
        "railway": "stop",
        "id": "node/1203241792"
      },
      "geometry": {
        "type": "Point",
        "coordinates": [
          10.317834,
          36.7391914
        ]
      }
    },
    {
      "type": "Feature",
      "id": "node/1203242133",
      "properties": {
        "name": "الطاهر صفر",
        "name:ar": "الطاهر صفر",
        "railway": "stop",
        "id": "node/1203242133"
      },
      "geometry": {
        "type": "Point",
        "coordinates": [
          10.3595291,
          36.717722
        ]
      }
    },
    {
      "type": "Feature",
      "id": "node/1203242384",
      "properties": {
        "railway": "stop",
        "id": "node/1203242384"
      },
      "geometry": {
        "type": "Point",
        "coordinates": [
          10.3239444,
          36.7348477
        ]
      }
    },
    {
      "type": "Feature",
      "id": "node/1203242879",
      "properties": {
        "name": "حمام الأنف",
        "name:ar": "حمام الأنف",
        "name:fr": "Hammam-Lif",
        "public_transport": "stop_position",
        "railway": "stop",
        "train": "yes",
        "id": "node/1203242879"
      },
      "geometry": {
        "type": "Point",
        "coordinates": [
          10.3346716,
          36.7293926
        ]
      }
    },
    {
      "type": "Feature",
      "id": "node/1203244981",
      "properties": {
        "railway": "stop",
        "id": "node/1203244981"
      },
      "geometry": {
        "type": "Point",
        "coordinates": [
          10.3178013,
          36.7391648
        ]
      }
    },
    {
      "type": "Feature",
      "id": "node/1203244999",
      "properties": {
        "railway": "stop",
        "id": "node/1203244999"
      },
      "geometry": {
        "type": "Point",
        "coordinates": [
          10.4150867,
          36.6994274
        ]
      }
    },
    {
      "type": "Feature",
      "id": "node/1203245387",
      "properties": {
        "name": "الطاهر صفر",
        "name:ar": "الطاهر صفر",
        "railway": "stop",
        "id": "node/1203245387"
      },
      "geometry": {
        "type": "Point",
        "coordinates": [
          10.3595035,
          36.7176925
        ]
      }
    },
    {
      "type": "Feature",
      "id": "node/1203245578",
      "properties": {
        "railway": "stop",
        "id": "node/1203245578"
      },
      "geometry": {
        "type": "Point",
        "coordinates": [
          10.3239097,
          36.7348206
        ]
      }
    },
    {
      "type": "Feature",
      "id": "node/1203245733",
      "properties": {
        "name": "حمام الأنف",
        "name:ar": "حمام الأنف",
        "name:fr": "Hammam-Lif",
        "public_transport": "stop_position",
        "railway": "stop",
        "train": "yes",
        "id": "node/1203245733"
      },
      "geometry": {
        "type": "Point",
        "coordinates": [
          10.3346377,
          36.7293265
        ]
      }
    },
    {
      "type": "Feature",
      "id": "node/1203245972",
      "properties": {
        "name": "حمام الأنف",
        "name:ar": "حمام الأنف",
        "name:fr": "Hammam-Lif",
        "public_transport": "stop_position",
        "railway": "stop",
        "train": "yes",
        "id": "node/1203245972"
      },
      "geometry": {
        "type": "Point",
        "coordinates": [
          10.3346183,
          36.7292955
        ]
      }
    },
    {
      "type": "Feature",
      "id": "node/1203247118",
      "properties": {
        "name": "حمام الشط",
        "name:ar": "حمام الشط",
        "railway": "stop",
        "id": "node/1203247118"
      },
      "geometry": {
        "type": "Point",
        "coordinates": [
          10.3700502,
          36.7134536
        ]
      }
    },
    {
      "type": "Feature",
      "id": "node/1203247434",
      "properties": {
        "name": "حمام الأنف",
        "name:ar": "حمام الأنف",
        "name:fr": "Hammam-Lif",
        "public_transport": "stop_position",
        "railway": "stop",
        "train": "yes",
        "id": "node/1203247434"
      },
      "geometry": {
        "type": "Point",
        "coordinates": [
          10.3345827,
          36.7292387
        ]
      }
    },
    {
      "type": "Feature",
      "id": "node/1203247830",
      "properties": {
        "railway": "stop",
        "id": "node/1203247830"
      },
      "geometry": {
        "type": "Point",
        "coordinates": [
          10.3178976,
          36.7392452
        ]
      }
    },
    {
      "type": "Feature",
      "id": "node/1203247904",
      "properties": {
        "name": "حمام الأنف",
        "name:ar": "حمام الأنف",
        "name:fr": "Hammam-Lif",
        "public_transport": "stop_position",
        "railway": "stop",
        "train": "yes",
        "id": "node/1203247904"
      },
      "geometry": {
        "type": "Point",
        "coordinates": [
          10.3347362,
          36.7294835
        ]
      }
    },
    {
      "type": "Feature",
      "id": "node/1203248491",
      "properties": {
        "railway": "stop",
        "id": "node/1203248491"
      },
      "geometry": {
        "type": "Point",
        "coordinates": [
          10.4151099,
          36.6995212
        ]
      }
    },
    {
      "type": "Feature",
      "id": "node/1203249116",
      "properties": {
        "name": "حمام الشط",
        "name:ar": "حمام الشط",
        "railway": "stop",
        "id": "node/1203249116"
      },
      "geometry": {
        "type": "Point",
        "coordinates": [
          10.37003,
          36.7134194
        ]
      }
    },
    {
      "type": "Feature",
      "id": "node/1203250041",
      "properties": {
        "railway": "stop",
        "id": "node/1203250041"
      },
      "geometry": {
        "type": "Point",
        "coordinates": [
          10.3240083,
          36.7348977
        ]
      }
    },
    {
      "type": "Feature",
      "id": "node/1309986086",
      "properties": {
        "railway": "stop",
        "id": "node/1309986086"
      },
      "geometry": {
        "type": "Point",
        "coordinates": [
          9.9332681,
          36.8508953
        ]
      }
    },
    {
      "type": "Feature",
      "id": "node/1316641715",
      "properties": {
        "name": "بئر الباي",
        "name:ar": "بئر الباي",
        "railway": "stop",
        "id": "node/1316641715"
      },
      "geometry": {
        "type": "Point",
        "coordinates": [
          10.3784459,
          36.7104245
        ]
      }
    },
    {
      "type": "Feature",
      "id": "node/1316642523",
      "properties": {
        "railway": "stop",
        "id": "node/1316642523"
      },
      "geometry": {
        "type": "Point",
        "coordinates": [
          10.2843098,
          36.7631168
        ]
      }
    },
    {
      "type": "Feature",
      "id": "node/1316642595",
      "properties": {
        "name": "برج السدرية",
        "name:ar": "برج السدرية",
        "name:fr": "Borj Cédria",
        "railway": "stop",
        "id": "node/1316642595"
      },
      "geometry": {
        "type": "Point",
        "coordinates": [
          10.3965964,
          36.7038505
        ]
      }
    },
    {
      "type": "Feature",
      "id": "node/1316642624",
      "properties": {
        "name": "برج السدرية",
        "name:ar": "برج السدرية",
        "name:fr": "Borj Cédria",
        "railway": "stop",
        "id": "node/1316642624"
      },
      "geometry": {
        "type": "Point",
        "coordinates": [
          10.3966593,
          36.7039362
        ]
      }
    },
    {
      "type": "Feature",
      "id": "node/1316643002",
      "properties": {
        "railway": "stop",
        "id": "node/1316643002"
      },
      "geometry": {
        "type": "Point",
        "coordinates": [
          10.2842261,
          36.7630179
        ]
      }
    },
    {
      "type": "Feature",
      "id": "node/1316643504",
      "properties": {
        "name": "بئر الباي",
        "name:ar": "بئر الباي",
        "railway": "stop",
        "id": "node/1316643504"
      },
      "geometry": {
        "type": "Point",
        "coordinates": [
          10.3784267,
          36.7103877
        ]
      }
    },
    {
      "type": "Feature",
      "id": "node/1316645835",
      "properties": {
        "name": "برج السدرية",
        "name:ar": "برج السدرية",
        "name:fr": "Borj Cédria",
        "railway": "stop",
        "id": "node/1316645835"
      },
      "geometry": {
        "type": "Point",
        "coordinates": [
          10.3966214,
          36.7038845
        ]
      }
    },
    {
      "type": "Feature",
      "id": "node/1316645841",
      "properties": {
        "railway": "stop",
        "id": "node/1316645841"
      },
      "geometry": {
        "type": "Point",
        "coordinates": [
          10.2842578,
          36.7630511
        ]
      }
    },
    {
      "type": "Feature",
      "id": "node/1347423453",
      "properties": {
        "name": "برج السدرية",
        "name:ar": "برج السدرية",
        "name:fr": "Borj Cédria",
        "public_transport": "station",
        "railway": "station",
        "stop_id": "157L",
        "id": "node/1347423453"
      },
      "geometry": {
        "type": "Point",
        "coordinates": [
          10.3974416,
          36.7036232
        ]
      }
    },
    {
      "type": "Feature",
      "id": "node/1359426402",
      "properties": {
        "gtfs_id": "247T",
        "name": "قصر هلال المنطقة الصناعية",
        "name:ar": "قصر هلال المنطقة الصناعية",
        "name:fr": "Ksar Hellal Zone Industrielle",
        "ntd_id": "4057",
        "operator": "الشركة الوطنية للسكك الحديدية التونسية",
        "operator:ar": "الشركة الوطنية للسكك الحديدية التونسية",
        "operator:website": "http://www.sncft.com.tn/Ar/",
        "operator:wikidata": "Q2297197",
        "operator:wikipedia": "ar:الشركة الوطنية للسكك الحديدية التونسية",
        "operator:wikipedia:ar": "الشركة الوطنية للسكك الحديدية التونسية",
        "public_transport": "station",
        "railway": "station",
        "route_ref": "L22",
        "stop_id": "247T",
        "train": "yes",
        "id": "node/1359426402"
      },
      "geometry": {
        "type": "Point",
        "coordinates": [
          10.8986568,
          35.6517434
        ]
      }
    },
    {
      "type": "Feature",
      "id": "node/1359426414",
      "properties": {
        "addr:city": "طبلبة",
        "gtfs_id": "270X",
        "name": "طبلبة المنطقة الصناعية",
        "name:ar": "طبلبة المنطقة الصناعية",
        "name:fr": "Teboulba Zone Industrielle",
        "ntd_id": "4057",
        "operator": "الشركة الوطنية للسكك الحديدية التونسية",
        "operator:ar": "الشركة الوطنية للسكك الحديدية التونسية",
        "operator:website": "http://www.sncft.com.tn/Ar/",
        "operator:wikidata": "Q2297197",
        "operator:wikipedia": "ar:الشركة الوطنية للسكك الحديدية التونسية",
        "operator:wikipedia:ar": "الشركة الوطنية للسكك الحديدية التونسية",
        "public_transport": "halt",
        "railway": "halt",
        "route_ref": "L22",
        "id": "node/1359426414"
      },
      "geometry": {
        "type": "Point",
        "coordinates": [
          10.9435046,
          35.633655
        ]
      }
    },
    {
      "type": "Feature",
      "id": "node/1359426420",
      "properties": {
        "addr:city": "صيادة",
        "gtfs_id": "246S",
        "name": "صيادة",
        "name:ar": "صيادة",
        "name:fr": "Sayada",
        "ntd_id": "4057",
        "operator": "الشركة الوطنية للسكك الحديدية التونسية",
        "operator:ar": "الشركة الوطنية للسكك الحديدية التونسية",
        "operator:website": "http://www.sncft.com.tn/Ar/",
        "operator:wikidata": "Q2297197",
        "operator:wikipedia": "ar:الشركة الوطنية للسكك الحديدية التونسية",
        "operator:wikipedia:ar": "الشركة الوطنية للسكك الحديدية التونسية",
        "public_transport": "station",
        "railway": "station",
        "route_ref": "L22",
        "stop_id": "246S",
        "id": "node/1359426420"
      },
      "geometry": {
        "type": "Point",
        "coordinates": [
          10.8882645,
          35.6659788
        ]
      }
    },
    {
      "type": "Feature",
      "id": "node/1359426422",
      "properties": {
        "addr:city": "المكنين",
        "addr:place": "قريبع",
        "alt_name:ar": "مكنين قريبع",
        "gtfs_id": "249X",
        "name": "مكنين قريبع",
        "name:ar": "مكنين قريبع",
        "name:fr": "Moknine Gribaa",
        "ntd_id": "4057",
        "operator": "الشركة الوطنية للسكك الحديدية التونسية",
        "operator:ar": "الشركة الوطنية للسكك الحديدية التونسية",
        "operator:website": "http://www.sncft.com.tn/Ar/",
        "operator:wikidata": "Q2297197",
        "operator:wikipedia": "ar:الشركة الوطنية للسكك الحديدية التونسية",
        "operator:wikipedia:ar": "الشركة الوطنية للسكك الحديدية التونسية",
        "public_transport": "station",
        "railway": "station",
        "route_ref": "L22",
        "stop_id": "249X",
        "id": "node/1359426422"
      },
      "geometry": {
        "type": "Point",
        "coordinates": [
          10.9069929,
          35.6379139
        ]
      }
    },
    {
      "type": "Feature",
      "id": "node/1359492705",
      "properties": {
        "addr:city": "قصر هلال",
        "gtfs_id": "248W",
        "name": "قصر هلال",
        "name:ar": "قصر هلال",
        "name:fr": "Ksar Hellal",
        "ntd_id": "8014",
        "operator": "الشركة الوطنية للسكك الحديدية التونسية",
        "operator:ar": "الشركة الوطنية للسكك الحديدية التونسية",
        "operator:website": "http://www.sncft.com.tn/Ar/",
        "operator:wikidata": "Q2297197",
        "operator:wikipedia": "ar:الشركة الوطنية للسكك الحديدية التونسية",
        "operator:wikipedia:ar": "الشركة الوطنية للسكك الحديدية التونسية",
        "public_transport": "station",
        "railway": "station",
        "route_ref": "L22",
        "stop_id": "248W",
        "id": "node/1359492705"
      },
      "geometry": {
        "type": "Point",
        "coordinates": [
          10.9010237,
          35.6449135
        ]
      }
    },
    {
      "type": "Feature",
      "id": "node/1359492749",
      "properties": {
        "addr:city": "لمطة",
        "gtfs_id": "245R",
        "name": "لمطة",
        "name:ar": "لمطة",
        "name:fr": "Lamta",
        "ntd_id": "8014",
        "operator": "الشركة الوطنية للسكك الحديدية التونسية",
        "operator:ar": "الشركة الوطنية للسكك الحديدية التونسية",
        "operator:website": "http://www.sncft.com.tn/Ar/",
        "operator:wikidata": "Q2297197",
        "operator:wikipedia": "ar:الشركة الوطنية للسكك الحديدية التونسية",
        "operator:wikipedia:ar": "الشركة الوطنية للسكك الحديدية التونسية",
        "public_transport": "station",
        "railway": "station",
        "route_ref": "L22",
        "stop_id": "245R",
        "id": "node/1359492749"
      },
      "geometry": {
        "type": "Point",
        "coordinates": [
          10.8825112,
          35.6701564
        ]
      }
    },
    {
      "type": "Feature",
      "id": "node/1363688128",
      "properties": {
        "name": "جمّال",
        "name:ar": "جمّال",
        "name:fr": "Jemmel",
        "public_transport": "station",
        "railway": "station",
        "wheelchair": "no",
        "id": "node/1363688128"
      },
      "geometry": {
        "type": "Point",
        "coordinates": [
          10.7577601,
          35.6284897
        ]
      }
    },
    {
      "type": "Feature",
      "id": "node/1436699038",
      "properties": {
        "railway": "stop",
        "id": "node/1436699038"
      },
      "geometry": {
        "type": "Point",
        "coordinates": [
          9.9332452,
          36.8507763
        ]
      }
    },
    {
      "type": "Feature",
      "id": "node/1436699055",
      "properties": {
        "railway": "stop",
        "id": "node/1436699055"
      },
      "geometry": {
        "type": "Point",
        "coordinates": [
          9.9332523,
          36.8508123
        ]
      }
    },
    {
      "type": "Feature",
      "id": "node/1483251241",
      "properties": {
        "operator": "الشركة الوطنية للسكك الحديدية التونسية",
        "operator:ar": "الشركة الوطنية للسكك الحديدية التونسية",
        "operator:website": "http://www.sncft.com.tn/Ar/",
        "operator:wikidata": "Q2297197",
        "operator:wikipedia": "ar:الشركة الوطنية للسكك الحديدية التونسية",
        "operator:wikipedia:ar": "الشركة الوطنية للسكك الحديدية التونسية",
        "public_transport": "stop_position",
        "railway": "stop",
        "train": "yes",
        "id": "node/1483251241"
      },
      "geometry": {
        "type": "Point",
        "coordinates": [
          10.6672942,
          36.4231731
        ]
      }
    },
    {
      "type": "Feature",
      "id": "node/1706547578",
      "properties": {
        "railway": "stop",
        "id": "node/1706547578"
      },
      "geometry": {
        "type": "Point",
        "coordinates": [
          10.1009366,
          36.8160665
        ]
      }
    },
    {
      "type": "Feature",
      "id": "node/1706547584",
      "properties": {
        "railway": "stop",
        "id": "node/1706547584"
      },
      "geometry": {
        "type": "Point",
        "coordinates": [
          10.1009503,
          36.8161312
        ]
      }
    },
    {
      "type": "Feature",
      "id": "node/1706547600",
      "properties": {
        "railway": "stop",
        "id": "node/1706547600"
      },
      "geometry": {
        "type": "Point",
        "coordinates": [
          10.1009732,
          36.8162104
        ]
      }
    },
    {
      "type": "Feature",
      "id": "node/1843259386",
      "properties": {
        "railway": "stop",
        "id": "node/1843259386"
      },
      "geometry": {
        "type": "Point",
        "coordinates": [
          10.4611861,
          36.6250816
        ]
      }
    },
    {
      "type": "Feature",
      "id": "node/1843259635",
      "properties": {
        "railway": "stop",
        "id": "node/1843259635"
      },
      "geometry": {
        "type": "Point",
        "coordinates": [
          10.4465751,
          36.6690526
        ]
      }
    },
    {
      "type": "Feature",
      "id": "node/1857285509",
      "properties": {
        "railway": "stop",
        "id": "node/1857285509"
      },
      "geometry": {
        "type": "Point",
        "coordinates": [
          10.5249912,
          36.5606071
        ]
      }
    },
    {
      "type": "Feature",
      "id": "node/2003736239",
      "properties": {
        "addr:city": "المنستير",
        "name": "مطار المنستير",
        "name:ar": "مطار المنستير",
        "name:en": "Airport",
        "name:fr": "Aéroport Monastir",
        "operator": "الشركة الوطنية للسكك الحديدية التونسية",
        "operator:ar": "الشركة الوطنية للسكك الحديدية التونسية",
        "operator:website": "http://www.sncft.com.tn/Ar/",
        "operator:wikidata": "Q2297197",
        "operator:wikipedia": "ar:الشركة الوطنية للسكك الحديدية التونسية",
        "operator:wikipedia:ar": "الشركة الوطنية للسكك الحديدية التونسية",
        "public_transport": "station",
        "railway": "station",
        "stop_id": "237G",
        "train": "yes",
        "wikidata": "Q19753278",
        "id": "node/2003736239"
      },
      "geometry": {
        "type": "Point",
        "coordinates": [
          10.7545542,
          35.7626211
        ]
      }
    },
    {
      "type": "Feature",
      "id": "node/2003736241",
      "properties": {
        "name": "نزل المنستير",
        "name:ar": "نزل المنستير",
        "name:fr": "Les Hôtels Monastir",
        "public_transport": "station",
        "railway": "station",
        "stop_id": "239J",
        "wikidata": "Q19753271",
        "id": "node/2003736241"
      },
      "geometry": {
        "type": "Point",
        "coordinates": [
          10.7448732,
          35.7601011
        ]
      }
    },
    {
      "type": "Feature",
      "id": "node/2003736242",
      "properties": {
        "name": "سوسة محمد الخامس",
        "name:ar": "سوسة محمد الخامس",
        "name:fr": "Sousse Mohamed 5",
        "public_transport": "station",
        "railway": "station",
        "stop_id": "232B",
        "id": "node/2003736242"
      },
      "geometry": {
        "type": "Point",
        "coordinates": [
          10.6433326,
          35.8162659
        ]
      }
    },
    {
      "type": "Feature",
      "id": "node/2003736244",
      "properties": {
        "name": "الساحلين سبخة",
        "name:ar": "الساحلين سبخة",
        "name:fr": "Sahline Sebkha",
        "operator": "الشركة الوطنية للسكك الحديدية التونسية",
        "operator:ar": "الشركة الوطنية للسكك الحديدية التونسية",
        "operator:website": "http://www.sncft.com.tn/Ar/",
        "operator:wikidata": "Q2297197",
        "operator:wikipedia": "ar:الشركة الوطنية للسكك الحديدية التونسية",
        "operator:wikipedia:ar": "الشركة الوطنية للسكك الحديدية التونسية",
        "public_transport": "station",
        "railway": "station",
        "stop_id": "236F",
        "wikidata": "Q19753149",
        "id": "node/2003736244"
      },
      "geometry": {
        "type": "Point",
        "coordinates": [
          10.7171572,
          35.7574586
        ]
      }
    },
    {
      "type": "Feature",
      "id": "node/2003736247",
      "properties": {
        "name": "الساحلين",
        "name:ar": "الساحلين",
        "name:fr": "Sahline",
        "operator": "الشركة الوطنية للسكك الحديدية التونسية",
        "operator:ar": "الشركة الوطنية للسكك الحديدية التونسية",
        "operator:website": "http://www.sncft.com.tn/Ar/",
        "operator:wikidata": "Q2297197",
        "operator:wikipedia": "ar:الشركة الوطنية للسكك الحديدية التونسية",
        "operator:wikipedia:ar": "الشركة الوطنية للسكك الحديدية التونسية",
        "public_transport": "station",
        "railway": "station",
        "stop_id": "235E",
        "id": "node/2003736247"
      },
      "geometry": {
        "type": "Point",
        "coordinates": [
          10.70312,
          35.7591436
        ]
      }
    },
    {
      "type": "Feature",
      "id": "node/2003736249",
      "properties": {
        "name": "سوسة المنطقة الصناعية سيدي عبد الحميد",
        "name:ar": "سوسة المنطقة الصناعية سيدي عبد الحميد",
        "name:fr": "Sousse Zone Industrielle Sidi Abdelhamid",
        "public_transport": "station",
        "railway": "station",
        "stop_id": "234D",
        "id": "node/2003736249"
      },
      "geometry": {
        "type": "Point",
        "coordinates": [
          10.6686033,
          35.7821002
        ]
      }
    },
    {
      "type": "Feature",
      "id": "node/2003737884",
      "properties": {
        "addr:city": "المكنين",
        "name": "المكنين",
        "name:ar": "المكنين",
        "name:fr": "Moknine",
        "operator": "الشركة الوطنية للسكك الحديدية التونسية",
        "operator:ar": "الشركة الوطنية للسكك الحديدية التونسية",
        "operator:website": "http://www.sncft.com.tn/Ar/",
        "operator:wikidata": "Q2297197",
        "operator:wikipedia": "ar:الشركة الوطنية للسكك الحديدية التونسية",
        "operator:wikipedia:ar": "الشركة الوطنية للسكك الحديدية التونسية",
        "public_transport": "station",
        "railway": "station",
        "stop_id": "260J",
        "id": "node/2003737884"
      },
      "geometry": {
        "type": "Point",
        "coordinates": [
          10.9157185,
          35.6312384
        ]
      }
    },
    {
      "type": "Feature",
      "id": "node/2003739332",
      "properties": {
        "name": "قصيبة المديوني - بنان",
        "name:ar": "قصيبة المديوني - بنان",
        "name:fr": "Ksibet El Mediouni / Bennane",
        "public_transport": "station",
        "railway": "station",
        "stop_id": "243N",
        "id": "node/2003739332"
      },
      "geometry": {
        "type": "Point",
        "coordinates": [
          10.8426835,
          35.6799171
        ]
      }
    },
    {
      "type": "Feature",
      "id": "node/2006313754",
      "properties": {
        "railway": "stop",
        "id": "node/2006313754"
      },
      "geometry": {
        "type": "Point",
        "coordinates": [
          10.4612369,
          36.6251085
        ]
      }
    },
    {
      "type": "Feature",
      "id": "node/2006313816",
      "properties": {
        "railway": "stop",
        "id": "node/2006313816"
      },
      "geometry": {
        "type": "Point",
        "coordinates": [
          10.4466148,
          36.6690776
        ]
      }
    },
    {
      "type": "Feature",
      "id": "node/2006930886",
      "properties": {
        "name": "الملعب",
        "name:ar": "الملعب",
        "operator": "الشركة الوطنية للسكك الحديدية التونسية",
        "operator:ar": "الشركة الوطنية للسكك الحديدية التونسية",
        "operator:website": "http://www.sncft.com.tn/Ar/",
        "operator:wikidata": "Q2297197",
        "operator:wikipedia": "ar:الشركة الوطنية للسكك الحديدية التونسية",
        "operator:wikipedia:ar": "الشركة الوطنية للسكك الحديدية التونسية",
        "railway": "stop",
        "id": "node/2006930886"
      },
      "geometry": {
        "type": "Point",
        "coordinates": [
          10.3481172,
          36.7235604
        ]
      }
    },
    {
      "type": "Feature",
      "id": "node/2006930892",
      "properties": {
        "name": "الملعب",
        "name:ar": "الملعب",
        "operator": "الشركة الوطنية للسكك الحديدية التونسية",
        "operator:ar": "الشركة الوطنية للسكك الحديدية التونسية",
        "operator:website": "http://www.sncft.com.tn/Ar/",
        "operator:wikidata": "Q2297197",
        "operator:wikipedia": "ar:الشركة الوطنية للسكك الحديدية التونسية",
        "operator:wikipedia:ar": "الشركة الوطنية للسكك الحديدية التونسية",
        "railway": "stop",
        "id": "node/2006930892"
      },
      "geometry": {
        "type": "Point",
        "coordinates": [
          10.3481464,
          36.7236009
        ]
      }
    },
    {
      "type": "Feature",
      "id": "node/2007410586",
      "properties": {
        "railway": "stop",
        "id": "node/2007410586"
      },
      "geometry": {
        "type": "Point",
        "coordinates": [
          10.2611493,
          36.7668043
        ]
      }
    },
    {
      "type": "Feature",
      "id": "node/2007410590",
      "properties": {
        "railway": "stop",
        "id": "node/2007410590"
      },
      "geometry": {
        "type": "Point",
        "coordinates": [
          10.2611472,
          36.7668375
        ]
      }
    },
    {
      "type": "Feature",
      "id": "node/2007410599",
      "properties": {
        "railway": "stop",
        "id": "node/2007410599"
      },
      "geometry": {
        "type": "Point",
        "coordinates": [
          10.2611436,
          36.766895
        ]
      }
    },
    {
      "type": "Feature",
      "id": "node/2007410659",
      "properties": {
        "railway": "stop",
        "id": "node/2007410659"
      },
      "geometry": {
        "type": "Point",
        "coordinates": [
          10.270226,
          36.7684667
        ]
      }
    },
    {
      "type": "Feature",
      "id": "node/2007410661",
      "properties": {
        "railway": "stop",
        "id": "node/2007410661"
      },
      "geometry": {
        "type": "Point",
        "coordinates": [
          10.2702169,
          36.7685066
        ]
      }
    },
    {
      "type": "Feature",
      "id": "node/2007410662",
      "properties": {
        "railway": "stop",
        "id": "node/2007410662"
      },
      "geometry": {
        "type": "Point",
        "coordinates": [
          10.2701969,
          36.7685706
        ]
      }
    },
    {
      "type": "Feature",
      "id": "node/2008351668",
      "properties": {
        "railway": "halt",
        "id": "node/2008351668"
      },
      "geometry": {
        "type": "Point",
        "coordinates": [
          10.2445407,
          36.7673202
        ]
      }
    },
    {
      "type": "Feature",
      "id": "node/2008351681",
      "properties": {
        "railway": "stop",
        "id": "node/2008351681"
      },
      "geometry": {
        "type": "Point",
        "coordinates": [
          10.2445286,
          36.7673943
        ]
      }
    },
    {
      "type": "Feature",
      "id": "node/2008351683",
      "properties": {
        "railway": "stop",
        "id": "node/2008351683"
      },
      "geometry": {
        "type": "Point",
        "coordinates": [
          10.2445239,
          36.7674233
        ]
      }
    },
    {
      "type": "Feature",
      "id": "node/2008351779",
      "properties": {
        "railway": "stop",
        "id": "node/2008351779"
      },
      "geometry": {
        "type": "Point",
        "coordinates": [
          10.2445123,
          36.7674949
        ]
      }
    },
    {
      "type": "Feature",
      "id": "node/2008351976",
      "properties": {
        "railway": "stop",
        "id": "node/2008351976"
      },
      "geometry": {
        "type": "Point",
        "coordinates": [
          10.2335585,
          36.7683821
        ]
      }
    },
    {
      "type": "Feature",
      "id": "node/2008351987",
      "properties": {
        "railway": "stop",
        "id": "node/2008351987"
      },
      "geometry": {
        "type": "Point",
        "coordinates": [
          10.2335708,
          36.7684235
        ]
      }
    },
    {
      "type": "Feature",
      "id": "node/2008351993",
      "properties": {
        "railway": "stop",
        "id": "node/2008351993"
      },
      "geometry": {
        "type": "Point",
        "coordinates": [
          10.2335897,
          36.7684865
        ]
      }
    },
    {
      "type": "Feature",
      "id": "node/2008352025",
      "properties": {
        "railway": "stop",
        "id": "node/2008352025"
      },
      "geometry": {
        "type": "Point",
        "coordinates": [
          10.2336091,
          36.7685517
        ]
      }
    },
    {
      "type": "Feature",
      "id": "node/2008352607",
      "properties": {
        "railway": "stop",
        "id": "node/2008352607"
      },
      "geometry": {
        "type": "Point",
        "coordinates": [
          10.2228837,
          36.7702836
        ]
      }
    },
    {
      "type": "Feature",
      "id": "node/2008352612",
      "properties": {
        "railway": "stop",
        "id": "node/2008352612"
      },
      "geometry": {
        "type": "Point",
        "coordinates": [
          10.2228979,
          36.7703182
        ]
      }
    },
    {
      "type": "Feature",
      "id": "node/2008352615",
      "properties": {
        "railway": "stop",
        "id": "node/2008352615"
      },
      "geometry": {
        "type": "Point",
        "coordinates": [
          10.2229258,
          36.7703862
        ]
      }
    },
    {
      "type": "Feature",
      "id": "node/2008352676",
      "properties": {
        "railway": "stop",
        "id": "node/2008352676"
      },
      "geometry": {
        "type": "Point",
        "coordinates": [
          10.2096005,
          36.7723808
        ]
      }
    },
    {
      "type": "Feature",
      "id": "node/2008352677",
      "properties": {
        "railway": "stop",
        "id": "node/2008352677"
      },
      "geometry": {
        "type": "Point",
        "coordinates": [
          10.2096179,
          36.7724412
        ]
      }
    },
    {
      "type": "Feature",
      "id": "node/2008352690",
      "properties": {
        "railway": "stop",
        "id": "node/2008352690"
      },
      "geometry": {
        "type": "Point",
        "coordinates": [
          10.20963,
          36.7724831
        ]
      }
    },
    {
      "type": "Feature",
      "id": "node/2008352691",
      "properties": {
        "railway": "stop",
        "id": "node/2008352691"
      },
      "geometry": {
        "type": "Point",
        "coordinates": [
          10.2096485,
          36.7725471
        ]
      }
    },
    {
      "type": "Feature",
      "id": "node/2009131170",
      "properties": {
        "railway": "stop",
        "id": "node/2009131170"
      },
      "geometry": {
        "type": "Point",
        "coordinates": [
          10.1392863,
          36.8063111
        ]
      }
    },
    {
      "type": "Feature",
      "id": "node/2009216005",
      "properties": {
        "railway": "stop",
        "id": "node/2009216005"
      },
      "geometry": {
        "type": "Point",
        "coordinates": [
          10.1181461,
          36.8112002
        ]
      }
    },
    {
      "type": "Feature",
      "id": "node/2009216013",
      "properties": {
        "railway": "stop",
        "id": "node/2009216013"
      },
      "geometry": {
        "type": "Point",
        "coordinates": [
          10.1181638,
          36.8112386
        ]
      }
    },
    {
      "type": "Feature",
      "id": "node/2009767290",
      "properties": {
        "railway": "stop",
        "id": "node/2009767290"
      },
      "geometry": {
        "type": "Point",
        "coordinates": [
          9.7197301,
          36.7561047
        ]
      }
    },
    {
      "type": "Feature",
      "id": "node/2009769024",
      "properties": {
        "railway": "stop",
        "id": "node/2009769024"
      },
      "geometry": {
        "type": "Point",
        "coordinates": [
          10.0090959,
          36.8358482
        ]
      }
    },
    {
      "type": "Feature",
      "id": "node/2009769031",
      "properties": {
        "railway": "stop",
        "id": "node/2009769031"
      },
      "geometry": {
        "type": "Point",
        "coordinates": [
          10.0091151,
          36.8358772
        ]
      }
    },
    {
      "type": "Feature",
      "id": "node/2009769434",
      "properties": {
        "railway": "stop",
        "id": "node/2009769434"
      },
      "geometry": {
        "type": "Point",
        "coordinates": [
          9.9848784,
          36.8374036
        ]
      }
    },
    {
      "type": "Feature",
      "id": "node/2009938041",
      "properties": {
        "railway": "stop",
        "id": "node/2009938041"
      },
      "geometry": {
        "type": "Point",
        "coordinates": [
          9.4267135,
          36.6732325
        ]
      }
    },
    {
      "type": "Feature",
      "id": "node/2009938077",
      "properties": {
        "railway": "stop",
        "id": "node/2009938077"
      },
      "geometry": {
        "type": "Point",
        "coordinates": [
          9.426753,
          36.6732978
        ]
      }
    },
    {
      "type": "Feature",
      "id": "node/2009939297",
      "properties": {
        "railway": "stop",
        "id": "node/2009939297"
      },
      "geometry": {
        "type": "Point",
        "coordinates": [
          9.2792468,
          36.7824955
        ]
      }
    },
    {
      "type": "Feature",
      "id": "node/2009939300",
      "properties": {
        "railway": "stop",
        "id": "node/2009939300"
      },
      "geometry": {
        "type": "Point",
        "coordinates": [
          9.2792889,
          36.7825516
        ]
      }
    },
    {
      "type": "Feature",
      "id": "node/2012097168",
      "properties": {
        "operator": "الشركة الوطنية للسكك الحديدية التونسية",
        "operator:ar": "الشركة الوطنية للسكك الحديدية التونسية",
        "operator:website": "http://www.sncft.com.tn/Ar/",
        "operator:wikidata": "Q2297197",
        "operator:wikipedia": "ar:الشركة الوطنية للسكك الحديدية التونسية",
        "operator:wikipedia:ar": "الشركة الوطنية للسكك الحديدية التونسية",
        "railway": "stop",
        "id": "node/2012097168"
      },
      "geometry": {
        "type": "Point",
        "coordinates": [
          9.3254464,
          36.7876441
        ]
      }
    },
    {
      "type": "Feature",
      "id": "node/2012097170",
      "properties": {
        "operator": "الشركة الوطنية للسكك الحديدية التونسية",
        "operator:ar": "الشركة الوطنية للسكك الحديدية التونسية",
        "operator:website": "http://www.sncft.com.tn/Ar/",
        "operator:wikidata": "Q2297197",
        "operator:wikipedia": "ar:الشركة الوطنية للسكك الحديدية التونسية",
        "operator:wikipedia:ar": "الشركة الوطنية للسكك الحديدية التونسية",
        "railway": "stop",
        "id": "node/2012097170"
      },
      "geometry": {
        "type": "Point",
        "coordinates": [
          9.3254098,
          36.7876826
        ]
      }
    },
    {
      "type": "Feature",
      "id": "node/2012097315",
      "properties": {
        "disused:railway": "station",
        "public_transport": "station",
        "railway": "halt",
        "train": "yes",
        "id": "node/2012097315"
      },
      "geometry": {
        "type": "Point",
        "coordinates": [
          9.4440498,
          36.8955764
        ]
      }
    },
    {
      "type": "Feature",
      "id": "node/2012097390",
      "properties": {
        "disused:railway": "station",
        "railway": "halt",
        "id": "node/2012097390"
      },
      "geometry": {
        "type": "Point",
        "coordinates": [
          9.486158,
          36.9568504
        ]
      }
    },
    {
      "type": "Feature",
      "id": "node/2012097539",
      "properties": {
        "addr:city": "ماطر",
        "addr:city:ar": "ماطر",
        "name": "ماطر",
        "name:ar": "ماطر",
        "operator": "الشركة الوطنية للسكك الحديدية التونسية",
        "operator:ar": "الشركة الوطنية للسكك الحديدية التونسية",
        "operator:website": "http://www.sncft.com.tn/Ar/",
        "operator:wikidata": "Q2297197",
        "operator:wikipedia": "ar:الشركة الوطنية للسكك الحديدية التونسية",
        "operator:wikipedia:ar": "الشركة الوطنية للسكك الحديدية التونسية",
        "railway": "stop",
        "id": "node/2012097539"
      },
      "geometry": {
        "type": "Point",
        "coordinates": [
          9.6843483,
          37.0378026
        ]
      }
    },
    {
      "type": "Feature",
      "id": "node/2012097540",
      "properties": {
        "addr:city": "ماطر",
        "addr:city:ar": "ماطر",
        "name": "ماطر",
        "name:ar": "ماطر",
        "operator": "الشركة الوطنية للسكك الحديدية التونسية",
        "operator:ar": "الشركة الوطنية للسكك الحديدية التونسية",
        "operator:website": "http://www.sncft.com.tn/Ar/",
        "operator:wikidata": "Q2297197",
        "operator:wikipedia": "ar:الشركة الوطنية للسكك الحديدية التونسية",
        "operator:wikipedia:ar": "الشركة الوطنية للسكك الحديدية التونسية",
        "railway": "stop",
        "id": "node/2012097540"
      },
      "geometry": {
        "type": "Point",
        "coordinates": [
          9.6844116,
          37.0378248
        ]
      }
    },
    {
      "type": "Feature",
      "id": "node/2012097541",
      "properties": {
        "addr:city": "ماطر",
        "addr:city:ar": "ماطر",
        "name": "ماطر",
        "name:ar": "ماطر",
        "operator": "الشركة الوطنية للسكك الحديدية التونسية",
        "operator:ar": "الشركة الوطنية للسكك الحديدية التونسية",
        "operator:website": "http://www.sncft.com.tn/Ar/",
        "operator:wikidata": "Q2297197",
        "operator:wikipedia": "ar:الشركة الوطنية للسكك الحديدية التونسية",
        "operator:wikipedia:ar": "الشركة الوطنية للسكك الحديدية التونسية",
        "railway": "stop",
        "id": "node/2012097541"
      },
      "geometry": {
        "type": "Point",
        "coordinates": [
          9.6845013,
          37.0378474
        ]
      }
    },
    {
      "type": "Feature",
      "id": "node/2013125523",
      "properties": {
        "railway": "stop",
        "id": "node/2013125523"
      },
      "geometry": {
        "type": "Point",
        "coordinates": [
          9.9246157,
          36.9600767
        ]
      }
    },
    {
      "type": "Feature",
      "id": "node/2013125524",
      "properties": {
        "railway": "stop",
        "id": "node/2013125524"
      },
      "geometry": {
        "type": "Point",
        "coordinates": [
          9.9246628,
          36.9600952
        ]
      }
    },
    {
      "type": "Feature",
      "id": "node/2014339660",
      "properties": {
        "railway": "stop",
        "id": "node/2014339660"
      },
      "geometry": {
        "type": "Point",
        "coordinates": [
          10.0595253,
          36.5552201
        ]
      }
    },
    {
      "type": "Feature",
      "id": "node/2014339662",
      "properties": {
        "railway": "stop",
        "id": "node/2014339662"
      },
      "geometry": {
        "type": "Point",
        "coordinates": [
          10.0595205,
          36.555267
        ]
      }
    },
    {
      "type": "Feature",
      "id": "node/2014339666",
      "properties": {
        "railway": "stop",
        "id": "node/2014339666"
      },
      "geometry": {
        "type": "Point",
        "coordinates": [
          10.0595159,
          36.555311
        ]
      }
    },
    {
      "type": "Feature",
      "id": "node/2014339669",
      "properties": {
        "railway": "stop",
        "id": "node/2014339669"
      },
      "geometry": {
        "type": "Point",
        "coordinates": [
          10.0595107,
          36.5553618
        ]
      }
    },
    {
      "type": "Feature",
      "id": "node/2014339686",
      "properties": {
        "disused:railway": "station",
        "name": "أوذنة",
        "name:fr": "Oudna",
        "railway": "halt",
        "id": "node/2014339686"
      },
      "geometry": {
        "type": "Point",
        "coordinates": [
          10.1510103,
          36.6253706
        ]
      }
    },
    {
      "type": "Feature",
      "id": "node/2014339853",
      "properties": {
        "disused:railway": "station",
        "name": "الخليدية",
        "name:fr": "Khledia",
        "railway": "halt",
        "stop_id": "91",
        "id": "node/2014339853"
      },
      "geometry": {
        "type": "Point",
        "coordinates": [
          10.1945655,
          36.6462874
        ]
      }
    },
    {
      "type": "Feature",
      "id": "node/2014340028",
      "properties": {
        "railway": "stop",
        "id": "node/2014340028"
      },
      "geometry": {
        "type": "Point",
        "coordinates": [
          10.2285923,
          36.7404855
        ]
      }
    },
    {
      "type": "Feature",
      "id": "node/2014340029",
      "properties": {
        "railway": "stop",
        "id": "node/2014340029"
      },
      "geometry": {
        "type": "Point",
        "coordinates": [
          10.2286338,
          36.7405006
        ]
      }
    },
    {
      "type": "Feature",
      "id": "node/2014340030",
      "properties": {
        "railway": "stop",
        "id": "node/2014340030"
      },
      "geometry": {
        "type": "Point",
        "coordinates": [
          10.2287056,
          36.7405124
        ]
      }
    },
    {
      "type": "Feature",
      "id": "node/2014340031",
      "properties": {
        "railway": "stop",
        "id": "node/2014340031"
      },
      "geometry": {
        "type": "Point",
        "coordinates": [
          10.2287453,
          36.7405196
        ]
      }
    },
    {
      "type": "Feature",
      "id": "node/2014340033",
      "properties": {
        "railway": "stop",
        "id": "node/2014340033"
      },
      "geometry": {
        "type": "Point",
        "coordinates": [
          10.2287901,
          36.7405292
        ]
      }
    },
    {
      "type": "Feature",
      "id": "node/2014340034",
      "properties": {
        "railway": "stop",
        "id": "node/2014340034"
      },
      "geometry": {
        "type": "Point",
        "coordinates": [
          10.2288366,
          36.7405406
        ]
      }
    },
    {
      "type": "Feature",
      "id": "node/2014340036",
      "properties": {
        "railway": "stop",
        "id": "node/2014340036"
      },
      "geometry": {
        "type": "Point",
        "coordinates": [
          10.2288844,
          36.7405622
        ]
      }
    },
    {
      "type": "Feature",
      "id": "node/2014980265",
      "properties": {
        "name": "Djelida;الجليدة",
        "name:ar": "الجليدة",
        "name:fr": "Jelida",
        "public_transport": "halt",
        "railway": "halt",
        "train": "yes",
        "id": "node/2014980265"
      },
      "geometry": {
        "type": "Point",
        "coordinates": [
          9.5564554,
          36.3716613
        ]
      }
    },
    {
      "type": "Feature",
      "id": "node/2014980499",
      "properties": {
        "railway": "stop",
        "id": "node/2014980499"
      },
      "geometry": {
        "type": "Point",
        "coordinates": [
          9.454534,
          36.3810702
        ]
      }
    },
    {
      "type": "Feature",
      "id": "node/2014980504",
      "properties": {
        "railway": "stop",
        "id": "node/2014980504"
      },
      "geometry": {
        "type": "Point",
        "coordinates": [
          9.4545404,
          36.3811008
        ]
      }
    },
    {
      "type": "Feature",
      "id": "node/2015479912",
      "properties": {
        "addr:city": "قعفور",
        "addr:city:ar": "قعفور",
        "addr:postcode": "6110",
        "name": "قعفور",
        "name:ar": "قعفور",
        "name:en": "Gaâfour",
        "name:fr": "Gaâfour",
        "railway": "stop",
        "id": "node/2015479912"
      },
      "geometry": {
        "type": "Point",
        "coordinates": [
          9.3263709,
          36.3223405
        ]
      }
    },
    {
      "type": "Feature",
      "id": "node/2015479913",
      "properties": {
        "addr:city": "قعفور",
        "addr:city:ar": "قعفور",
        "addr:postcode": "6110",
        "name": "قعفور",
        "name:ar": "قعفور",
        "name:en": "Gaâfour",
        "name:fr": "Gaâfour",
        "railway": "stop",
        "id": "node/2015479913"
      },
      "geometry": {
        "type": "Point",
        "coordinates": [
          9.3263317,
          36.3223661
        ]
      }
    },
    {
      "type": "Feature",
      "id": "node/2015479914",
      "properties": {
        "addr:city": "قعفور",
        "addr:city:ar": "قعفور",
        "addr:postcode": "6110",
        "name": "قعفور",
        "name:ar": "قعفور",
        "name:en": "Gaâfour",
        "name:fr": "Gaâfour",
        "public_transport": "station",
        "railway": "station",
        "train": "yes",
        "id": "node/2015479914"
      },
      "geometry": {
        "type": "Point",
        "coordinates": [
          9.3263705,
          36.3222457
        ]
      }
    },
    {
      "type": "Feature",
      "id": "node/2015482627",
      "properties": {
        "railway": "stop",
        "id": "node/2015482627"
      },
      "geometry": {
        "type": "Point",
        "coordinates": [
          9.3909274,
          36.3511879
        ]
      }
    },
    {
      "type": "Feature",
      "id": "node/2015482641",
      "properties": {
        "railway": "stop",
        "id": "node/2015482641"
      },
      "geometry": {
        "type": "Point",
        "coordinates": [
          9.3909366,
          36.3512267
        ]
      }
    },
    {
      "type": "Feature",
      "id": "node/2015899240",
      "properties": {
        "railway": "stop",
        "id": "node/2015899240"
      },
      "geometry": {
        "type": "Point",
        "coordinates": [
          9.2549542,
          36.2550655
        ]
      }
    },
    {
      "type": "Feature",
      "id": "node/2015899247",
      "properties": {
        "railway": "stop",
        "id": "node/2015899247"
      },
      "geometry": {
        "type": "Point",
        "coordinates": [
          9.254926,
          36.2551133
        ]
      }
    },
    {
      "type": "Feature",
      "id": "node/2018046848",
      "properties": {
        "name": "الزعفران",
        "name:ar": "الزعفران",
        "name:en": "Zaafrane",
        "name:fr": "Zaafrane",
        "railway": "stop",
        "id": "node/2018046848"
      },
      "geometry": {
        "type": "Point",
        "coordinates": [
          8.8347054,
          36.1577674
        ]
      }
    },
    {
      "type": "Feature",
      "id": "node/2018046849",
      "properties": {
        "name": "الزعفران",
        "name:ar": "الزعفران",
        "name:en": "Zaafrane",
        "name:fr": "Zaafrane",
        "railway": "stop",
        "id": "node/2018046849"
      },
      "geometry": {
        "type": "Point",
        "coordinates": [
          8.8346893,
          36.1578011
        ]
      }
    },
    {
      "type": "Feature",
      "id": "node/2020535321",
      "properties": {
        "disused:railway": "station",
        "name": "الزوارين",
        "public_transport": "halt",
        "railway": "halt",
        "id": "node/2020535321"
      },
      "geometry": {
        "type": "Point",
        "coordinates": [
          8.902866,
          36.0230199
        ]
      }
    },
    {
      "type": "Feature",
      "id": "node/2020814121",
      "properties": {
        "name": "تاجروين",
        "name:ar": "تاجروين",
        "operator": "الشركة الوطنية للسكك الحديدية التونسية",
        "operator:ar": "الشركة الوطنية للسكك الحديدية التونسية",
        "operator:website": "http://www.sncft.com.tn/Ar/",
        "operator:wikidata": "Q2297197",
        "operator:wikipedia": "ar:الشركة الوطنية للسكك الحديدية التونسية",
        "operator:wikipedia:ar": "الشركة الوطنية للسكك الحديدية التونسية",
        "railway": "stop",
        "id": "node/2020814121"
      },
      "geometry": {
        "type": "Point",
        "coordinates": [
          8.5448496,
          35.8518441
        ]
      }
    },
    {
      "type": "Feature",
      "id": "node/2020814145",
      "properties": {
        "name": "تاجروين",
        "name:ar": "تاجروين",
        "operator": "الشركة الوطنية للسكك الحديدية التونسية",
        "operator:ar": "الشركة الوطنية للسكك الحديدية التونسية",
        "operator:website": "http://www.sncft.com.tn/Ar/",
        "operator:wikidata": "Q2297197",
        "operator:wikipedia": "ar:الشركة الوطنية للسكك الحديدية التونسية",
        "operator:wikipedia:ar": "الشركة الوطنية للسكك الحديدية التونسية",
        "railway": "stop",
        "id": "node/2020814145"
      },
      "geometry": {
        "type": "Point",
        "coordinates": [
          8.5448548,
          35.8518885
        ]
      }
    },
    {
      "type": "Feature",
      "id": "node/2020814293",
      "properties": {
        "name": "Aïn Mesria",
        "name:fr": "Aïn Mesria",
        "railway": "halt",
        "id": "node/2020814293"
      },
      "geometry": {
        "type": "Point",
        "coordinates": [
          8.7393609,
          35.9121885
        ]
      }
    },
    {
      "type": "Feature",
      "id": "node/2021623348",
      "properties": {
        "name": "القلعة الخصبة",
        "name:ar": "القلعة الخصبة",
        "name:fr": "Kalaat Khasba",
        "operator": "الشركة الوطنية للسكك الحديدية التونسية",
        "operator:ar": "الشركة الوطنية للسكك الحديدية التونسية",
        "operator:website": "http://www.sncft.com.tn/Ar/",
        "operator:wikidata": "Q2297197",
        "operator:wikipedia": "ar:الشركة الوطنية للسكك الحديدية التونسية",
        "operator:wikipedia:ar": "الشركة الوطنية للسكك الحديدية التونسية",
        "railway": "stop",
        "id": "node/2021623348"
      },
      "geometry": {
        "type": "Point",
        "coordinates": [
          8.5911212,
          35.6602148
        ]
      }
    },
    {
      "type": "Feature",
      "id": "node/2021623349",
      "properties": {
        "name": "القلعة الخصبة",
        "name:ar": "القلعة الخصبة",
        "name:fr": "Kalaat Khasba",
        "operator": "الشركة الوطنية للسكك الحديدية التونسية",
        "operator:ar": "الشركة الوطنية للسكك الحديدية التونسية",
        "operator:website": "http://www.sncft.com.tn/Ar/",
        "operator:wikidata": "Q2297197",
        "operator:wikipedia": "ar:الشركة الوطنية للسكك الحديدية التونسية",
        "operator:wikipedia:ar": "الشركة الوطنية للسكك الحديدية التونسية",
        "railway": "stop",
        "id": "node/2021623349"
      },
      "geometry": {
        "type": "Point",
        "coordinates": [
          8.5910761,
          35.6602261
        ]
      }
    },
    {
      "type": "Feature",
      "id": "node/2021623350",
      "properties": {
        "name": "القلعة الخصبة",
        "name:ar": "القلعة الخصبة",
        "name:fr": "Kalaat Khasba",
        "operator": "الشركة الوطنية للسكك الحديدية التونسية",
        "operator:ar": "الشركة الوطنية للسكك الحديدية التونسية",
        "operator:website": "http://www.sncft.com.tn/Ar/",
        "operator:wikidata": "Q2297197",
        "operator:wikipedia": "ar:الشركة الوطنية للسكك الحديدية التونسية",
        "operator:wikipedia:ar": "الشركة الوطنية للسكك الحديدية التونسية",
        "railway": "stop",
        "id": "node/2021623350"
      },
      "geometry": {
        "type": "Point",
        "coordinates": [
          8.5909957,
          35.6602464
        ]
      }
    },
    {
      "type": "Feature",
      "id": "node/2021887384",
      "properties": {
        "name": "حيدرة",
        "name:ar": "حيدرة",
        "name:en": "Haïdra",
        "name:fr": "Haïdra",
        "operator": "الشركة الوطنية للسكك الحديدية التونسية",
        "operator:ar": "الشركة الوطنية للسكك الحديدية التونسية",
        "operator:website": "http://www.sncft.com.tn/Ar/",
        "operator:wikidata": "Q2297197",
        "operator:wikipedia": "ar:الشركة الوطنية للسكك الحديدية التونسية",
        "operator:wikipedia:ar": "الشركة الوطنية للسكك الحديدية التونسية",
        "railway": "stop",
        "id": "node/2021887384"
      },
      "geometry": {
        "type": "Point",
        "coordinates": [
          8.4484302,
          35.5659236
        ]
      }
    },
    {
      "type": "Feature",
      "id": "node/2021887390",
      "properties": {
        "name": "حيدرة",
        "name:ar": "حيدرة",
        "name:en": "Haïdra",
        "name:fr": "Haïdra",
        "operator": "الشركة الوطنية للسكك الحديدية التونسية",
        "operator:ar": "الشركة الوطنية للسكك الحديدية التونسية",
        "operator:website": "http://www.sncft.com.tn/Ar/",
        "operator:wikidata": "Q2297197",
        "operator:wikipedia": "ar:الشركة الوطنية للسكك الحديدية التونسية",
        "operator:wikipedia:ar": "الشركة الوطنية للسكك الحديدية التونسية",
        "railway": "stop",
        "id": "node/2021887390"
      },
      "geometry": {
        "type": "Point",
        "coordinates": [
          8.4484105,
          35.5660291
        ]
      }
    },
    {
      "type": "Feature",
      "id": "node/2021887393",
      "properties": {
        "name": "حيدرة",
        "name:ar": "حيدرة",
        "name:en": "Haïdra",
        "name:fr": "Haïdra",
        "operator": "الشركة الوطنية للسكك الحديدية التونسية",
        "operator:ar": "الشركة الوطنية للسكك الحديدية التونسية",
        "operator:website": "http://www.sncft.com.tn/Ar/",
        "operator:wikidata": "Q2297197",
        "operator:wikipedia": "ar:الشركة الوطنية للسكك الحديدية التونسية",
        "operator:wikipedia:ar": "الشركة الوطنية للسكك الحديدية التونسية",
        "railway": "stop",
        "id": "node/2021887393"
      },
      "geometry": {
        "type": "Point",
        "coordinates": [
          8.4484004,
          35.5660831
        ]
      }
    },
    {
      "type": "Feature",
      "id": "node/2022259569",
      "properties": {
        "addr:city": "فوسانة",
        "addr:postcode": "1220",
        "name": "فوسانة",
        "name:ar": "فوسانة",
        "name:en": "Foussana",
        "name:fr": "Foussana",
        "railway": "stop",
        "id": "node/2022259569"
      },
      "geometry": {
        "type": "Point",
        "coordinates": [
          8.6251205,
          35.3491912
        ]
      }
    },
    {
      "type": "Feature",
      "id": "node/2022259571",
      "properties": {
        "addr:city": "فوسانة",
        "addr:postcode": "1220",
        "name": "فوسانة",
        "name:ar": "فوسانة",
        "name:en": "Foussana",
        "name:fr": "Foussana",
        "railway": "stop",
        "id": "node/2022259571"
      },
      "geometry": {
        "type": "Point",
        "coordinates": [
          8.6251451,
          35.3492356
        ]
      }
    },
    {
      "type": "Feature",
      "id": "node/2022375677",
      "properties": {
        "name": "القصرين",
        "name:ar": "القصرين",
        "name:en": "Kasserine",
        "name:fr": "Kasserine",
        "railway": "stop",
        "id": "node/2022375677"
      },
      "geometry": {
        "type": "Point",
        "coordinates": [
          8.8347589,
          35.1672336
        ]
      }
    },
    {
      "type": "Feature",
      "id": "node/2022375678",
      "properties": {
        "name": "القصرين",
        "name:ar": "القصرين",
        "name:en": "Kasserine",
        "name:fr": "Kasserine",
        "railway": "stop",
        "id": "node/2022375678"
      },
      "geometry": {
        "type": "Point",
        "coordinates": [
          8.8347206,
          35.1672753
        ]
      }
    },
    {
      "type": "Feature",
      "id": "node/2022375679",
      "properties": {
        "name": "القصرين",
        "name:ar": "القصرين",
        "name:en": "Kasserine",
        "name:fr": "Kasserine",
        "railway": "stop",
        "id": "node/2022375679"
      },
      "geometry": {
        "type": "Point",
        "coordinates": [
          8.8346884,
          35.1673086
        ]
      }
    },
    {
      "type": "Feature",
      "id": "node/2033524073",
      "properties": {
        "railway": "halt",
        "id": "node/2033524073"
      },
      "geometry": {
        "type": "Point",
        "coordinates": [
          9.4199677,
          34.5738806
        ]
      }
    },
    {
      "type": "Feature",
      "id": "node/2033524085",
      "properties": {
        "railway": "halt",
        "id": "node/2033524085"
      },
      "geometry": {
        "type": "Point",
        "coordinates": [
          9.4199754,
          34.5739341
        ]
      }
    },
    {
      "type": "Feature",
      "id": "node/2042447463",
      "properties": {
        "operator": "الشركة الوطنية للسكك الحديدية التونسية",
        "operator:ar": "الشركة الوطنية للسكك الحديدية التونسية",
        "operator:website": "http://www.sncft.com.tn/Ar/",
        "operator:wikidata": "Q2297197",
        "operator:wikipedia": "ar:الشركة الوطنية للسكك الحديدية التونسية",
        "operator:wikipedia:ar": "الشركة الوطنية للسكك الحديدية التونسية",
        "railway": "halt",
        "id": "node/2042447463"
      },
      "geometry": {
        "type": "Point",
        "coordinates": [
          9.8422215,
          34.5740489
        ]
      }
    },
    {
      "type": "Feature",
      "id": "node/2042447473",
      "properties": {
        "operator": "الشركة الوطنية للسكك الحديدية التونسية",
        "operator:ar": "الشركة الوطنية للسكك الحديدية التونسية",
        "operator:website": "http://www.sncft.com.tn/Ar/",
        "operator:wikidata": "Q2297197",
        "operator:wikipedia": "ar:الشركة الوطنية للسكك الحديدية التونسية",
        "operator:wikipedia:ar": "الشركة الوطنية للسكك الحديدية التونسية",
        "railway": "halt",
        "id": "node/2042447473"
      },
      "geometry": {
        "type": "Point",
        "coordinates": [
          9.842224,
          34.5741042
        ]
      }
    },
    {
      "type": "Feature",
      "id": "node/2095681747",
      "properties": {
        "name:fr": "Bir El Afou",
        "railway": "halt",
        "id": "node/2095681747"
      },
      "geometry": {
        "type": "Point",
        "coordinates": [
          8.4434556,
          35.8222382
        ]
      }
    },
    {
      "type": "Feature",
      "id": "node/2095681749",
      "properties": {
        "name": "ربيبة",
        "name:ar": "ربيبة",
        "name:fr": "Rebiba",
        "railway": "halt",
        "id": "node/2095681749"
      },
      "geometry": {
        "type": "Point",
        "coordinates": [
          8.3796494,
          35.7985367
        ]
      }
    },
    {
      "type": "Feature",
      "id": "node/2096304542",
      "properties": {
        "name": "Station de louage",
        "public_transport": "station",
        "id": "node/2096304542"
      },
      "geometry": {
        "type": "Point",
        "coordinates": [
          10.6363404,
          35.809326
        ]
      }
    },
    {
      "type": "Feature",
      "id": "node/2171994504",
      "properties": {
        "name": "Fériana",
        "public_transport": "station",
        "railway": "station",
        "id": "node/2171994504"
      },
      "geometry": {
        "type": "Point",
        "coordinates": [
          8.5689069,
          34.9488438
        ]
      }
    },
    {
      "type": "Feature",
      "id": "node/2175103410",
      "properties": {
        "addr:city": "ماجل بلعباس",
        "name": "ماجل بلعباس",
        "name:ar": "ماجل بلعباس",
        "name:fr": "Magel Bel Abbès",
        "operator": "الشركة الوطنية للسكك الحديدية التونسية",
        "operator:ar": "الشركة الوطنية للسكك الحديدية التونسية",
        "operator:website": "http://www.sncft.com.tn/Ar/",
        "operator:wikidata": "Q2297197",
        "operator:wikipedia": "ar:الشركة الوطنية للسكك الحديدية التونسية",
        "operator:wikipedia:ar": "الشركة الوطنية للسكك الحديدية التونسية",
        "public_transport": "station",
        "railway": "station",
        "id": "node/2175103410"
      },
      "geometry": {
        "type": "Point",
        "coordinates": [
          8.5195591,
          34.7499437
        ]
      }
    },
    {
      "type": "Feature",
      "id": "node/2175374557",
      "properties": {
        "addr:city": "دقاش",
        "name": "محطة دقاش",
        "name:ar": "محطة دقاش",
        "name:en": "Degache",
        "name:fr": "Degache",
        "operator": "الشركة الوطنية للسكك الحديدية التونسية",
        "operator:ar": "الشركة الوطنية للسكك الحديدية التونسية",
        "operator:website": "http://www.sncft.com.tn/Ar/",
        "operator:wikidata": "Q2297197",
        "operator:wikipedia": "ar:الشركة الوطنية للسكك الحديدية التونسية",
        "operator:wikipedia:ar": "الشركة الوطنية للسكك الحديدية التونسية",
        "public_transport": "station",
        "railway": "station",
        "train": "yes",
        "id": "node/2175374557"
      },
      "geometry": {
        "type": "Point",
        "coordinates": [
          8.2134097,
          33.9867924
        ]
      }
    },
    {
      "type": "Feature",
      "id": "node/2348334056",
      "properties": {
        "name": "Arrêt 20 mars",
        "public_transport": "station",
        "id": "node/2348334056"
      },
      "geometry": {
        "type": "Point",
        "coordinates": [
          10.2063249,
          36.710661
        ]
      }
    },
    {
      "type": "Feature",
      "id": "node/2348334057",
      "properties": {
        "name": "Terminus 74",
        "public_transport": "station",
        "id": "node/2348334057"
      },
      "geometry": {
        "type": "Point",
        "coordinates": [
          10.2013273,
          36.710094
        ]
      }
    },
    {
      "type": "Feature",
      "id": "node/2348334059",
      "properties": {
        "name": "Terminus TUT",
        "public_transport": "station",
        "id": "node/2348334059"
      },
      "geometry": {
        "type": "Point",
        "coordinates": [
          10.2058272,
          36.709433
        ]
      }
    },
    {
      "type": "Feature",
      "id": "node/2578745339",
      "properties": {
        "public_transport": "stop_position",
        "railway": "halt",
        "train": "yes",
        "wikidata": "Q19753286",
        "wikipedia": "ar:محطة الكلية (المنستير)",
        "id": "node/2578745339"
      },
      "geometry": {
        "type": "Point",
        "coordinates": [
          10.8080172,
          35.7601205
        ]
      }
    },
    {
      "type": "Feature",
      "id": "node/2578745359",
      "properties": {
        "public_transport": "stop_position",
        "railway": "stop",
        "train": "yes",
        "id": "node/2578745359"
      },
      "geometry": {
        "type": "Point",
        "coordinates": [
          10.8095042,
          35.7611018
        ]
      }
    },
    {
      "type": "Feature",
      "id": "node/2578843281",
      "properties": {
        "public_transport": "stop_position",
        "railway": "stop",
        "train": "yes",
        "id": "node/2578843281"
      },
      "geometry": {
        "type": "Point",
        "coordinates": [
          10.8094718,
          35.7611126
        ]
      }
    },
    {
      "type": "Feature",
      "id": "node/2589797131",
      "properties": {
        "public_transport": "stop_position",
        "railway": "stop",
        "train": "yes",
        "id": "node/2589797131"
      },
      "geometry": {
        "type": "Point",
        "coordinates": [
          10.21376,
          34.4996107
        ]
      }
    },
    {
      "type": "Feature",
      "id": "node/2589797132",
      "properties": {
        "public_transport": "stop_position",
        "railway": "stop",
        "train": "yes",
        "id": "node/2589797132"
      },
      "geometry": {
        "type": "Point",
        "coordinates": [
          10.2137416,
          34.4996588
        ]
      }
    },
    {
      "type": "Feature",
      "id": "node/2589797133",
      "properties": {
        "public_transport": "stop_position",
        "railway": "stop",
        "train": "yes",
        "id": "node/2589797133"
      },
      "geometry": {
        "type": "Point",
        "coordinates": [
          10.2137241,
          34.4997047
        ]
      }
    },
    {
      "type": "Feature",
      "id": "node/2589797134",
      "properties": {
        "public_transport": "stop_position",
        "railway": "stop",
        "train": "yes",
        "id": "node/2589797134"
      },
      "geometry": {
        "type": "Point",
        "coordinates": [
          10.2137052,
          34.4997541
        ]
      }
    },
    {
      "type": "Feature",
      "id": "node/2589797135",
      "properties": {
        "name": "الغريبة",
        "name:ar": "الغريبة",
        "name:fr": "Ghraiba",
        "public_transport": "stop_position",
        "railway": "stop",
        "train": "yes",
        "id": "node/2589797135"
      },
      "geometry": {
        "type": "Point",
        "coordinates": [
          10.2136852,
          34.4998065
        ]
      }
    },
    {
      "type": "Feature",
      "id": "node/3732837772",
      "properties": {
        "gtfs_id": "68",
        "name": "El Fejij",
        "name:fr": "El Fejij",
        "operator": "الشركة الوطنية للسكك الحديدية التونسية",
        "operator:ar": "الشركة الوطنية للسكك الحديدية التونسية",
        "operator:website": "http://www.sncft.com.tn/Ar/",
        "operator:wikidata": "Q2297197",
        "operator:wikipedia": "ar:الشركة الوطنية للسكك الحديدية التونسية",
        "operator:wikipedia:ar": "الشركة الوطنية للسكك الحديدية التونسية",
        "public_transport": "station",
        "railway": "station",
        "train": "yes",
        "id": "node/3732837772"
      },
      "geometry": {
        "type": "Point",
        "coordinates": [
          9.7365443,
          34.0654415
        ]
      }
    },
    {
      "type": "Feature",
      "id": "node/3732837776",
      "properties": {
        "gtfs_id": "123",
        "name": "المرازقة",
        "name:ar": "المرازقة",
        "name:fr": "Mrezka",
        "operator": "الشركة الوطنية للسكك الحديدية التونسية",
        "operator:ar": "الشركة الوطنية للسكك الحديدية التونسية",
        "operator:website": "http://www.sncft.com.tn/Ar/",
        "operator:wikidata": "Q2297197",
        "operator:wikipedia": "ar:الشركة الوطنية للسكك الحديدية التونسية",
        "operator:wikipedia:ar": "الشركة الوطنية للسكك الحديدية التونسية",
        "public_transport": "station",
        "railway": "halt",
        "train": "yes",
        "id": "node/3732837776"
      },
      "geometry": {
        "type": "Point",
        "coordinates": [
          10.6813616,
          36.428173
        ]
      }
    },
    {
      "type": "Feature",
      "id": "node/3732837794",
      "properties": {
        "gtfs_id": "57",
        "name": "زانوش",
        "name:ar": "زانوش",
        "name:fr": "Zannouch",
        "operator": "الشركة الوطنية للسكك الحديدية التونسية",
        "operator:ar": "الشركة الوطنية للسكك الحديدية التونسية",
        "operator:website": "http://www.sncft.com.tn/Ar/",
        "operator:wikidata": "Q2297197",
        "operator:wikipedia": "ar:الشركة الوطنية للسكك الحديدية التونسية",
        "operator:wikipedia:ar": "الشركة الوطنية للسكك الحديدية التونسية",
        "public_transport": "station",
        "railway": "station",
        "stop_id": "504A",
        "train": "yes",
        "id": "node/3732837794"
      },
      "geometry": {
        "type": "Point",
        "coordinates": [
          9.0525129,
          34.4681937
        ]
      }
    },
    {
      "type": "Feature",
      "id": "node/4024305577",
      "properties": {
        "name": "سوسة المخزن",
        "name:ar": "سوسة المخزن",
        "name:fr": "Sousse Dépôt",
        "public_transport": "station",
        "railway": "station",
        "id": "node/4024305577"
      },
      "geometry": {
        "type": "Point",
        "coordinates": [
          10.6538518,
          35.7921065
        ]
      }
    },
    {
      "type": "Feature",
      "id": "node/4547030230",
      "properties": {
        "name": "Fej Etameur",
        "public_transport": "station",
        "railway": "station",
        "id": "node/4547030230"
      },
      "geometry": {
        "type": "Point",
        "coordinates": [
          8.7083022,
          35.878294
        ]
      }
    },
    {
      "type": "Feature",
      "id": "node/4555578199",
      "properties": {
        "addr:city": "قوراية",
        "disused:railway": "station",
        "name": "قوراية",
        "name:ar": "قوراية",
        "name:fr": "Gouraïa",
        "public_transport": "halt",
        "railway": "halt",
        "id": "node/4555578199"
      },
      "geometry": {
        "type": "Point",
        "coordinates": [
          8.664938,
          35.8187954
        ]
      }
    },
    {
      "type": "Feature",
      "id": "node/4799670639",
      "properties": {
        "addr:city": "السويطير",
        "addr:place": "هنشير السويطير",
        "name": "هنشير السويطير",
        "name:ar": "هنشير السويطير",
        "name:fr": "Henchir Souatir",
        "operator": "الشركة الوطنية للسكك الحديدية التونسية",
        "operator:ar": "الشركة الوطنية للسكك الحديدية التونسية",
        "operator:website": "http://www.sncft.com.tn/Ar/",
        "operator:wikidata": "Q2297197",
        "operator:wikipedia": "ar:الشركة الوطنية للسكك الحديدية التونسية",
        "operator:wikipedia:ar": "الشركة الوطنية للسكك الحديدية التونسية",
        "public_transport": "station",
        "railway": "station",
        "id": "node/4799670639"
      },
      "geometry": {
        "type": "Point",
        "coordinates": [
          8.3722176,
          34.5333735
        ]
      }
    },
    {
      "type": "Feature",
      "id": "node/5227817728",
      "properties": {
        "gtfs_id": "110",
        "name": "Oued Tessa",
        "name:fr": "Oued Tessa",
        "operator": "الشركة الوطنية للسكك الحديدية التونسية",
        "operator:ar": "الشركة الوطنية للسكك الحديدية التونسية",
        "operator:website": "http://www.sncft.com.tn/Ar/",
        "operator:wikidata": "Q2297197",
        "operator:wikipedia": "ar:الشركة الوطنية للسكك الحديدية التونسية",
        "operator:wikipedia:ar": "الشركة الوطنية للسكك الحديدية التونسية",
        "public_transport": "halt",
        "railway": "halt",
        "route_ref": "20",
        "train": "yes",
        "id": "node/5227817728"
      },
      "geometry": {
        "type": "Point",
        "coordinates": [
          8.9361738,
          36.0673654
        ]
      }
    },
    {
      "type": "Feature",
      "id": "node/5227817740",
      "properties": {
        "gtfs_id": "12",
        "name": "دخان",
        "name:ar": "دخان",
        "name:fr": "Dokhane",
        "operator": "الشركة الوطنية للسكك الحديدية التونسية",
        "operator:ar": "الشركة الوطنية للسكك الحديدية التونسية",
        "operator:website": "http://www.sncft.com.tn/Ar/",
        "operator:wikidata": "Q2297197",
        "operator:wikipedia": "ar:الشركة الوطنية للسكك الحديدية التونسية",
        "operator:wikipedia:ar": "الشركة الوطنية للسكك الحديدية التونسية",
        "public_transport": "station",
        "railway": "station",
        "route_ref": "18;21;24",
        "stop_id": "214E",
        "train": "yes",
        "id": "node/5227817740"
      },
      "geometry": {
        "type": "Point",
        "coordinates": [
          10.7610606,
          34.9906242
        ]
      }
    },
    {
      "type": "Feature",
      "id": "node/5227817751",
      "properties": {
        "gtfs_id": "122",
        "name": "عمر الخيام",
        "name:ar": "عمر الخيام",
        "name:fr": "Omar Khayem",
        "operator": "الشركة الوطنية للسكك الحديدية التونسية",
        "operator:ar": "الشركة الوطنية للسكك الحديدية التونسية",
        "operator:website": "http://www.sncft.com.tn/Ar/",
        "operator:wikidata": "Q2297197",
        "operator:wikipedia": "ar:الشركة الوطنية للسكك الحديدية التونسية",
        "operator:wikipedia:ar": "الشركة الوطنية للسكك الحديدية التونسية",
        "public_transport": "station",
        "railway": "halt",
        "route_ref": "17;45;46",
        "train": "yes",
        "id": "node/5227817751"
      },
      "geometry": {
        "type": "Point",
        "coordinates": [
          10.6674571,
          36.4232354
        ]
      }
    },
    {
      "type": "Feature",
      "id": "node/5227817758",
      "properties": {
        "gtfs_id": "5",
        "name": "الشعال",
        "name:ar": "الشعال",
        "name:fr": "Chaal",
        "operator": "SNCFT",
        "public_transport": "station",
        "railway": "station",
        "route_ref": "21;24",
        "stop_id": "464C",
        "train": "yes",
        "id": "node/5227817758"
      },
      "geometry": {
        "type": "Point",
        "coordinates": [
          10.3422475,
          34.5163354
        ]
      }
    },
    {
      "type": "Feature",
      "id": "node/5227817762",
      "properties": {
        "addr:city": "نقطة",
        "gtfs_id": "7",
        "name": "قرقور",
        "name:ar": "قرقور",
        "name:fr": "Gargour",
        "operator": "الشركة الوطنية للسكك الحديدية التونسية",
        "operator:ar": "الشركة الوطنية للسكك الحديدية التونسية",
        "operator:website": "http://www.sncft.com.tn/Ar/",
        "operator:wikidata": "Q2297197",
        "operator:wikipedia": "ar:الشركة الوطنية للسكك الحديدية التونسية",
        "operator:wikipedia:ar": "الشركة الوطنية للسكك الحديدية التونسية",
        "public_transport": "station",
        "railway": "station",
        "route_ref": "21;24",
        "stop_id": "462A",
        "train": "yes",
        "id": "node/5227817762"
      },
      "geometry": {
        "type": "Point",
        "coordinates": [
          10.5628727,
          34.5631408
        ]
      }
    },
    {
      "type": "Feature",
      "id": "node/5227817764",
      "properties": {
        "gtfs_id": "8",
        "name": "سيدي عبيد",
        "name:ar": "سيدي عبيد",
        "name:fr": "Sidi Abid",
        "operator": "الشركة الوطنية للسكك الحديدية التونسية",
        "operator:ar": "الشركة الوطنية للسكك الحديدية التونسية",
        "operator:website": "http://www.sncft.com.tn/Ar/",
        "operator:wikidata": "Q2297197",
        "operator:wikipedia": "ar:الشركة الوطنية للسكك الحديدية التونسية",
        "operator:wikipedia:ar": "الشركة الوطنية للسكك الحديدية التونسية",
        "public_transport": "station",
        "railway": "station",
        "route_ref": "21;24",
        "stop_id": "461Z",
        "train": "yes",
        "id": "node/5227817764"
      },
      "geometry": {
        "type": "Point",
        "coordinates": [
          10.7022657,
          34.695494
        ]
      }
    },
    {
      "type": "Feature",
      "id": "node/5227817773",
      "properties": {
        "gtfs_id": "26",
        "name": "تركي",
        "name:ar": "تركي",
        "name:fr": "Turki",
        "operator": "الشركة الوطنية للسكك الحديدية التونسية",
        "operator:ar": "الشركة الوطنية للسكك الحديدية التونسية",
        "operator:website": "http://www.sncft.com.tn/Ar/",
        "operator:wikidata": "Q2297197",
        "operator:wikipedia": "ar:الشركة الوطنية للسكك الحديدية التونسية",
        "operator:wikipedia:ar": "الشركة الوطنية للسكك الحديدية التونسية",
        "public_transport": "station",
        "railway": "station",
        "route_ref": "17;18;46",
        "stop_id": "164W",
        "train": "yes",
        "id": "node/5227817773"
      },
      "geometry": {
        "type": "Point",
        "coordinates": [
          10.5134846,
          36.5755401
        ]
      }
    },
    {
      "type": "Feature",
      "id": "node/5227817776",
      "properties": {
        "gtfs_id": "29",
        "name": "بئر الباي",
        "name:ar": "بئر الباي",
        "name:fr": "Bir El Bey",
        "operator": "الشركة الوطنية للسكك الحديدية التونسية",
        "operator:ar": "الشركة الوطنية للسكك الحديدية التونسية",
        "operator:website": "http://www.sncft.com.tn/Ar/",
        "operator:wikidata": "Q2297197",
        "operator:wikipedia": "ar:الشركة الوطنية للسكك الحديدية التونسية",
        "operator:wikipedia:ar": "الشركة الوطنية للسكك الحديدية التونسية",
        "public_transport": "station",
        "railway": "station",
        "route_ref": "19",
        "stop_id": "159N",
        "train": "yes",
        "id": "node/5227817776"
      },
      "geometry": {
        "type": "Point",
        "coordinates": [
          10.3784936,
          36.7103426
        ]
      }
    },
    {
      "type": "Feature",
      "id": "node/5227817780",
      "properties": {
        "gtfs_id": "133",
        "name": "الرياض",
        "name:ar": "الرياض",
        "name:fr": "Erriadh",
        "operator": "الشركة الوطنية للسكك الحديدية التونسية",
        "operator:ar": "الشركة الوطنية للسكك الحديدية التونسية",
        "operator:website": "http://www.sncft.com.tn/Ar/",
        "operator:wikidata": "Q2297197",
        "operator:wikipedia": "ar:الشركة الوطنية للسكك الحديدية التونسية",
        "operator:wikipedia:ar": "الشركة الوطنية للسكك الحديدية التونسية",
        "public_transport": "station",
        "railway": "station",
        "route_ref": "19",
        "stop_id": "160P",
        "train": "yes",
        "id": "node/5227817780"
      },
      "geometry": {
        "type": "Point",
        "coordinates": [
          10.4148001,
          36.6995361
        ]
      }
    },
    {
      "type": "Feature",
      "id": "node/5227817787",
      "properties": {
        "gtfs_id": "30",
        "name": "حمام الشط",
        "name:ar": "حمام الشط",
        "name:fr": "Hammam Chatt",
        "operator": "الشركة الوطنية للسكك الحديدية التونسية",
        "operator:ar": "الشركة الوطنية للسكك الحديدية التونسية",
        "operator:website": "http://www.sncft.com.tn/Ar/",
        "operator:wikidata": "Q2297197",
        "operator:wikipedia": "ar:الشركة الوطنية للسكك الحديدية التونسية",
        "operator:wikipedia:ar": "الشركة الوطنية للسكك الحديدية التونسية",
        "public_transport": "station",
        "railway": "station",
        "route_ref": "19",
        "stop_id": "156K",
        "train": "yes",
        "id": "node/5227817787"
      },
      "geometry": {
        "type": "Point",
        "coordinates": [
          10.3691813,
          36.7136861
        ]
      }
    },
    {
      "type": "Feature",
      "id": "node/5227817788",
      "properties": {
        "gtfs_id": "31",
        "name": "الطاهر صفر",
        "name:ar": "الطاهر صفر",
        "name:fr": "Tahar Sfar",
        "operator": "الشركة الوطنية للسكك الحديدية التونسية",
        "operator:ar": "الشركة الوطنية للسكك الحديدية التونسية",
        "operator:website": "http://www.sncft.com.tn/Ar/",
        "operator:wikidata": "Q2297197",
        "operator:wikipedia": "ar:الشركة الوطنية للسكك الحديدية التونسية",
        "operator:wikipedia:ar": "الشركة الوطنية للسكك الحديدية التونسية",
        "public_transport": "station",
        "railway": "station",
        "route_ref": "19",
        "stop_id": "158M",
        "train": "yes",
        "id": "node/5227817788"
      },
      "geometry": {
        "type": "Point",
        "coordinates": [
          10.3595604,
          36.7176007
        ]
      }
    },
    {
      "type": "Feature",
      "id": "node/5227817789",
      "properties": {
        "gtfs_id": "32",
        "name": "محطة الملعب",
        "name:ar": "محطة الملعب",
        "name:fr": "Arrêt du Stade",
        "operator": "الشركة الوطنية للسكك الحديدية التونسية",
        "operator:ar": "الشركة الوطنية للسكك الحديدية التونسية",
        "operator:website": "http://www.sncft.com.tn/Ar/",
        "operator:wikidata": "Q2297197",
        "operator:wikipedia": "ar:الشركة الوطنية للسكك الحديدية التونسية",
        "operator:wikipedia:ar": "الشركة الوطنية للسكك الحديدية التونسية",
        "public_transport": "station",
        "railway": "station",
        "route_ref": "19",
        "stop_id": "155J",
        "train": "yes",
        "id": "node/5227817789"
      },
      "geometry": {
        "type": "Point",
        "coordinates": [
          10.3483416,
          36.7236051
        ]
      }
    },
    {
      "type": "Feature",
      "id": "node/5227817792",
      "properties": {
        "gtfs_id": "35",
        "name": "الزهراء",
        "name:ar": "الزهراء",
        "name:fr": "Ezzahra",
        "operator": "الشركة الوطنية للسكك الحديدية التونسية",
        "operator:ar": "الشركة الوطنية للسكك الحديدية التونسية",
        "operator:website": "http://www.sncft.com.tn/Ar/",
        "operator:wikidata": "Q2297197",
        "operator:wikipedia": "ar:الشركة الوطنية للسكك الحديدية التونسية",
        "operator:wikipedia:ar": "الشركة الوطنية للسكك الحديدية التونسية",
        "public_transport": "station",
        "railway": "station",
        "route_ref": "19",
        "stop_id": "151E",
        "train": "yes",
        "id": "node/5227817792"
      },
      "geometry": {
        "type": "Point",
        "coordinates": [
          10.3069601,
          36.746778
        ]
      }
    },
    {
      "type": "Feature",
      "id": "node/5227817793",
      "properties": {
        "gtfs_id": "36",
        "name": "رادس مليان",
        "name:ar": "رادس مليان",
        "name:fr": "Radès Méliane",
        "operator": "الشركة الوطنية للسكك الحديدية التونسية",
        "operator:ar": "الشركة الوطنية للسكك الحديدية التونسية",
        "operator:website": "http://www.sncft.com.tn/Ar/",
        "operator:wikidata": "Q2297197",
        "operator:wikipedia": "ar:الشركة الوطنية للسكك الحديدية التونسية",
        "operator:wikipedia:ar": "الشركة الوطنية للسكك الحديدية التونسية",
        "public_transport": "station",
        "railway": "station",
        "route_ref": "19",
        "stop_id": "146Z",
        "train": "yes",
        "id": "node/5227817793"
      },
      "geometry": {
        "type": "Point",
        "coordinates": [
          10.2841728,
          36.7631283
        ]
      }
    },
    {
      "type": "Feature",
      "id": "node/5227817795",
      "properties": {
        "gtfs_id": "38",
        "name": "معهد رادس",
        "name:ar": "معهد رادس",
        "name:fr": "Lycée Technique Radès",
        "operator": "الشركة الوطنية للسكك الحديدية التونسية",
        "operator:ar": "الشركة الوطنية للسكك الحديدية التونسية",
        "operator:website": "http://www.sncft.com.tn/Ar/",
        "operator:wikidata": "Q2297197",
        "operator:wikipedia": "ar:الشركة الوطنية للسكك الحديدية التونسية",
        "operator:wikipedia:ar": "الشركة الوطنية للسكك الحديدية التونسية",
        "public_transport": "station",
        "railway": "station",
        "route_ref": "19",
        "stop_id": "144X",
        "train": "yes",
        "id": "node/5227817795"
      },
      "geometry": {
        "type": "Point",
        "coordinates": [
          10.2608771,
          36.7667948
        ]
      }
    },
    {
      "type": "Feature",
      "id": "node/5227817802",
      "properties": {
        "addr:city": "سيدي سعد",
        "gtfs_id": "145",
        "name": "سيدي سعد",
        "name:ar": "سيدي سعد",
        "name:de": "Sayyidi Sa'ad",
        "name:en": "Sayyidi Sa'ad",
        "name:fr": "Sidi Saad",
        "operator": "الشركة الوطنية للسكك الحديدية التونسية",
        "operator:ar": "الشركة الوطنية للسكك الحديدية التونسية",
        "operator:website": "http://www.sncft.com.tn/Ar/",
        "operator:wikidata": "Q2297197",
        "operator:wikipedia": "ar:الشركة الوطنية للسكك الحديدية التونسية",
        "operator:wikipedia:ar": "الشركة الوطنية للسكك الحديدية التونسية",
        "public_transport": "station",
        "railway": "station",
        "train": "yes",
        "id": "node/5227817802"
      },
      "geometry": {
        "type": "Point",
        "coordinates": [
          9.7607234,
          35.391281
        ]
      }
    },
    {
      "type": "Feature",
      "id": "node/5227817803",
      "properties": {
        "gtfs_id": "146",
        "name": "Gouraia",
        "name:fr": "Gouraia",
        "operator": "الشركة الوطنية للسكك الحديدية التونسية",
        "operator:ar": "الشركة الوطنية للسكك الحديدية التونسية",
        "operator:website": "http://www.sncft.com.tn/Ar/",
        "operator:wikidata": "Q2297197",
        "operator:wikipedia": "ar:الشركة الوطنية للسكك الحديدية التونسية",
        "operator:wikipedia:ar": "الشركة الوطنية للسكك الحديدية التونسية",
        "public_transport": "halt",
        "railway": "halt",
        "route_ref": "20",
        "train": "yes",
        "id": "node/5227817803"
      },
      "geometry": {
        "type": "Point",
        "coordinates": [
          8.6847119,
          35.8633447
        ]
      }
    },
    {
      "type": "Feature",
      "id": "node/5227817807",
      "properties": {
        "gtfs_id": "40",
        "name": "مقرين",
        "name:ar": "مقرين",
        "name:fr": "Megrine",
        "operator": "الشركة الوطنية للسكك الحديدية التونسية",
        "operator:ar": "الشركة الوطنية للسكك الحديدية التونسية",
        "operator:website": "http://www.sncft.com.tn/Ar/",
        "operator:wikidata": "Q2297197",
        "operator:wikipedia": "ar:الشركة الوطنية للسكك الحديدية التونسية",
        "operator:wikipedia:ar": "الشركة الوطنية للسكك الحديدية التونسية",
        "public_transport": "station",
        "railway": "station",
        "route_ref": "19",
        "stop_id": "142T",
        "train": "yes",
        "id": "node/5227817807"
      },
      "geometry": {
        "type": "Point",
        "coordinates": [
          10.2338694,
          36.7683404
        ]
      }
    },
    {
      "type": "Feature",
      "id": "node/5227817808",
      "properties": {
        "gtfs_id": "41",
        "name": "مقرين الرياض",
        "name:ar": "مقرين الرياض",
        "name:fr": "Megrine Riadh",
        "operator": "الشركة الوطنية للسكك الحديدية التونسية",
        "operator:ar": "الشركة الوطنية للسكك الحديدية التونسية",
        "operator:website": "http://www.sncft.com.tn/Ar/",
        "operator:wikidata": "Q2297197",
        "operator:wikipedia": "ar:الشركة الوطنية للسكك الحديدية التونسية",
        "operator:wikipedia:ar": "الشركة الوطنية للسكك الحديدية التونسية",
        "public_transport": "station",
        "railway": "station",
        "route_ref": "17;19",
        "train": "yes",
        "id": "node/5227817808"
      },
      "geometry": {
        "type": "Point",
        "coordinates": [
          10.2229667,
          36.7703186
        ]
      }
    },
    {
      "type": "Feature",
      "id": "node/5227817809",
      "properties": {
        "gtfs_id": "42",
        "name": "مخزن فرحات حشاد",
        "name:ar": "مخزن فرحات حشاد",
        "name:fr": "Dépôt Farhat Hached",
        "operator": "الشركة الوطنية للسكك الحديدية التونسية",
        "operator:ar": "الشركة الوطنية للسكك الحديدية التونسية",
        "operator:website": "http://www.sncft.com.tn/Ar/",
        "operator:wikidata": "Q2297197",
        "operator:wikipedia": "ar:الشركة الوطنية للسكك الحديدية التونسية",
        "operator:wikipedia:ar": "الشركة الوطنية للسكك الحديدية التونسية",
        "public_transport": "station",
        "railway": "station",
        "route_ref": "19",
        "stop_id": "125Z",
        "train": "yes",
        "id": "node/5227817809"
      },
      "geometry": {
        "type": "Point",
        "coordinates": [
          10.192175,
          36.7839366
        ]
      }
    },
    {
      "type": "Feature",
      "id": "node/5227817810",
      "properties": {
        "gtfs_id": "43",
        "name": "سوسة بضائع",
        "name:ar": "سوسة بضائع",
        "name:fr": "Sousse Marchandise",
        "operator": "الشركة الوطنية للسكك الحديدية التونسية",
        "operator:ar": "الشركة الوطنية للسكك الحديدية التونسية",
        "operator:website": "http://www.sncft.com.tn/Ar/",
        "operator:wikidata": "Q2297197",
        "operator:wikipedia": "ar:الشركة الوطنية للسكك الحديدية التونسية",
        "operator:wikipedia:ar": "الشركة الوطنية للسكك الحديدية التونسية",
        "public_transport": "station",
        "railway": "station",
        "route_ref": "16;18;21;22;24",
        "train": "yes",
        "id": "node/5227817810"
      },
      "geometry": {
        "type": "Point",
        "coordinates": [
          10.5772487,
          35.7778856
        ]
      }
    },
    {
      "type": "Feature",
      "id": "node/5227817812",
      "properties": {
        "gtfs_id": "45",
        "name": "معهد الزهراء",
        "name:ar": "معهد الزهراء",
        "name:fr": "Lycée Ezzahra",
        "operator": "الشركة الوطنية للسكك الحديدية التونسية",
        "operator:ar": "الشركة الوطنية للسكك الحديدية التونسية",
        "operator:website": "http://www.sncft.com.tn/Ar/",
        "operator:wikidata": "Q2297197",
        "operator:wikipedia": "ar:الشركة الوطنية للسكك الحديدية التونسية",
        "operator:wikipedia:ar": "الشركة الوطنية للسكك الحديدية التونسية",
        "public_transport": "station",
        "railway": "station",
        "route_ref": "19",
        "stop_id": "152F",
        "train": "yes",
        "id": "node/5227817812"
      },
      "geometry": {
        "type": "Point",
        "coordinates": [
          10.3179235,
          36.7391485
        ]
      }
    },
    {
      "type": "Feature",
      "id": "node/5227817813",
      "properties": {
        "gtfs_id": "46",
        "name": "المسعدين",
        "name:ar": "المسعدين",
        "name:fr": "Messadine",
        "operator": "الشركة الوطنية للسكك الحديدية التونسية",
        "operator:ar": "الشركة الوطنية للسكك الحديدية التونسية",
        "operator:website": "http://www.sncft.com.tn/Ar/",
        "operator:wikidata": "Q2297197",
        "operator:wikipedia": "ar:الشركة الوطنية للسكك الحديدية التونسية",
        "operator:wikipedia:ar": "الشركة الوطنية للسكك الحديدية التونسية",
        "public_transport": "halt",
        "railway": "halt",
        "train": "yes",
        "id": "node/5227817813"
      },
      "geometry": {
        "type": "Point",
        "coordinates": [
          10.5909773,
          35.7548572
        ]
      }
    },
    {
      "type": "Feature",
      "id": "node/5227817814",
      "properties": {
        "gtfs_id": "47",
        "name": "Ksar Mezouar",
        "operator": "الشركة الوطنية للسكك الحديدية التونسية",
        "operator:ar": "الشركة الوطنية للسكك الحديدية التونسية",
        "operator:website": "http://www.sncft.com.tn/Ar/",
        "operator:wikidata": "Q2297197",
        "operator:wikipedia": "ar:الشركة الوطنية للسكك الحديدية التونسية",
        "operator:wikipedia:ar": "الشركة الوطنية للسكك الحديدية التونسية",
        "public_transport": "station",
        "railway": "halt",
        "train": "yes",
        "id": "node/5227817814"
      },
      "geometry": {
        "type": "Point",
        "coordinates": [
          9.4581186,
          36.9153164
        ]
      }
    },
    {
      "type": "Feature",
      "id": "node/5227817815",
      "properties": {
        "gtfs_id": "48",
        "name": "Sidi Nsir",
        "operator": "الشركة الوطنية للسكك الحديدية التونسية",
        "operator:ar": "الشركة الوطنية للسكك الحديدية التونسية",
        "operator:website": "http://www.sncft.com.tn/Ar/",
        "operator:wikidata": "Q2297197",
        "operator:wikipedia": "ar:الشركة الوطنية للسكك الحديدية التونسية",
        "operator:wikipedia:ar": "الشركة الوطنية للسكك الحديدية التونسية",
        "public_transport": "station",
        "railway": "halt",
        "train": "yes",
        "id": "node/5227817815"
      },
      "geometry": {
        "type": "Point",
        "coordinates": [
          9.5244314,
          36.9616144
        ]
      }
    },
    {
      "type": "Feature",
      "id": "node/5227817816",
      "properties": {
        "gtfs_id": "49",
        "name": "Mettarcheni",
        "operator": "الشركة الوطنية للسكك الحديدية التونسية",
        "operator:ar": "الشركة الوطنية للسكك الحديدية التونسية",
        "operator:website": "http://www.sncft.com.tn/Ar/",
        "operator:wikidata": "Q2297197",
        "operator:wikipedia": "ar:الشركة الوطنية للسكك الحديدية التونسية",
        "operator:wikipedia:ar": "الشركة الوطنية للسكك الحديدية التونسية",
        "public_transport": "station",
        "railway": "halt",
        "train": "yes",
        "id": "node/5227817816"
      },
      "geometry": {
        "type": "Point",
        "coordinates": [
          9.6008757,
          37.0012275
        ]
      }
    },
    {
      "type": "Feature",
      "id": "node/5227817817",
      "properties": {
        "gtfs_id": "150",
        "name": "الزهراء المهدية",
        "name:ar": "الزهراء المهدية",
        "name:fr": "Ezzahra Mahdia",
        "operator": "الشركة الوطنية للسكك الحديدية التونسية",
        "operator:ar": "الشركة الوطنية للسكك الحديدية التونسية",
        "operator:website": "http://www.sncft.com.tn/Ar/",
        "operator:wikidata": "Q2297197",
        "operator:wikipedia": "ar:الشركة الوطنية للسكك الحديدية التونسية",
        "operator:wikipedia:ar": "الشركة الوطنية للسكك الحديدية التونسية",
        "public_transport": "station",
        "railway": "station",
        "route_ref": "1",
        "stop_id": "268T",
        "train": "yes",
        "id": "node/5227817817"
      },
      "geometry": {
        "type": "Point",
        "coordinates": [
          11.0482082,
          35.499915
        ]
      }
    },
    {
      "type": "Feature",
      "id": "node/5227817818",
      "properties": {
        "gtfs_id": "151",
        "name": "برج عريف",
        "name:ar": "برج عريف",
        "name:fr": "Borj Arif",
        "operator": "الشركة الوطنية للسكك الحديدية التونسية",
        "operator:ar": "الشركة الوطنية للسكك الحديدية التونسية",
        "operator:website": "http://www.sncft.com.tn/Ar/",
        "operator:wikidata": "Q2297197",
        "operator:wikipedia": "ar:الشركة الوطنية للسكك الحديدية التونسية",
        "operator:wikipedia:ar": "الشركة الوطنية للسكك الحديدية التونسية",
        "public_transport": "halt",
        "railway": "halt",
        "route_ref": "1",
        "stop_id": "266R",
        "train": "yes",
        "id": "node/5227817818"
      },
      "geometry": {
        "type": "Point",
        "coordinates": [
          11.0303221,
          35.5061583
        ]
      }
    },
    {
      "type": "Feature",
      "id": "node/5227817819",
      "properties": {
        "gtfs_id": "152",
        "name": "سيدي مسعود",
        "name:ar": "سيدي مسعود",
        "name:fr": "Sidi Masaoud",
        "operator": "الشركة الوطنية للسكك الحديدية التونسية",
        "operator:ar": "الشركة الوطنية للسكك الحديدية التونسية",
        "operator:website": "http://www.sncft.com.tn/Ar/",
        "operator:wikidata": "Q2297197",
        "operator:wikipedia": "ar:الشركة الوطنية للسكك الحديدية التونسية",
        "operator:wikipedia:ar": "الشركة الوطنية للسكك الحديدية التونسية",
        "public_transport": "halt",
        "railway": "halt",
        "route_ref": "1",
        "stop_id": "271Y",
        "train": "yes",
        "id": "node/5227817819"
      },
      "geometry": {
        "type": "Point",
        "coordinates": [
          11.0273412,
          35.5211332
        ]
      }
    },
    {
      "type": "Feature",
      "id": "node/5227817820",
      "properties": {
        "gtfs_id": "153",
        "name": "المهدية المنطقة السياحية",
        "name:ar": "المهدية المنطقة السياحية",
        "name:fr": "Mahdia Zone Touristique",
        "operator": "الشركة الوطنية للسكك الحديدية التونسية",
        "operator:ar": "الشركة الوطنية للسكك الحديدية التونسية",
        "operator:website": "http://www.sncft.com.tn/Ar/",
        "operator:wikidata": "Q2297197",
        "operator:wikipedia": "ar:الشركة الوطنية للسكك الحديدية التونسية",
        "operator:wikipedia:ar": "الشركة الوطنية للسكك الحديدية التونسية",
        "public_transport": "station",
        "railway": "station",
        "route_ref": "1;36;51",
        "train": "yes",
        "id": "node/5227817820"
      },
      "geometry": {
        "type": "Point",
        "coordinates": [
          11.0274296,
          35.536856
        ]
      }
    },
    {
      "type": "Feature",
      "id": "node/5227817921",
      "properties": {
        "gtfs_id": "154",
        "name": "بغدادي",
        "name:ar": "بغدادي",
        "name:fr": "Baghdadi",
        "operator": "الشركة الوطنية للسكك الحديدية التونسية",
        "operator:ar": "الشركة الوطنية للسكك الحديدية التونسية",
        "operator:website": "http://www.sncft.com.tn/Ar/",
        "operator:wikidata": "Q2297197",
        "operator:wikipedia": "ar:الشركة الوطنية للسكك الحديدية التونسية",
        "operator:wikipedia:ar": "الشركة الوطنية للسكك الحديدية التونسية",
        "public_transport": "halt",
        "railway": "halt",
        "route_ref": "1",
        "stop_id": "264N",
        "train": "yes",
        "id": "node/5227817921"
      },
      "geometry": {
        "type": "Point",
        "coordinates": [
          11.0183903,
          35.569537
        ]
      }
    },
    {
      "type": "Feature",
      "id": "node/5227817922",
      "properties": {
        "gtfs_id": "155",
        "name": "الشرف",
        "name:ar": "الشرف",
        "name:fr": "Echraf",
        "operator": "الشركة الوطنية للسكك الحديدية التونسية",
        "operator:ar": "الشركة الوطنية للسكك الحديدية التونسية",
        "operator:website": "http://www.sncft.com.tn/Ar/",
        "operator:wikidata": "Q2297197",
        "operator:wikipedia": "ar:الشركة الوطنية للسكك الحديدية التونسية",
        "operator:wikipedia:ar": "الشركة الوطنية للسكك الحديدية التونسية",
        "public_transport": "halt",
        "railway": "halt",
        "train": "yes",
        "id": "node/5227817922"
      },
      "geometry": {
        "type": "Point",
        "coordinates": [
          11.0090942,
          35.5970043
        ]
      }
    },
    {
      "type": "Feature",
      "id": "node/5227817923",
      "properties": {
        "gtfs_id": "156",
        "name": "البقالطة",
        "name:ar": "البقالطة",
        "name:fr": "Bekalta",
        "operator": "الشركة الوطنية للسكك الحديدية التونسية",
        "operator:ar": "الشركة الوطنية للسكك الحديدية التونسية",
        "operator:website": "http://www.sncft.com.tn/Ar/",
        "operator:wikidata": "Q2297197",
        "operator:wikipedia": "ar:الشركة الوطنية للسكك الحديدية التونسية",
        "operator:wikipedia:ar": "الشركة الوطنية للسكك الحديدية التونسية",
        "public_transport": "station",
        "railway": "station",
        "route_ref": "1;16;51",
        "stop_id": "262L",
        "train": "yes",
        "id": "node/5227817923"
      },
      "geometry": {
        "type": "Point",
        "coordinates": [
          10.9895536,
          35.6150597
        ]
      }
    },
    {
      "type": "Feature",
      "id": "node/5227817930",
      "properties": {
        "gtfs_id": "53",
        "name": "الكرمة",
        "name:ar": "الكرمة",
        "name:fr": "El Karma",
        "operator": "الشركة الوطنية للسكك الحديدية التونسية",
        "operator:ar": "الشركة الوطنية للسكك الحديدية التونسية",
        "operator:website": "http://www.sncft.com.tn/Ar/",
        "operator:wikidata": "Q2297197",
        "operator:wikipedia": "ar:الشركة الوطنية للسكك الحديدية التونسية",
        "operator:wikipedia:ar": "الشركة الوطنية للسكك الحديدية التونسية",
        "public_transport": "station",
        "railway": "station",
        "train": "yes",
        "id": "node/5227817930"
      },
      "geometry": {
        "type": "Point",
        "coordinates": [
          9.7491375,
          34.6308963
        ]
      }
    },
    {
      "type": "Feature",
      "id": "node/5227817932",
      "properties": {
        "gtfs_id": "55",
        "name": "منزل بوزيان",
        "name:ar": "منزل بوزيان",
        "name:fr": "Menzel Bouzaiane",
        "operator": "الشركة الوطنية للسكك الحديدية التونسية",
        "operator:ar": "الشركة الوطنية للسكك الحديدية التونسية",
        "operator:website": "http://www.sncft.com.tn/Ar/",
        "operator:wikidata": "Q2297197",
        "operator:wikipedia": "ar:الشركة الوطنية للسكك الحديدية التونسية",
        "operator:wikipedia:ar": "الشركة الوطنية للسكك الحديدية التونسية",
        "public_transport": "station",
        "railway": "station",
        "route_ref": "24",
        "train": "yes",
        "id": "node/5227817932"
      },
      "geometry": {
        "type": "Point",
        "coordinates": [
          9.4580174,
          34.5757701
        ]
      }
    },
    {
      "type": "Feature",
      "id": "node/5227817935",
      "properties": {
        "gtfs_id": "58",
        "name": "وادي القصب",
        "name:ar": "وادي القصب",
        "name:fr": "Oued El Ksab (23/24)",
        "operator": "الشركة الوطنية للسكك الحديدية التونسية",
        "operator:ar": "الشركة الوطنية للسكك الحديدية التونسية",
        "operator:website": "http://www.sncft.com.tn/Ar/",
        "operator:wikidata": "Q2297197",
        "operator:wikipedia": "ar:الشركة الوطنية للسكك الحديدية التونسية",
        "operator:wikipedia:ar": "الشركة الوطنية للسكك الحديدية التونسية",
        "public_transport": "station",
        "railway": "station",
        "route_ref": "24",
        "train": "yes",
        "id": "node/5227817935"
      },
      "geometry": {
        "type": "Point",
        "coordinates": [
          8.9567806,
          34.4505467
        ]
      }
    },
    {
      "type": "Feature",
      "id": "node/5227817942",
      "properties": {
        "gtfs_id": "165",
        "name": "بوحجر",
        "name:ar": "بوحجر",
        "name:fr": "Bouhjar",
        "operator": "الشركة الوطنية للسكك الحديدية التونسية",
        "operator:ar": "الشركة الوطنية للسكك الحديدية التونسية",
        "operator:website": "http://www.sncft.com.tn/Ar/",
        "operator:wikidata": "Q2297197",
        "operator:wikipedia": "ar:الشركة الوطنية للسكك الحديدية التونسية",
        "operator:wikipedia:ar": "الشركة الوطنية للسكك الحديدية التونسية",
        "public_transport": "station",
        "railway": "station",
        "route_ref": "1;36;51",
        "stop_id": "244P",
        "train": "yes",
        "id": "node/5227817942"
      },
      "geometry": {
        "type": "Point",
        "coordinates": [
          10.8678348,
          35.672244
        ]
      }
    },
    {
      "type": "Feature",
      "id": "node/5227817944",
      "properties": {
        "gtfs_id": "167",
        "name": "خنيس - بنبلة",
        "name:ar": "خنيس - بنبلة",
        "name:fr": "Khenis/Bembla",
        "operator": "الشركة الوطنية للسكك الحديدية التونسية",
        "operator:ar": "الشركة الوطنية للسكك الحديدية التونسية",
        "operator:website": "http://www.sncft.com.tn/Ar/",
        "operator:wikidata": "Q2297197",
        "operator:wikipedia": "ar:الشركة الوطنية للسكك الحديدية التونسية",
        "operator:wikipedia:ar": "الشركة الوطنية للسكك الحديدية التونسية",
        "public_transport": "station",
        "railway": "station",
        "route_ref": "1;36;51",
        "stop_id": "242M",
        "train": "yes",
        "id": "node/5227817944"
      },
      "geometry": {
        "type": "Point",
        "coordinates": [
          10.8125242,
          35.708942
        ]
      }
    },
    {
      "type": "Feature",
      "id": "node/5227817945",
      "properties": {
        "gtfs_id": "168",
        "name": "الفرينة",
        "name:ar": "الفرينة",
        "name:fr": "Frina",
        "operator": "الشركة الوطنية للسكك الحديدية التونسية",
        "operator:ar": "الشركة الوطنية للسكك الحديدية التونسية",
        "operator:website": "http://www.sncft.com.tn/Ar/",
        "operator:wikidata": "Q2297197",
        "operator:wikipedia": "ar:الشركة الوطنية للسكك الحديدية التونسية",
        "operator:wikipedia:ar": "الشركة الوطنية للسكك الحديدية التونسية",
        "public_transport": "station",
        "railway": "station",
        "train": "yes",
        "id": "node/5227817945"
      },
      "geometry": {
        "type": "Point",
        "coordinates": [
          10.8125686,
          35.7306274
        ]
      }
    },
    {
      "type": "Feature",
      "id": "node/5227817954",
      "properties": {
        "gtfs_id": "67",
        "name": "Segui",
        "operator": "الشركة الوطنية للسكك الحديدية التونسية",
        "operator:ar": "الشركة الوطنية للسكك الحديدية التونسية",
        "operator:website": "http://www.sncft.com.tn/Ar/",
        "operator:wikidata": "Q2297197",
        "operator:wikipedia": "ar:الشركة الوطنية للسكك الحديدية التونسية",
        "operator:wikipedia:ar": "الشركة الوطنية للسكك الحديدية التونسية",
        "public_transport": "station",
        "railway": "station",
        "train": "yes",
        "id": "node/5227817954"
      },
      "geometry": {
        "type": "Point",
        "coordinates": [
          9.3765164,
          34.1755086
        ]
      }
    },
    {
      "type": "Feature",
      "id": "node/5227817957",
      "properties": {
        "gtfs_id": "170",
        "name": "المنستير الكلية 2",
        "name:ar": "المنستير الكلية 2",
        "name:fr": "Monastir La Faculté 2",
        "operator": "الشركة الوطنية للسكك الحديدية التونسية",
        "operator:ar": "الشركة الوطنية للسكك الحديدية التونسية",
        "operator:website": "http://www.sncft.com.tn/Ar/",
        "operator:wikidata": "Q2297197",
        "operator:wikipedia": "ar:الشركة الوطنية للسكك الحديدية التونسية",
        "operator:wikipedia:ar": "الشركة الوطنية للسكك الحديدية التونسية",
        "public_transport": "station",
        "railway": "station",
        "train": "yes",
        "id": "node/5227817957"
      },
      "geometry": {
        "type": "Point",
        "coordinates": [
          10.8091677,
          35.7608002
        ]
      }
    },
    {
      "type": "Feature",
      "id": "node/5227817973",
      "properties": {
        "gtfs_id": "76",
        "name": "Megdoudech",
        "name:fr": "Megdoudech",
        "operator": "الشركة الوطنية للسكك الحديدية التونسية",
        "operator:ar": "الشركة الوطنية للسكك الحديدية التونسية",
        "operator:website": "http://www.sncft.com.tn/Ar/",
        "operator:wikidata": "Q2297197",
        "operator:wikipedia": "ar:الشركة الوطنية للسكك الحديدية التونسية",
        "operator:wikipedia:ar": "الشركة الوطنية للسكك الحديدية التونسية",
        "public_transport": "station",
        "railway": "station",
        "train": "yes",
        "id": "node/5227817973"
      },
      "geometry": {
        "type": "Point",
        "coordinates": [
          8.7248079,
          35.0824063
        ]
      }
    },
    {
      "type": "Feature",
      "id": "node/5227817976",
      "properties": {
        "gtfs_id": "79",
        "name": "Hached",
        "operator": "الشركة الوطنية للسكك الحديدية التونسية",
        "operator:ar": "الشركة الوطنية للسكك الحديدية التونسية",
        "operator:website": "http://www.sncft.com.tn/Ar/",
        "operator:wikidata": "Q2297197",
        "operator:wikipedia": "ar:الشركة الوطنية للسكك الحديدية التونسية",
        "operator:wikipedia:ar": "الشركة الوطنية للسكك الحديدية التونسية",
        "public_transport": "station",
        "railway": "station",
        "train": "yes",
        "id": "node/5227817976"
      },
      "geometry": {
        "type": "Point",
        "coordinates": [
          9.6021019,
          37.064646
        ]
      }
    },
    {
      "type": "Feature",
      "id": "node/5227817978",
      "properties": {
        "gtfs_id": "181",
        "name": "المنستير الكلية",
        "name:ar": "المنستير الكلية",
        "name:fr": "Monastir La Faculté",
        "operator": "الشركة الوطنية للسكك الحديدية التونسية",
        "operator:ar": "الشركة الوطنية للسكك الحديدية التونسية",
        "operator:website": "http://www.sncft.com.tn/Ar/",
        "operator:wikidata": "Q2297197",
        "operator:wikipedia": "ar:الشركة الوطنية للسكك الحديدية التونسية",
        "operator:wikipedia:ar": "الشركة الوطنية للسكك الحديدية التونسية",
        "public_transport": "station",
        "railway": "station",
        "route_ref": "1;3;36;51",
        "stop_id": "240K",
        "train": "yes",
        "id": "node/5227817978"
      },
      "geometry": {
        "type": "Point",
        "coordinates": [
          10.8070346,
          35.7593931
        ]
      }
    },
    {
      "type": "Feature",
      "id": "node/5227817987",
      "properties": {
        "gtfs_id": "80",
        "name": "جالطة",
        "name:ar": "جالطة",
        "name:fr": "Jalta",
        "operator": "الشركة الوطنية للسكك الحديدية التونسية",
        "operator:ar": "الشركة الوطنية للسكك الحديدية التونسية",
        "operator:website": "http://www.sncft.com.tn/Ar/",
        "operator:wikidata": "Q2297197",
        "operator:wikipedia": "ar:الشركة الوطنية للسكك الحديدية التونسية",
        "operator:wikipedia:ar": "الشركة الوطنية للسكك الحديدية التونسية",
        "public_transport": "station",
        "railway": "station",
        "train": "yes",
        "id": "node/5227817987"
      },
      "geometry": {
        "type": "Point",
        "coordinates": [
          9.5347455,
          37.0739082
        ]
      }
    },
    {
      "type": "Feature",
      "id": "node/5227817990",
      "properties": {
        "gtfs_id": "83",
        "name": "El Harrech",
        "operator": "الشركة الوطنية للسكك الحديدية التونسية",
        "operator:ar": "الشركة الوطنية للسكك الحديدية التونسية",
        "operator:website": "http://www.sncft.com.tn/Ar/",
        "operator:wikidata": "Q2297197",
        "operator:wikipedia": "ar:الشركة الوطنية للسكك الحديدية التونسية",
        "operator:wikipedia:ar": "الشركة الوطنية للسكك الحديدية التونسية",
        "public_transport": "station",
        "railway": "station",
        "train": "yes",
        "id": "node/5227817990"
      },
      "geometry": {
        "type": "Point",
        "coordinates": [
          9.2205744,
          37.059568
        ]
      }
    },
    {
      "type": "Feature",
      "id": "node/5227817991",
      "properties": {
        "gtfs_id": "84",
        "name": "تمرة",
        "name:ar": "تمرة",
        "name:fr": "Tamra",
        "operator": "الشركة الوطنية للسكك الحديدية التونسية",
        "operator:ar": "الشركة الوطنية للسكك الحديدية التونسية",
        "operator:website": "http://www.sncft.com.tn/Ar/",
        "operator:wikidata": "Q2297197",
        "operator:wikipedia": "ar:الشركة الوطنية للسكك الحديدية التونسية",
        "operator:wikipedia:ar": "الشركة الوطنية للسكك الحديدية التونسية",
        "public_transport": "station",
        "railway": "station",
        "train": "yes",
        "id": "node/5227817991"
      },
      "geometry": {
        "type": "Point",
        "coordinates": [
          9.1196381,
          37.0552785
        ]
      }
    },
    {
      "type": "Feature",
      "id": "node/5227817997",
      "properties": {
        "gtfs_id": "190",
        "name": "Mastouta",
        "name:fr": "Mastouta",
        "operator": "الشركة الوطنية للسكك الحديدية التونسية",
        "operator:ar": "الشركة الوطنية للسكك الحديدية التونسية",
        "operator:website": "http://www.sncft.com.tn/Ar/",
        "operator:wikidata": "Q2297197",
        "operator:wikipedia": "ar:الشركة الوطنية للسكك الحديدية التونسية",
        "operator:wikipedia:ar": "الشركة الوطنية للسكك الحديدية التونسية",
        "public_transport": "station",
        "railway": "halt",
        "route_ref": "14",
        "train": "yes",
        "id": "node/5227817997"
      },
      "geometry": {
        "type": "Point",
        "coordinates": [
          9.2090092,
          36.6616278
        ]
      }
    },
    {
      "type": "Feature",
      "id": "node/5227818003",
      "properties": {
        "gtfs_id": "196",
        "name": "وادي الليل",
        "name:ar": "وادي الليل",
        "name:fr": "Oued Ellil",
        "operator": "الشركة الوطنية للسكك الحديدية التونسية",
        "operator:ar": "الشركة الوطنية للسكك الحديدية التونسية",
        "operator:website": "http://www.sncft.com.tn/Ar/",
        "operator:wikidata": "Q2297197",
        "operator:wikipedia": "ar:الشركة الوطنية للسكك الحديدية التونسية",
        "operator:wikipedia:ar": "الشركة الوطنية للسكك الحديدية التونسية",
        "public_transport": "station",
        "railway": "station",
        "train": "yes",
        "id": "node/5227818003"
      },
      "geometry": {
        "type": "Point",
        "coordinates": [
          10.008871,
          36.8359443
        ]
      }
    },
    {
      "type": "Feature",
      "id": "node/5227818016",
      "properties": {
        "disused:railway": "station",
        "gtfs_id": "99",
        "name": "طرف الشانة",
        "name:ar": "طرف الشانة",
        "name:fr": "Tarf Echena",
        "operator": "الشركة الوطنية للسكك الحديدية التونسية",
        "operator:ar": "الشركة الوطنية للسكك الحديدية التونسية",
        "operator:website": "http://www.sncft.com.tn/Ar/",
        "operator:wikidata": "Q2297197",
        "operator:wikipedia": "ar:الشركة الوطنية للسكك الحديدية التونسية",
        "operator:wikipedia:ar": "الشركة الوطنية للسكك الحديدية التونسية",
        "public_transport": "halt",
        "railway": "halt",
        "route_ref": "5",
        "train": "yes",
        "id": "node/5227818016"
      },
      "geometry": {
        "type": "Point",
        "coordinates": [
          9.7182168,
          36.3552702
        ]
      }
    },
    {
      "type": "Feature",
      "id": "node/5227818018",
      "properties": {
        "gtfs_id": "201",
        "operator": "الشركة الوطنية للسكك الحديدية التونسية",
        "operator:ar": "الشركة الوطنية للسكك الحديدية التونسية",
        "operator:website": "http://www.sncft.com.tn/Ar/",
        "operator:wikidata": "Q2297197",
        "operator:wikipedia": "ar:الشركة الوطنية للسكك الحديدية التونسية",
        "operator:wikipedia:ar": "الشركة الوطنية للسكك الحديدية التونسية",
        "public_transport": "station",
        "railway": "halt",
        "route_ref": "14",
        "train": "yes",
        "id": "node/5227818018"
      },
      "geometry": {
        "type": "Point",
        "coordinates": [
          8.9055174,
          36.5918749
        ]
      }
    },
    {
      "type": "Feature",
      "id": "node/5227818026",
      "properties": {
        "gtfs_id": "209",
        "name:fr": "Ain Ghelal",
        "operator": "الشركة الوطنية للسكك الحديدية التونسية",
        "operator:ar": "الشركة الوطنية للسكك الحديدية التونسية",
        "operator:website": "http://www.sncft.com.tn/Ar/",
        "operator:wikidata": "Q2297197",
        "operator:wikipedia": "ar:الشركة الوطنية للسكك الحديدية التونسية",
        "operator:wikipedia:ar": "الشركة الوطنية للسكك الحديدية التونسية",
        "public_transport": "station",
        "railway": "station",
        "route_ref": "4",
        "train": "yes",
        "id": "node/5227818026"
      },
      "geometry": {
        "type": "Point",
        "coordinates": [
          9.8333453,
          37.0234191
        ]
      }
    },
    {
      "type": "Feature",
      "id": "node/5234854553",
      "properties": {
        "gtfs_id": "11",
        "name": "سيدي صالح",
        "name:ar": "سيدي صالح",
        "name:fr": "Sidi Salah",
        "operator": "Socite Nationale des chemins de fer tunisien",
        "public_transport": "station",
        "railway": "station",
        "route_ref": "18;21;24",
        "train": "yes",
        "id": "node/5234854553"
      },
      "geometry": {
        "type": "Point",
        "coordinates": [
          10.7673687,
          34.8584138
        ]
      }
    },
    {
      "type": "Feature",
      "id": "node/5234854564",
      "properties": {
        "gtfs_id": "1",
        "name": "العوينات",
        "name:ar": "العوينات",
        "name:fr": "Aouinet",
        "operator": "الشركة الوطنية للسكك الحديدية التونسية",
        "operator:ar": "الشركة الوطنية للسكك الحديدية التونسية",
        "operator:website": "http://www.sncft.com.tn/Ar/",
        "operator:wikidata": "Q2297197",
        "operator:wikipedia": "ar:الشركة الوطنية للسكك الحديدية التونسية",
        "operator:wikipedia:ar": "الشركة الوطنية للسكك الحديدية التونسية",
        "public_transport": "station",
        "railway": "station",
        "route_ref": "21",
        "stop_id": "475P",
        "train": "yes",
        "id": "node/5234854564"
      },
      "geometry": {
        "type": "Point",
        "coordinates": [
          10.0038003,
          33.9852093
        ]
      }
    },
    {
      "type": "Feature",
      "id": "node/5234854582",
      "properties": {
        "gtfs_id": "21",
        "name": "عين الرحمة",
        "name:ar": "عين الرحمة",
        "name:fr": "Ain Rahma",
        "operator": "الشركة الوطنية للسكك الحديدية التونسية",
        "operator:ar": "الشركة الوطنية للسكك الحديدية التونسية",
        "operator:website": "http://www.sncft.com.tn/Ar/",
        "operator:wikidata": "Q2297197",
        "operator:wikipedia": "ar:الشركة الوطنية للسكك الحديدية التونسية",
        "operator:wikipedia:ar": "الشركة الوطنية للسكك الحديدية التونسية",
        "public_transport": "station",
        "railway": "station",
        "route_ref": "21",
        "stop_id": "173F",
        "train": "yes",
        "id": "node/5234854582"
      },
      "geometry": {
        "type": "Point",
        "coordinates": [
          10.4277696,
          36.2300695
        ]
      }
    },
    {
      "type": "Feature",
      "id": "node/5234854584",
      "properties": {
        "gtfs_id": "23",
        "name": "سيدي مطير",
        "name:ar": "سيدي مطير",
        "name:fr": "Sidi Mtir",
        "operator": "Socite Nationale des chemins de fer tunisien",
        "public_transport": "station",
        "railway": "station",
        "route_ref": "21",
        "stop_id": "171D",
        "train": "yes",
        "id": "node/5234854584"
      },
      "geometry": {
        "type": "Point",
        "coordinates": [
          10.479179,
          36.3586057
        ]
      }
    },
    {
      "type": "Feature",
      "id": "node/5234854612",
      "properties": {
        "gtfs_id": "141",
        "name": "Sbeitla",
        "operator": "Socite Nationale des chemins de fer tunisien",
        "public_transport": "station",
        "railway": "station",
        "train": "yes",
        "id": "node/5234854612"
      },
      "geometry": {
        "type": "Point",
        "coordinates": [
          9.1281027,
          35.2276554
        ]
      }
    },
    {
      "type": "Feature",
      "id": "node/5234855725",
      "properties": {
        "alt_name": "حديقة حيوانات إفريقيا",
        "alt_name:ar": "حديقة حيوانات إفريقيا",
        "gtfs_id": "44",
        "name": "منتزه فريقيا",
        "name:ar": "منتزه فريقيا",
        "name:fr": "Parc Friguia",
        "operator": "الشركة الوطنية للسكك الحديدية التونسية",
        "operator:ar": "الشركة الوطنية للسكك الحديدية التونسية",
        "operator:website": "http://www.sncft.com.tn/Ar/",
        "operator:wikidata": "Q2297197",
        "operator:wikipedia": "ar:الشركة الوطنية للسكك الحديدية التونسية",
        "operator:wikipedia:ar": "الشركة الوطنية للسكك الحديدية التونسية",
        "public_transport": "station",
        "railway": "halt",
        "route_ref": "18;21;22;24",
        "train": "yes",
        "id": "node/5234855725"
      },
      "geometry": {
        "type": "Point",
        "coordinates": [
          10.4194664,
          36.2039004
        ]
      }
    },
    {
      "type": "Feature",
      "id": "node/5234855738",
      "properties": {
        "gtfs_id": "157",
        "name": "طبلبة",
        "name:ar": "طبلبة",
        "name:fr": "Teboulba",
        "operator": "الشركة الوطنية للسكك الحديدية التونسية",
        "operator:ar": "الشركة الوطنية للسكك الحديدية التونسية",
        "operator:website": "http://www.sncft.com.tn/Ar/",
        "operator:wikidata": "Q2297197",
        "operator:wikipedia": "ar:الشركة الوطنية للسكك الحديدية التونسية",
        "operator:wikipedia:ar": "الشركة الوطنية للسكك الحديدية التونسية",
        "public_transport": "halt",
        "railway": "halt",
        "route_ref": "1;16;51",
        "stop_id": "261K",
        "train": "yes",
        "id": "node/5234855738"
      },
      "geometry": {
        "type": "Point",
        "coordinates": [
          10.9612288,
          35.6378506
        ]
      }
    },
    {
      "type": "Feature",
      "id": "node/5234855760",
      "properties": {
        "gtfs_id": "169",
        "name": "المنستير المنطقة الصناعية",
        "name:ar": "المنستير المنطقة الصناعية",
        "name:fr": "Monastir Zone Industrielle",
        "operator": "Sociéte Nationale des chemins de fer tunisien",
        "public_transport": "station",
        "railway": "station",
        "stop_id": "241L",
        "train": "yes",
        "id": "node/5234855760"
      },
      "geometry": {
        "type": "Point",
        "coordinates": [
          10.8203432,
          35.7397019
        ]
      }
    },
    {
      "type": "Feature",
      "id": "node/5234855798",
      "properties": {
        "gtfs_id": "187",
        "name": "Sidi M'Himech",
        "operator": "Socite Nationale des chemins de fer tunisien",
        "public_transport": "station",
        "railway": "station",
        "route_ref": "12;14",
        "train": "yes",
        "id": "node/5234855798"
      },
      "geometry": {
        "type": "Point",
        "coordinates": [
          9.2796351,
          36.7823699
        ]
      }
    },
    {
      "type": "Feature",
      "id": "node/5234855802",
      "properties": {
        "gtfs_id": "81",
        "name": "Jefna",
        "operator": "Socite Nationale des chemins de fer tunisien",
        "public_transport": "station",
        "railway": "station",
        "train": "yes",
        "id": "node/5234855802"
      },
      "geometry": {
        "type": "Point",
        "coordinates": [
          9.4416155,
          37.0425453
        ]
      }
    },
    {
      "type": "Feature",
      "id": "node/5234855819",
      "properties": {
        "gtfs_id": "198",
        "name": "باردو",
        "name:ar": "باردو",
        "name:fr": "Le Bardo",
        "operator": "الشركة الوطنية للسكك الحديدية التونسية",
        "operator:ar": "الشركة الوطنية للسكك الحديدية التونسية",
        "operator:website": "http://www.sncft.com.tn/Ar/",
        "operator:wikidata": "Q2297197",
        "operator:wikipedia": "ar:الشركة الوطنية للسكك الحديدية التونسية",
        "operator:wikipedia:ar": "الشركة الوطنية للسكك الحديدية التونسية",
        "public_transport": "halt",
        "railway": "halt",
        "train": "yes",
        "id": "node/5234855819"
      },
      "geometry": {
        "type": "Point",
        "coordinates": [
          10.1181158,
          36.8112278
        ]
      }
    },
    {
      "type": "Feature",
      "id": "node/5234855929",
      "properties": {
        "disused:railway": "station",
        "gtfs_id": "98",
        "name": "ثبيقة",
        "name:ar": "ثبيقة",
        "name:fr": "Thibica",
        "operator": "Sociéte Nationale des chemins de fer tunisien",
        "public_transport": "halt",
        "railway": "halt",
        "train": "yes",
        "id": "node/5234855929"
      },
      "geometry": {
        "type": "Point",
        "coordinates": [
          9.8093018,
          36.3559832
        ]
      }
    },
    {
      "type": "Feature",
      "id": "node/5234855950",
      "properties": {
        "gtfs_id": "219",
        "name": "Nabeul Marchandise",
        "name:fr": "Nabeul Marchandise",
        "operator": "Socite Nationale des chemins de fer tunisien",
        "public_transport": "station",
        "railway": "halt",
        "route_ref": "17;45;46",
        "train": "yes",
        "id": "node/5234855950"
      },
      "geometry": {
        "type": "Point",
        "coordinates": [
          10.6939576,
          36.4321388
        ]
      }
    },
    {
      "type": "Feature",
      "id": "node/7677959231",
      "properties": {
        "name": "برج التومي",
        "name:ar": "برج التومي",
        "name:fr": "Borj Ettoumi",
        "public_transport": "station",
        "railway": "halt",
        "train": "yes",
        "id": "node/7677959231"
      },
      "geometry": {
        "type": "Point",
        "coordinates": [
          9.7616253,
          36.7876522
        ]
      }
    },
    {
      "type": "Feature",
      "id": "node/7678085027",
      "properties": {
        "name": "جبل الوسط",
        "name:fr": "Cheylus",
        "public_transport": "station",
        "railway": "station",
        "train": "yes",
        "id": "node/7678085027"
      },
      "geometry": {
        "type": "Point",
        "coordinates": [
          10.0599409,
          36.5553063
        ]
      }
    },
    {
      "type": "Feature",
      "id": "node/7701748630",
      "properties": {
        "alt_name:ar": "حلق الوادي القديم",
        "name": "حلق الوادي",
        "name:ar": "حلق الوادي",
        "name:en": "La Goulette",
        "name:fr": "La Goulette",
        "railway": "station",
        "station": "light_rail",
        "id": "node/7701748630"
      },
      "geometry": {
        "type": "Point",
        "coordinates": [
          10.3019649,
          36.8180333
        ]
      }
    },
    {
      "type": "Feature",
      "id": "node/7829479390",
      "properties": {
        "name": "المهدية",
        "name:ar": "المهدية",
        "name:fr": "Mahdia",
        "public_transport": "station",
        "railway": "station",
        "stop_id": "267S",
        "train": "yes",
        "id": "node/7829479390"
      },
      "geometry": {
        "type": "Point",
        "coordinates": [
          11.0641824,
          35.5007711
        ]
      }
    },
    {
      "type": "Feature",
      "id": "node/7829749519",
      "properties": {
        "name": "المنستير",
        "name:ar": "المنستير",
        "name:fr": "Monastir",
        "public_transport": "station",
        "railway": "station",
        "stop_id": "238H",
        "train": "yes",
        "id": "node/7829749519"
      },
      "geometry": {
        "type": "Point",
        "coordinates": [
          10.8261038,
          35.7708341
        ]
      }
    },
    {
      "type": "Feature",
      "id": "node/7829854810",
      "properties": {
        "name": "سوسة الجنوبية",
        "name:ar": "سوسة الجنوبية",
        "name:fr": "Sousse Sud",
        "public_transport": "station",
        "railway": "station",
        "stop_id": "233C",
        "train": "yes",
        "id": "node/7829854810"
      },
      "geometry": {
        "type": "Point",
        "coordinates": [
          10.6499919,
          35.80001
        ]
      }
    },
    {
      "type": "Feature",
      "id": "node/7829854811",
      "properties": {
        "addr:city": "سوسة",
        "name": "سوسة",
        "name:ar": "سوسة",
        "name:es": "Susa",
        "name:fr": "Sousse",
        "name:it": "Susa",
        "public_transport": "station",
        "railway": "station",
        "stop_id": "193E",
        "train": "yes",
        "id": "node/7829854811"
      },
      "geometry": {
        "type": "Point",
        "coordinates": [
          10.638315,
          35.8304101
        ]
      }
    },
    {
      "type": "Feature",
      "id": "node/7830239214",
      "properties": {
        "name": "مساكن",
        "name:ar": "مساكن",
        "name:fr": "Msaken",
        "public_transport": "station",
        "railway": "station",
        "train": "yes",
        "id": "node/7830239214"
      },
      "geometry": {
        "type": "Point",
        "coordinates": [
          10.5999678,
          35.7287944
        ]
      }
    },
    {
      "type": "Feature",
      "id": "node/7830667498",
      "properties": {
        "name": "القلعة الصغرى",
        "name:ar": "القلعة الصغرى",
        "name:fr": "Kalaa Seghira",
        "public_transport": "station",
        "railway": "station",
        "stop_id": "191C",
        "train": "yes",
        "id": "node/7830667498"
      },
      "geometry": {
        "type": "Point",
        "coordinates": [
          10.5714633,
          35.8219787
        ]
      }
    },
    {
      "type": "Feature",
      "id": "node/7830774022",
      "properties": {
        "name": "القلعة الكبرى",
        "name:ar": "القلعة الكبرى",
        "name:fr": "Kalaa Kebira",
        "public_transport": "station",
        "railway": "station",
        "stop_id": "183S",
        "train": "yes",
        "id": "node/7830774022"
      },
      "geometry": {
        "type": "Point",
        "coordinates": [
          10.5530601,
          35.8680522
        ]
      }
    },
    {
      "type": "Feature",
      "id": "node/7830774024",
      "properties": {
        "name": "سيدي بوعلي",
        "name:ar": "سيدي بوعلي",
        "name:fr": "Sidi Bou Ali",
        "public_transport": "station",
        "railway": "halt",
        "stop_id": "182R",
        "train": "yes",
        "id": "node/7830774024"
      },
      "geometry": {
        "type": "Point",
        "coordinates": [
          10.4516692,
          35.952781
        ]
      }
    },
    {
      "type": "Feature",
      "id": "node/7830774025",
      "properties": {
        "name": "جبل الجلود",
        "name:ar": "جبل الجلود",
        "name:fr": "Jebel Jelloud",
        "public_transport": "station",
        "railway": "station",
        "stop_id": "130E",
        "train": "yes",
        "id": "node/7830774025"
      },
      "geometry": {
        "type": "Point",
        "coordinates": [
          10.2081507,
          36.7727103
        ]
      }
    },
    {
      "type": "Feature",
      "id": "node/7830836236",
      "properties": {
        "name": "بوقرنين",
        "name:ar": "بوقرنين",
        "name:fr": "Boukornine",
        "public_transport": "station",
        "railway": "station",
        "stop_id": "153G",
        "train": "yes",
        "id": "node/7830836236"
      },
      "geometry": {
        "type": "Point",
        "coordinates": [
          10.3238925,
          36.7348633
        ]
      }
    },
    {
      "type": "Feature",
      "id": "node/7830836244",
      "properties": {
        "name": "حمام الأنف",
        "name:ar": "حمام الأنف",
        "name:fr": "Hammam Lif",
        "public_transport": "station",
        "railway": "station",
        "stop_id": "154H",
        "train": "yes",
        "id": "node/7830836244"
      },
      "geometry": {
        "type": "Point",
        "coordinates": [
          10.3345507,
          36.7293809
        ]
      }
    },
    {
      "type": "Feature",
      "id": "node/7831546092",
      "properties": {
        "name": "فندق الجديد",
        "name:ar": "فندق الجديد",
        "name:fr": "Fondouk Jedid",
        "public_transport": "station",
        "railway": "station",
        "stop_id": "161R",
        "train": "yes",
        "id": "node/7831546092"
      },
      "geometry": {
        "type": "Point",
        "coordinates": [
          10.4467066,
          36.6689499
        ]
      }
    },
    {
      "type": "Feature",
      "id": "node/7831546097",
      "properties": {
        "name": "Khanguet",
        "name:fr": "Khanguet",
        "public_transport": "station",
        "railway": "station",
        "stop_id": "162S",
        "train": "yes",
        "id": "node/7831546097"
      },
      "geometry": {
        "type": "Point",
        "coordinates": [
          10.4611447,
          36.6251766
        ]
      }
    },
    {
      "type": "Feature",
      "id": "node/7831856312",
      "properties": {
        "name": "قرمبالية",
        "name:ar": "قرمبالية",
        "name:fr": "Grombalia",
        "public_transport": "station",
        "railway": "station",
        "stop_id": "163T",
        "train": "yes",
        "id": "node/7831856312"
      },
      "geometry": {
        "type": "Point",
        "coordinates": [
          10.4979192,
          36.5960822
        ]
      }
    },
    {
      "type": "Feature",
      "id": "node/7831856330",
      "properties": {
        "name": "بلي",
        "name:ar": "بلي",
        "name:fr": "Belli",
        "public_transport": "station",
        "railway": "station",
        "stop_id": "165X",
        "train": "yes",
        "id": "node/7831856330"
      },
      "geometry": {
        "type": "Point",
        "coordinates": [
          10.524988,
          36.5606363
        ]
      }
    },
    {
      "type": "Feature",
      "id": "node/7831856331",
      "properties": {
        "name": "بوعرقوب",
        "name:ar": "بوعرقوب",
        "name:fr": "Bou Argoub",
        "public_transport": "station",
        "railway": "station",
        "stop_id": "166Y",
        "train": "yes",
        "id": "node/7831856331"
      },
      "geometry": {
        "type": "Point",
        "coordinates": [
          10.5514459,
          36.5312251
        ]
      }
    },
    {
      "type": "Feature",
      "id": "node/7831856332",
      "properties": {
        "name": "بئر بورقبة",
        "name:ar": "بئر بورقبة",
        "name:fr": "Bir Bouregba",
        "public_transport": "station",
        "railway": "station",
        "stop_id": "221M",
        "train": "yes",
        "wheelchair": "yes",
        "id": "node/7831856332"
      },
      "geometry": {
        "type": "Point",
        "coordinates": [
          10.5739081,
          36.4306592
        ]
      }
    },
    {
      "type": "Feature",
      "id": "node/7831856333",
      "properties": {
        "name": "بوفيشة",
        "name:ar": "بوفيشة",
        "name:fr": "Bou Ficha",
        "public_transport": "station",
        "railway": "station",
        "stop_id": "172E",
        "train": "yes",
        "id": "node/7831856333"
      },
      "geometry": {
        "type": "Point",
        "coordinates": [
          10.4511695,
          36.3030538
        ]
      }
    },
    {
      "type": "Feature",
      "id": "node/7831856338",
      "properties": {
        "addr:city": "النفيضة",
        "name": "النفيضة",
        "name:ar": "النفيضة",
        "name:en": "Enfidha",
        "name:fr": "Enfidha",
        "operator": "الشركة الوطنية للسكك الحديدية التونسية",
        "operator:ar": "الشركة الوطنية للسكك الحديدية التونسية",
        "operator:website": "http://www.sncft.com.tn/Ar/",
        "operator:wikidata": "Q2297197",
        "operator:wikipedia": "ar:الشركة الوطنية للسكك الحديدية التونسية",
        "operator:wikipedia:ar": "الشركة الوطنية للسكك الحديدية التونسية",
        "public_transport": "station",
        "railway": "station",
        "stop_id": "174G",
        "id": "node/7831856338"
      },
      "geometry": {
        "type": "Point",
        "coordinates": [
          10.3836376,
          36.1307453
        ]
      }
    },
    {
      "type": "Feature",
      "id": "node/7831856339",
      "properties": {
        "name": "منزل المحطة",
        "name:ar": "منزل المحطة",
        "name:fr": "Menzel Gare",
        "public_transport": "station",
        "railway": "station",
        "stop_id": "181P",
        "id": "node/7831856339"
      },
      "geometry": {
        "type": "Point",
        "coordinates": [
          10.3778807,
          36.01028
        ]
      }
    },
    {
      "type": "Feature",
      "id": "node/7832503623",
      "properties": {
        "name": "بوقبرين",
        "name:ar": "بوقبرين",
        "name:fr": "Bougabrine",
        "public_transport": "station",
        "railway": "station",
        "train": "yes",
        "id": "node/7832503623"
      },
      "geometry": {
        "type": "Point",
        "coordinates": [
          10.6441243,
          35.5373572
        ]
      }
    },
    {
      "type": "Feature",
      "id": "node/7832846864",
      "properties": {
        "name": "كركر",
        "name:ar": "كركر",
        "name:fr": "Kerker",
        "public_transport": "station",
        "railway": "station",
        "stop_id": "202P",
        "train": "yes",
        "id": "node/7832846864"
      },
      "geometry": {
        "type": "Point",
        "coordinates": [
          10.65962,
          35.4684245
        ]
      }
    },
    {
      "type": "Feature",
      "id": "node/7833063360",
      "properties": {
        "name": "الجم",
        "name:ar": "الجم",
        "name:fr": "El Jem",
        "public_transport": "station",
        "railway": "station",
        "stop_id": "204S",
        "train": "yes",
        "id": "node/7833063360"
      },
      "geometry": {
        "type": "Point",
        "coordinates": [
          10.7095748,
          35.2925698
        ]
      }
    },
    {
      "type": "Feature",
      "id": "node/7833063361",
      "properties": {
        "name": "الحنشة",
        "name:ar": "الحنشة",
        "name:fr": "El Hencha",
        "public_transport": "station",
        "railway": "station",
        "stop_id": "212C",
        "train": "yes",
        "id": "node/7833063361"
      },
      "geometry": {
        "type": "Point",
        "coordinates": [
          10.7284714,
          35.1372995
        ]
      }
    },
    {
      "type": "Feature",
      "id": "node/7833063364",
      "properties": {
        "addr:city": "صفاقس",
        "addr:city:ar": "صفاقس",
        "name": "ساقية الزيت",
        "name:ar": "ساقية الزيت",
        "name:fr": "Sakiet Ezzit",
        "operator": "الشركة الوطنية للسكك الحديدية التونسية",
        "operator:ar": "الشركة الوطنية للسكك الحديدية التونسية",
        "operator:website": "http://www.sncft.com.tn/Ar/",
        "operator:wikidata": "Q2297197",
        "operator:wikipedia": "ar:الشركة الوطنية للسكك الحديدية التونسية",
        "operator:wikipedia:ar": "الشركة الوطنية للسكك الحديدية التونسية",
        "public_transport": "halt",
        "railway": "halt",
        "stop_id": "215F",
        "train": "yes",
        "id": "node/7833063364"
      },
      "geometry": {
        "type": "Point",
        "coordinates": [
          10.7613057,
          34.8011763
        ]
      }
    },
    {
      "type": "Feature",
      "id": "node/7833555209",
      "properties": {
        "addr:city": "المحرس",
        "addr:city:ar": "المحرس",
        "addr:postcode": "3060",
        "name": "المحرس",
        "name:ar": "المحرس",
        "name:fr": "Mahrès",
        "operator": "الشركة الوطنية للسكك الحديدية التونسية",
        "operator:ar": "الشركة الوطنية للسكك الحديدية التونسية",
        "operator:website": "http://www.sncft.com.tn/Ar/",
        "operator:wikidata": "Q2297197",
        "operator:wikipedia": "ar:الشركة الوطنية للسكك الحديدية التونسية",
        "operator:wikipedia:ar": "الشركة الوطنية للسكك الحديدية التونسية",
        "public_transport": "station",
        "railway": "station",
        "stop_id": "463B",
        "train": "yes",
        "id": "node/7833555209"
      },
      "geometry": {
        "type": "Point",
        "coordinates": [
          10.4987503,
          34.526308
        ]
      }
    },
    {
      "type": "Feature",
      "id": "node/7833555210",
      "properties": {
        "name": "الغريبة",
        "name:ar": "الغريبة",
        "name:fr": "Ghraiba",
        "public_transport": "station",
        "railway": "station",
        "stop_id": "465D",
        "id": "node/7833555210"
      },
      "geometry": {
        "type": "Point",
        "coordinates": [
          10.2137677,
          34.4996865
        ]
      }
    },
    {
      "type": "Feature",
      "id": "node/7833555211",
      "properties": {
        "addr:city": "الفوني",
        "name": "الفوني",
        "name:ar": "الفوني",
        "name:fr": "Founi",
        "operator": "الشركة الوطنية للسكك الحديدية التونسية",
        "operator:ar": "الشركة الوطنية للسكك الحديدية التونسية",
        "operator:website": "http://www.sncft.com.tn/Ar/",
        "operator:wikidata": "Q2297197",
        "operator:wikipedia": "ar:الشركة الوطنية للسكك الحديدية التونسية",
        "operator:wikipedia:ar": "الشركة الوطنية للسكك الحديدية التونسية",
        "public_transport": "station",
        "railway": "station",
        "stop_id": "491J",
        "id": "node/7833555211"
      },
      "geometry": {
        "type": "Point",
        "coordinates": [
          10.0430844,
          34.5160717
        ]
      }
    },
    {
      "type": "Feature",
      "id": "node/7833555212",
      "properties": {
        "name": "الحمادة",
        "name:ar": "الحمادة",
        "name:fr": "El Hamada",
        "public_transport": "station",
        "railway": "station",
        "stop_id": "471K",
        "id": "node/7833555212"
      },
      "geometry": {
        "type": "Point",
        "coordinates": [
          10.117269,
          34.3786422
        ]
      }
    },
    {
      "type": "Feature",
      "id": "node/7833555213",
      "properties": {
        "addr:city": "الصخيرة",
        "name": "الصخيرة",
        "name:ar": "الصخيرة",
        "name:fr": "Skhira",
        "operator": "الشركة الوطنية للسكك الحديدية التونسية",
        "operator:ar": "الشركة الوطنية للسكك الحديدية التونسية",
        "operator:website": "http://www.sncft.com.tn/Ar/",
        "operator:wikidata": "Q2297197",
        "operator:wikipedia": "ar:الشركة الوطنية للسكك الحديدية التونسية",
        "operator:wikipedia:ar": "الشركة الوطنية للسكك الحديدية التونسية",
        "public_transport": "station",
        "railway": "station",
        "stop_id": "472L",
        "train": "yes",
        "id": "node/7833555213"
      },
      "geometry": {
        "type": "Point",
        "coordinates": [
          10.0690244,
          34.300336
        ]
      }
    },
    {
      "type": "Feature",
      "id": "node/7833555214",
      "properties": {
        "name": "غنوش",
        "name:ar": "غنوش",
        "name:fr": "Ghannouch",
        "public_transport": "station",
        "railway": "station",
        "stop_id": "481Y",
        "train": "yes",
        "id": "node/7833555214"
      },
      "geometry": {
        "type": "Point",
        "coordinates": [
          10.0769274,
          33.9214201
        ]
      }
    },
    {
      "type": "Feature",
      "id": "node/7833555215",
      "properties": {
        "name": "قابس",
        "name:ar": "قابس",
        "name:fr": "Gabès",
        "public_transport": "station",
        "railway": "station",
        "stop_id": "488F",
        "id": "node/7833555215"
      },
      "geometry": {
        "type": "Point",
        "coordinates": [
          10.0991623,
          33.8841804
        ]
      }
    },
    {
      "type": "Feature",
      "id": "node/7833812090",
      "properties": {
        "addr:city": "المزونة",
        "name": "المزونة",
        "name:ar": "المزونة",
        "name:fr": "Mezzouna",
        "operator": "الشركة الوطنية للسكك الحديدية التونسية",
        "operator:ar": "الشركة الوطنية للسكك الحديدية التونسية",
        "operator:website": "http://www.sncft.com.tn/Ar/",
        "operator:wikidata": "Q2297197",
        "operator:wikipedia": "ar:الشركة الوطنية للسكك الحديدية التونسية",
        "operator:wikipedia:ar": "الشركة الوطنية للسكك الحديدية التونسية",
        "public_transport": "station",
        "railway": "station",
        "stop_id": "493L",
        "train": "yes",
        "id": "node/7833812090"
      },
      "geometry": {
        "type": "Point",
        "coordinates": [
          9.8422693,
          34.5741627
        ]
      }
    },
    {
      "type": "Feature",
      "id": "node/7833812091",
      "properties": {
        "addr:city": "المكناسي",
        "name": "المكناسي",
        "name:ar": "المكناسي",
        "name:fr": "Meknassy",
        "operator": "الشركة الوطنية للسكك الحديدية التونسية",
        "operator:ar": "الشركة الوطنية للسكك الحديدية التونسية",
        "operator:website": "http://www.sncft.com.tn/Ar/",
        "operator:wikidata": "Q2297197",
        "operator:wikipedia": "ar:الشركة الوطنية للسكك الحديدية التونسية",
        "operator:wikipedia:ar": "الشركة الوطنية للسكك الحديدية التونسية",
        "public_transport": "station",
        "railway": "station",
        "stop_id": "495N",
        "train": "yes",
        "id": "node/7833812091"
      },
      "geometry": {
        "type": "Point",
        "coordinates": [
          9.6055896,
          34.6063299
        ]
      }
    },
    {
      "type": "Feature",
      "id": "node/7833812092",
      "properties": {
        "name": "منزل بوزيان",
        "name:ar": "منزل بوزيان",
        "name:fr": "Menzel Bouzaiene",
        "public_transport": "station",
        "railway": "station",
        "stop_id": "501X",
        "train": "yes",
        "id": "node/7833812092"
      },
      "geometry": {
        "type": "Point",
        "coordinates": [
          9.419981,
          34.5737966
        ]
      }
    },
    {
      "type": "Feature",
      "id": "node/7833812093",
      "properties": {
        "name": "السند",
        "name:ar": "السند",
        "name:fr": "Sened",
        "public_transport": "station",
        "railway": "station",
        "stop_id": "502Y",
        "id": "node/7833812093"
      },
      "geometry": {
        "type": "Point",
        "coordinates": [
          9.2541281,
          34.5377841
        ]
      }
    },
    {
      "type": "Feature",
      "id": "node/7833812111",
      "properties": {
        "name": "القطار",
        "name:ar": "القطار",
        "name:fr": "El Guetar",
        "public_transport": "station",
        "railway": "station",
        "train": "yes",
        "id": "node/7833812111"
      },
      "geometry": {
        "type": "Point",
        "coordinates": [
          8.9488392,
          34.3303068
        ]
      }
    },
    {
      "type": "Feature",
      "id": "node/7833812112",
      "properties": {
        "gtfs_id": "66",
        "name": "Mg N1",
        "operator": "الشركة الوطنية للسكك الحديدية التونسية",
        "operator:ar": "الشركة الوطنية للسكك الحديدية التونسية",
        "operator:website": "http://www.sncft.com.tn/Ar/",
        "operator:wikidata": "Q2297197",
        "operator:wikipedia": "ar:الشركة الوطنية للسكك الحديدية التونسية",
        "operator:wikipedia:ar": "الشركة الوطنية للسكك الحديدية التونسية",
        "public_transport": "station",
        "railway": "station",
        "train": "yes",
        "id": "node/7833812112"
      },
      "geometry": {
        "type": "Point",
        "coordinates": [
          9.0496037,
          34.270524
        ]
      }
    },
    {
      "type": "Feature",
      "id": "node/7867290326",
      "properties": {
        "name": "سيدي عياد",
        "name:ar": "سيدي عياد",
        "name:fr": "Sidi Ayed",
        "public_transport": "station",
        "railway": "station",
        "train": "yes",
        "id": "node/7867290326"
      },
      "geometry": {
        "type": "Point",
        "coordinates": [
          9.3908817,
          36.3512001
        ]
      }
    },
    {
      "type": "Feature",
      "id": "node/7867580426",
      "properties": {
        "name": "الكريب",
        "name:ar": "الكريب",
        "name:fr": "Le Krib",
        "public_transport": "station",
        "railway": "station",
        "train": "yes",
        "id": "node/7867580426"
      },
      "geometry": {
        "type": "Point",
        "coordinates": [
          9.1861546,
          36.254165
        ]
      }
    },
    {
      "type": "Feature",
      "id": "node/7882921283",
      "properties": {
        "name": "الخوات",
        "name:ar": "الخوات",
        "name:fr": "Lakhwat",
        "public_transport": "station",
        "railway": "station",
        "train": "yes",
        "id": "node/7882921283"
      },
      "geometry": {
        "type": "Point",
        "coordinates": [
          9.2548607,
          36.2550459
        ]
      }
    },
    {
      "type": "Feature",
      "id": "node/7938334075",
      "properties": {
        "addr:city": "القصرين",
        "addr:postcode": "1200",
        "name": "القصرين",
        "name:ar": "القصرين",
        "name:fr": "Kasserine",
        "population": "76243",
        "public_transport": "station",
        "railway": "station",
        "id": "node/7938334075"
      },
      "geometry": {
        "type": "Point",
        "coordinates": [
          8.8347916,
          35.1672794
        ]
      }
    },
    {
      "type": "Feature",
      "id": "node/8027925515",
      "properties": {
        "addr:city": "سيدي عثمان",
        "addr:city:ar": "سيدي عثمان",
        "name": "سيدي عثمان",
        "name:ar": "سيدي عثمان",
        "name:fr": "Sidi Othman",
        "operator": "الشركة الوطنية للسكك الحديدية التونسية",
        "operator:ar": "الشركة الوطنية للسكك الحديدية التونسية",
        "operator:website": "http://www.sncft.com.tn/Ar/",
        "operator:wikidata": "Q2297197",
        "operator:wikipedia": "ar:الشركة الوطنية للسكك الحديدية التونسية",
        "operator:wikipedia:ar": "الشركة الوطنية للسكك الحديدية التونسية",
        "public_transport": "station",
        "railway": "station",
        "train": "yes",
        "id": "node/8027925515"
      },
      "geometry": {
        "type": "Point",
        "coordinates": [
          9.9245764,
          36.9601998
        ]
      }
    },
    {
      "type": "Feature",
      "id": "node/8035791872",
      "properties": {
        "name": "سجنان",
        "name:ar": "سجنان",
        "name:fr": "Sejnane",
        "public_transport": "station",
        "railway": "station",
        "train": "yes",
        "id": "node/8035791872"
      },
      "geometry": {
        "type": "Point",
        "coordinates": [
          9.2374857,
          37.0562804
        ]
      }
    },
    {
      "type": "Feature",
      "id": "node/8037521485",
      "properties": {
        "public_transport": "station",
        "railway": "station",
        "train": "yes",
        "id": "node/8037521485"
      },
      "geometry": {
        "type": "Point",
        "coordinates": [
          9.3256118,
          36.7877717
        ]
      }
    },
    {
      "type": "Feature",
      "id": "node/8037521486",
      "properties": {
        "addr:city": "باجة",
        "name": "باجة",
        "name:ar": "باجة",
        "name:fr": "Béja",
        "operator": "الشركة الوطنية للسكك الحديدية التونسية",
        "operator:ar": "الشركة الوطنية للسكك الحديدية التونسية",
        "operator:website": "http://www.sncft.com.tn/Ar/",
        "operator:wikidata": "Q2297197",
        "operator:wikipedia": "ar:الشركة الوطنية للسكك الحديدية التونسية",
        "operator:wikipedia:ar": "الشركة الوطنية للسكك الحديدية التونسية",
        "public_transport": "station",
        "railway": "station",
        "train": "yes",
        "id": "node/8037521486"
      },
      "geometry": {
        "type": "Point",
        "coordinates": [
          9.1901394,
          36.7249581
        ]
      }
    },
    {
      "type": "Feature",
      "id": "node/8037521488",
      "properties": {
        "disused:railway": "station",
        "name": "مستوتة",
        "name:ar": "مستوتة",
        "name:en": "Mastouta",
        "public_transport": "station",
        "railway": "halt",
        "id": "node/8037521488"
      },
      "geometry": {
        "type": "Point",
        "coordinates": [
          9.1939407,
          36.6357204
        ]
      }
    },
    {
      "type": "Feature",
      "id": "node/8037521489",
      "properties": {
        "name": "سيدي إسماعيل",
        "name:ar": "سيدي إسماعيل",
        "name:fr": "Sidi Smail",
        "public_transport": "station",
        "railway": "station",
        "id": "node/8037521489"
      },
      "geometry": {
        "type": "Point",
        "coordinates": [
          9.1129003,
          36.5956629
        ]
      }
    },
    {
      "type": "Feature",
      "id": "node/8037521490",
      "properties": {
        "name": "بوسالم",
        "name:ar": "بوسالم",
        "name:fr": "Bou Salem",
        "public_transport": "station",
        "railway": "station",
        "train": "yes",
        "id": "node/8037521490"
      },
      "geometry": {
        "type": "Point",
        "coordinates": [
          8.9721927,
          36.6111258
        ]
      }
    },
    {
      "type": "Feature",
      "id": "node/8037521491",
      "properties": {
        "name": "بن بشير",
        "name:ar": "بن بشير",
        "name:fr": "Ben Bechir",
        "public_transport": "station",
        "railway": "station",
        "train": "yes",
        "id": "node/8037521491"
      },
      "geometry": {
        "type": "Point",
        "coordinates": [
          8.8558349,
          36.5676981
        ]
      }
    },
    {
      "type": "Feature",
      "id": "node/8165739594",
      "properties": {
        "disused:railway": "station",
        "name": "الفجيج",
        "name:ar": "الفجيج",
        "name:fr": "El Fejij",
        "public_transport": "halt",
        "railway": "halt",
        "id": "node/8165739594"
      },
      "geometry": {
        "type": "Point",
        "coordinates": [
          9.8794728,
          33.9968494
        ]
      }
    },
    {
      "type": "Feature",
      "id": "node/8213917790",
      "properties": {
        "name": "الفحص",
        "name:ar": "الفحص",
        "name:fr": "Pont du Fahs",
        "public_transport": "station",
        "railway": "station",
        "train": "yes",
        "id": "node/8213917790"
      },
      "geometry": {
        "type": "Point",
        "coordinates": [
          9.9021666,
          36.3765103
        ]
      }
    },
    {
      "type": "Feature",
      "id": "node/8231372188",
      "properties": {
        "name": "الجديدة",
        "name:fr": "Jedeida",
        "public_transport": "station",
        "railway": "station",
        "stop_id": "206",
        "train": "yes",
        "id": "node/8231372188"
      },
      "geometry": {
        "type": "Point",
        "coordinates": [
          9.9331898,
          36.8508416
        ]
      }
    },
    {
      "type": "Feature",
      "id": "node/8231372189",
      "properties": {
        "name": "وادي الزرقاء",
        "name:fr": "Oued Zarga",
        "public_transport": "station",
        "railway": "station",
        "stop_id": "205",
        "train": "yes",
        "id": "node/8231372189"
      },
      "geometry": {
        "type": "Point",
        "coordinates": [
          9.4266499,
          36.6732537
        ]
      }
    },
    {
      "type": "Feature",
      "id": "node/8231372191",
      "properties": {
        "name": "طبربة",
        "name:ar": "طبربة",
        "name:az-Arab": "طبربه",
        "name:azb": "طبربه",
        "name:en": "Tebourba",
        "name:fa": "طبربه",
        "name:fr": "Tebourba",
        "public_transport": "station",
        "railway": "station",
        "stop_id": "203",
        "train": "yes",
        "id": "node/8231372191"
      },
      "geometry": {
        "type": "Point",
        "coordinates": [
          9.8443655,
          36.8291603
        ]
      }
    },
    {
      "type": "Feature",
      "id": "node/8231372195",
      "properties": {
        "name": "Cité Erraoudha",
        "public_transport": "halt",
        "railway": "halt",
        "stop_id": "199",
        "train": "yes",
        "id": "node/8231372195"
      },
      "geometry": {
        "type": "Point",
        "coordinates": [
          10.1392577,
          36.8062916
        ]
      }
    },
    {
      "type": "Feature",
      "id": "node/8231372197",
      "properties": {
        "name": "منوبة",
        "name:fr": "Mannouba",
        "public_transport": "station",
        "railway": "station",
        "stop_id": "197",
        "train": "yes",
        "id": "node/8231372197"
      },
      "geometry": {
        "type": "Point",
        "coordinates": [
          10.10111,
          36.8161305
        ]
      }
    },
    {
      "type": "Feature",
      "id": "node/8231372199",
      "properties": {
        "name": "غار الدماء",
        "name:fr": "Ghardimaou",
        "public_transport": "station",
        "railway": "station",
        "stop_id": "195",
        "train": "yes",
        "id": "node/8231372199"
      },
      "geometry": {
        "type": "Point",
        "coordinates": [
          8.4372042,
          36.4477683
        ]
      }
    },
    {
      "type": "Feature",
      "id": "node/8231372200",
      "properties": {
        "name": "وادي مليز",
        "name:fr": "Oued Meliz",
        "public_transport": "station",
        "railway": "station",
        "stop_id": "194",
        "train": "yes",
        "id": "node/8231372200"
      },
      "geometry": {
        "type": "Point",
        "coordinates": [
          8.5501672,
          36.4694856
        ]
      }
    },
    {
      "type": "Feature",
      "id": "node/8231372201",
      "properties": {
        "name": "جندوبة",
        "name:fr": "Jendouba",
        "public_transport": "station",
        "railway": "station",
        "stop_id": "193",
        "train": "yes",
        "id": "node/8231372201"
      },
      "geometry": {
        "type": "Point",
        "coordinates": [
          8.7771249,
          36.5010608
        ]
      }
    },
    {
      "type": "Feature",
      "id": "node/8231372208",
      "properties": {
        "name": "مجاز الباب",
        "name:fr": "Mejez El Bab",
        "public_transport": "station",
        "railway": "station",
        "stop_id": "186",
        "train": "yes",
        "id": "node/8231372208"
      },
      "geometry": {
        "type": "Point",
        "coordinates": [
          9.6065106,
          36.6657253
        ]
      }
    },
    {
      "type": "Feature",
      "id": "node/8231384446",
      "properties": {
        "name": "تاجروين",
        "name:fr": "Tajerouine",
        "public_transport": "station",
        "railway": "station",
        "stop_id": "148",
        "train": "yes",
        "id": "node/8231384446"
      },
      "geometry": {
        "type": "Point",
        "coordinates": [
          8.5445632,
          35.8518642
        ]
      }
    },
    {
      "type": "Feature",
      "id": "node/8231384447",
      "properties": {
        "name": "الجريصة",
        "name:fr": "Jerissa PV",
        "public_transport": "station",
        "railway": "station",
        "stop_id": "147",
        "train": "yes",
        "id": "node/8231384447"
      },
      "geometry": {
        "type": "Point",
        "coordinates": [
          8.6520007,
          35.8501853
        ]
      }
    },
    {
      "type": "Feature",
      "id": "node/8231384455",
      "properties": {
        "name": "Redeyef",
        "public_transport": "station",
        "railway": "station",
        "stop_id": "139",
        "train": "yes",
        "id": "node/8231384455"
      },
      "geometry": {
        "type": "Point",
        "coordinates": [
          8.1529023,
          34.3882036
        ]
      }
    },
    {
      "type": "Feature",
      "id": "node/8231384456",
      "properties": {
        "name": "Tabeddit",
        "public_transport": "station",
        "railway": "station",
        "stop_id": "138",
        "train": "yes",
        "id": "node/8231384456"
      },
      "geometry": {
        "type": "Point",
        "coordinates": [
          8.2593068,
          34.4364752
        ]
      }
    },
    {
      "type": "Feature",
      "id": "node/8231384457",
      "properties": {
        "name": "Sehib",
        "public_transport": "station",
        "railway": "station",
        "stop_id": "137",
        "train": "yes",
        "id": "node/8231384457"
      },
      "geometry": {
        "type": "Point",
        "coordinates": [
          8.6467126,
          34.2370276
        ]
      }
    },
    {
      "type": "Feature",
      "id": "node/8231384459",
      "properties": {
        "name": "Aguila",
        "public_transport": "station",
        "railway": "station",
        "stop_id": "135",
        "train": "yes",
        "id": "node/8231384459"
      },
      "geometry": {
        "type": "Point",
        "coordinates": [
          8.7684013,
          34.3796334
        ]
      }
    },
    {
      "type": "Feature",
      "id": "node/8231384476",
      "properties": {
        "name": "فوسانة",
        "name:fr": "Foussana",
        "public_transport": "station",
        "railway": "station",
        "stop_id": "118",
        "train": "yes",
        "id": "node/8231384476"
      },
      "geometry": {
        "type": "Point",
        "coordinates": [
          8.6250111,
          35.3492711
        ]
      }
    },
    {
      "type": "Feature",
      "id": "node/8231384477",
      "properties": {
        "name": "حيدرة",
        "name:fr": "Haidra",
        "public_transport": "station",
        "railway": "station",
        "stop_id": "117",
        "train": "yes",
        "id": "node/8231384477"
      },
      "geometry": {
        "type": "Point",
        "coordinates": [
          8.4482377,
          35.5660212
        ]
      }
    },
    {
      "type": "Feature",
      "id": "node/8231384478",
      "properties": {
        "name": "القلعة الخصبة",
        "name:fr": "Kalaa Khasba",
        "public_transport": "station",
        "railway": "station",
        "stop_id": "116",
        "train": "yes",
        "id": "node/8231384478"
      },
      "geometry": {
        "type": "Point",
        "coordinates": [
          8.5910133,
          35.6603146
        ]
      }
    },
    {
      "type": "Feature",
      "id": "node/8231384479",
      "properties": {
        "name": "Oued Sarrath",
        "public_transport": "station",
        "railway": "station",
        "stop_id": "115",
        "train": "yes",
        "id": "node/8231384479"
      },
      "geometry": {
        "type": "Point",
        "coordinates": [
          8.6185151,
          35.7663771
        ]
      }
    },
    {
      "type": "Feature",
      "id": "node/8231384482",
      "properties": {
        "name": "الدهماني",
        "name:fr": "Dahmani",
        "public_transport": "station",
        "railway": "station",
        "stop_id": "112",
        "train": "yes",
        "id": "node/8231384482"
      },
      "geometry": {
        "type": "Point",
        "coordinates": [
          8.828704,
          35.9451774
        ]
      }
    },
    {
      "type": "Feature",
      "id": "node/8231384485",
      "properties": {
        "name": "السرس",
        "name:fr": "Le Sers",
        "public_transport": "station",
        "railway": "station",
        "stop_id": "109",
        "train": "yes",
        "id": "node/8231384485"
      },
      "geometry": {
        "type": "Point",
        "coordinates": [
          9.0232335,
          36.0759795
        ]
      }
    },
    {
      "type": "Feature",
      "id": "node/8231384487",
      "properties": {
        "name": "سيدي بورويس",
        "name:fr": "Sidi Bou Rouis",
        "public_transport": "station",
        "railway": "station",
        "stop_id": "107",
        "train": "yes",
        "id": "node/8231384487"
      },
      "geometry": {
        "type": "Point",
        "coordinates": [
          9.1252564,
          36.1754715
        ]
      }
    },
    {
      "type": "Feature",
      "id": "node/8231384494",
      "properties": {
        "name": "بوعرادة",
        "name:fr": "Bou Arada",
        "public_transport": "station",
        "railway": "station",
        "stop_id": "100",
        "train": "yes",
        "id": "node/8231384494"
      },
      "geometry": {
        "type": "Point",
        "coordinates": [
          9.6260124,
          36.3570151
        ]
      }
    },
    {
      "type": "Feature",
      "id": "node/8231384499",
      "properties": {
        "name": "سمنجة",
        "name:fr": "Depienne",
        "public_transport": "station",
        "railway": "station",
        "stop_id": "95",
        "train": "yes",
        "id": "node/8231384499"
      },
      "geometry": {
        "type": "Point",
        "coordinates": [
          10.0235202,
          36.457205
        ]
      }
    },
    {
      "type": "Feature",
      "id": "node/8231384504",
      "properties": {
        "name": "محطة نعسان",
        "name:fr": "Nassen",
        "public_transport": "station",
        "railway": "station",
        "stop_id": "90",
        "train": "yes",
        "id": "node/8231384504"
      },
      "geometry": {
        "type": "Point",
        "coordinates": [
          10.2326979,
          36.7031003
        ]
      }
    },
    {
      "type": "Feature",
      "id": "node/8231384505",
      "properties": {
        "name": "بئر القصعة",
        "name:fr": "Bir Kassa",
        "public_transport": "station",
        "railway": "station",
        "stop_id": "89",
        "train": "yes",
        "id": "node/8231384505"
      },
      "geometry": {
        "type": "Point",
        "coordinates": [
          10.2287943,
          36.7405711
        ]
      }
    },
    {
      "type": "Feature",
      "id": "node/8231384507",
      "properties": {
        "name": "الكاف",
        "name:en": "El Kef",
        "railway": "station",
        "stop_id": "87",
        "train": "yes",
        "id": "node/8231384507"
      },
      "geometry": {
        "type": "Point",
        "coordinates": [
          8.7036816,
          36.1667702
        ]
      }
    },
    {
      "type": "Feature",
      "id": "node/8231384509",
      "properties": {
        "name": "الملاحة",
        "name:fr": "Les Salines",
        "public_transport": "station",
        "railway": "station",
        "stop_id": "85",
        "train": "yes",
        "id": "node/8231384509"
      },
      "geometry": {
        "type": "Point",
        "coordinates": [
          8.9658204,
          36.0784273
        ]
      }
    },
    {
      "type": "Feature",
      "id": "node/8231384517",
      "properties": {
        "name": "ماطر",
        "name:fr": "Mateur",
        "public_transport": "station",
        "railway": "station",
        "stop_id": "77",
        "train": "yes",
        "id": "node/8231384517"
      },
      "geometry": {
        "type": "Point",
        "coordinates": [
          9.6844217,
          37.0381103
        ]
      }
    },
    {
      "type": "Feature",
      "id": "node/8231384519",
      "properties": {
        "name": "تلابت",
        "name:fr": "Thelepte",
        "public_transport": "station",
        "railway": "station",
        "stop_id": "75",
        "train": "yes",
        "id": "node/8231384519"
      },
      "geometry": {
        "type": "Point",
        "coordinates": [
          8.5952565,
          34.975496
        ]
      }
    },
    {
      "type": "Feature",
      "id": "node/8231384522",
      "properties": {
        "name": "Om El Arais",
        "public_transport": "station",
        "railway": "station",
        "stop_id": "72",
        "train": "yes",
        "id": "node/8231384522"
      },
      "geometry": {
        "type": "Point",
        "coordinates": [
          8.2773565,
          34.4870626
        ]
      }
    },
    {
      "type": "Feature",
      "id": "node/8231384524",
      "properties": {
        "name": "Metlaoui",
        "public_transport": "station",
        "railway": "station",
        "stop_id": "70",
        "train": "yes",
        "id": "node/8231384524"
      },
      "geometry": {
        "type": "Point",
        "coordinates": [
          8.4164253,
          34.3157766
        ]
      }
    },
    {
      "type": "Feature",
      "id": "node/8231384530",
      "properties": {
        "addr:city": "قفصة",
        "name": "قفصة",
        "name:ar": "قفصة",
        "name:en": "Gafsa",
        "name:fr": "Gafsa",
        "operator": "الشركة الوطنية للسكك الحديدية التونسية",
        "operator:ar": "الشركة الوطنية للسكك الحديدية التونسية",
        "operator:website": "http://www.sncft.com.tn/Ar/",
        "operator:wikidata": "Q2297197",
        "operator:wikipedia": "ar:الشركة الوطنية للسكك الحديدية التونسية",
        "operator:wikipedia:ar": "الشركة الوطنية للسكك الحديدية التونسية",
        "public_transport": "station",
        "railway": "station",
        "stop_id": "64;510G",
        "train": "yes",
        "id": "node/8231384530"
      },
      "geometry": {
        "type": "Point",
        "coordinates": [
          8.8039342,
          34.3946062
        ]
      }
    },
    {
      "type": "Feature",
      "id": "node/8231384531",
      "properties": {
        "name": "Tozeur",
        "public_transport": "station",
        "railway": "station",
        "stop_id": "63",
        "train": "yes",
        "id": "node/8231384531"
      },
      "geometry": {
        "type": "Point",
        "coordinates": [
          8.1357666,
          33.9264136
        ]
      }
    },
    {
      "type": "Feature",
      "id": "node/8231384555",
      "properties": {
        "name": "سيدي رزيق",
        "name:fr": "Sidi Rezig",
        "public_transport": "station",
        "railway": "station",
        "stop_id": "39",
        "train": "yes",
        "id": "node/8231384555"
      },
      "geometry": {
        "type": "Point",
        "coordinates": [
          10.2445454,
          36.7673336
        ]
      }
    },
    {
      "type": "Feature",
      "id": "node/8231384585",
      "properties": {
        "name": "صفاقس",
        "name:ar": "صفاقس",
        "name:en": "Sfax",
        "name:fr": "Sfax",
        "public_transport": "station",
        "railway": "station",
        "stop_id": "9;450K",
        "train": "yes",
        "id": "node/8231384585"
      },
      "geometry": {
        "type": "Point",
        "coordinates": [
          10.7671182,
          34.7351176
        ]
      }
    },
    {
      "type": "Feature",
      "id": "node/8266107633",
      "properties": {
        "name": "الحمامات",
        "name:ar": "Hammamet",
        "name:fr": "الحمامات",
        "public_transport": "station",
        "railway": "halt",
        "train": "yes",
        "id": "node/8266107633"
      },
      "geometry": {
        "type": "Point",
        "coordinates": [
          10.612783,
          36.4074253
        ]
      }
    },
    {
      "type": "Feature",
      "id": "node/8266107634",
      "properties": {
        "addr:city": "نابل",
        "addr:postcode": "8000",
        "addr:street": "شارع الحبيب بورقيبة",
        "addr:street:ar": "شارع الحبيب بورقيبة",
        "name": "نابل",
        "name:ar": "نابل",
        "name:fr": "Nabeul",
        "operator": "الشركة الوطنية للسكك الحديدية التونسية",
        "operator:ar": "الشركة الوطنية للسكك الحديدية التونسية",
        "operator:wikidata": "Q2297197",
        "operator:wikipedia": "ar:الشركة الوطنية للسكك الحديدية التونسية",
        "operator:wikipedia:ar": "الشركة الوطنية للسكك الحديدية التونسية",
        "public_transport": "station",
        "railway": "station",
        "id": "node/8266107634"
      },
      "geometry": {
        "type": "Point",
        "coordinates": [
          10.7350101,
          36.4508884
        ]
      }
    },
    {
      "type": "Feature",
      "id": "node/8589212730",
      "properties": {
        "name": "العروسة",
        "name:ar": "العروسة",
        "name:fr": "El Aroussa",
        "public_transport": "station",
        "railway": "station",
        "train": "yes",
        "id": "node/8589212730"
      },
      "geometry": {
        "type": "Point",
        "coordinates": [
          9.45449,
          36.3811231
        ]
      }
    },
    {
      "type": "Feature",
      "id": "node/8643227482",
      "properties": {
        "name": "Selja",
        "name:en": "Selja",
        "name:fr": "Selja",
        "public_transport": "station",
        "railway": "station",
        "train": "yes",
        "id": "node/8643227482"
      },
      "geometry": {
        "type": "Point",
        "coordinates": [
          8.3400746,
          34.3851344
        ]
      }
    },
    {
      "type": "Feature",
      "id": "node/8676317696",
      "properties": {
        "name": "بئر مشارقة",
        "name:ar": "بئر مشارقة",
        "name:fr": "Bir Mcherga",
        "public_transport": "station",
        "railway": "station",
        "train": "yes",
        "id": "node/8676317696"
      },
      "geometry": {
        "type": "Point",
        "coordinates": [
          10.0218116,
          36.5063133
        ]
      }
    },
    {
      "type": "Feature",
      "id": "node/8678682450",
      "properties": {
        "addr:city": "منزل بورقيبة",
        "addr:city:ar": "منزل بورقيبة",
        "name": "منزل بورقيبة",
        "name:ar": "محطة منزل بورقيبة",
        "name:fr": "Menzel Bourguiba",
        "operator": "الشركة الوطنية للسكك الحديدية التونسية",
        "operator:ar": "الشركة الوطنية للسكك الحديدية التونسية",
        "operator:website": "http://www.sncft.com.tn/Ar/",
        "operator:wikidata": "Q2297197",
        "operator:wikipedia": "ar:الشركة الوطنية للسكك الحديدية التونسية",
        "operator:wikipedia:ar": "الشركة الوطنية للسكك الحديدية التونسية",
        "public_transport": "station",
        "railway": "station",
        "train": "yes",
        "id": "node/8678682450"
      },
      "geometry": {
        "type": "Point",
        "coordinates": [
          9.7936192,
          37.1513804
        ]
      }
    },
    {
      "type": "Feature",
      "id": "node/9016197592",
      "properties": {
        "name": "تينجة",
        "name:ar": "تينجة",
        "name:fr": "Tinja",
        "public_transport": "station",
        "railway": "station",
        "train": "yes",
        "id": "node/9016197592"
      },
      "geometry": {
        "type": "Point",
        "coordinates": [
          9.7572863,
          37.1597021
        ]
      }
    },
    {
      "type": "Feature",
      "id": "node/9024876442",
      "properties": {
        "name": "Mdhilla",
        "public_transport": "station",
        "railway": "station",
        "train": "yes",
        "id": "node/9024876442"
      },
      "geometry": {
        "type": "Point",
        "coordinates": [
          8.7251778,
          34.2920513
        ]
      }
    },
    {
      "type": "Feature",
      "id": "node/9037886323",
      "properties": {
        "name": "Jelma",
        "public_transport": "station",
        "railway": "station",
        "id": "node/9037886323"
      },
      "geometry": {
        "type": "Point",
        "coordinates": [
          9.4207526,
          35.273577
        ]
      }
    },
    {
      "type": "Feature",
      "id": "node/9162088821",
      "properties": {
        "name": "قرطاج بيرصة",
        "name:ar": "قرطاج بيرصة",
        "name:en": "Carthage Byrsa",
        "name:fr": "Carthage Byrsa",
        "public_transport": "station",
        "railway": "station",
        "station": "light_rail",
        "id": "node/9162088821"
      },
      "geometry": {
        "type": "Point",
        "coordinates": [
          10.32184,
          36.8462307
        ]
      }
    },
    {
      "type": "Feature",
      "id": "node/9287672072",
      "properties": {
        "name": "Sidi Boubaker",
        "public_transport": "station",
        "railway": "station",
        "train": "yes",
        "id": "node/9287672072"
      },
      "geometry": {
        "type": "Point",
        "coordinates": [
          8.4619053,
          34.6675169
        ]
      }
    },
    {
      "type": "Feature",
      "id": "node/9293679962",
      "properties": {
        "name": "الزعفران",
        "name:fr": "Zaafrane",
        "public_transport": "station",
        "railway": "station",
        "train": "yes",
        "id": "node/9293679962"
      },
      "geometry": {
        "type": "Point",
        "coordinates": [
          8.8349392,
          36.1578783
        ]
      }
    },
    {
      "type": "Feature",
      "id": "node/9303531720",
      "properties": {
        "public_transport": "station",
        "railway": "station",
        "train": "yes",
        "id": "node/9303531720"
      },
      "geometry": {
        "type": "Point",
        "coordinates": [
          9.9847371,
          36.8374067
        ]
      }
    },
    {
      "type": "Feature",
      "id": "node/9303551506",
      "properties": {
        "disused:railway": "station",
        "name": "شواط",
        "name:fr": "Chaouat",
        "public_transport": "halt",
        "railway": "halt",
        "train": "yes",
        "id": "node/9303551506"
      },
      "geometry": {
        "type": "Point",
        "coordinates": [
          9.9443804,
          36.8897087
        ]
      }
    },
    {
      "type": "Feature",
      "id": "node/9306396343",
      "properties": {
        "name": "المصيدة",
        "name:fr": "La Pêcherie",
        "public_transport": "station",
        "railway": "halt",
        "train": "yes",
        "id": "node/9306396343"
      },
      "geometry": {
        "type": "Point",
        "coordinates": [
          9.8398961,
          37.2544043
        ]
      }
    },
    {
      "type": "Feature",
      "id": "node/9306574624",
      "properties": {
        "name": "برج التومي",
        "name:fr": "Borj Toumi",
        "public_transport": "station",
        "railway": "station",
        "train": "yes",
        "id": "node/9306574624"
      },
      "geometry": {
        "type": "Point",
        "coordinates": [
          9.7198675,
          36.756239
        ]
      }
    },
    {
      "type": "Feature",
      "id": "node/9318733638",
      "properties": {
        "name": "Mohamed V",
        "public_transport": "station",
        "id": "node/9318733638"
      },
      "geometry": {
        "type": "Point",
        "coordinates": [
          10.1837846,
          36.8150646
        ]
      }
    }
  ]
}