{
  "type": "FeatureCollection",
  "features": [
    {
      "type": "Feature",
      "id": "node/301722995",
      "properties": {
        "esr": "741100",
        "esr:user": "741100",
        "name": "Наманган",
        "name:ar": "نمنكان",
        "name:de": "Namangan",
        "name:en": "Namangan",
        "name:ru": "Наманган",
        "name:uz": "Namangan",
        "name:uz-cyr": "Наманган",
        "public_transport": "station",
        "railway": "station",
        "train": "yes",
        "uic_ref": "2900940",
        "id": "node/301722995"
      },
      "geometry": {
        "type": "Point",
        "coordinates": [
          71.6439491,
          40.9996269
        ]
      }
    },
    {
      "type": "Feature",
      "id": "node/1553880976",
      "properties": {
        "esr:user": "727902",
        "name": "Улугбек",
        "name:ru": "Улугбек",
        "operator": "O'zbekiston temir yo'llary",
        "public_transport": "station",
        "railway": "station",
        "train": "yes",
        "uic_ref": "2900783",
        "id": "node/1553880976"
      },
      "geometry": {
        "type": "Point",
        "coordinates": [
          66.8375327,
          39.6982884
        ]
      }
    },
    {
      "type": "Feature",
      "id": "node/1555266196",
      "properties": {
        "addr:city": "Alato'n",
        "esr:user": "733301",
        "name": "Alato'n",
        "name:ru": "Алатун",
        "operator": "O‘zbekiston temir yo‘llari",
        "public_transport": "station",
        "railway": "station",
        "train": "yes",
        "uic_ref": "2900789",
        "id": "node/1555266196"
      },
      "geometry": {
        "type": "Point",
        "coordinates": [
          66.0482275,
          39.19914
        ]
      }
    },
    {
      "type": "Feature",
      "id": "node/1555410119",
      "properties": {
        "esr:user": "733316",
        "name": "Nekuz",
        "name:ru": "Некуз",
        "operator": "O‘zbekiston temir yo‘llari",
        "public_transport": "station",
        "railway": "station",
        "train": "yes",
        "uic_ref": "2900791",
        "id": "node/1555410119"
      },
      "geometry": {
        "type": "Point",
        "coordinates": [
          65.8810707,
          39.0588252
        ]
      }
    },
    {
      "type": "Feature",
      "id": "node/2197208283",
      "properties": {
        "esr:user": "723719",
        "name": "Эркин",
        "public_transport": "station",
        "railway": "station",
        "train": "yes",
        "uic_ref": "2900295",
        "wikidata": "Q98855226",
        "id": "node/2197208283"
      },
      "geometry": {
        "type": "Point",
        "coordinates": [
          69.178531,
          41.2269842
        ]
      }
    },
    {
      "type": "Feature",
      "id": "node/2204812766",
      "properties": {
        "alt_name": "Ташкент-Центральный;Северный Вокзал;Ташкент-Северный;Ташкент Пассажирский;Тошкент Пассайир Станцияси;Тошкент Пассайир;Станция Ташкент Пассажирский;Тошкент-Пассайир Бекати",
        "alt_name:en": "Tashkent Passazhirskiy;Toshkent Passajir Stantsiyasi;Toshkent Passajir;Stantsiya Tashkent Passazhirskiy",
        "esr:user": "720918",
        "gns:dsg": "RSTN: railroad station",
        "gns:ufi": "-2579218",
        "name": "Ташкент-Пассажирский",
        "name:en": "Tashkent-Passenger",
        "name:ru": "Ташкент-Пассажирский",
        "name:uz": "Toshkent-Passajir",
        "note": "railway=station пишем название по ЕСР (Ташкент пассажирский) на здание ставим вокзвл северный итд.",
        "public_transport": "station",
        "railway": "station",
        "source": "NGA GNS",
        "train": "yes",
        "uic_name": "Taschkent Pass Zentr",
        "uic_ref": "2900001",
        "wikidata": "Q12823615",
        "wikipedia": "ru:Ташкент-Пассажирский",
        "id": "node/2204812766"
      },
      "geometry": {
        "type": "Point",
        "coordinates": [
          69.2873215,
          41.290956
        ]
      }
    },
    {
      "type": "Feature",
      "id": "node/2205021829",
      "properties": {
        "alt_name": "Станция Салар;Салар;Салор",
        "alt_name:en": "Stantsiya Salar;Salar;Salor",
        "esr:user": "720903",
        "gns:dsg": "RSTN: railroad station",
        "gns:ufi": "293158",
        "name": "Салар",
        "name:en": "Salar",
        "name:ru": "Салар",
        "name:uz": "Salor",
        "old_name": "Чирчик",
        "public_transport": "station",
        "railway": "station",
        "source": "NGA GNS",
        "train": "yes",
        "uic_ref": "2900732",
        "wikidata": "Q97231655",
        "wikipedia": "uz:Salor vokzali",
        "id": "node/2205021829"
      },
      "geometry": {
        "type": "Point",
        "coordinates": [
          69.3137243,
          41.3229129
        ]
      }
    },
    {
      "type": "Feature",
      "id": "node/2209501413",
      "properties": {
        "alt_name": "Станция Янгиюль;Станция Кауфманская;Кауфманнская;Янгиюл;Янгиюль",
        "alt_name:en": "Stantsiya Yangiyul';Stantsiya Kaufmanskaya;Kaufmannskaya;Yangiyul;Yangiyul'",
        "esr:user": "724001",
        "gns:dsg": "RSTN: railroad station",
        "gns:ufi": "-2577097",
        "name": "Янгиюль",
        "name:en": "Yangiyul Bekati",
        "name:ru": "Янгиюль",
        "old_name": "Кауфманская",
        "public_transport": "station",
        "railway": "station",
        "source": "NGA GNS",
        "train": "yes",
        "uic_ref": "2900753",
        "id": "node/2209501413"
      },
      "geometry": {
        "type": "Point",
        "coordinates": [
          69.0607466,
          41.1167754
        ]
      }
    },
    {
      "type": "Feature",
      "id": "node/2279305298",
      "properties": {
        "esr:user": "727809",
        "name": "Samarkand",
        "name:en": "Samarkand",
        "name:ru": "Самарканд",
        "name:uz": "Samarkand",
        "name:zh": "萨马尔罕",
        "name:zh-Hant": "薩馬爾罕",
        "operator": "O'zbekiston temir yo'llary",
        "public_transport": "station",
        "railway": "station",
        "train": "yes",
        "uic_ref": "2900700",
        "id": "node/2279305298"
      },
      "geometry": {
        "type": "Point",
        "coordinates": [
          66.9289709,
          39.6859908
        ]
      }
    },
    {
      "type": "Feature",
      "id": "node/5455046834",
      "properties": {
        "name": "Даутепа",
        "name:ru": "Даутепа",
        "public_transport": "station",
        "railway": "station",
        "train": "yes",
        "id": "node/5455046834"
      },
      "geometry": {
        "type": "Point",
        "coordinates": [
          61.9225529,
          41.2096634
        ]
      }
    },
    {
      "type": "Feature",
      "id": "node/5793725055",
      "properties": {
        "name": "Xiva",
        "name:de": "Chiwa",
        "name:en": "Khiva",
        "name:fr": "Station de train",
        "name:ja": "ヒヴァ",
        "name:ru": "Хива",
        "operator": "UzRailways",
        "public_transport": "station",
        "railway": "station",
        "source": "Maxar",
        "train": "yes",
        "id": "node/5793725055"
      },
      "geometry": {
        "type": "Point",
        "coordinates": [
          60.3769706,
          41.3770831
        ]
      }
    },
    {
      "type": "Feature",
      "id": "node/7190718830",
      "properties": {
        "esr:user": "739859",
        "name:ru": "Каскатау",
        "public_transport": "station",
        "railway": "station",
        "train": "yes",
        "id": "node/7190718830"
      },
      "geometry": {
        "type": "Point",
        "coordinates": [
          61.8074492,
          41.5358885
        ]
      }
    },
    {
      "type": "Feature",
      "id": "node/9112487713",
      "properties": {
        "name": "Ташкура",
        "public_transport": "station",
        "railway": "station",
        "station": "yard",
        "train": "yes",
        "id": "node/9112487713"
      },
      "geometry": {
        "type": "Point",
        "coordinates": [
          64.5906776,
          41.2344737
        ]
      }
    }
  ]
}