{
  "type": "FeatureCollection",
  "features": [
    {
      "type": "Feature",
      "id": "node/291014382",
      "properties": {
        "name": "Ga Phú Thụy",
        "public_transport": "station",
        "railway": "station",
        "wikidata": "Q60195839",
        "id": "node/291014382"
      },
      "geometry": {
        "type": "Point",
        "coordinates": [
          105.9620164,
          21.0035096
        ]
      }
    },
    {
      "type": "Feature",
      "id": "node/305328347",
      "properties": {
        "railway": "station",
        "id": "node/305328347"
      },
      "geometry": {
        "type": "Point",
        "coordinates": [
          107.5407711,
          10.9851836
        ]
      }
    },
    {
      "type": "Feature",
      "id": "node/305328667",
      "properties": {
        "name": "Ga Song Phan",
        "name:en": "Song Phan Station",
        "name:vi": "Ga Song Phan",
        "railway": "station",
        "wikidata": "Q60364783",
        "id": "node/305328667"
      },
      "geometry": {
        "type": "Point",
        "coordinates": [
          107.7523204,
          10.8744564
        ]
      }
    },
    {
      "type": "Feature",
      "id": "node/305329053",
      "properties": {
        "public_transport": "station",
        "railway": "station",
        "id": "node/305329053"
      },
      "geometry": {
        "type": "Point",
        "coordinates": [
          107.8672156,
          10.9206311
        ]
      }
    },
    {
      "type": "Feature",
      "id": "node/305329259",
      "properties": {
        "name": "Ga Bình Thuận",
        "name:en": "Binh Thuan Station",
        "name:zh": "平順",
        "railway": "station",
        "wikidata": "Q4914343",
        "id": "node/305329259"
      },
      "geometry": {
        "type": "Point",
        "coordinates": [
          108.0033762,
          10.9690157
        ]
      }
    },
    {
      "type": "Feature",
      "id": "node/305329448",
      "properties": {
        "name": "Ga Phan Thiết (Cũ), (Old Railway Station)",
        "railway": "station",
        "id": "node/305329448"
      },
      "geometry": {
        "type": "Point",
        "coordinates": [
          108.1009232,
          10.9320445
        ]
      }
    },
    {
      "type": "Feature",
      "id": "node/305329452",
      "properties": {
        "railway": "station",
        "id": "node/305329452"
      },
      "geometry": {
        "type": "Point",
        "coordinates": [
          107.4877269,
          10.9674499
        ]
      }
    },
    {
      "type": "Feature",
      "id": "node/311714761",
      "properties": {
        "addr:city": "Hà Nội",
        "addr:district": "Gia Lâm",
        "addr:province": "Hà Nội",
        "addr:subdistrict": "Yên Viên",
        "name": "Ga Yên Viên",
        "name:en": "Yên Viên Railway station",
        "name:zh": "安员",
        "public_transport": "station",
        "railway": "station",
        "wikidata": "Q8052198",
        "id": "node/311714761"
      },
      "geometry": {
        "type": "Point",
        "coordinates": [
          105.9162524,
          21.0855579
        ]
      }
    },
    {
      "type": "Feature",
      "id": "node/312949392",
      "properties": {
        "name": "Ga Gia Lâm",
        "name:en": "Gia Lâm Railway Station",
        "name:fr": "Gare de Gia Lam",
        "name:zh": "嘉林火车站",
        "public_transport": "station",
        "railway": "station",
        "wikidata": "Q5557794",
        "wikipedia": "en:Gia Lâm Railway Station",
        "id": "node/312949392"
      },
      "geometry": {
        "type": "Point",
        "coordinates": [
          105.8786414,
          21.051718
        ]
      }
    },
    {
      "type": "Feature",
      "id": "node/366399912",
      "properties": {
        "railway": "stop",
        "id": "node/366399912"
      },
      "geometry": {
        "type": "Point",
        "coordinates": [
          106.6544077,
          10.6906141
        ]
      }
    },
    {
      "type": "Feature",
      "id": "node/442461986",
      "properties": {
        "addr:city": "Vinh",
        "addr:housenumber": "1",
        "addr:province": "Nghệ AN",
        "addr:street": "Lệ Ninh",
        "addr:subdistrict": "Quán Bầu",
        "name": "Ga Vinh",
        "name:en": "Vinh Railway Station",
        "name:ja": "ヴィン",
        "opening_hours": "Mo-Su 05:00-24:00",
        "operator": "Vietnam Railway",
        "public_transport": "station",
        "railway": "station",
        "id": "node/442461986"
      },
      "geometry": {
        "type": "Point",
        "coordinates": [
          105.6639605,
          18.6878243
        ]
      }
    },
    {
      "type": "Feature",
      "id": "node/445345254",
      "properties": {
        "name": "Long Biên",
        "operator": "Đường sắt Việt Nam",
        "public_transport": "stop_position",
        "railway": "stop",
        "train": "yes",
        "id": "node/445345254"
      },
      "geometry": {
        "type": "Point",
        "coordinates": [
          105.8500047,
          21.0399329
        ]
      }
    },
    {
      "type": "Feature",
      "id": "node/481837556",
      "properties": {
        "name": "GaTiền Trung",
        "railway": "station",
        "id": "node/481837556"
      },
      "geometry": {
        "type": "Point",
        "coordinates": [
          106.3787043,
          20.9677508
        ]
      }
    },
    {
      "type": "Feature",
      "id": "node/582845534",
      "properties": {
        "name": "Ga Đông Anh",
        "name:en": "Đông Anh Railway Station",
        "public_transport": "station",
        "railway": "station",
        "wikidata": "Q5295707",
        "id": "node/582845534"
      },
      "geometry": {
        "type": "Point",
        "coordinates": [
          105.8519612,
          21.1536239
        ]
      }
    },
    {
      "type": "Feature",
      "id": "node/667360878",
      "properties": {
        "name": "Tháp Chàm",
        "name:en": "Phan Rang - Thap Cham",
        "name:ja": "ファンラン＝タップチャム",
        "name:vi": "Phan Rang - Tháp Chàm",
        "railway": "station",
        "id": "node/667360878"
      },
      "geometry": {
        "type": "Point",
        "coordinates": [
          108.9498429,
          11.5971933
        ]
      }
    },
    {
      "type": "Feature",
      "id": "node/667953689",
      "properties": {
        "name": "Ga Bình Định",
        "railway": "stop",
        "id": "node/667953689"
      },
      "geometry": {
        "type": "Point",
        "coordinates": [
          109.1010634,
          13.8871802
        ]
      }
    },
    {
      "type": "Feature",
      "id": "node/668466047",
      "properties": {
        "int_name": "Tuy Hòa train station",
        "name": "Ga Tuy Hòa",
        "name:en": "Tuy Hoa Railway Station",
        "railway": "station",
        "id": "node/668466047"
      },
      "geometry": {
        "type": "Point",
        "coordinates": [
          109.2971424,
          13.0880435
        ]
      }
    },
    {
      "type": "Feature",
      "id": "node/668687991",
      "properties": {
        "name": "Ga Hải Vân Bắc",
        "name:en": "North Hai Van Raiway Station",
        "public_transport": "station",
        "railway": "station",
        "train": "yes",
        "id": "node/668687991"
      },
      "geometry": {
        "type": "Point",
        "coordinates": [
          108.1160844,
          16.2115479
        ]
      }
    },
    {
      "type": "Feature",
      "id": "node/849260229",
      "properties": {
        "name": "Ga Long Thanh",
        "name:en": "Long Thanh Station",
        "name:ko": "롱타인역",
        "railway": "station",
        "wikidata": "Q60367228",
        "id": "node/849260229"
      },
      "geometry": {
        "type": "Point",
        "coordinates": [
          108.2053698,
          11.1293141
        ]
      }
    },
    {
      "type": "Feature",
      "id": "node/849300601",
      "properties": {
        "name": "Ga Nha Trang",
        "name:en": "Nha Trang Station",
        "name:fr": "Gare Ferrovière de Nha Trang",
        "name:ko": "냐짱(나트랑) 역",
        "name:ru": "Ньячанг",
        "name:vi": "Ga Nha Trang",
        "name:zh": "芽庄站",
        "railway": "station",
        "id": "node/849300601"
      },
      "geometry": {
        "type": "Point",
        "coordinates": [
          109.1841932,
          12.2482866
        ]
      }
    },
    {
      "type": "Feature",
      "id": "node/936706346",
      "properties": {
        "name": "Ga Ninh Bình",
        "name:en": "Ninh Binh Train Station",
        "name:ja": "ニンビン",
        "name:zh": "寧平",
        "network": "Vietnam Railways",
        "public_transport": "station",
        "railway": "station",
        "wikidata": "Q16877130",
        "wikipedia": "vi:Ga Ninh Bình",
        "id": "node/936706346"
      },
      "geometry": {
        "type": "Point",
        "coordinates": [
          105.9748472,
          20.2419515
        ]
      }
    },
    {
      "type": "Feature",
      "id": "node/941741781",
      "properties": {
        "name": "Ga Lào Cai",
        "name:en": "Lao Cai Train Station",
        "name:vi": "Ga Lào Cai",
        "name:zh": "老街",
        "public_transport": "station",
        "railway": "station",
        "id": "node/941741781"
      },
      "geometry": {
        "type": "Point",
        "coordinates": [
          103.9783086,
          22.4922202
        ]
      }
    },
    {
      "type": "Feature",
      "id": "node/1274537776",
      "properties": {
        "addr:street": "Quốc lộ 1A",
        "name": "Ga Thường Tín",
        "name:en": "Thuong Tin Train Station",
        "name:zh": "常信",
        "network": "Đường sắt Bắc-Nam",
        "operator": "Vietnam Railways",
        "public_transport": "station",
        "railway": "station",
        "wikidata": "Q54887447",
        "id": "node/1274537776"
      },
      "geometry": {
        "type": "Point",
        "coordinates": [
          105.86414,
          20.8719979
        ]
      }
    },
    {
      "type": "Feature",
      "id": "node/1274538809",
      "properties": {
        "name": "Ga Đồng Văn",
        "network": "Đường sắt Việt Nam",
        "public_transport": "station",
        "railway": "station",
        "wikidata": "Q54887531",
        "wikipedia": "vi:Ga Đồng Văn",
        "id": "node/1274538809"
      },
      "geometry": {
        "type": "Point",
        "coordinates": [
          105.9188669,
          20.6388825
        ]
      }
    },
    {
      "type": "Feature",
      "id": "node/1433203449",
      "properties": {
        "name": "Ga Lăng Cô",
        "name:en": "Lang Co Railway Station",
        "operator": "Vietnam Railways",
        "public_transport": "station",
        "railway": "station",
        "id": "node/1433203449"
      },
      "geometry": {
        "type": "Point",
        "coordinates": [
          108.0813628,
          16.2221033
        ]
      }
    },
    {
      "type": "Feature",
      "id": "node/1619903005",
      "properties": {
        "name": "Ga Quy Nhơn",
        "name:zh": "歸仁",
        "public_transport": "station",
        "railway": "station",
        "wikidata": "Q7273045",
        "id": "node/1619903005"
      },
      "geometry": {
        "type": "Point",
        "coordinates": [
          109.2251852,
          13.7776175
        ]
      }
    },
    {
      "type": "Feature",
      "id": "node/1662612140",
      "properties": {
        "name": "Ga Tuấn Lương",
        "railway": "station",
        "source": "GPS",
        "id": "node/1662612140"
      },
      "geometry": {
        "type": "Point",
        "coordinates": [
          106.1015627,
          20.9701084
        ]
      }
    },
    {
      "type": "Feature",
      "id": "node/1682858956",
      "properties": {
        "name": "Ga Bồng Sơn",
        "railway": "station",
        "wikidata": "Q10760429",
        "id": "node/1682858956"
      },
      "geometry": {
        "type": "Point",
        "coordinates": [
          109.0195623,
          14.4383026
        ]
      }
    },
    {
      "type": "Feature",
      "id": "node/1682858957",
      "properties": {
        "name": "Ga Hội Đức",
        "railway": "station",
        "id": "node/1682858957"
      },
      "geometry": {
        "type": "Point",
        "coordinates": [
          109.033333,
          14.483333
        ]
      }
    },
    {
      "type": "Feature",
      "id": "node/1682858959",
      "properties": {
        "name": "Ga Phù Cát",
        "railway": "station",
        "id": "node/1682858959"
      },
      "geometry": {
        "type": "Point",
        "coordinates": [
          109.0602928,
          13.9823718
        ]
      }
    },
    {
      "type": "Feature",
      "id": "node/1682858962",
      "properties": {
        "name": "Ga Phù Mỹ",
        "railway": "station",
        "wikidata": "Q60367150",
        "id": "node/1682858962"
      },
      "geometry": {
        "type": "Point",
        "coordinates": [
          109.0397506,
          14.1846771
        ]
      }
    },
    {
      "type": "Feature",
      "id": "node/1682858965",
      "properties": {
        "name": "Ga Tam Quan",
        "railway": "station",
        "id": "node/1682858965"
      },
      "geometry": {
        "type": "Point",
        "coordinates": [
          109.0451096,
          14.5536308
        ]
      }
    },
    {
      "type": "Feature",
      "id": "node/1682858966",
      "properties": {
        "name": "Ga Vạn Phú",
        "name:ko": "번안역",
        "railway": "station",
        "wikidata": "Q60367167",
        "id": "node/1682858966"
      },
      "geometry": {
        "type": "Point",
        "coordinates": [
          109.0616283,
          14.3158277
        ]
      }
    },
    {
      "type": "Feature",
      "id": "node/1682867417",
      "properties": {
        "name": "Ga Bình Định",
        "public_transport": "station",
        "railway": "station",
        "wikidata": "Q60367510",
        "id": "node/1682867417"
      },
      "geometry": {
        "type": "Point",
        "coordinates": [
          109.101382,
          13.887191
        ]
      }
    },
    {
      "type": "Feature",
      "id": "node/1683137837",
      "properties": {
        "name": "Ga Tân Vinh",
        "railway": "station",
        "wikidata": "Q60367454",
        "id": "node/1683137837"
      },
      "geometry": {
        "type": "Point",
        "coordinates": [
          109.0501803,
          13.7083425
        ]
      }
    },
    {
      "type": "Feature",
      "id": "node/1690292547",
      "properties": {
        "name": "Ga Quán Hành",
        "public_transport": "station",
        "railway": "station",
        "train": "yes",
        "id": "node/1690292547"
      },
      "geometry": {
        "type": "Point",
        "coordinates": [
          105.6470788,
          18.7820996
        ]
      }
    },
    {
      "type": "Feature",
      "id": "node/1690292888",
      "properties": {
        "addr:district": "Nông Cống",
        "addr:province": "Thanh Hóa",
        "addr:subdistrict": "Tượng Sơn",
        "name": "Ga Văn Trai",
        "network": "Vietnam Railways",
        "public_transport": "station",
        "railway": "station",
        "wikidata": "Q60364039",
        "wikipedia": "vi:Ga Văn Trai",
        "id": "node/1690292888"
      },
      "geometry": {
        "type": "Point",
        "coordinates": [
          105.7633887,
          19.4580978
        ]
      }
    },
    {
      "type": "Feature",
      "id": "node/1858361494",
      "properties": {
        "name": "Ga Phúc Yên",
        "public_transport": "station",
        "railway": "station",
        "id": "node/1858361494"
      },
      "geometry": {
        "type": "Point",
        "coordinates": [
          105.7122557,
          21.2400659
        ]
      }
    },
    {
      "type": "Feature",
      "id": "node/2028140282",
      "properties": {
        "addr:city": "Nam Định",
        "addr:province": "Nam Định",
        "addr:street": "Trần Đăng Ninh",
        "name": "Ga Nam Định",
        "name:en": "Nam Dinh Train Station",
        "name:zh": "南定",
        "public_transport": "station",
        "railway": "station",
        "id": "node/2028140282"
      },
      "geometry": {
        "type": "Point",
        "coordinates": [
          106.164135,
          20.4213996
        ]
      }
    },
    {
      "type": "Feature",
      "id": "node/2171376756",
      "properties": {
        "name": "Phú Thái",
        "railway": "station",
        "id": "node/2171376756"
      },
      "geometry": {
        "type": "Point",
        "coordinates": [
          106.5106413,
          20.9661
        ]
      }
    },
    {
      "type": "Feature",
      "id": "node/2189495967",
      "properties": {
        "name": "Ga Cẩm Giàng",
        "railway": "station",
        "id": "node/2189495967"
      },
      "geometry": {
        "type": "Point",
        "coordinates": [
          106.171266,
          20.9671199
        ]
      }
    },
    {
      "type": "Feature",
      "id": "node/2283324650",
      "properties": {
        "fixme": "resurvey",
        "name": "Ga Phan Thiết (Mới)",
        "name:zh": "潘切",
        "note": "check position - now end of railway line ?",
        "railway": "station",
        "source": "local_knowledge",
        "id": "node/2283324650"
      },
      "geometry": {
        "type": "Point",
        "coordinates": [
          108.0824337,
          10.9419906
        ]
      }
    },
    {
      "type": "Feature",
      "id": "node/2451929745",
      "properties": {
        "name": "Ga Cầu Yên",
        "public_transport": "station",
        "railway": "station",
        "wikidata": "Q55950540",
        "wikipedia": "vi:Ga Cầu Yên",
        "id": "node/2451929745"
      },
      "geometry": {
        "type": "Point",
        "coordinates": [
          105.9654408,
          20.2042772
        ]
      }
    },
    {
      "type": "Feature",
      "id": "node/2490885381",
      "properties": {
        "name": "Ga Thượng Lý km97",
        "public_transport": "station",
        "id": "node/2490885381"
      },
      "geometry": {
        "type": "Point",
        "coordinates": [
          106.6525907,
          20.8703394
        ]
      }
    },
    {
      "type": "Feature",
      "id": "node/2495831892",
      "properties": {
        "name": "Ga Thượng Lý",
        "railway": "station",
        "id": "node/2495831892"
      },
      "geometry": {
        "type": "Point",
        "coordinates": [
          106.6583482,
          20.8656838
        ]
      }
    },
    {
      "type": "Feature",
      "id": "node/2510778618",
      "properties": {
        "amenity": "ferry_terminal",
        "name": "Cát Lở",
        "public_transport": "station",
        "id": "node/2510778618"
      },
      "geometry": {
        "type": "Point",
        "coordinates": [
          107.1283186,
          10.4140208
        ]
      }
    },
    {
      "type": "Feature",
      "id": "node/2684333243",
      "properties": {
        "name": "Ga Chí Thạnh",
        "name:ko": "찌타인역",
        "railway": "station",
        "id": "node/2684333243"
      },
      "geometry": {
        "type": "Point",
        "coordinates": [
          109.2194064,
          13.3051342
        ]
      }
    },
    {
      "type": "Feature",
      "id": "node/2691963929",
      "properties": {
        "name": "Ga Lạc Đạo",
        "public_transport": "station",
        "railway": "station",
        "id": "node/2691963929"
      },
      "geometry": {
        "type": "Point",
        "coordinates": [
          106.0301871,
          20.9831253
        ]
      }
    },
    {
      "type": "Feature",
      "id": "node/2749441688",
      "properties": {
        "int_name": "Bỉm Sơn Railway Station",
        "name": "Ga Bỉm Sơn",
        "name:en": "Bim Son Train Station",
        "public_transport": "station",
        "railway": "station",
        "source": "Visit, with GPS in Vespucci",
        "wikidata": "Q60325245",
        "wikipedia": "vi:Ga Bỉm Sơn",
        "id": "node/2749441688"
      },
      "geometry": {
        "type": "Point",
        "coordinates": [
          105.8551437,
          20.0814092
        ]
      }
    },
    {
      "type": "Feature",
      "id": "node/2890938904",
      "properties": {
        "name": "Phước Long (đang xây dựng)",
        "name:en": "Phuoc Long (under construction",
        "name:zh": "福隆",
        "public_transport": "station",
        "railway": "station",
        "id": "node/2890938904"
      },
      "geometry": {
        "type": "Point",
        "coordinates": [
          106.7580541,
          10.8211662
        ]
      }
    },
    {
      "type": "Feature",
      "id": "node/2890938910",
      "properties": {
        "name": "Ba Son (đang xây dựng)",
        "name:en": "Ba Son (under construction)",
        "name:ru": "Басон",
        "name:zh": "波山（建设中）",
        "public_transport": "station",
        "railway": "station",
        "id": "node/2890938910"
      },
      "geometry": {
        "type": "Point",
        "coordinates": [
          106.712099,
          10.7859311
        ]
      }
    },
    {
      "type": "Feature",
      "id": "node/2890938914",
      "properties": {
        "name": "Thủ Đức (đang xây dựng)",
        "name:en": "Thu Duc (under construction)",
        "railway": "station",
        "id": "node/2890938914"
      },
      "geometry": {
        "type": "Point",
        "coordinates": [
          106.7736559,
          10.849508
        ]
      }
    },
    {
      "type": "Feature",
      "id": "node/2890938926",
      "properties": {
        "name": "Khu Công Nghệ Cao",
        "name:en": "High Tech Park",
        "railway": "station",
        "id": "node/2890938926"
      },
      "geometry": {
        "type": "Point",
        "coordinates": [
          106.7887776,
          10.8591
        ]
      }
    },
    {
      "type": "Feature",
      "id": "node/2890938934",
      "properties": {
        "name": "Rạch Chiếc (đang xây dựng)",
        "name:en": "Rach Chiec (under contruction)",
        "name:zh": "沥只",
        "public_transport": "station",
        "railway": "station",
        "id": "node/2890938934"
      },
      "geometry": {
        "type": "Point",
        "coordinates": [
          106.7553141,
          10.8087019
        ]
      }
    },
    {
      "type": "Feature",
      "id": "node/2890938966",
      "properties": {
        "construction": "station",
        "name": "Thảo Điền (đang xây dựng)",
        "name:en": "Thao Dien (under construction)",
        "name:ru": "Тхаодьен",
        "name:zh": "草田（建设中）",
        "public_transport": "station",
        "railway": "construction",
        "id": "node/2890938966"
      },
      "geometry": {
        "type": "Point",
        "coordinates": [
          106.7335043,
          10.8004701
        ]
      }
    },
    {
      "type": "Feature",
      "id": "node/2890938980",
      "properties": {
        "name": "Bình Thái (đang xây dựng)",
        "name:en": "Binh Thai (under construction)",
        "railway": "station",
        "id": "node/2890938980"
      },
      "geometry": {
        "type": "Point",
        "coordinates": [
          106.7637882,
          10.8326789
        ]
      }
    },
    {
      "type": "Feature",
      "id": "node/2891038201",
      "properties": {
        "name": "Bình Triệu",
        "name:zh": "平趙",
        "railway": "station",
        "id": "node/2891038201"
      },
      "geometry": {
        "type": "Point",
        "coordinates": [
          106.7160839,
          10.8275268
        ]
      }
    },
    {
      "type": "Feature",
      "id": "node/2893698500",
      "properties": {
        "fixme": "check",
        "name": "Tân Bình (dự kiến)",
        "network": "route 2",
        "public_transport": "station",
        "railway": "station",
        "id": "node/2893698500"
      },
      "geometry": {
        "type": "Point",
        "coordinates": [
          106.6306122,
          10.8207264
        ]
      }
    },
    {
      "type": "Feature",
      "id": "node/2893713544",
      "properties": {
        "name": "Phạm Văn Bạch (dự kiến)",
        "network": "route 2",
        "public_transport": "station",
        "railway": "station",
        "id": "node/2893713544"
      },
      "geometry": {
        "type": "Point",
        "coordinates": [
          106.6325901,
          10.8141755
        ]
      }
    },
    {
      "type": "Feature",
      "id": "node/2893713547",
      "properties": {
        "name": "Bảy Hiền (dự kiến)",
        "public_transport": "station",
        "railway": "station",
        "id": "node/2893713547"
      },
      "geometry": {
        "type": "Point",
        "coordinates": [
          106.652172,
          10.7935594
        ]
      }
    },
    {
      "type": "Feature",
      "id": "node/2893713553",
      "properties": {
        "name": "Hòa Hưng (dự kiến)",
        "public_transport": "station",
        "railway": "station",
        "id": "node/2893713553"
      },
      "geometry": {
        "type": "Point",
        "coordinates": [
          106.6768417,
          10.7818458
        ]
      }
    },
    {
      "type": "Feature",
      "id": "node/2893771497",
      "properties": {
        "name": "Gò Vấp",
        "name:ko": "고법역",
        "name:zh": "舊邑",
        "operator": "Vietnam Railways",
        "railway": "station",
        "id": "node/2893771497"
      },
      "geometry": {
        "type": "Point",
        "coordinates": [
          106.6847235,
          10.8159089
        ]
      }
    },
    {
      "type": "Feature",
      "id": "node/2895040786",
      "properties": {
        "name": "Sóng Thần",
        "name:zh": "神浪",
        "public_transport": "station",
        "railway": "station",
        "wikidata": "Q7561050",
        "id": "node/2895040786"
      },
      "geometry": {
        "type": "Point",
        "coordinates": [
          106.7519296,
          10.8791123
        ]
      }
    },
    {
      "type": "Feature",
      "id": "node/2895040787",
      "properties": {
        "name": "Ga Dĩ An",
        "name:zh": "以安",
        "railway": "station",
        "wikidata": "Q5270017",
        "id": "node/2895040787"
      },
      "geometry": {
        "type": "Point",
        "coordinates": [
          106.7694932,
          10.9079728
        ]
      }
    },
    {
      "type": "Feature",
      "id": "node/2895047022",
      "properties": {
        "name": "Ga Hố Nai",
        "name:zh": "呼狔",
        "public_transport": "station",
        "railway": "station",
        "id": "node/2895047022"
      },
      "geometry": {
        "type": "Point",
        "coordinates": [
          106.9065249,
          10.9595721
        ]
      }
    },
    {
      "type": "Feature",
      "id": "node/2895047023",
      "properties": {
        "name": "Trảng Bom",
        "name:zh": "壯奔",
        "railway": "station",
        "id": "node/2895047023"
      },
      "geometry": {
        "type": "Point",
        "coordinates": [
          106.9942488,
          10.944535
        ]
      }
    },
    {
      "type": "Feature",
      "id": "node/2895359059",
      "properties": {
        "name": "Dầu Giây",
        "name:zh": "油之",
        "railway": "station",
        "id": "node/2895359059"
      },
      "geometry": {
        "type": "Point",
        "coordinates": [
          107.1383346,
          10.931039
        ]
      }
    },
    {
      "type": "Feature",
      "id": "node/2975431934",
      "properties": {
        "name": "Nam Hải",
        "public_transport": "station",
        "id": "node/2975431934"
      },
      "geometry": {
        "type": "Point",
        "coordinates": [
          107.11464,
          10.49547
        ]
      }
    },
    {
      "type": "Feature",
      "id": "node/2975958106",
      "properties": {
        "construction": "station",
        "name": "Nhà hát Thành phố (đang xây dựng)",
        "name:en": "Opera House",
        "name:id": "Teater Kota",
        "name:ru": "Городской Театр",
        "name:vi-Hani": "伽咭城埔",
        "name:zh": "市大劇院（建设中）",
        "public_transport": "station",
        "railway": "construction",
        "id": "node/2975958106"
      },
      "geometry": {
        "type": "Point",
        "coordinates": [
          106.7024469,
          10.7758777
        ]
      }
    },
    {
      "type": "Feature",
      "id": "node/2985557733",
      "properties": {
        "name": "Ga Hương Thuỷ",
        "name:en": "Huong Thuy Railway Station",
        "name:zh": "香水",
        "public_transport": "station",
        "railway": "station",
        "id": "node/2985557733"
      },
      "geometry": {
        "type": "Point",
        "coordinates": [
          107.6640282,
          16.4189998
        ]
      }
    },
    {
      "type": "Feature",
      "id": "node/2985592982",
      "properties": {
        "name": "Ga Truồi",
        "name:en": "Truoi Railway Station",
        "public_transport": "station",
        "railway": "station",
        "id": "node/2985592982"
      },
      "geometry": {
        "type": "Point",
        "coordinates": [
          107.7748461,
          16.3193006
        ]
      }
    },
    {
      "type": "Feature",
      "id": "node/3080461554",
      "properties": {
        "name": "Ga Thừa Lưu",
        "name:en": "Thua Luu Railway Station",
        "public_transport": "station",
        "railway": "station",
        "id": "node/3080461554"
      },
      "geometry": {
        "type": "Point",
        "coordinates": [
          107.9936954,
          16.271002
        ]
      }
    },
    {
      "type": "Feature",
      "id": "node/3282481383",
      "properties": {
        "name": "Gia Ray",
        "name:ko": "자라이역",
        "name:zh": "嘉來",
        "railway": "station",
        "id": "node/3282481383"
      },
      "geometry": {
        "type": "Point",
        "coordinates": [
          107.4030327,
          10.9644341
        ]
      }
    },
    {
      "type": "Feature",
      "id": "node/3377406129",
      "properties": {
        "name": "Trại Mát",
        "railway": "station",
        "id": "node/3377406129"
      },
      "geometry": {
        "type": "Point",
        "coordinates": [
          108.5014764,
          11.9461413
        ]
      }
    },
    {
      "type": "Feature",
      "id": "node/3555846897",
      "properties": {
        "name": "Ga Minh Lệ",
        "railway": "station",
        "id": "node/3555846897"
      },
      "geometry": {
        "type": "Point",
        "coordinates": [
          106.3695458,
          17.712871
        ]
      }
    },
    {
      "type": "Feature",
      "id": "node/3555890811",
      "properties": {
        "name": "Ga Le Son",
        "railway": "station",
        "id": "node/3555890811"
      },
      "geometry": {
        "type": "Point",
        "coordinates": [
          106.2576957,
          17.7788632
        ]
      }
    },
    {
      "type": "Feature",
      "id": "node/3555952330",
      "properties": {
        "public_transport": "station",
        "railway": "station",
        "id": "node/3555952330"
      },
      "geometry": {
        "type": "Point",
        "coordinates": [
          105.9042777,
          18.0084122
        ]
      }
    },
    {
      "type": "Feature",
      "id": "node/3555989422",
      "properties": {
        "name": "Ga Hương Phố",
        "name:en": "Huong Pho Train Station",
        "opening_hours": "Mo-Su 05:00-24:00",
        "railway": "station",
        "id": "node/3555989422"
      },
      "geometry": {
        "type": "Point",
        "coordinates": [
          105.7075544,
          18.1704409
        ]
      }
    },
    {
      "type": "Feature",
      "id": "node/3567484771",
      "properties": {
        "name": "Ga Phú Diễn",
        "railway": "station",
        "id": "node/3567484771"
      },
      "geometry": {
        "type": "Point",
        "coordinates": [
          105.7648979,
          21.0513093
        ]
      }
    },
    {
      "type": "Feature",
      "id": "node/4195020989",
      "properties": {
        "addr:city": "Mỹ Tho",
        "addr:province": "Tiền Giang",
        "addr:street": "Trưng Trắc",
        "addr:subdistrict": "1",
        "name": "Ga Mỹ Tho (cũ)",
        "operational_status": "closed",
        "public_transport": "station",
        "railway:historic": "station_site",
        "id": "node/4195020989"
      },
      "geometry": {
        "type": "Point",
        "coordinates": [
          106.3678607,
          10.3532705
        ]
      }
    },
    {
      "type": "Feature",
      "id": "node/4195642994",
      "properties": {
        "addr:street": "Quốc lộ 1A",
        "alt_name": "Tam Kỳ Railway Station",
        "name": "Ga Tam Kỳ",
        "name:en": "Tam Kỳ Station",
        "railway": "station",
        "id": "node/4195642994"
      },
      "geometry": {
        "type": "Point",
        "coordinates": [
          108.4839731,
          15.5573707
        ]
      }
    },
    {
      "type": "Feature",
      "id": "node/4195713190",
      "properties": {
        "name": "Ga Thanh Hóa",
        "name:en": "Thanh Hoa Train Station",
        "name:zh": "清化",
        "network": "Vietnam Railways",
        "public_transport": "station",
        "railway": "station",
        "id": "node/4195713190"
      },
      "geometry": {
        "type": "Point",
        "coordinates": [
          105.7677621,
          19.8128131
        ]
      }
    },
    {
      "type": "Feature",
      "id": "node/4195713289",
      "properties": {
        "name": "Ga Yên Trung",
        "name:en": "Yen Trung Train Station",
        "opening_hours": "Mo-Su 05:00-24:00",
        "public_transport": "station",
        "railway": "station",
        "id": "node/4195713289"
      },
      "geometry": {
        "type": "Point",
        "coordinates": [
          105.5876526,
          18.5231585
        ]
      }
    },
    {
      "type": "Feature",
      "id": "node/4195713293",
      "properties": {
        "addr:street": "Thống Nhất",
        "name": "Ga Sông Mao",
        "railway": "station",
        "id": "node/4195713293"
      },
      "geometry": {
        "type": "Point",
        "coordinates": [
          108.5059924,
          11.2486449
        ]
      }
    },
    {
      "type": "Feature",
      "id": "node/4195713389",
      "properties": {
        "addr:district": "Diễn Châu",
        "addr:province": "Nghệ An",
        "addr:subdistrict": "Diễn Kỷ",
        "name": "Ga Chợ Sy",
        "name:en": "Cho Sy Train Station",
        "opening_hours": "Mo-Su 05:00-24:00",
        "public_transport": "station",
        "railway": "station",
        "wikidata": "Q60364070",
        "wikipedia": "vi:Ga Chợ Sy",
        "id": "node/4195713389"
      },
      "geometry": {
        "type": "Point",
        "coordinates": [
          105.5760159,
          19.0084146
        ]
      }
    },
    {
      "type": "Feature",
      "id": "node/4195713395",
      "properties": {
        "addr:street": "Trần Phú",
        "name": "Long Khánh",
        "name:en": "Long Khanh",
        "name:zh": "隆庆",
        "public_transport": "station",
        "railway": "station",
        "train": "yes",
        "id": "node/4195713395"
      },
      "geometry": {
        "type": "Point",
        "coordinates": [
          107.24477,
          10.9336523
        ]
      }
    },
    {
      "type": "Feature",
      "id": "node/4195718092",
      "properties": {
        "addr:street": "Giếng Đáy",
        "name": "Ga Hạ Long",
        "name:ko": "할롱역",
        "name:zh": "下龙",
        "public_transport": "station",
        "railway": "station",
        "id": "node/4195718092"
      },
      "geometry": {
        "type": "Point",
        "coordinates": [
          107.0104198,
          20.9748254
        ]
      }
    },
    {
      "type": "Feature",
      "id": "node/4195728890",
      "properties": {
        "name": "Ga Bảo Hà",
        "public_transport": "station",
        "railway": "station",
        "train": "yes",
        "id": "node/4195728890"
      },
      "geometry": {
        "type": "Point",
        "coordinates": [
          104.3551637,
          22.1785199
        ]
      }
    },
    {
      "type": "Feature",
      "id": "node/4195729191",
      "properties": {
        "name": "Ga Minh Khôi",
        "name:en": "Minh Khoi Train Station",
        "public_transport": "station",
        "railway": "station",
        "id": "node/4195729191"
      },
      "geometry": {
        "type": "Point",
        "coordinates": [
          105.7018897,
          19.6331403
        ]
      }
    },
    {
      "type": "Feature",
      "id": "node/4195730294",
      "properties": {
        "addr:postcode": "250000",
        "name": "Ga Thái Nguyên",
        "opening_hours": "24/7",
        "public_transport": "station",
        "railway": "station",
        "wikidata": "Q54333320",
        "wikipedia": "vi:Ga Thái Nguyên",
        "id": "node/4195730294"
      },
      "geometry": {
        "type": "Point",
        "coordinates": [
          105.8238293,
          21.5867762
        ]
      }
    },
    {
      "type": "Feature",
      "id": "node/4195731789",
      "properties": {
        "name": "Ga Ngã Ba",
        "railway": "station",
        "id": "node/4195731789"
      },
      "geometry": {
        "type": "Point",
        "coordinates": [
          109.1209306,
          11.9254424
        ]
      }
    },
    {
      "type": "Feature",
      "id": "node/4310182889",
      "properties": {
        "name": "Ga Hoa Tan",
        "railway": "station",
        "id": "node/4310182889"
      },
      "geometry": {
        "type": "Point",
        "coordinates": [
          109.0988856,
          12.1217663
        ]
      }
    },
    {
      "type": "Feature",
      "id": "node/4313781489",
      "properties": {
        "name": "Ga Quang Ngai",
        "public_transport": "station",
        "railway": "station",
        "train": "yes",
        "id": "node/4313781489"
      },
      "geometry": {
        "type": "Point",
        "coordinates": [
          108.8962884,
          14.9056096
        ]
      }
    },
    {
      "type": "Feature",
      "id": "node/4394346093",
      "properties": {
        "name": "Ga Đức Phổ",
        "name:vi": "Ga Đức Phổ",
        "railway": "station",
        "train": "yes",
        "website": "https://dsvn.vn/",
        "id": "node/4394346093"
      },
      "geometry": {
        "type": "Point",
        "coordinates": [
          108.9469832,
          14.8098265
        ]
      }
    },
    {
      "type": "Feature",
      "id": "node/4555366194",
      "properties": {
        "name": "Ga Đồng Lê",
        "name:en": "Dong Le Train Station",
        "name:ko": "동레역",
        "name:vi": "Ga Đồng Lê",
        "opening_hours": "Mo-Su 05:00-24:00",
        "public_transport": "station",
        "railway": "station",
        "id": "node/4555366194"
      },
      "geometry": {
        "type": "Point",
        "coordinates": [
          106.0221501,
          17.8882232
        ]
      }
    },
    {
      "type": "Feature",
      "id": "node/4639698212",
      "properties": {
        "name": "Ga Kép",
        "name:en": "Kép Railway Station",
        "name:vi": "Ga Kép",
        "name:zh": "𠄳",
        "railway": "station",
        "wikidata": "Q6393088",
        "wikipedia": "vi:Ga Kép",
        "id": "node/4639698212"
      },
      "geometry": {
        "type": "Point",
        "coordinates": [
          106.2903257,
          21.4166685
        ]
      }
    },
    {
      "type": "Feature",
      "id": "node/4684920699",
      "properties": {
        "name": "Ga Ghềnh",
        "network": "Vietnam Railways",
        "public_transport": "station",
        "railway": "station",
        "wikidata": "Q60325235",
        "wikipedia": "vi:Ga Ghềnh",
        "id": "node/4684920699"
      },
      "geometry": {
        "type": "Point",
        "coordinates": [
          105.9414023,
          20.1694976
        ]
      }
    },
    {
      "type": "Feature",
      "id": "node/4736612109",
      "properties": {
        "name": "Ga Bắc Ninh",
        "name:en": "Bac Ninh Station",
        "railway": "station",
        "wikidata": "Q4838561",
        "id": "node/4736612109"
      },
      "geometry": {
        "type": "Point",
        "coordinates": [
          106.0562213,
          21.1783934
        ]
      }
    },
    {
      "type": "Feature",
      "id": "node/4871780943",
      "properties": {
        "construction": "station",
        "name": "Bến Thành (đang xây dựng)",
        "name:en": "Ben Thanh (under construction)",
        "name:ru": "Бентхань",
        "name:vi": "Bến Thành (đang xây dựng)",
        "name:zh": "滨城（建设中）",
        "public_transport": "station",
        "railway": "construction",
        "id": "node/4871780943"
      },
      "geometry": {
        "type": "Point",
        "coordinates": [
          106.697233,
          10.7709847
        ]
      }
    },
    {
      "type": "Feature",
      "id": "node/4871899280",
      "properties": {
        "name": "Bà Quẹo (dự kiến)",
        "public_transport": "station",
        "railway": "station",
        "id": "node/4871899280"
      },
      "geometry": {
        "type": "Point",
        "coordinates": [
          106.6352303,
          10.8056428
        ]
      }
    },
    {
      "type": "Feature",
      "id": "node/4871907822",
      "properties": {
        "name": "Tao Đàn (dự kiến)",
        "name:zh": "骚坛",
        "proposed": "station",
        "public_transport": "station",
        "railway": "proposed",
        "id": "node/4871907822"
      },
      "geometry": {
        "type": "Point",
        "coordinates": [
          106.6902954,
          10.7731636
        ]
      }
    },
    {
      "type": "Feature",
      "id": "node/4871947799",
      "properties": {
        "name": "Nguyễn Hồng Đào (dự kiến)",
        "network": "route 2",
        "public_transport": "station",
        "railway": "station",
        "id": "node/4871947799"
      },
      "geometry": {
        "type": "Point",
        "coordinates": [
          106.6437774,
          10.7980473
        ]
      }
    },
    {
      "type": "Feature",
      "id": "node/4877811761",
      "properties": {
        "name": "Phạm Văn Hai (dự kiến)",
        "network": "route 2, km5+630",
        "railway": "station",
        "id": "node/4877811761"
      },
      "geometry": {
        "type": "Point",
        "coordinates": [
          106.6600363,
          10.789567
        ]
      }
    },
    {
      "type": "Feature",
      "id": "node/4879876936",
      "properties": {
        "construction": "station",
        "name": "Dân Chủ (dự kiến",
        "name:zh": "民主",
        "note": "route 2, km2 +900",
        "public_transport": "station",
        "railway": "construction",
        "id": "node/4879876936"
      },
      "geometry": {
        "type": "Point",
        "coordinates": [
          106.6820994,
          10.7776563
        ]
      }
    },
    {
      "type": "Feature",
      "id": "node/4882822879",
      "properties": {
        "name": "Lê Thị Riêng (dự kiến)",
        "network": "route 2, km4+990",
        "railway": "station",
        "id": "node/4882822879"
      },
      "geometry": {
        "type": "Point",
        "coordinates": [
          106.6658996,
          10.7860742
        ]
      }
    },
    {
      "type": "Feature",
      "id": "node/4911856102",
      "properties": {
        "name": "Ga Tiên Kiên",
        "public_transport": "station",
        "railway": "station",
        "id": "node/4911856102"
      },
      "geometry": {
        "type": "Point",
        "coordinates": [
          105.2935033,
          21.3662579
        ]
      }
    },
    {
      "type": "Feature",
      "id": "node/4918435014",
      "properties": {
        "name": "Hoà Hưng (dự kiến)",
        "network": "route 2",
        "railway": "station",
        "id": "node/4918435014"
      },
      "geometry": {
        "type": "Point",
        "coordinates": [
          106.6744824,
          10.7816488
        ]
      }
    },
    {
      "type": "Feature",
      "id": "node/4928298599",
      "properties": {
        "name": "Bay Hien (approx)",
        "network": "route 2, km6+430",
        "railway": "station",
        "id": "node/4928298599"
      },
      "geometry": {
        "type": "Point",
        "coordinates": [
          106.6522041,
          10.793615
        ]
      }
    },
    {
      "type": "Feature",
      "id": "node/4974866131",
      "properties": {
        "name": "Ga Cầu Hai",
        "railway": "station",
        "id": "node/4974866131"
      },
      "geometry": {
        "type": "Point",
        "coordinates": [
          107.8608358,
          16.2800896
        ]
      }
    },
    {
      "type": "Feature",
      "id": "node/5030628146",
      "properties": {
        "name": "Ga Hòa Vinh Tây",
        "railway": "stop",
        "id": "node/5030628146"
      },
      "geometry": {
        "type": "Point",
        "coordinates": [
          108.8344821,
          15.0226823
        ]
      }
    },
    {
      "type": "Feature",
      "id": "node/5030628147",
      "properties": {
        "name": "Ga Đức Phổ",
        "name:en": "Ga Duc Pho",
        "public_transport": "stop_position",
        "railway": "stop",
        "train": "yes",
        "id": "node/5030628147"
      },
      "geometry": {
        "type": "Point",
        "coordinates": [
          108.9467814,
          14.8097041
        ]
      }
    },
    {
      "type": "Feature",
      "id": "node/5030628148",
      "properties": {
        "name": "Ga Thủy Thạch",
        "railway": "stop",
        "id": "node/5030628148"
      },
      "geometry": {
        "type": "Point",
        "coordinates": [
          109.0068554,
          14.7524865
        ]
      }
    },
    {
      "type": "Feature",
      "id": "node/5030628149",
      "properties": {
        "name": "Ga Sa Huỳnh",
        "railway": "stop",
        "id": "node/5030628149"
      },
      "geometry": {
        "type": "Point",
        "coordinates": [
          109.0650747,
          14.6619349
        ]
      }
    },
    {
      "type": "Feature",
      "id": "node/5030628150",
      "properties": {
        "name": "Ga Tam Quan",
        "railway": "stop",
        "id": "node/5030628150"
      },
      "geometry": {
        "type": "Point",
        "coordinates": [
          109.043811,
          14.548158
        ]
      }
    },
    {
      "type": "Feature",
      "id": "node/5030628151",
      "properties": {
        "name": "Ga Bồng Sơn",
        "public_transport": "stop_position",
        "railway": "stop",
        "id": "node/5030628151"
      },
      "geometry": {
        "type": "Point",
        "coordinates": [
          109.0195865,
          14.4383239
        ]
      }
    },
    {
      "type": "Feature",
      "id": "node/5030628154",
      "properties": {
        "name": "Ga Vạn Phú",
        "railway": "stop",
        "id": "node/5030628154"
      },
      "geometry": {
        "type": "Point",
        "coordinates": [
          109.0640407,
          14.3142082
        ]
      }
    },
    {
      "type": "Feature",
      "id": "node/5030628156",
      "properties": {
        "name": "Ga Khánh Phước",
        "railway": "stop",
        "id": "node/5030628156"
      },
      "geometry": {
        "type": "Point",
        "coordinates": [
          109.037332,
          14.088133
        ]
      }
    },
    {
      "type": "Feature",
      "id": "node/5030628157",
      "properties": {
        "name": "Ga Phù Cát",
        "railway": "stop",
        "id": "node/5030628157"
      },
      "geometry": {
        "type": "Point",
        "coordinates": [
          109.0568843,
          13.994512
        ]
      }
    },
    {
      "type": "Feature",
      "id": "node/5030628158",
      "properties": {
        "name": "Ga Diêu Trì",
        "name:zh": "瑤池",
        "public_transport": "stop_position",
        "railway": "stop",
        "id": "node/5030628158"
      },
      "geometry": {
        "type": "Point",
        "coordinates": [
          109.143505,
          13.8073204
        ]
      }
    },
    {
      "type": "Feature",
      "id": "node/5129681122",
      "properties": {
        "internet_access": "wlan",
        "name": "Ga Lạng Sơn",
        "name:en": "Lạng Sơn",
        "name:ja": "ランソン",
        "name:ko": "랑선역",
        "name:zh": "谅山",
        "opening_hours": "24/7",
        "operator": "Vietnam Railways",
        "phone": "01295331983",
        "railway": "station",
        "train": "yes",
        "id": "node/5129681122"
      },
      "geometry": {
        "type": "Point",
        "coordinates": [
          106.7690007,
          21.8557974
        ]
      }
    },
    {
      "type": "Feature",
      "id": "node/5177594538",
      "properties": {
        "highway": "bus_stop",
        "name": "Trạm xe Bus",
        "public_transport": "station",
        "id": "node/5177594538"
      },
      "geometry": {
        "type": "Point",
        "coordinates": [
          105.7752353,
          10.0503901
        ]
      }
    },
    {
      "type": "Feature",
      "id": "node/5177594548",
      "properties": {
        "highway": "bus_stop",
        "name": "Trạm xe Bus",
        "public_transport": "station",
        "id": "node/5177594548"
      },
      "geometry": {
        "type": "Point",
        "coordinates": [
          105.7759178,
          10.0497048
        ]
      }
    },
    {
      "type": "Feature",
      "id": "node/5336410884",
      "properties": {
        "name": "Ga La Hai",
        "railway": "station",
        "id": "node/5336410884"
      },
      "geometry": {
        "type": "Point",
        "coordinates": [
          109.1059306,
          13.3815149
        ]
      }
    },
    {
      "type": "Feature",
      "id": "node/5336410885",
      "properties": {
        "name": "Ga Vân Canh",
        "railway": "station",
        "wikidata": "Q60367461",
        "id": "node/5336410885"
      },
      "geometry": {
        "type": "Point",
        "coordinates": [
          108.9976139,
          13.6211786
        ]
      }
    },
    {
      "type": "Feature",
      "id": "node/5336413040",
      "properties": {
        "name": "Ga Giã",
        "name:en": "Gia Railway Station",
        "name:vi": "Ga Giã",
        "railway": "station",
        "id": "node/5336413040"
      },
      "geometry": {
        "type": "Point",
        "coordinates": [
          109.2235574,
          12.7001738
        ]
      }
    },
    {
      "type": "Feature",
      "id": "node/5381117859",
      "properties": {
        "name": "Ga Cầu Hai",
        "name:en": "Cau Hai Railway Station",
        "public_transport": "station",
        "railway": "station",
        "id": "node/5381117859"
      },
      "geometry": {
        "type": "Point",
        "coordinates": [
          107.886865,
          16.2695877
        ]
      }
    },
    {
      "type": "Feature",
      "id": "node/5406339022",
      "properties": {
        "name": "Ga Đông Hà",
        "name:en": "Dong Ha Train Station",
        "opening_hours": "Mo-Su 05:00-24:00",
        "railway": "station",
        "id": "node/5406339022"
      },
      "geometry": {
        "type": "Point",
        "coordinates": [
          107.1120576,
          16.811429
        ]
      }
    },
    {
      "type": "Feature",
      "id": "node/5406339025",
      "properties": {
        "name": "Ga Thach Tru",
        "name:en": "Thach Tru Train Station",
        "opening_hours": "Mo-Su 05:00-00:00",
        "public_transport": "station",
        "railway": "station",
        "train": "yes",
        "id": "node/5406339025"
      },
      "geometry": {
        "type": "Point",
        "coordinates": [
          108.910342,
          14.8805539
        ]
      }
    },
    {
      "type": "Feature",
      "id": "node/5406339026",
      "properties": {
        "name": "Ga Diêu Trì",
        "name:en": "Dieu Tri Train Station",
        "opening_hours": "Mo-Su 05:00-24:00",
        "operator": "Vietnam Railways",
        "public_transport": "station",
        "railway": "station",
        "wikidata": "Q3096367",
        "wikipedia": "en:Diêu Trì station",
        "id": "node/5406339026"
      },
      "geometry": {
        "type": "Point",
        "coordinates": [
          109.1435008,
          13.8072834
        ]
      }
    },
    {
      "type": "Feature",
      "id": "node/5406339121",
      "properties": {
        "addr:city": "Thành phố Đồng Hới",
        "addr:province": "Quảng Bình",
        "addr:subdistrict": "Phường Nam Lý",
        "name": "Ga Đồng Hới",
        "name:en": "Dong Hoi Train Station",
        "opening_hours": "Mo-Su 05:00-24:00",
        "public_transport": "station",
        "railway": "station",
        "id": "node/5406339121"
      },
      "geometry": {
        "type": "Point",
        "coordinates": [
          106.6001384,
          17.4691424
        ]
      }
    },
    {
      "type": "Feature",
      "id": "node/5592212588",
      "properties": {
        "name": "Mường Hoa",
        "name:en": "Mường Hoa",
        "public_transport": "station",
        "railway": "station",
        "train": "yes",
        "id": "node/5592212588"
      },
      "geometry": {
        "type": "Point",
        "coordinates": [
          103.8250031,
          22.3365736
        ]
      }
    },
    {
      "type": "Feature",
      "id": "node/5737616219",
      "properties": {
        "name": "Ga Quảng Ngãi",
        "name:en": "Quang Ngai",
        "public_transport": "station",
        "railway": "station",
        "train": "yes",
        "id": "node/5737616219"
      },
      "geometry": {
        "type": "Point",
        "coordinates": [
          108.7811238,
          15.1209092
        ]
      }
    },
    {
      "type": "Feature",
      "id": "node/5936550883",
      "properties": {
        "int_name": "Pho Lu Railway station",
        "name": "Ga Phố Lu",
        "name:zh": "庯婁",
        "public_transport": "station",
        "railway": "station",
        "id": "node/5936550883"
      },
      "geometry": {
        "type": "Point",
        "coordinates": [
          104.1868201,
          22.3146695
        ]
      }
    },
    {
      "type": "Feature",
      "id": "node/5965084639",
      "properties": {
        "name": "Ga Việt Trì",
        "public_transport": "station",
        "railway": "station",
        "train": "yes",
        "wikidata": "Q7928448",
        "wikipedia": "vi:Ga Việt Trì",
        "id": "node/5965084639"
      },
      "geometry": {
        "type": "Point",
        "coordinates": [
          105.4321479,
          21.3005482
        ]
      }
    },
    {
      "type": "Feature",
      "id": "node/6009922083",
      "properties": {
        "name": "Chí Linh",
        "railway": "station",
        "id": "node/6009922083"
      },
      "geometry": {
        "type": "Point",
        "coordinates": [
          106.4459176,
          21.1544436
        ]
      }
    },
    {
      "type": "Feature",
      "id": "node/6092647830",
      "properties": {
        "name": "Ga Trường Lâm",
        "name:en": "Truong Lam Train Station",
        "public_transport": "station",
        "railway": "station",
        "train": "yes",
        "wikidata": "Q60364054",
        "wikipedia": "vi:Ga Trường Lâm",
        "id": "node/6092647830"
      },
      "geometry": {
        "type": "Point",
        "coordinates": [
          105.7200568,
          19.3155292
        ]
      }
    },
    {
      "type": "Feature",
      "id": "node/6123105710",
      "properties": {
        "name": "Ga Đò Lèn",
        "name:en": "Do Len Train Station",
        "operator": "Đường Sắt Việt Nam",
        "public_transport": "station",
        "railway": "station",
        "train": "yes",
        "id": "node/6123105710"
      },
      "geometry": {
        "type": "Point",
        "coordinates": [
          105.844805,
          19.987342
        ]
      }
    },
    {
      "type": "Feature",
      "id": "node/6300643433",
      "properties": {
        "addr:street": "Bắc Sơn",
        "alt_name:en": "Đồng Đăng Railway Station",
        "alt_name:fr": "Gare de Dong Dang",
        "alt_name:ja": "ドンダン駅",
        "alt_name:ko": "동당역",
        "alt_name:vi": "Ga Đồng Đăng",
        "alt_name:zh": "同登站",
        "name": "Đồng Đăng",
        "name:en": "Đồng Đăng",
        "name:fr": "Dong Dang",
        "name:ja": "ドンダン",
        "name:ko": "동당",
        "name:vi": "Đồng Đăng",
        "name:zh": "同登",
        "public_transport": "station",
        "railway": "station",
        "source": "GPS",
        "source:name": "survey",
        "train": "yes",
        "wikidata": "Q1109565",
        "wikipedia": "vi:Ga Đồng Đăng",
        "id": "node/6300643433"
      },
      "geometry": {
        "type": "Point",
        "coordinates": [
          106.6973696,
          21.9432926
        ]
      }
    },
    {
      "type": "Feature",
      "id": "node/6315983756",
      "properties": {
        "name": "Cái Lân",
        "name:ko": "까이란역",
        "public_transport": "station",
        "railway": "station",
        "id": "node/6315983756"
      },
      "geometry": {
        "type": "Point",
        "coordinates": [
          107.0406103,
          20.9717348
        ]
      }
    },
    {
      "type": "Feature",
      "id": "node/6315983765",
      "properties": {
        "name": "Cảng Cái Lân",
        "name:ko": "까이런항",
        "public_transport": "station",
        "railway": "station",
        "id": "node/6315983765"
      },
      "geometry": {
        "type": "Point",
        "coordinates": [
          107.0523986,
          20.9699203
        ]
      }
    },
    {
      "type": "Feature",
      "id": "node/6418622225",
      "properties": {
        "name": "Ga Giáp Bát",
        "public_transport": "stop_position",
        "railway": "stop",
        "train": "yes",
        "id": "node/6418622225"
      },
      "geometry": {
        "type": "Point",
        "coordinates": [
          105.8407724,
          20.9796868
        ]
      }
    },
    {
      "type": "Feature",
      "id": "node/6514295662",
      "properties": {
        "name": "Station",
        "public_transport": "station",
        "railway": "station",
        "train": "yes",
        "id": "node/6514295662"
      },
      "geometry": {
        "type": "Point",
        "coordinates": [
          109.361975,
          12.9996996
        ]
      }
    },
    {
      "type": "Feature",
      "id": "node/6576321471",
      "properties": {
        "addr:city": "Đà Nẵng",
        "addr:district": "Thanh Khê",
        "addr:housenumber": "783",
        "addr:street": "Đường Trần Cao Vân",
        "addr:subdistrict": "Thanh Khê Đông",
        "name": "Ga Thanh Khê",
        "name:en": "Thanh Khe Railway Station",
        "public_transport": "station",
        "railway": "station",
        "wikipedia:vi": "Ga Thanh Khê",
        "id": "node/6576321471"
      },
      "geometry": {
        "type": "Point",
        "coordinates": [
          108.1832743,
          16.0663709
        ]
      }
    },
    {
      "type": "Feature",
      "id": "node/6576385399",
      "properties": {
        "name": "Ninh Bình",
        "name:zh": "寧平",
        "public_transport": "stop_position",
        "railway": "stop",
        "train": "yes",
        "id": "node/6576385399"
      },
      "geometry": {
        "type": "Point",
        "coordinates": [
          105.9846418,
          20.2399332
        ]
      }
    },
    {
      "type": "Feature",
      "id": "node/6576385427",
      "properties": {
        "alt_name": "高鐵河內站",
        "name": "Hà Nội",
        "name:en": "Honai",
        "name:zh": "河內",
        "public_transport": "stop_position",
        "railway": "stop",
        "train": "yes",
        "id": "node/6576385427"
      },
      "geometry": {
        "type": "Point",
        "coordinates": [
          105.745567,
          20.9489705
        ]
      }
    },
    {
      "type": "Feature",
      "id": "node/6576385559",
      "properties": {
        "name": "Ninh Bình",
        "name:zh": "寧平",
        "public_transport": "stop_position",
        "railway": "stop",
        "train": "yes",
        "id": "node/6576385559"
      },
      "geometry": {
        "type": "Point",
        "coordinates": [
          105.9845957,
          20.2399476
        ]
      }
    },
    {
      "type": "Feature",
      "id": "node/6576385586",
      "properties": {
        "alt_name": "高鐵河內站",
        "name": "Hà Nội",
        "name:en": "Honai",
        "name:zh": "河內",
        "public_transport": "stop_position",
        "railway": "stop",
        "train": "yes",
        "id": "node/6576385586"
      },
      "geometry": {
        "type": "Point",
        "coordinates": [
          105.7455326,
          20.9489453
        ]
      }
    },
    {
      "type": "Feature",
      "id": "node/6633732088",
      "properties": {
        "name": "Nam Định",
        "name:zh": "南定",
        "public_transport": "stop_position",
        "railway": "stop",
        "train": "yes",
        "id": "node/6633732088"
      },
      "geometry": {
        "type": "Point",
        "coordinates": [
          106.1292303,
          20.4202697
        ]
      }
    },
    {
      "type": "Feature",
      "id": "node/6709101585",
      "properties": {
        "name": "Ga Đoan Thượng",
        "name:en": "Doan Thuong Railway Station",
        "public_transport": "station",
        "railway": "station",
        "id": "node/6709101585"
      },
      "geometry": {
        "type": "Point",
        "coordinates": [
          104.950297,
          21.6199974
        ]
      }
    },
    {
      "type": "Feature",
      "id": "node/6743981546",
      "properties": {
        "name": "Lạng Sơn",
        "name:zh": "谅山",
        "public_transport": "stop_position",
        "railway": "stop",
        "train": "yes",
        "id": "node/6743981546"
      },
      "geometry": {
        "type": "Point",
        "coordinates": [
          106.7690134,
          21.855735
        ]
      }
    },
    {
      "type": "Feature",
      "id": "node/6796320356",
      "properties": {
        "name": "Ga Yên Trạch",
        "name:zh": "安澤",
        "railway": "station",
        "train": "yes",
        "id": "node/6796320356"
      },
      "geometry": {
        "type": "Point",
        "coordinates": [
          106.7618242,
          21.8104324
        ]
      }
    },
    {
      "type": "Feature",
      "id": "node/6820568269",
      "properties": {
        "name": "Đà Lạt",
        "railway": "station",
        "id": "node/6820568269"
      },
      "geometry": {
        "type": "Point",
        "coordinates": [
          108.4544728,
          11.9416342
        ]
      }
    },
    {
      "type": "Feature",
      "id": "node/6937762808",
      "properties": {
        "name": "Ga Yên Bái",
        "name:zh": "安沛",
        "public_transport": "station",
        "railway": "station",
        "train": "yes",
        "id": "node/6937762808"
      },
      "geometry": {
        "type": "Point",
        "coordinates": [
          104.8807117,
          21.7024606
        ]
      }
    },
    {
      "type": "Feature",
      "id": "node/7003936112",
      "properties": {
        "name": "Ga Trình Xuyên",
        "railway": "station",
        "id": "node/7003936112"
      },
      "geometry": {
        "type": "Point",
        "coordinates": [
          106.1330736,
          20.3715557
        ]
      }
    },
    {
      "type": "Feature",
      "id": "node/7121064062",
      "properties": {
        "name": "Sapa",
        "public_transport": "station",
        "railway": "station",
        "train": "yes",
        "id": "node/7121064062"
      },
      "geometry": {
        "type": "Point",
        "coordinates": [
          103.8403745,
          22.3342559
        ]
      }
    },
    {
      "type": "Feature",
      "id": "node/7146444577",
      "properties": {
        "name": "Ga Phổ Yên",
        "railway": "station",
        "id": "node/7146444577"
      },
      "geometry": {
        "type": "Point",
        "coordinates": [
          105.8767939,
          21.4112833
        ]
      }
    },
    {
      "type": "Feature",
      "id": "node/7150182167",
      "properties": {
        "name": "Ga Phố Tráng",
        "name:en": "Pho Trang Railway Station",
        "railway": "station",
        "wikidata": "Q54311011",
        "id": "node/7150182167"
      },
      "geometry": {
        "type": "Point",
        "coordinates": [
          106.2537677,
          21.3394444
        ]
      }
    },
    {
      "type": "Feature",
      "id": "node/7150182209",
      "properties": {
        "name": "Ga Lan Mẫu",
        "railway": "station",
        "wikidata": "Q6482797",
        "id": "node/7150182209"
      },
      "geometry": {
        "type": "Point",
        "coordinates": [
          106.3377185,
          21.2905779
        ]
      }
    },
    {
      "type": "Feature",
      "id": "node/7150191832",
      "properties": {
        "name": "Ga Đông Triều",
        "railway": "station",
        "id": "node/7150191832"
      },
      "geometry": {
        "type": "Point",
        "coordinates": [
          106.5331361,
          21.0952648
        ]
      }
    },
    {
      "type": "Feature",
      "id": "node/7150194822",
      "properties": {
        "name": "Ga Bắc Giang",
        "name:en": "Bac Giang Railway Station",
        "name:zh": "北江",
        "railway": "station",
        "wikidata": "Q4838555",
        "id": "node/7150194822"
      },
      "geometry": {
        "type": "Point",
        "coordinates": [
          106.1916752,
          21.2788349
        ]
      }
    },
    {
      "type": "Feature",
      "id": "node/7150197662",
      "properties": {
        "name": "Sen Hổ",
        "railway": "station",
        "id": "node/7150197662"
      },
      "geometry": {
        "type": "Point",
        "coordinates": [
          106.0994977,
          21.2396425
        ]
      }
    },
    {
      "type": "Feature",
      "id": "node/7150201926",
      "properties": {
        "name": "Cẩm Lý",
        "name:ko": "껌리역",
        "public_transport": "station",
        "railway": "station",
        "wikidata": "Q60370304",
        "id": "node/7150201926"
      },
      "geometry": {
        "type": "Point",
        "coordinates": [
          106.3800973,
          21.2168828
        ]
      }
    },
    {
      "type": "Feature",
      "id": "node/7150206397",
      "properties": {
        "name": "Ga Uông Bí",
        "public_transport": "station",
        "railway": "station",
        "id": "node/7150206397"
      },
      "geometry": {
        "type": "Point",
        "coordinates": [
          106.7563458,
          21.0349918
        ]
      }
    },
    {
      "type": "Feature",
      "id": "node/7150207236",
      "properties": {
        "name": "Ga Lim",
        "railway": "station",
        "wikidata": "Q54305883",
        "id": "node/7150207236"
      },
      "geometry": {
        "type": "Point",
        "coordinates": [
          106.0182794,
          21.145452
        ]
      }
    },
    {
      "type": "Feature",
      "id": "node/7150211290",
      "properties": {
        "name": "Ga Từ Sơn",
        "name:en": "Tu Son Railway Station",
        "railway": "station",
        "wikidata": "Q54306404",
        "id": "node/7150211290"
      },
      "geometry": {
        "type": "Point",
        "coordinates": [
          105.9625512,
          21.1201079
        ]
      }
    },
    {
      "type": "Feature",
      "id": "node/7150218749",
      "properties": {
        "name": "Ga Thị Cầu",
        "railway": "station",
        "wikidata": "Q54308872",
        "id": "node/7150218749"
      },
      "geometry": {
        "type": "Point",
        "coordinates": [
          106.0816343,
          21.1949755
        ]
      }
    },
    {
      "type": "Feature",
      "id": "node/7150223982",
      "properties": {
        "name": "Ga Bắc Lệ",
        "name:zh": "北麗",
        "railway": "station",
        "id": "node/7150223982"
      },
      "geometry": {
        "type": "Point",
        "coordinates": [
          106.4311506,
          21.5153513
        ]
      }
    },
    {
      "type": "Feature",
      "id": "node/7150227049",
      "properties": {
        "name": "Ga Voi Xô",
        "name:en": "Voi Xo Railway Station",
        "railway": "station",
        "id": "node/7150227049"
      },
      "geometry": {
        "type": "Point",
        "coordinates": [
          106.3381796,
          21.439308
        ]
      }
    },
    {
      "type": "Feature",
      "id": "node/7150234493",
      "properties": {
        "name": "Ga Phố Vị",
        "name:en": "Pho Vi Railway Station",
        "name:zh": "庯渭",
        "railway": "station",
        "id": "node/7150234493"
      },
      "geometry": {
        "type": "Point",
        "coordinates": [
          106.3782061,
          21.4728838
        ]
      }
    },
    {
      "type": "Feature",
      "id": "node/7150236971",
      "properties": {
        "name": "Ga Sông Hóa",
        "name:en": "Song Hoa",
        "railway": "station",
        "id": "node/7150236971"
      },
      "geometry": {
        "type": "Point",
        "coordinates": [
          106.4900142,
          21.5565619
        ]
      }
    },
    {
      "type": "Feature",
      "id": "node/7150247209",
      "properties": {
        "name": "Ga Chi Lăng",
        "name:en": "Chi Lăng railway station",
        "railway": "station",
        "id": "node/7150247209"
      },
      "geometry": {
        "type": "Point",
        "coordinates": [
          106.5351747,
          21.6021084
        ]
      }
    },
    {
      "type": "Feature",
      "id": "node/7150257817",
      "properties": {
        "name": "Ga Đồng Mỏ",
        "name:en": "Dong Mo Railway Station",
        "railway": "station",
        "id": "node/7150257817"
      },
      "geometry": {
        "type": "Point",
        "coordinates": [
          106.5786214,
          21.6527515
        ]
      }
    },
    {
      "type": "Feature",
      "id": "node/7152691339",
      "properties": {
        "name": "Ga Bản Thí",
        "railway": "station",
        "id": "node/7152691339"
      },
      "geometry": {
        "type": "Point",
        "coordinates": [
          106.7320823,
          21.7661485
        ]
      }
    },
    {
      "type": "Feature",
      "id": "node/7152713377",
      "properties": {
        "name": "Ga Bắc Thủy",
        "railway": "station",
        "id": "node/7152713377"
      },
      "geometry": {
        "type": "Point",
        "coordinates": [
          106.6651249,
          21.713606
        ]
      }
    },
    {
      "type": "Feature",
      "id": "node/7152806801",
      "properties": {
        "name": "Ga Cổ Loa",
        "name:en": "Co Loa Railway Station",
        "public_transport": "station",
        "railway": "station",
        "wikidata": "Q54186555",
        "id": "node/7152806801"
      },
      "geometry": {
        "type": "Point",
        "coordinates": [
          105.8734736,
          21.1332911
        ]
      }
    },
    {
      "type": "Feature",
      "id": "node/7152937494",
      "properties": {
        "name": "Voi Xô",
        "name:zh": "㺔趨",
        "public_transport": "stop_position",
        "railway": "stop",
        "train": "yes",
        "id": "node/7152937494"
      },
      "geometry": {
        "type": "Point",
        "coordinates": [
          106.3381664,
          21.4394056
        ]
      }
    },
    {
      "type": "Feature",
      "id": "node/7153073869",
      "properties": {
        "name": "Ga Lưu Xá",
        "railway": "station",
        "id": "node/7153073869"
      },
      "geometry": {
        "type": "Point",
        "coordinates": [
          105.8466944,
          21.5622343
        ]
      }
    },
    {
      "type": "Feature",
      "id": "node/7153112454",
      "properties": {
        "name": "Ga Bảo Sơn",
        "railway": "station",
        "id": "node/7153112454"
      },
      "geometry": {
        "type": "Point",
        "coordinates": [
          106.3172282,
          21.3696409
        ]
      }
    },
    {
      "type": "Feature",
      "id": "node/7153114395",
      "properties": {
        "name": "Ga Quán Triều",
        "railway": "station",
        "id": "node/7153114395"
      },
      "geometry": {
        "type": "Point",
        "coordinates": [
          105.8034572,
          21.6036772
        ]
      }
    },
    {
      "type": "Feature",
      "id": "node/7153114844",
      "properties": {
        "name": "Ga Yên Cư",
        "railway": "station",
        "id": "node/7153114844"
      },
      "geometry": {
        "type": "Point",
        "coordinates": [
          106.9153481,
          20.9840154
        ]
      }
    },
    {
      "type": "Feature",
      "id": "node/7153122541",
      "properties": {
        "name": "Ga Mạo Khê",
        "public_transport": "station",
        "railway": "station",
        "train": "yes",
        "id": "node/7153122541"
      },
      "geometry": {
        "type": "Point",
        "coordinates": [
          106.6036567,
          21.063001
        ]
      }
    },
    {
      "type": "Feature",
      "id": "node/7153164746",
      "properties": {
        "name": "Ga Vĩnh Yên",
        "public_transport": "station",
        "railway": "station",
        "id": "node/7153164746"
      },
      "geometry": {
        "type": "Point",
        "coordinates": [
          105.6013134,
          21.3093999
        ]
      }
    },
    {
      "type": "Feature",
      "id": "node/7153167519",
      "properties": {
        "name": "Ga Phủ Đức",
        "public_transport": "station",
        "railway": "station",
        "id": "node/7153167519"
      },
      "geometry": {
        "type": "Point",
        "coordinates": [
          105.3657286,
          21.3394793
        ]
      }
    },
    {
      "type": "Feature",
      "id": "node/7153174448",
      "properties": {
        "name": "Ga Phủ Lý",
        "name:en": "Phu Ly Train Station",
        "name:zh": "府里",
        "public_transport": "station",
        "railway": "station",
        "wikidata": "Q7188250",
        "wikipedia": "vi:Ga Phủ Lý",
        "id": "node/7153174448"
      },
      "geometry": {
        "type": "Point",
        "coordinates": [
          105.91309,
          20.5405819
        ]
      }
    },
    {
      "type": "Feature",
      "id": "node/7153176034",
      "properties": {
        "name": "Ga Chí Chủ",
        "name:zh": "致主",
        "public_transport": "station",
        "railway": "station",
        "id": "node/7153176034"
      },
      "geometry": {
        "type": "Point",
        "coordinates": [
          105.153,
          21.4297932
        ]
      }
    },
    {
      "type": "Feature",
      "id": "node/7153181570",
      "properties": {
        "name": "Ga Phú Thọ",
        "name:zh": "富壽",
        "public_transport": "station",
        "railway": "station",
        "id": "node/7153181570"
      },
      "geometry": {
        "type": "Point",
        "coordinates": [
          105.2239783,
          21.4023601
        ]
      }
    },
    {
      "type": "Feature",
      "id": "node/7153182342",
      "properties": {
        "name": "Ga Vũ Ẻn",
        "name:zh": "武偃",
        "public_transport": "station",
        "railway": "station",
        "id": "node/7153182342"
      },
      "geometry": {
        "type": "Point",
        "coordinates": [
          105.0859213,
          21.4873483
        ]
      }
    },
    {
      "type": "Feature",
      "id": "node/7153190734",
      "properties": {
        "name": "Ga Ấm Thượng",
        "name:zh": "蔭上",
        "public_transport": "station",
        "railway": "station",
        "id": "node/7153190734"
      },
      "geometry": {
        "type": "Point",
        "coordinates": [
          105.0057449,
          21.5599844
        ]
      }
    },
    {
      "type": "Feature",
      "id": "node/7153457130",
      "properties": {
        "name": "Ga Ninh Hòa",
        "railway": "station",
        "id": "node/7153457130"
      },
      "geometry": {
        "type": "Point",
        "coordinates": [
          109.1238365,
          12.4894951
        ]
      }
    },
    {
      "type": "Feature",
      "id": "node/7153496935",
      "properties": {
        "name": "Ga Núi Thành",
        "railway": "station",
        "id": "node/7153496935"
      },
      "geometry": {
        "type": "Point",
        "coordinates": [
          108.6702261,
          15.4215446
        ]
      }
    },
    {
      "type": "Feature",
      "id": "node/7324224256",
      "properties": {
        "name": "ga Hải Dương",
        "public_transport": "station",
        "railway": "station",
        "train": "yes",
        "id": "node/7324224256"
      },
      "geometry": {
        "type": "Point",
        "coordinates": [
          106.3299217,
          20.9473431
        ]
      }
    },
    {
      "type": "Feature",
      "id": "node/7555189447",
      "properties": {
        "name": "Ga Phong Thạnh",
        "public_transport": "station",
        "railway": "station",
        "train": "yes",
        "id": "node/7555189447"
      },
      "geometry": {
        "type": "Point",
        "coordinates": [
          109.1264253,
          12.43325
        ]
      }
    },
    {
      "type": "Feature",
      "id": "node/7555192875",
      "properties": {
        "name": "Ga Lương Sơn",
        "public_transport": "station",
        "railway": "station",
        "train": "yes",
        "id": "node/7555192875"
      },
      "geometry": {
        "type": "Point",
        "coordinates": [
          109.1947483,
          12.3380229
        ]
      }
    },
    {
      "type": "Feature",
      "id": "node/7619993810",
      "properties": {
        "name": "Ga Huế",
        "name:en": "Hue Train Station",
        "public_transport": "station",
        "railway": "station",
        "train": "yes",
        "id": "node/7619993810"
      },
      "geometry": {
        "type": "Point",
        "coordinates": [
          107.5779643,
          16.4563428
        ]
      }
    },
    {
      "type": "Feature",
      "id": "node/7620011664",
      "properties": {
        "addr:street": "Đường Ngọc Hồi",
        "name": "Ga Văn Điển",
        "name:en": "Van Dien Train Station",
        "name:zh": "文典",
        "public_transport": "station",
        "railway": "station",
        "wikidata": "Q7913293",
        "id": "node/7620011664"
      },
      "geometry": {
        "type": "Point",
        "coordinates": [
          105.8440259,
          20.9442882
        ]
      }
    },
    {
      "type": "Feature",
      "id": "node/7623549556",
      "properties": {
        "name": "Nam Định",
        "name:zh": "南定",
        "public_transport": "stop_position",
        "railway": "stop",
        "train": "yes",
        "id": "node/7623549556"
      },
      "geometry": {
        "type": "Point",
        "coordinates": [
          105.9847164,
          20.2399038
        ]
      }
    },
    {
      "type": "Feature",
      "id": "node/7623549563",
      "properties": {
        "name": "Nam Định",
        "name:zh": "南定",
        "public_transport": "stop_position",
        "railway": "stop",
        "train": "yes",
        "id": "node/7623549563"
      },
      "geometry": {
        "type": "Point",
        "coordinates": [
          105.9845219,
          20.2399702
        ]
      }
    },
    {
      "type": "Feature",
      "id": "node/7790775356",
      "properties": {
        "name": "Ga Chợ Tía",
        "network": "Đường sắt Bắc-Nam",
        "public_transport": "station",
        "railway": "station",
        "train": "yes",
        "wikidata": "Q54887484",
        "wikipedia": "vi:Ga Chợ Tía",
        "id": "node/7790775356"
      },
      "geometry": {
        "type": "Point",
        "coordinates": [
          105.8845267,
          20.8015454
        ]
      }
    },
    {
      "type": "Feature",
      "id": "node/7790775357",
      "properties": {
        "name": "Ga Vạn Điểm",
        "public_transport": "station",
        "railway": "station",
        "train": "yes",
        "wikidata": "Q57307316",
        "id": "node/7790775357"
      },
      "geometry": {
        "type": "Point",
        "coordinates": [
          105.9009193,
          20.7713715
        ]
      }
    },
    {
      "type": "Feature",
      "id": "node/7790775374",
      "properties": {
        "name": "Ga Phú Xuyên",
        "public_transport": "station",
        "railway": "station",
        "train": "yes",
        "wikidata": "Q54887496",
        "id": "node/7790775374"
      },
      "geometry": {
        "type": "Point",
        "coordinates": [
          105.9129798,
          20.7368916
        ]
      }
    },
    {
      "type": "Feature",
      "id": "node/7790892564",
      "properties": {
        "name": "Ga Bình Lục",
        "public_transport": "station",
        "railway": "station",
        "train": "yes",
        "id": "node/7790892564"
      },
      "geometry": {
        "type": "Point",
        "coordinates": [
          105.9969524,
          20.4934849
        ]
      }
    },
    {
      "type": "Feature",
      "id": "node/7790892565",
      "properties": {
        "name": "Ga Cầu Họ",
        "network": "Vietnam Railways",
        "public_transport": "station",
        "railway": "station",
        "train": "yes",
        "id": "node/7790892565"
      },
      "geometry": {
        "type": "Point",
        "coordinates": [
          106.0497594,
          20.4662422
        ]
      }
    },
    {
      "type": "Feature",
      "id": "node/7790892566",
      "properties": {
        "name": "Ga Đặng Xá",
        "public_transport": "station",
        "railway": "station",
        "train": "yes",
        "wikidata": "Q60299835",
        "wikipedia": "vi:Ga Đặng Xá",
        "id": "node/7790892566"
      },
      "geometry": {
        "type": "Point",
        "coordinates": [
          106.118664,
          20.4419309
        ]
      }
    },
    {
      "type": "Feature",
      "id": "node/7790892567",
      "properties": {
        "name": "Ga Núi Gôi",
        "public_transport": "station",
        "railway": "station",
        "train": "yes",
        "wikidata": "Q60325211",
        "wikipedia": "vi:Ga Núi Gôi",
        "id": "node/7790892567"
      },
      "geometry": {
        "type": "Point",
        "coordinates": [
          106.0769274,
          20.3315896
        ]
      }
    },
    {
      "type": "Feature",
      "id": "node/7790892568",
      "properties": {
        "name": "Ga Cát Đằng",
        "network": "Vietnam Railways",
        "public_transport": "station",
        "railway": "station",
        "train": "yes",
        "id": "node/7790892568"
      },
      "geometry": {
        "type": "Point",
        "coordinates": [
          106.0239927,
          20.294188
        ]
      }
    },
    {
      "type": "Feature",
      "id": "node/7790972006",
      "properties": {
        "name": "Ga Đồng Giao",
        "public_transport": "station",
        "railway": "station",
        "train": "yes",
        "id": "node/7790972006"
      },
      "geometry": {
        "type": "Point",
        "coordinates": [
          105.8711123,
          20.1380163
        ]
      }
    },
    {
      "type": "Feature",
      "id": "node/7790972007",
      "properties": {
        "name": "Ga Nghĩa Trang",
        "public_transport": "station",
        "railway": "station",
        "train": "yes",
        "id": "node/7790972007"
      },
      "geometry": {
        "type": "Point",
        "coordinates": [
          105.8135939,
          19.9162265
        ]
      }
    },
    {
      "type": "Feature",
      "id": "node/7791464795",
      "properties": {
        "name": "Ga Thị Long",
        "public_transport": "station",
        "railway": "station",
        "train": "yes",
        "wikidata": "Q60364012",
        "wikipedia": "vi:Ga Thị Long",
        "id": "node/7791464795"
      },
      "geometry": {
        "type": "Point",
        "coordinates": [
          105.709964,
          19.5427315
        ]
      }
    },
    {
      "type": "Feature",
      "id": "node/7791464796",
      "properties": {
        "name": "Ga Khoa Trường",
        "public_transport": "station",
        "railway": "station",
        "train": "yes",
        "wikidata": "Q60364045",
        "wikipedia": "vi:Ga Khoa Trường",
        "id": "node/7791464796"
      },
      "geometry": {
        "type": "Point",
        "coordinates": [
          105.7319504,
          19.3755924
        ]
      }
    },
    {
      "type": "Feature",
      "id": "node/7791620488",
      "properties": {
        "name": "Ga Hoàng Mai",
        "public_transport": "station",
        "railway": "station",
        "train": "yes",
        "id": "node/7791620488"
      },
      "geometry": {
        "type": "Point",
        "coordinates": [
          105.6972795,
          19.268476
        ]
      }
    },
    {
      "type": "Feature",
      "id": "node/7791620493",
      "properties": {
        "name": "Ga Yên Lý",
        "public_transport": "station",
        "railway": "station",
        "train": "yes",
        "id": "node/7791620493"
      },
      "geometry": {
        "type": "Point",
        "coordinates": [
          105.5855576,
          19.0767013
        ]
      }
    },
    {
      "type": "Feature",
      "id": "node/7791620494",
      "properties": {
        "name": "Ga Mỹ Lý",
        "public_transport": "station",
        "railway": "station",
        "train": "yes",
        "id": "node/7791620494"
      },
      "geometry": {
        "type": "Point",
        "coordinates": [
          105.601116,
          18.8997889
        ]
      }
    },
    {
      "type": "Feature",
      "id": "node/7792897579",
      "properties": {
        "name": "Ga Yên Xuân",
        "public_transport": "station",
        "railway": "station",
        "train": "yes",
        "id": "node/7792897579"
      },
      "geometry": {
        "type": "Point",
        "coordinates": [
          105.6196832,
          18.603219
        ]
      }
    },
    {
      "type": "Feature",
      "id": "node/7792969603",
      "properties": {
        "name": "Ga Hải Vân",
        "name:en": "Hai Van Railway Station",
        "public_transport": "station",
        "railway": "station",
        "train": "yes",
        "id": "node/7792969603"
      },
      "geometry": {
        "type": "Point",
        "coordinates": [
          108.1511634,
          16.193829
        ]
      }
    },
    {
      "type": "Feature",
      "id": "node/7792969604",
      "properties": {
        "name": "Ga Hải Vân Nam",
        "public_transport": "station",
        "railway": "station",
        "train": "yes",
        "id": "node/7792969604"
      },
      "geometry": {
        "type": "Point",
        "coordinates": [
          108.1369168,
          16.1706158
        ]
      }
    },
    {
      "type": "Feature",
      "id": "node/7792969605",
      "properties": {
        "addr:city": "Đà Nẵng",
        "addr:district": "Liên Chiểu",
        "addr:housenumber": "236",
        "addr:province": "Đà Nẵng",
        "addr:street": "Đường Nguyễn Văn Cừ",
        "addr:subdistrict": "Hòa Hiệp Nam",
        "name": "Ga Kim Liên",
        "public_transport": "station",
        "railway": "station",
        "train": "yes",
        "id": "node/7792969605"
      },
      "geometry": {
        "type": "Point",
        "coordinates": [
          108.1205673,
          16.1333999
        ]
      }
    },
    {
      "type": "Feature",
      "id": "node/7793289202",
      "properties": {
        "name": "Ga Lệ Kỳ",
        "public_transport": "station",
        "railway": "station",
        "train": "yes",
        "id": "node/7793289202"
      },
      "geometry": {
        "type": "Point",
        "coordinates": [
          106.608116,
          17.405123
        ]
      }
    },
    {
      "type": "Feature",
      "id": "node/7793297860",
      "properties": {
        "name": "Ga Long Đại",
        "public_transport": "station",
        "railway": "station",
        "train": "yes",
        "id": "node/7793297860"
      },
      "geometry": {
        "type": "Point",
        "coordinates": [
          106.6270958,
          17.3192532
        ]
      }
    },
    {
      "type": "Feature",
      "id": "node/7822861835",
      "properties": {
        "name": "Ga Bắc Hồng",
        "public_transport": "station",
        "railway": "station",
        "train": "yes",
        "wikidata": "Q55840782",
        "id": "node/7822861835"
      },
      "geometry": {
        "type": "Point",
        "coordinates": [
          105.7996978,
          21.1717838
        ]
      }
    },
    {
      "type": "Feature",
      "id": "node/7822861836",
      "properties": {
        "name": "Ga Thạch Lỗi",
        "public_transport": "station",
        "railway": "station",
        "train": "yes",
        "wikidata": "Q55843088",
        "id": "node/7822861836"
      },
      "geometry": {
        "type": "Point",
        "coordinates": [
          105.749681,
          21.2010286
        ]
      }
    },
    {
      "type": "Feature",
      "id": "node/7822983841",
      "properties": {
        "name": "Ga Hương Canh",
        "public_transport": "station",
        "railway": "station",
        "train": "yes",
        "id": "node/7822983841"
      },
      "geometry": {
        "type": "Point",
        "coordinates": [
          105.646867,
          21.2813187
        ]
      }
    },
    {
      "type": "Feature",
      "id": "node/7822983842",
      "properties": {
        "name": "Ga Hướng Lại",
        "public_transport": "station",
        "railway": "station",
        "train": "yes",
        "id": "node/7822983842"
      },
      "geometry": {
        "type": "Point",
        "coordinates": [
          105.5192944,
          21.2916801
        ]
      }
    },
    {
      "type": "Feature",
      "id": "node/7822983843",
      "properties": {
        "name": "Ga Bạch Hạc",
        "public_transport": "station",
        "railway": "station",
        "train": "yes",
        "id": "node/7822983843"
      },
      "geometry": {
        "type": "Point",
        "coordinates": [
          105.463572,
          21.290603
        ]
      }
    },
    {
      "type": "Feature",
      "id": "node/7822997440",
      "properties": {
        "name": "Ga Văn Phú",
        "public_transport": "station",
        "railway": "station",
        "train": "yes",
        "id": "node/7822997440"
      },
      "geometry": {
        "type": "Point",
        "coordinates": [
          104.9278403,
          21.6785851
        ]
      }
    },
    {
      "type": "Feature",
      "id": "node/7822997441",
      "properties": {
        "name": "Ga Cổ Phúc",
        "public_transport": "station",
        "railway": "station",
        "train": "yes",
        "id": "node/7822997441"
      },
      "geometry": {
        "type": "Point",
        "coordinates": [
          104.830703,
          21.7611902
        ]
      }
    },
    {
      "type": "Feature",
      "id": "node/7872464353",
      "properties": {
        "name": "Ga Mỹ Trạch",
        "public_transport": "station",
        "railway": "station",
        "train": "yes",
        "id": "node/7872464353"
      },
      "geometry": {
        "type": "Point",
        "coordinates": [
          106.8062527,
          17.1868555
        ]
      }
    },
    {
      "type": "Feature",
      "id": "node/8280839245",
      "properties": {
        "name": "Ga Hà Đông",
        "public_transport": "station",
        "railway": "station",
        "train": "yes",
        "wikidata": "Q60363948",
        "wikipedia": "vi:Ga Hà Đông",
        "id": "node/8280839245"
      },
      "geometry": {
        "type": "Point",
        "coordinates": [
          105.7603422,
          20.9528886
        ]
      }
    },
    {
      "type": "Feature",
      "id": "node/8847133070",
      "properties": {
        "name": "Ga Lang Khay",
        "public_transport": "station",
        "railway": "station",
        "train": "yes",
        "id": "node/8847133070"
      },
      "geometry": {
        "type": "Point",
        "coordinates": [
          104.4759128,
          22.0690381
        ]
      }
    },
    {
      "type": "Feature",
      "id": "node/8847133089",
      "properties": {
        "name": "Ga Mậu A",
        "public_transport": "station",
        "railway": "station",
        "train": "yes",
        "id": "node/8847133089"
      },
      "geometry": {
        "type": "Point",
        "coordinates": [
          104.694704,
          21.8779302
        ]
      }
    },
    {
      "type": "Feature",
      "id": "node/9150407283",
      "properties": {
        "name": "Ga Phúc Tự",
        "name:en": "Phuc Tu Stations",
        "public_transport": "station",
        "railway": "station",
        "train": "yes",
        "id": "node/9150407283"
      },
      "geometry": {
        "type": "Point",
        "coordinates": [
          106.5433044,
          17.5519307
        ]
      }
    }
  ]
}